<?xml version="1.0" encoding="UTF-8"?>
<gpx version="1.1" creator="Apple Health Export" xmlns="http://www.topografix.com/GPX/1/1" xmlns:xsi="http://www.w3.org/2001/XMLSchema-instance" xsi:schemaLocation="http://www.topografix.com/GPX/1/1 http://www.topografix.com/GPX/1/1/gpx.xsd">
  <metadata>
    <time>2026-04-04T03:22:01Z</time>
  </metadata>
  <trk>
    <name>Route 2026-03-07 1:18pm</name>
    <trkseg>
      <trkpt lon="121.343810" lat="31.232416"><ele>4.624470</ele><time>2026-03-07T05:12:02Z</time><extensions><speed>0.033344</speed><course>295.880686</course><hAcc>1.530445</hAcc><vAcc>1.333110</vAcc></extensions></trkpt>
      <trkpt lon="121.343809" lat="31.232420"><ele>4.625486</ele><time>2026-03-07T05:12:03Z</time><extensions><speed>0.915979</speed><course>352.041220</course><hAcc>1.478390</hAcc><vAcc>1.180687</vAcc></extensions></trkpt>
      <trkpt lon="121.343811" lat="31.232428"><ele>4.625951</ele><time>2026-03-07T05:12:04Z</time><extensions><speed>0.926711</speed><course>31.106239</course><hAcc>1.417844</hAcc><vAcc>1.058392</vAcc></extensions></trkpt>
      <trkpt lon="121.343812" lat="31.232436"><ele>4.625272</ele><time>2026-03-07T05:12:05Z</time><extensions><speed>1.066390</speed><course>351.809565</course><hAcc>1.385083</hAcc><vAcc>0.967155</vAcc></extensions></trkpt>
      <trkpt lon="121.343812" lat="31.232446"><ele>4.622100</ele><time>2026-03-07T05:12:06Z</time><extensions><speed>1.122987</speed><course>359.213407</course><hAcc>1.383733</hAcc><vAcc>0.906982</vAcc></extensions></trkpt>
      <trkpt lon="121.343813" lat="31.232455"><ele>4.614387</ele><time>2026-03-07T05:12:07Z</time><extensions><speed>0.979810</speed><course>16.134802</course><hAcc>1.405964</hAcc><vAcc>0.876659</vAcc></extensions></trkpt>
      <trkpt lon="121.343821" lat="31.232463"><ele>4.592079</ele><time>2026-03-07T05:12:08Z</time><extensions><speed>0.800602</speed><course>73.885710</course><hAcc>1.471010</hAcc><vAcc>0.871073</vAcc></extensions></trkpt>
      <trkpt lon="121.343830" lat="31.232464"><ele>4.572512</ele><time>2026-03-07T05:12:09Z</time><extensions><speed>0.899305</speed><course>82.085209</course><hAcc>1.536412</hAcc><vAcc>0.885611</vAcc></extensions></trkpt>
      <trkpt lon="121.343839" lat="31.232465"><ele>4.554507</ele><time>2026-03-07T05:12:10Z</time><extensions><speed>0.869949</speed><course>82.278317</course><hAcc>1.594104</hAcc><vAcc>0.913856</vAcc></extensions></trkpt>
      <trkpt lon="121.343847" lat="31.232467"><ele>4.540704</ele><time>2026-03-07T05:12:11Z</time><extensions><speed>0.734091</speed><course>68.120690</course><hAcc>1.638707</hAcc><vAcc>0.952195</vAcc></extensions></trkpt>
      <trkpt lon="121.343850" lat="31.232472"><ele>4.533079</ele><time>2026-03-07T05:12:12Z</time><extensions><speed>0.762242</speed><course>356.866998</course><hAcc>1.682674</hAcc><vAcc>0.997906</vAcc></extensions></trkpt>
      <trkpt lon="121.343847" lat="31.232479"><ele>4.533265</ele><time>2026-03-07T05:12:13Z</time><extensions><speed>0.952184</speed><course>324.263482</course><hAcc>1.736819</hAcc><vAcc>1.048972</vAcc></extensions></trkpt>
      <trkpt lon="121.343841" lat="31.232486"><ele>4.542307</ele><time>2026-03-07T05:12:14Z</time><extensions><speed>1.075582</speed><course>330.496814</course><hAcc>1.777797</hAcc><vAcc>1.103807</vAcc></extensions></trkpt>
      <trkpt lon="121.343836" lat="31.232495"><ele>4.560667</ele><time>2026-03-07T05:12:15Z</time><extensions><speed>1.136956</speed><course>333.287418</course><hAcc>1.796663</hAcc><vAcc>1.161025</vAcc></extensions></trkpt>
      <trkpt lon="121.343831" lat="31.232505"><ele>4.588263</ele><time>2026-03-07T05:12:16Z</time><extensions><speed>1.247140</speed><course>336.422783</course><hAcc>1.819042</hAcc><vAcc>1.219235</vAcc></extensions></trkpt>
      <trkpt lon="121.343825" lat="31.232516"><ele>4.624243</ele><time>2026-03-07T05:12:17Z</time><extensions><speed>1.331072</speed><course>336.828233</course><hAcc>1.863842</hAcc><vAcc>1.277100</vAcc></extensions></trkpt>
      <trkpt lon="121.343819" lat="31.232527"><ele>4.668744</ele><time>2026-03-07T05:12:18Z</time><extensions><speed>1.433428</speed><course>330.674606</course><hAcc>1.923120</hAcc><vAcc>1.333406</vAcc></extensions></trkpt>
      <trkpt lon="121.343811" lat="31.232538"><ele>4.721360</ele><time>2026-03-07T05:12:19Z</time><extensions><speed>1.480743</speed><course>326.116019</course><hAcc>1.991077</hAcc><vAcc>1.387281</vAcc></extensions></trkpt>
      <trkpt lon="121.343803" lat="31.232549"><ele>4.781670</ele><time>2026-03-07T05:12:20Z</time><extensions><speed>1.489318</speed><course>332.126976</course><hAcc>2.058881</hAcc><vAcc>1.438092</vAcc></extensions></trkpt>
      <trkpt lon="121.343797" lat="31.232561"><ele>4.849293</ele><time>2026-03-07T05:12:21Z</time><extensions><speed>1.458488</speed><course>338.408099</course><hAcc>2.121730</hAcc><vAcc>1.485387</vAcc></extensions></trkpt>
      <trkpt lon="121.343792" lat="31.232573"><ele>4.923727</ele><time>2026-03-07T05:12:22Z</time><extensions><speed>1.377386</speed><course>345.871351</course><hAcc>2.178598</hAcc><vAcc>1.528853</vAcc></extensions></trkpt>
      <trkpt lon="121.343790" lat="31.232585"><ele>5.004631</ele><time>2026-03-07T05:12:23Z</time><extensions><speed>1.210701</speed><course>353.651117</course><hAcc>2.226841</hAcc><vAcc>1.568280</vAcc></extensions></trkpt>
      <trkpt lon="121.343788" lat="31.232595"><ele>5.091599</ele><time>2026-03-07T05:12:24Z</time><extensions><speed>1.133029</speed><course>351.368798</course><hAcc>2.261071</hAcc><vAcc>1.603536</vAcc></extensions></trkpt>
      <trkpt lon="121.343786" lat="31.232605"><ele>5.184062</ele><time>2026-03-07T05:12:25Z</time><extensions><speed>1.028741</speed><course>347.168758</course><hAcc>2.284345</hAcc><vAcc>1.634543</vAcc></extensions></trkpt>
      <trkpt lon="121.343783" lat="31.232613"><ele>5.281575</ele><time>2026-03-07T05:12:26Z</time><extensions><speed>0.975004</speed><course>345.407401</course><hAcc>2.300464</hAcc><vAcc>1.661261</vAcc></extensions></trkpt>
      <trkpt lon="121.343781" lat="31.232622"><ele>5.383664</ele><time>2026-03-07T05:12:27Z</time><extensions><speed>0.938768</speed><course>341.244335</course><hAcc>2.311906</hAcc><vAcc>1.683675</vAcc></extensions></trkpt>
      <trkpt lon="121.343777" lat="31.232629"><ele>5.489597</ele><time>2026-03-07T05:12:28Z</time><extensions><speed>0.893223</speed><course>331.898710</course><hAcc>2.320093</hAcc><vAcc>1.701776</vAcc></extensions></trkpt>
      <trkpt lon="121.343773" lat="31.232637"><ele>5.598913</ele><time>2026-03-07T05:12:29Z</time><extensions><speed>1.022198</speed><course>345.248392</course><hAcc>2.325711</hAcc><vAcc>1.715555</vAcc></extensions></trkpt>
      <trkpt lon="121.343771" lat="31.232647"><ele>5.709258</ele><time>2026-03-07T05:12:30Z</time><extensions><speed>1.124030</speed><course>351.001908</course><hAcc>2.328724</hAcc><vAcc>1.724985</vAcc></extensions></trkpt>
      <trkpt lon="121.343769" lat="31.232657"><ele>5.821270</ele><time>2026-03-07T05:12:31Z</time><extensions><speed>1.214262</speed><course>354.651060</course><hAcc>2.328038</hAcc><vAcc>1.730020</vAcc></extensions></trkpt>
      <trkpt lon="121.343768" lat="31.232668"><ele>5.934881</ele><time>2026-03-07T05:12:32Z</time><extensions><speed>1.304799</speed><course>357.616621</course><hAcc>2.320654</hAcc><vAcc>1.730585</vAcc></extensions></trkpt>
      <trkpt lon="121.343768" lat="31.232680"><ele>6.048566</ele><time>2026-03-07T05:12:33Z</time><extensions><speed>1.362909</speed><course>1.984720</course><hAcc>2.300218</hAcc><vAcc>1.726568</vAcc></extensions></trkpt>
      <trkpt lon="121.343769" lat="31.232693"><ele>6.161275</ele><time>2026-03-07T05:12:34Z</time><extensions><speed>1.416507</speed><course>2.208809</course><hAcc>2.256007</hAcc><vAcc>1.717812</vAcc></extensions></trkpt>
      <trkpt lon="121.343770" lat="31.232706"><ele>6.271788</ele><time>2026-03-07T05:12:35Z</time><extensions><speed>1.501668</speed><course>3.818209</course><hAcc>2.180112</hAcc><vAcc>1.704113</vAcc></extensions></trkpt>
      <trkpt lon="121.343771" lat="31.232720"><ele>6.379382</ele><time>2026-03-07T05:12:36Z</time><extensions><speed>1.568703</speed><course>4.060586</course><hAcc>2.098920</hAcc><vAcc>1.685239</vAcc></extensions></trkpt>
      <trkpt lon="121.343772" lat="31.232734"><ele>6.482706</ele><time>2026-03-07T05:12:37Z</time><extensions><speed>1.597350</speed><course>3.786667</course><hAcc>2.033398</hAcc><vAcc>1.660960</vAcc></extensions></trkpt>
      <trkpt lon="121.343773" lat="31.232748"><ele>6.581542</ele><time>2026-03-07T05:12:38Z</time><extensions><speed>1.588565</speed><course>2.955742</course><hAcc>1.984800</hAcc><vAcc>1.631069</vAcc></extensions></trkpt>
      <trkpt lon="121.343774" lat="31.232762"><ele>6.673503</ele><time>2026-03-07T05:12:39Z</time><extensions><speed>1.569833</speed><course>1.180933</course><hAcc>1.936414</hAcc><vAcc>1.595394</vAcc></extensions></trkpt>
      <trkpt lon="121.343774" lat="31.232777"><ele>6.758892</ele><time>2026-03-07T05:12:40Z</time><extensions><speed>1.584998</speed><course>359.521332</course><hAcc>1.887209</hAcc><vAcc>1.553817</vAcc></extensions></trkpt>
      <trkpt lon="121.343773" lat="31.232791"><ele>6.837971</ele><time>2026-03-07T05:12:41Z</time><extensions><speed>1.699946</speed><course>356.882762</course><hAcc>1.844336</hAcc><vAcc>1.506288</vAcc></extensions></trkpt>
      <trkpt lon="121.343772" lat="31.232807"><ele>6.910393</ele><time>2026-03-07T05:12:42Z</time><extensions><speed>1.759005</speed><course>355.263722</course><hAcc>1.813118</hAcc><vAcc>1.452839</vAcc></extensions></trkpt>
      <trkpt lon="121.343770" lat="31.232823"><ele>6.976488</ele><time>2026-03-07T05:12:43Z</time><extensions><speed>1.758573</speed><course>353.564072</course><hAcc>1.789120</hAcc><vAcc>1.393605</vAcc></extensions></trkpt>
      <trkpt lon="121.343768" lat="31.232838"><ele>7.035275</ele><time>2026-03-07T05:12:44Z</time><extensions><speed>1.743849</speed><course>351.225203</course><hAcc>1.765062</hAcc><vAcc>1.328846</vAcc></extensions></trkpt>
      <trkpt lon="121.343765" lat="31.232854"><ele>7.087959</ele><time>2026-03-07T05:12:45Z</time><extensions><speed>1.715764</speed><course>349.969163</course><hAcc>1.740134</hAcc><vAcc>1.258989</vAcc></extensions></trkpt>
      <trkpt lon="121.343762" lat="31.232869"><ele>7.132791</ele><time>2026-03-07T05:12:46Z</time><extensions><speed>1.661101</speed><course>351.719927</course><hAcc>1.717940</hAcc><vAcc>1.184667</vAcc></extensions></trkpt>
      <trkpt lon="121.343760" lat="31.232883"><ele>7.171987</ele><time>2026-03-07T05:12:47Z</time><extensions><speed>1.540796</speed><course>352.816780</course><hAcc>1.702434</hAcc><vAcc>1.106783</vAcc></extensions></trkpt>
      <trkpt lon="121.343758" lat="31.232896"><ele>7.205325</ele><time>2026-03-07T05:12:48Z</time><extensions><speed>1.362305</speed><course>355.266227</course><hAcc>1.695173</hAcc><vAcc>1.026588</vAcc></extensions></trkpt>
      <trkpt lon="121.343757" lat="31.232907"><ele>7.234641</ele><time>2026-03-07T05:12:49Z</time><extensions><speed>1.209796</speed><course>355.762441</course><hAcc>1.687964</hAcc><vAcc>0.945764</vAcc></extensions></trkpt>
      <trkpt lon="121.343756" lat="31.232918"><ele>7.259873</ele><time>2026-03-07T05:12:50Z</time><extensions><speed>1.151991</speed><course>356.087752</course><hAcc>1.677633</hAcc><vAcc>0.866232</vAcc></extensions></trkpt>
      <trkpt lon="121.343756" lat="31.232925"><ele>7.274872</ele><time>2026-03-07T05:12:51Z</time><extensions><speed>1.184556</speed><course>356.985859</course><hAcc>1.676335</hAcc><vAcc>0.817563</vAcc></extensions></trkpt>
      <trkpt lon="121.343756" lat="31.232936"><ele>7.297547</ele><time>2026-03-07T05:12:52Z</time><extensions><speed>1.268534</speed><course>1.651230</course><hAcc>1.683216</hAcc><vAcc>0.751486</vAcc></extensions></trkpt>
      <trkpt lon="121.343756" lat="31.232947"><ele>7.319885</ele><time>2026-03-07T05:12:53Z</time><extensions><speed>1.275965</speed><course>4.989171</course><hAcc>1.691018</hAcc><vAcc>0.695066</vAcc></extensions></trkpt>
      <trkpt lon="121.343757" lat="31.232958"><ele>7.343562</ele><time>2026-03-07T05:12:54Z</time><extensions><speed>1.185740</speed><course>0.838754</course><hAcc>1.699786</hAcc><vAcc>0.649591</vAcc></extensions></trkpt>
      <trkpt lon="121.343757" lat="31.232968"><ele>7.370133</ele><time>2026-03-07T05:12:55Z</time><extensions><speed>1.038084</speed><course>355.421620</course><hAcc>1.704072</hAcc><vAcc>0.615137</vAcc></extensions></trkpt>
      <trkpt lon="121.343756" lat="31.232978"><ele>7.400492</ele><time>2026-03-07T05:12:56Z</time><extensions><speed>0.991184</speed><course>356.430781</course><hAcc>1.706261</hAcc><vAcc>0.590905</vAcc></extensions></trkpt>
      <trkpt lon="121.343754" lat="31.232987"><ele>7.435402</ele><time>2026-03-07T05:12:57Z</time><extensions><speed>1.174365</speed><course>349.037952</course><hAcc>1.704883</hAcc><vAcc>0.575683</vAcc></extensions></trkpt>
      <trkpt lon="121.343751" lat="31.232998"><ele>7.476173</ele><time>2026-03-07T05:12:58Z</time><extensions><speed>1.349697</speed><course>344.452909</course><hAcc>1.708559</hAcc><vAcc>0.568347</vAcc></extensions></trkpt>
      <trkpt lon="121.343747" lat="31.233010"><ele>7.523785</ele><time>2026-03-07T05:12:59Z</time><extensions><speed>1.329208</speed><course>341.470406</course><hAcc>1.723904</hAcc><vAcc>0.568270</vAcc></extensions></trkpt>
      <trkpt lon="121.343743" lat="31.233021"><ele>7.579379</ele><time>2026-03-07T05:13:00Z</time><extensions><speed>1.198842</speed><course>340.981209</course><hAcc>1.744827</hAcc><vAcc>0.575557</vAcc></extensions></trkpt>
      <trkpt lon="121.343740" lat="31.233030"><ele>7.644081</ele><time>2026-03-07T05:13:01Z</time><extensions><speed>1.015785</speed><course>348.054819</course><hAcc>1.760604</hAcc><vAcc>0.591061</vAcc></extensions></trkpt>
      <trkpt lon="121.343738" lat="31.233039"><ele>7.719119</ele><time>2026-03-07T05:13:02Z</time><extensions><speed>1.036537</speed><course>352.746707</course><hAcc>1.776645</hAcc><vAcc>0.616181</vAcc></extensions></trkpt>
      <trkpt lon="121.343737" lat="31.233049"><ele>7.805654</ele><time>2026-03-07T05:13:03Z</time><extensions><speed>1.183893</speed><course>356.230618</course><hAcc>1.804435</hAcc><vAcc>0.652452</vAcc></extensions></trkpt>
      <trkpt lon="121.343737" lat="31.233060"><ele>7.904679</ele><time>2026-03-07T05:13:04Z</time><extensions><speed>1.244170</speed><course>3.275474</course><hAcc>1.847744</hAcc><vAcc>0.701033</vAcc></extensions></trkpt>
      <trkpt lon="121.343737" lat="31.233071"><ele>8.016963</ele><time>2026-03-07T05:13:05Z</time><extensions><speed>1.181916</speed><course>1.069288</course><hAcc>1.902195</hAcc><vAcc>0.762213</vAcc></extensions></trkpt>
      <trkpt lon="121.343737" lat="31.233081"><ele>8.142397</ele><time>2026-03-07T05:13:06Z</time><extensions><speed>1.097875</speed><course>352.852727</course><hAcc>1.959648</hAcc><vAcc>0.835063</vAcc></extensions></trkpt>
      <trkpt lon="121.343734" lat="31.233093"><ele>8.324324</ele><time>2026-03-07T05:13:07Z</time><extensions><speed>0.969518</speed><course>341.960970</course><hAcc>2.023938</hAcc><vAcc>0.938137</vAcc></extensions></trkpt>
      <trkpt lon="121.343730" lat="31.233101"><ele>8.478525</ele><time>2026-03-07T05:13:08Z</time><extensions><speed>0.950947</speed><course>337.077488</course><hAcc>2.068135</hAcc><vAcc>1.021983</vAcc></extensions></trkpt>
      <trkpt lon="121.343726" lat="31.233109"><ele>8.640611</ele><time>2026-03-07T05:13:09Z</time><extensions><speed>0.947915</speed><course>333.745290</course><hAcc>2.111380</hAcc><vAcc>1.108159</vAcc></extensions></trkpt>
      <trkpt lon="121.343722" lat="31.233116"><ele>8.808731</ele><time>2026-03-07T05:13:10Z</time><extensions><speed>0.951673</speed><course>331.956172</course><hAcc>2.149322</hAcc><vAcc>1.194078</vAcc></extensions></trkpt>
      <trkpt lon="121.343717" lat="31.233124"><ele>8.981878</ele><time>2026-03-07T05:13:11Z</time><extensions><speed>0.973471</speed><course>331.722217</course><hAcc>2.180855</hAcc><vAcc>1.277917</vAcc></extensions></trkpt>
      <trkpt lon="121.343712" lat="31.233132"><ele>9.158216</ele><time>2026-03-07T05:13:12Z</time><extensions><speed>0.996556</speed><course>332.827596</course><hAcc>2.204839</hAcc><vAcc>1.358424</vAcc></extensions></trkpt>
      <trkpt lon="121.343708" lat="31.233140"><ele>9.336669</ele><time>2026-03-07T05:13:13Z</time><extensions><speed>1.002451</speed><course>336.734390</course><hAcc>2.219088</hAcc><vAcc>1.434763</vAcc></extensions></trkpt>
      <trkpt lon="121.343704" lat="31.233149"><ele>9.516104</ele><time>2026-03-07T05:13:14Z</time><extensions><speed>1.004550</speed><course>344.174744</course><hAcc>2.219039</hAcc><vAcc>1.506404</vAcc></extensions></trkpt>
      <trkpt lon="121.343702" lat="31.233158"><ele>9.695469</ele><time>2026-03-07T05:13:15Z</time><extensions><speed>1.050743</speed><course>350.402969</course><hAcc>2.201178</hAcc><vAcc>1.573040</vAcc></extensions></trkpt>
      <trkpt lon="121.343700" lat="31.233167"><ele>9.873615</ele><time>2026-03-07T05:13:16Z</time><extensions><speed>1.142264</speed><course>354.181380</course><hAcc>2.183314</hAcc><vAcc>1.634539</vAcc></extensions></trkpt>
      <trkpt lon="121.343699" lat="31.233178"><ele>10.049500</ele><time>2026-03-07T05:13:17Z</time><extensions><speed>1.279454</speed><course>355.820702</course><hAcc>2.171901</hAcc><vAcc>1.690893</vAcc></extensions></trkpt>
      <trkpt lon="121.343698" lat="31.233191"><ele>10.222385</ele><time>2026-03-07T05:13:18Z</time><extensions><speed>1.499629</speed><course>351.467742</course><hAcc>2.161170</hAcc><vAcc>1.742188</vAcc></extensions></trkpt>
      <trkpt lon="121.343696" lat="31.233204"><ele>10.391487</ele><time>2026-03-07T05:13:19Z</time><extensions><speed>1.539261</speed><course>357.261243</course><hAcc>2.155997</hAcc><vAcc>1.788576</vAcc></extensions></trkpt>
      <trkpt lon="121.343695" lat="31.233218"><ele>10.555941</ele><time>2026-03-07T05:13:20Z</time><extensions><speed>1.515803</speed><course>357.992036</course><hAcc>2.148822</hAcc><vAcc>1.830255</vAcc></extensions></trkpt>
      <trkpt lon="121.343695" lat="31.233231"><ele>10.714727</ele><time>2026-03-07T05:13:21Z</time><extensions><speed>1.407564</speed><course>356.977108</course><hAcc>2.132490</hAcc><vAcc>1.867462</vAcc></extensions></trkpt>
      <trkpt lon="121.343694" lat="31.233243"><ele>10.867298</ele><time>2026-03-07T05:13:22Z</time><extensions><speed>1.308304</speed><course>357.887613</course><hAcc>2.097947</hAcc><vAcc>1.900457</vAcc></extensions></trkpt>
      <trkpt lon="121.343694" lat="31.233255"><ele>11.012824</ele><time>2026-03-07T05:13:23Z</time><extensions><speed>1.308666</speed><course>0.590106</course><hAcc>2.056636</hAcc><vAcc>1.929516</vAcc></extensions></trkpt>
      <trkpt lon="121.343694" lat="31.233267"><ele>11.150970</ele><time>2026-03-07T05:13:24Z</time><extensions><speed>1.351260</speed><course>1.960714</course><hAcc>2.040119</hAcc><vAcc>1.954927</vAcc></extensions></trkpt>
      <trkpt lon="121.343695" lat="31.233279"><ele>11.281169</ele><time>2026-03-07T05:13:25Z</time><extensions><speed>1.410044</speed><course>2.891162</course><hAcc>2.052384</hAcc><vAcc>1.976987</vAcc></extensions></trkpt>
      <trkpt lon="121.343696" lat="31.233293"><ele>11.402509</ele><time>2026-03-07T05:13:26Z</time><extensions><speed>1.586225</speed><course>2.841104</course><hAcc>2.085493</hAcc><vAcc>1.995989</vAcc></extensions></trkpt>
      <trkpt lon="121.343697" lat="31.233308"><ele>11.515386</ele><time>2026-03-07T05:13:27Z</time><extensions><speed>1.754655</speed><course>3.311418</course><hAcc>2.138272</hAcc><vAcc>2.012228</vAcc></extensions></trkpt>
      <trkpt lon="121.343697" lat="31.233324"><ele>11.619465</ele><time>2026-03-07T05:13:28Z</time><extensions><speed>1.858168</speed><course>2.692472</course><hAcc>2.206387</hAcc><vAcc>2.026000</vAcc></extensions></trkpt>
      <trkpt lon="121.343698" lat="31.233341"><ele>11.714325</ele><time>2026-03-07T05:13:29Z</time><extensions><speed>1.909941</speed><course>2.535931</course><hAcc>2.280305</hAcc><vAcc>2.037608</vAcc></extensions></trkpt>
      <trkpt lon="121.343699" lat="31.233359"><ele>11.800877</ele><time>2026-03-07T05:13:30Z</time><extensions><speed>2.073932</speed><course>1.520343</course><hAcc>2.349998</hAcc><vAcc>2.047355</vAcc></extensions></trkpt>
      <trkpt lon="121.343700" lat="31.233378"><ele>11.878671</ele><time>2026-03-07T05:13:31Z</time><extensions><speed>2.182545</speed><course>1.285536</course><hAcc>2.422968</hAcc><vAcc>2.055545</vAcc></extensions></trkpt>
      <trkpt lon="121.343700" lat="31.233398"><ele>11.948194</ele><time>2026-03-07T05:13:32Z</time><extensions><speed>2.273653</speed><course>0.752779</course><hAcc>2.502340</hAcc><vAcc>2.062469</vAcc></extensions></trkpt>
      <trkpt lon="121.343700" lat="31.233419"><ele>12.008575</ele><time>2026-03-07T05:13:33Z</time><extensions><speed>2.315296</speed><course>0.524950</course><hAcc>2.585789</hAcc><vAcc>2.068400</vAcc></extensions></trkpt>
      <trkpt lon="121.343700" lat="31.233440"><ele>12.061679</ele><time>2026-03-07T05:13:34Z</time><extensions><speed>2.284829</speed><course>0.238752</course><hAcc>2.668434</hAcc><vAcc>2.073587</vAcc></extensions></trkpt>
      <trkpt lon="121.343701" lat="31.233460"><ele>12.107276</ele><time>2026-03-07T05:13:35Z</time><extensions><speed>2.203416</speed><course>1.184598</course><hAcc>2.746191</hAcc><vAcc>2.078253</vAcc></extensions></trkpt>
      <trkpt lon="121.343701" lat="31.233479"><ele>12.145975</ele><time>2026-03-07T05:13:36Z</time><extensions><speed>2.161884</speed><course>0.944640</course><hAcc>2.814646</hAcc><vAcc>2.082589</vAcc></extensions></trkpt>
      <trkpt lon="121.343701" lat="31.233499"><ele>12.178646</ele><time>2026-03-07T05:13:37Z</time><extensions><speed>2.118850</speed><course>359.276449</course><hAcc>2.881081</hAcc><vAcc>2.086758</vAcc></extensions></trkpt>
      <trkpt lon="121.343701" lat="31.233517"><ele>12.205170</ele><time>2026-03-07T05:13:38Z</time><extensions><speed>2.012648</speed><course>358.643838</course><hAcc>2.948153</hAcc><vAcc>2.090887</vAcc></extensions></trkpt>
      <trkpt lon="121.343700" lat="31.233535"><ele>12.226048</ele><time>2026-03-07T05:13:39Z</time><extensions><speed>1.919835</speed><course>358.354558</course><hAcc>3.009633</hAcc><vAcc>2.095069</vAcc></extensions></trkpt>
      <trkpt lon="121.343700" lat="31.233552"><ele>12.241861</ele><time>2026-03-07T05:13:40Z</time><extensions><speed>1.844149</speed><course>358.362899</course><hAcc>3.064396</hAcc><vAcc>2.099363</vAcc></extensions></trkpt>
      <trkpt lon="121.343699" lat="31.233568"><ele>12.253436</ele><time>2026-03-07T05:13:41Z</time><extensions><speed>1.751354</speed><course>358.006363</course><hAcc>3.116276</hAcc><vAcc>2.103799</vAcc></extensions></trkpt>
      <trkpt lon="121.343699" lat="31.233583"><ele>12.260954</ele><time>2026-03-07T05:13:42Z</time><extensions><speed>1.598879</speed><course>358.050718</course><hAcc>3.164621</hAcc><vAcc>2.108380</vAcc></extensions></trkpt>
      <trkpt lon="121.343699" lat="31.233596"><ele>12.264331</ele><time>2026-03-07T05:13:43Z</time><extensions><speed>1.348437</speed><course>1.957830</course><hAcc>3.210396</hAcc><vAcc>2.113092</vAcc></extensions></trkpt>
      <trkpt lon="121.343700" lat="31.233607"><ele>12.264100</ele><time>2026-03-07T05:13:44Z</time><extensions><speed>1.107175</speed><course>11.348834</course><hAcc>3.252293</hAcc><vAcc>2.117898</vAcc></extensions></trkpt>
      <trkpt lon="121.343703" lat="31.233616"><ele>12.260472</ele><time>2026-03-07T05:13:45Z</time><extensions><speed>0.964024</speed><course>26.202972</course><hAcc>3.296452</hAcc><vAcc>2.122751</vAcc></extensions></trkpt>
      <trkpt lon="121.343708" lat="31.233623"><ele>12.253747</ele><time>2026-03-07T05:13:46Z</time><extensions><speed>0.891260</speed><course>32.232568</course><hAcc>3.336823</hAcc><vAcc>2.127594</vAcc></extensions></trkpt>
      <trkpt lon="121.343713" lat="31.233630"><ele>12.195583</ele><time>2026-03-07T05:13:47Z</time><extensions><speed>0.796309</speed><course>34.416592</course><hAcc>3.373371</hAcc><vAcc>2.131659</vAcc></extensions></trkpt>
      <trkpt lon="121.343718" lat="31.233635"><ele>12.171776</ele><time>2026-03-07T05:13:48Z</time><extensions><speed>0.721296</speed><course>36.716651</course><hAcc>3.411914</hAcc><vAcc>2.136012</vAcc></extensions></trkpt>
      <trkpt lon="121.343722" lat="31.233640"><ele>12.144631</ele><time>2026-03-07T05:13:49Z</time><extensions><speed>0.641680</speed><course>39.760884</course><hAcc>3.452477</hAcc><vAcc>2.140142</vAcc></extensions></trkpt>
      <trkpt lon="121.343727" lat="31.233644"><ele>12.114327</ele><time>2026-03-07T05:13:50Z</time><extensions><speed>0.617953</speed><course>46.428390</course><hAcc>3.492642</hAcc><vAcc>2.144028</vAcc></extensions></trkpt>
      <trkpt lon="121.343731" lat="31.233648"><ele>12.081038</ele><time>2026-03-07T05:13:51Z</time><extensions><speed>0.566936</speed><course>50.856850</course><hAcc>3.530896</hAcc><vAcc>2.147675</vAcc></extensions></trkpt>
      <trkpt lon="121.343736" lat="31.233651"><ele>12.044773</ele><time>2026-03-07T05:13:52Z</time><extensions><speed>0.568659</speed><course>53.137827</course><hAcc>3.557574</hAcc><vAcc>2.151107</vAcc></extensions></trkpt>
      <trkpt lon="121.343741" lat="31.233654"><ele>12.005744</ele><time>2026-03-07T05:13:53Z</time><extensions><speed>0.599122</speed><course>54.580010</course><hAcc>3.581979</hAcc><vAcc>2.154372</vAcc></extensions></trkpt>
      <trkpt lon="121.343746" lat="31.233657"><ele>11.964332</ele><time>2026-03-07T05:13:54Z</time><extensions><speed>0.643334</speed><course>55.325672</course><hAcc>3.608280</hAcc><vAcc>2.157523</vAcc></extensions></trkpt>
      <trkpt lon="121.343752" lat="31.233661"><ele>11.920455</ele><time>2026-03-07T05:13:55Z</time><extensions><speed>0.717413</speed><course>55.869583</course><hAcc>3.635274</hAcc><vAcc>2.160621</vAcc></extensions></trkpt>
      <trkpt lon="121.343759" lat="31.233665"><ele>11.874217</ele><time>2026-03-07T05:13:56Z</time><extensions><speed>0.759246</speed><course>55.639361</course><hAcc>3.661068</hAcc><vAcc>2.163723</vAcc></extensions></trkpt>
      <trkpt lon="121.343765" lat="31.233669"><ele>11.826297</ele><time>2026-03-07T05:13:57Z</time><extensions><speed>0.761512</speed><course>53.517681</course><hAcc>3.682607</hAcc><vAcc>2.166874</vAcc></extensions></trkpt>
      <trkpt lon="121.343772" lat="31.233673"><ele>11.775600</ele><time>2026-03-07T05:13:58Z</time><extensions><speed>0.800800</speed><course>52.274599</course><hAcc>3.698263</hAcc><vAcc>2.170099</vAcc></extensions></trkpt>
      <trkpt lon="121.343778" lat="31.233677"><ele>11.723852</ele><time>2026-03-07T05:13:59Z</time><extensions><speed>0.792307</speed><course>51.747979</course><hAcc>3.710325</hAcc><vAcc>2.173402</vAcc></extensions></trkpt>
      <trkpt lon="121.343785" lat="31.233682"><ele>11.671059</ele><time>2026-03-07T05:14:00Z</time><extensions><speed>0.823187</speed><course>51.249119</course><hAcc>3.719387</hAcc><vAcc>2.176764</vAcc></extensions></trkpt>
      <trkpt lon="121.343792" lat="31.233686"><ele>11.616036</ele><time>2026-03-07T05:14:01Z</time><extensions><speed>0.851631</speed><course>50.402839</course><hAcc>3.729786</hAcc><vAcc>2.180144</vAcc></extensions></trkpt>
      <trkpt lon="121.343799" lat="31.233692"><ele>11.559011</ele><time>2026-03-07T05:14:02Z</time><extensions><speed>0.926196</speed><course>50.348217</course><hAcc>3.739592</hAcc><vAcc>2.183484</vAcc></extensions></trkpt>
      <trkpt lon="121.343807" lat="31.233697"><ele>11.500050</ele><time>2026-03-07T05:14:03Z</time><extensions><speed>0.907209</speed><course>50.648538</course><hAcc>3.743587</hAcc><vAcc>2.186715</vAcc></extensions></trkpt>
      <trkpt lon="121.343814" lat="31.233702"><ele>11.440104</ele><time>2026-03-07T05:14:04Z</time><extensions><speed>0.870518</speed><course>50.232448</course><hAcc>3.742668</hAcc><vAcc>2.189744</vAcc></extensions></trkpt>
      <trkpt lon="121.343821" lat="31.233707"><ele>11.378827</ele><time>2026-03-07T05:14:05Z</time><extensions><speed>0.862263</speed><course>48.001476</course><hAcc>3.737839</hAcc><vAcc>2.192462</vAcc></extensions></trkpt>
      <trkpt lon="121.343828" lat="31.233712"><ele>11.316796</ele><time>2026-03-07T05:14:06Z</time><extensions><speed>0.897546</speed><course>46.398798</course><hAcc>3.734133</hAcc><vAcc>2.194746</vAcc></extensions></trkpt>
      <trkpt lon="121.343835" lat="31.233718"><ele>11.253395</ele><time>2026-03-07T05:14:07Z</time><extensions><speed>0.915716</speed><course>46.162047</course><hAcc>3.731340</hAcc><vAcc>2.196464</vAcc></extensions></trkpt>
      <trkpt lon="121.343842" lat="31.233724"><ele>11.187214</ele><time>2026-03-07T05:14:08Z</time><extensions><speed>0.880355</speed><course>41.408649</course><hAcc>3.722265</hAcc><vAcc>2.197468</vAcc></extensions></trkpt>
      <trkpt lon="121.343847" lat="31.233730"><ele>11.117133</ele><time>2026-03-07T05:14:09Z</time><extensions><speed>0.860008</speed><course>29.271759</course><hAcc>3.706911</hAcc><vAcc>2.197591</vAcc></extensions></trkpt>
      <trkpt lon="121.343851" lat="31.233737"><ele>11.046102</ele><time>2026-03-07T05:14:10Z</time><extensions><speed>0.889623</speed><course>15.269928</course><hAcc>3.693761</hAcc><vAcc>2.196657</vAcc></extensions></trkpt>
      <trkpt lon="121.343853" lat="31.233745"><ele>10.973815</ele><time>2026-03-07T05:14:11Z</time><extensions><speed>0.989205</speed><course>4.621149</course><hAcc>3.684972</hAcc><vAcc>2.194481</vAcc></extensions></trkpt>
      <trkpt lon="121.343853" lat="31.233754"><ele>10.901801</ele><time>2026-03-07T05:14:12Z</time><extensions><speed>1.007259</speed><course>354.863340</course><hAcc>3.677073</hAcc><vAcc>2.190873</vAcc></extensions></trkpt>
      <trkpt lon="121.343851" lat="31.233762"><ele>10.828928</ele><time>2026-03-07T05:14:13Z</time><extensions><speed>0.942044</speed><course>341.888127</course><hAcc>3.669686</hAcc><vAcc>2.185640</vAcc></extensions></trkpt>
      <trkpt lon="121.343847" lat="31.233769"><ele>10.755550</ele><time>2026-03-07T05:14:14Z</time><extensions><speed>0.919865</speed><course>316.559378</course><hAcc>3.663840</hAcc><vAcc>2.178600</vAcc></extensions></trkpt>
      <trkpt lon="121.343839" lat="31.233774"><ele>10.681659</ele><time>2026-03-07T05:14:15Z</time><extensions><speed>0.905194</speed><course>298.638234</course><hAcc>3.656210</hAcc><vAcc>2.169577</vAcc></extensions></trkpt>
      <trkpt lon="121.343831" lat="31.233778"><ele>10.607633</ele><time>2026-03-07T05:14:16Z</time><extensions><speed>0.921680</speed><course>295.300671</course><hAcc>3.637860</hAcc><vAcc>2.158403</vAcc></extensions></trkpt>
      <trkpt lon="121.343823" lat="31.233783"><ele>10.533700</ele><time>2026-03-07T05:14:17Z</time><extensions><speed>0.925233</speed><course>310.507301</course><hAcc>3.613573</hAcc><vAcc>2.144931</vAcc></extensions></trkpt>
      <trkpt lon="121.343817" lat="31.233790"><ele>10.460096</ele><time>2026-03-07T05:14:18Z</time><extensions><speed>1.079706</speed><course>336.357643</course><hAcc>3.592174</hAcc><vAcc>2.129026</vAcc></extensions></trkpt>
      <trkpt lon="121.343814" lat="31.233800"><ele>10.386718</ele><time>2026-03-07T05:14:19Z</time><extensions><speed>1.362144</speed><course>349.939038</course><hAcc>3.575774</hAcc><vAcc>2.110576</vAcc></extensions></trkpt>
      <trkpt lon="121.343812" lat="31.233813"><ele>10.314309</ele><time>2026-03-07T05:14:20Z</time><extensions><speed>1.540164</speed><course>355.843993</course><hAcc>3.562125</hAcc><vAcc>2.089484</vAcc></extensions></trkpt>
      <trkpt lon="121.343811" lat="31.233827"><ele>10.241778</ele><time>2026-03-07T05:14:21Z</time><extensions><speed>1.641154</speed><course>356.521352</course><hAcc>3.549639</hAcc><vAcc>2.065680</vAcc></extensions></trkpt>
      <trkpt lon="121.343810" lat="31.233843"><ele>10.170797</ele><time>2026-03-07T05:14:22Z</time><extensions><speed>1.733770</speed><course>351.081545</course><hAcc>3.536238</hAcc><vAcc>2.039128</vAcc></extensions></trkpt>
      <trkpt lon="121.343806" lat="31.233858"><ele>10.102280</ele><time>2026-03-07T05:14:23Z</time><extensions><speed>1.777322</speed><course>347.824179</course><hAcc>3.524300</hAcc><vAcc>2.009831</vAcc></extensions></trkpt>
      <trkpt lon="121.343802" lat="31.233874"><ele>10.035359</ele><time>2026-03-07T05:14:24Z</time><extensions><speed>1.760994</speed><course>346.840452</course><hAcc>3.511781</hAcc><vAcc>1.977839</vAcc></extensions></trkpt>
      <trkpt lon="121.343798" lat="31.233889"><ele>9.971210</ele><time>2026-03-07T05:14:25Z</time><extensions><speed>1.788243</speed><course>345.345551</course><hAcc>3.495674</hAcc><vAcc>1.943269</vAcc></extensions></trkpt>
      <trkpt lon="121.343793" lat="31.233905"><ele>9.910150</ele><time>2026-03-07T05:14:26Z</time><extensions><speed>1.832303</speed><course>340.732313</course><hAcc>3.480383</hAcc><vAcc>1.906308</vAcc></extensions></trkpt>
      <trkpt lon="121.343786" lat="31.233920"><ele>9.851771</ele><time>2026-03-07T05:14:27Z</time><extensions><speed>1.818058</speed><course>338.258634</course><hAcc>3.469715</hAcc><vAcc>1.867243</vAcc></extensions></trkpt>
      <trkpt lon="121.343779" lat="31.233935"><ele>9.796545</ele><time>2026-03-07T05:14:28Z</time><extensions><speed>1.742229</speed><course>336.744801</course><hAcc>3.464928</hAcc><vAcc>1.826472</vAcc></extensions></trkpt>
      <trkpt lon="121.343773" lat="31.233949"><ele>9.745369</ele><time>2026-03-07T05:14:29Z</time><extensions><speed>1.627258</speed><course>338.223734</course><hAcc>3.463883</hAcc><vAcc>1.784542</vAcc></extensions></trkpt>
      <trkpt lon="121.343768" lat="31.233963"><ele>9.699156</ele><time>2026-03-07T05:14:30Z</time><extensions><speed>1.579481</speed><course>346.816467</course><hAcc>3.459176</hAcc><vAcc>1.742178</vAcc></extensions></trkpt>
      <trkpt lon="121.343765" lat="31.233977"><ele>9.658820</ele><time>2026-03-07T05:14:31Z</time><extensions><speed>1.601548</speed><course>354.414155</course><hAcc>3.446590</hAcc><vAcc>1.700311</vAcc></extensions></trkpt>
      <trkpt lon="121.343764" lat="31.233991"><ele>9.625340</ele><time>2026-03-07T05:14:32Z</time><extensions><speed>1.663859</speed><course>357.311877</course><hAcc>3.426946</hAcc><vAcc>1.660120</vAcc></extensions></trkpt>
      <trkpt lon="121.343763" lat="31.234007"><ele>9.599830</ele><time>2026-03-07T05:14:33Z</time><extensions><speed>1.731858</speed><course>356.905669</course><hAcc>3.401842</hAcc><vAcc>1.623050</vAcc></extensions></trkpt>
      <trkpt lon="121.343762" lat="31.234022"><ele>9.583442</ele><time>2026-03-07T05:14:34Z</time><extensions><speed>1.736021</speed><course>354.535143</course><hAcc>3.378765</hAcc><vAcc>1.590821</vAcc></extensions></trkpt>
      <trkpt lon="121.343759" lat="31.234037"><ele>9.577530</ele><time>2026-03-07T05:14:35Z</time><extensions><speed>1.621405</speed><course>348.451010</course><hAcc>3.361755</hAcc><vAcc>1.565399</vAcc></extensions></trkpt>
      <trkpt lon="121.343755" lat="31.234050"><ele>9.583799</ele><time>2026-03-07T05:14:36Z</time><extensions><speed>1.368258</speed><course>334.606216</course><hAcc>3.349073</hAcc><vAcc>1.548921</vAcc></extensions></trkpt>
      <trkpt lon="121.343749" lat="31.234062"><ele>9.604485</ele><time>2026-03-07T05:14:36Z</time><extensions><speed>1.430132</speed><course>343.040690</course><hAcc>3.336436</hAcc><vAcc>1.543561</vAcc></extensions></trkpt>
      <trkpt lon="121.343745" lat="31.234074"><ele>9.640089</ele><time>2026-03-07T05:14:37Z</time><extensions><speed>1.484407</speed><course>341.694169</course><hAcc>3.316215</hAcc><vAcc>1.550394</vAcc></extensions></trkpt>
      <trkpt lon="121.343740" lat="31.234087"><ele>9.689781</ele><time>2026-03-07T05:14:38Z</time><extensions><speed>1.380025</speed><course>341.254845</course><hAcc>3.293098</hAcc><vAcc>1.568341</vAcc></extensions></trkpt>
      <trkpt lon="121.343736" lat="31.234098"><ele>9.751591</ele><time>2026-03-07T05:14:39Z</time><extensions><speed>1.153101</speed><course>344.938193</course><hAcc>3.266712</hAcc><vAcc>1.595240</vAcc></extensions></trkpt>
      <trkpt lon="121.343734" lat="31.234108"><ele>9.823778</ele><time>2026-03-07T05:14:40Z</time><extensions><speed>1.061098</speed><course>357.721460</course><hAcc>3.233044</hAcc><vAcc>1.628962</vAcc></extensions></trkpt>
      <trkpt lon="121.343735" lat="31.234118"><ele>9.903004</ele><time>2026-03-07T05:14:41Z</time><extensions><speed>1.157562</speed><course>5.668117</course><hAcc>3.201548</hAcc><vAcc>1.667563</vAcc></extensions></trkpt>
      <trkpt lon="121.343736" lat="31.234128"><ele>9.988790</ele><time>2026-03-07T05:14:42Z</time><extensions><speed>1.289839</speed><course>7.507306</course><hAcc>3.180870</hAcc><vAcc>1.709353</vAcc></extensions></trkpt>
      <trkpt lon="121.343738" lat="31.234140"><ele>10.079400</ele><time>2026-03-07T05:14:43Z</time><extensions><speed>1.381361</speed><course>8.648519</course><hAcc>3.161891</hAcc><vAcc>1.752913</vAcc></extensions></trkpt>
      <trkpt lon="121.343741" lat="31.234153"><ele>10.173025</ele><time>2026-03-07T05:14:44Z</time><extensions><speed>1.481345</speed><course>9.919436</course><hAcc>3.138459</hAcc><vAcc>1.797096</vAcc></extensions></trkpt>
      <trkpt lon="121.343744" lat="31.234167"><ele>10.270697</ele><time>2026-03-07T05:14:45Z</time><extensions><speed>1.590991</speed><course>10.029903</course><hAcc>3.110275</hAcc><vAcc>1.840997</vAcc></extensions></trkpt>
      <trkpt lon="121.343747" lat="31.234182"><ele>10.370625</ele><time>2026-03-07T05:14:46Z</time><extensions><speed>1.750949</speed><course>11.508694</course><hAcc>3.076541</hAcc><vAcc>1.883923</vAcc></extensions></trkpt>
      <trkpt lon="121.343751" lat="31.234197"><ele>10.471851</ele><time>2026-03-07T05:14:47Z</time><extensions><speed>1.811127</speed><course>13.100797</course><hAcc>3.038243</hAcc><vAcc>1.925343</vAcc></extensions></trkpt>
      <trkpt lon="121.343755" lat="31.234213"><ele>10.573180</ele><time>2026-03-07T05:14:48Z</time><extensions><speed>1.780407</speed><course>13.373662</course><hAcc>2.994315</hAcc><vAcc>1.964897</vAcc></extensions></trkpt>
      <trkpt lon="121.343759" lat="31.234228"><ele>10.674120</ele><time>2026-03-07T05:14:49Z</time><extensions><speed>1.701587</speed><course>12.910376</course><hAcc>2.945946</hAcc><vAcc>2.002330</vAcc></extensions></trkpt>
      <trkpt lon="121.343763" lat="31.234242"><ele>10.774176</ele><time>2026-03-07T05:14:50Z</time><extensions><speed>1.485882</speed><course>12.238186</course><hAcc>2.895358</hAcc><vAcc>2.037488</vAcc></extensions></trkpt>
      <trkpt lon="121.343766" lat="31.234254"><ele>10.871515</ele><time>2026-03-07T05:14:51Z</time><extensions><speed>1.167631</speed><course>12.009056</course><hAcc>2.848020</hAcc><vAcc>2.070302</vAcc></extensions></trkpt>
      <trkpt lon="121.343768" lat="31.234263"><ele>10.964758</ele><time>2026-03-07T05:14:52Z</time><extensions><speed>0.902439</speed><course>4.435001</course><hAcc>2.808376</hAcc><vAcc>2.100765</vAcc></extensions></trkpt>
      <trkpt lon="121.343767" lat="31.234270"><ele>11.053337</ele><time>2026-03-07T05:14:53Z</time><extensions><speed>0.678656</speed><course>340.880423</course><hAcc>2.767896</hAcc><vAcc>2.128900</vAcc></extensions></trkpt>
      <trkpt lon="121.343762" lat="31.234274"><ele>11.139884</ele><time>2026-03-07T05:14:54Z</time><extensions><speed>0.721642</speed><course>301.055711</course><hAcc>2.722603</hAcc><vAcc>2.154781</vAcc></extensions></trkpt>
      <trkpt lon="121.343754" lat="31.234277"><ele>11.222622</ele><time>2026-03-07T05:14:55Z</time><extensions><speed>1.033747</speed><course>283.510184</course><hAcc>2.675123</hAcc><vAcc>2.178491</vAcc></extensions></trkpt>
      <trkpt lon="121.343742" lat="31.234279"><ele>11.301953</ele><time>2026-03-07T05:14:56Z</time><extensions><speed>1.287360</speed><course>278.017862</course><hAcc>2.632962</hAcc><vAcc>2.200139</vAcc></extensions></trkpt>
      <trkpt lon="121.343728" lat="31.234281"><ele>11.376546</ele><time>2026-03-07T05:14:57Z</time><extensions><speed>1.376120</speed><course>277.949052</course><hAcc>2.595655</hAcc><vAcc>2.219848</vAcc></extensions></trkpt>
      <trkpt lon="121.343714" lat="31.234284"><ele>11.445009</ele><time>2026-03-07T05:14:58Z</time><extensions><speed>1.418113</speed><course>289.748147</course><hAcc>2.562341</hAcc><vAcc>2.237752</vAcc></extensions></trkpt>
      <trkpt lon="121.343701" lat="31.234289"><ele>11.508511</ele><time>2026-03-07T05:14:59Z</time><extensions><speed>1.326092</speed><course>301.616586</course><hAcc>2.533716</hAcc><vAcc>2.253994</vAcc></extensions></trkpt>
      <trkpt lon="121.343691" lat="31.234295"><ele>11.566350</ele><time>2026-03-07T05:15:00Z</time><extensions><speed>1.023800</speed><course>308.687830</course><hAcc>2.512548</hAcc><vAcc>2.268715</vAcc></extensions></trkpt>
      <trkpt lon="121.343685" lat="31.234300"><ele>11.618332</ele><time>2026-03-07T05:15:01Z</time><extensions><speed>0.699222</speed><course>327.281994</course><hAcc>2.498476</hAcc><vAcc>2.282076</vAcc></extensions></trkpt>
      <trkpt lon="121.343682" lat="31.234305"><ele>11.664289</ele><time>2026-03-07T05:15:02Z</time><extensions><speed>0.429170</speed><course>323.174340</course><hAcc>2.489977</hAcc><vAcc>2.294201</vAcc></extensions></trkpt>
      <trkpt lon="121.343678" lat="31.234307"><ele>11.704919</ele><time>2026-03-07T05:15:03Z</time><extensions><speed>0.370922</speed><course>285.252765</course><hAcc>2.493118</hAcc><vAcc>2.305229</vAcc></extensions></trkpt>
      <trkpt lon="121.343673" lat="31.234307"><ele>11.739347</ele><time>2026-03-07T05:15:04Z</time><extensions><speed>0.583172</speed><course>260.991354</course><hAcc>2.502290</hAcc><vAcc>2.315287</vAcc></extensions></trkpt>
      <trkpt lon="121.343666" lat="31.234305"><ele>11.768210</ele><time>2026-03-07T05:15:05Z</time><extensions><speed>0.804646</speed><course>254.800744</course><hAcc>2.515157</hAcc><vAcc>2.324482</vAcc></extensions></trkpt>
      <trkpt lon="121.343658" lat="31.234303"><ele>11.791604</ele><time>2026-03-07T05:15:06Z</time><extensions><speed>0.870990</speed><course>253.554018</course><hAcc>2.533469</hAcc><vAcc>2.332911</vAcc></extensions></trkpt>
      <trkpt lon="121.343650" lat="31.234301"><ele>11.809759</ele><time>2026-03-07T05:15:07Z</time><extensions><speed>0.806521</speed><course>254.447779</course><hAcc>2.550242</hAcc><vAcc>2.340661</vAcc></extensions></trkpt>
      <trkpt lon="121.343641" lat="31.234299"><ele>11.824127</ele><time>2026-03-07T05:15:08Z</time><extensions><speed>0.793047</speed><course>256.938620</course><hAcc>2.557805</hAcc><vAcc>2.347799</vAcc></extensions></trkpt>
      <trkpt lon="121.343633" lat="31.234298"><ele>11.833157</ele><time>2026-03-07T05:15:09Z</time><extensions><speed>0.875032</speed><course>260.027729</course><hAcc>2.559174</hAcc><vAcc>2.354373</vAcc></extensions></trkpt>
      <trkpt lon="121.343624" lat="31.234297"><ele>11.838012</ele><time>2026-03-07T05:15:10Z</time><extensions><speed>0.847288</speed><course>265.061987</course><hAcc>2.560981</hAcc><vAcc>2.360421</vAcc></extensions></trkpt>
      <trkpt lon="121.343616" lat="31.234297"><ele>11.837210</ele><time>2026-03-07T05:15:11Z</time><extensions><speed>0.662292</speed><course>278.001056</course><hAcc>2.562322</hAcc><vAcc>2.365976</vAcc></extensions></trkpt>
      <trkpt lon="121.343611" lat="31.234299"><ele>11.831857</ele><time>2026-03-07T05:15:12Z</time><extensions><speed>0.467251</speed><course>317.701752</course><hAcc>2.559328</hAcc><vAcc>2.371065</vAcc></extensions></trkpt>
      <trkpt lon="121.343610" lat="31.234304"><ele>11.820577</ele><time>2026-03-07T05:15:13Z</time><extensions><speed>0.725746</speed><course>3.428582</course><hAcc>2.547373</hAcc><vAcc>2.375704</vAcc></extensions></trkpt>
      <trkpt lon="121.343611" lat="31.234311"><ele>11.804729</ele><time>2026-03-07T05:15:14Z</time><extensions><speed>0.899519</speed><course>8.529264</course><hAcc>2.534624</hAcc><vAcc>2.379908</vAcc></extensions></trkpt>
      <trkpt lon="121.343611" lat="31.234319"><ele>11.784629</ele><time>2026-03-07T05:15:15Z</time><extensions><speed>0.918621</speed><course>1.620571</course><hAcc>2.530162</hAcc><vAcc>2.383681</vAcc></extensions></trkpt>
      <trkpt lon="121.343611" lat="31.234326"><ele>11.764367</ele><time>2026-03-07T05:15:16Z</time><extensions><speed>0.710807</speed><course>348.303325</course><hAcc>2.523021</hAcc><vAcc>2.387040</vAcc></extensions></trkpt>
      <trkpt lon="121.343610" lat="31.234333"><ele>11.741275</ele><time>2026-03-07T05:15:17Z</time><extensions><speed>0.838198</speed><course>353.638387</course><hAcc>2.501641</hAcc><vAcc>2.389992</vAcc></extensions></trkpt>
      <trkpt lon="121.343610" lat="31.234342"><ele>11.714251</ele><time>2026-03-07T05:15:18Z</time><extensions><speed>1.187371</speed><course>5.074144</course><hAcc>2.476770</hAcc><vAcc>2.392550</vAcc></extensions></trkpt>
      <trkpt lon="121.343612" lat="31.234354"><ele>11.685540</ele><time>2026-03-07T05:15:19Z</time><extensions><speed>1.465401</speed><course>13.770770</course><hAcc>2.456566</hAcc><vAcc>2.394725</vAcc></extensions></trkpt>
      <trkpt lon="121.343615" lat="31.234367"><ele>11.655248</ele><time>2026-03-07T05:15:20Z</time><extensions><speed>1.563606</speed><course>10.427715</course><hAcc>2.439432</hAcc><vAcc>2.396531</vAcc></extensions></trkpt>
      <trkpt lon="121.343618" lat="31.234382"><ele>11.621503</ele><time>2026-03-07T05:15:21Z</time><extensions><speed>1.674921</speed><course>9.521752</course><hAcc>2.413892</hAcc><vAcc>2.397978</vAcc></extensions></trkpt>
      <trkpt lon="121.343621" lat="31.234397"><ele>11.585847</ele><time>2026-03-07T05:15:22Z</time><extensions><speed>1.725544</speed><course>8.977191</course><hAcc>2.374680</hAcc><vAcc>2.399065</vAcc></extensions></trkpt>
      <trkpt lon="121.343624" lat="31.234413"><ele>11.547619</ele><time>2026-03-07T05:15:23Z</time><extensions><speed>1.811980</speed><course>8.815984</course><hAcc>2.322627</hAcc><vAcc>2.399800</vAcc></extensions></trkpt>
      <trkpt lon="121.343627" lat="31.234429"><ele>11.507908</ele><time>2026-03-07T05:15:24Z</time><extensions><speed>1.885813</speed><course>8.387463</course><hAcc>2.271366</hAcc><vAcc>2.400188</vAcc></extensions></trkpt>
      <trkpt lon="121.343630" lat="31.234446"><ele>11.465983</ele><time>2026-03-07T05:15:25Z</time><extensions><speed>1.871988</speed><course>7.573084</course><hAcc>2.226911</hAcc><vAcc>2.400235</vAcc></extensions></trkpt>
      <trkpt lon="121.343632" lat="31.234463"><ele>11.422219</ele><time>2026-03-07T05:15:26Z</time><extensions><speed>1.928809</speed><course>6.831823</course><hAcc>2.182005</hAcc><vAcc>2.399947</vAcc></extensions></trkpt>
      <trkpt lon="121.343634" lat="31.234480"><ele>11.377259</ele><time>2026-03-07T05:15:27Z</time><extensions><speed>1.879507</speed><course>6.400282</course><hAcc>2.135098</hAcc><vAcc>2.399324</vAcc></extensions></trkpt>
      <trkpt lon="121.343636" lat="31.234496"><ele>11.330206</ele><time>2026-03-07T05:15:28Z</time><extensions><speed>1.836950</speed><course>6.332508</course><hAcc>2.082287</hAcc><vAcc>2.398383</vAcc></extensions></trkpt>
      <trkpt lon="121.343638" lat="31.234513"><ele>11.281145</ele><time>2026-03-07T05:15:29Z</time><extensions><speed>1.791972</speed><course>5.447645</course><hAcc>2.033573</hAcc><vAcc>2.397150</vAcc></extensions></trkpt>
      <trkpt lon="121.343640" lat="31.234529"><ele>11.230349</ele><time>2026-03-07T05:15:30Z</time><extensions><speed>1.866086</speed><course>3.814948</course><hAcc>1.991142</hAcc><vAcc>2.395669</vAcc></extensions></trkpt>
      <trkpt lon="121.343641" lat="31.234546"><ele>11.178656</ele><time>2026-03-07T05:15:31Z</time><extensions><speed>1.989781</speed><course>1.810063</course><hAcc>1.960865</hAcc><vAcc>2.393987</vAcc></extensions></trkpt>
      <trkpt lon="121.343641" lat="31.234564"><ele>11.125033</ele><time>2026-03-07T05:15:32Z</time><extensions><speed>2.036931</speed><course>358.723440</course><hAcc>1.948480</hAcc><vAcc>2.392158</vAcc></extensions></trkpt>
      <trkpt lon="121.343640" lat="31.234582"><ele>11.069315</ele><time>2026-03-07T05:15:33Z</time><extensions><speed>1.979391</speed><course>355.817305</course><hAcc>1.956658</hAcc><vAcc>2.390235</vAcc></extensions></trkpt>
      <trkpt lon="121.343638" lat="31.234599"><ele>11.011497</ele><time>2026-03-07T05:15:34Z</time><extensions><speed>1.731447</speed><course>353.342982</course><hAcc>1.984924</hAcc><vAcc>2.388279</vAcc></extensions></trkpt>
      <trkpt lon="121.343635" lat="31.234612"><ele>10.952882</ele><time>2026-03-07T05:15:35Z</time><extensions><speed>1.326069</speed><course>343.409125</course><hAcc>2.027666</hAcc><vAcc>2.386351</vAcc></extensions></trkpt>
      <trkpt lon="121.343629" lat="31.234621"><ele>10.893874</ele><time>2026-03-07T05:15:36Z</time><extensions><speed>0.995385</speed><course>313.212871</course><hAcc>2.076561</hAcc><vAcc>2.384518</vAcc></extensions></trkpt>
      <trkpt lon="121.343621" lat="31.234628"><ele>10.833746</ele><time>2026-03-07T05:15:37Z</time><extensions><speed>1.189242</speed><course>316.049004</course><hAcc>2.125334</hAcc><vAcc>2.382836</vAcc></extensions></trkpt>
      <trkpt lon="121.343614" lat="31.234637"><ele>10.772426</ele><time>2026-03-07T05:15:38Z</time><extensions><speed>1.330170</speed><course>329.825590</course><hAcc>2.175651</hAcc><vAcc>2.381361</vAcc></extensions></trkpt>
      <trkpt lon="121.343608" lat="31.234649"><ele>10.709599</ele><time>2026-03-07T05:15:39Z</time><extensions><speed>1.509562</speed><course>347.889506</course><hAcc>2.225159</hAcc><vAcc>2.380137</vAcc></extensions></trkpt>
      <trkpt lon="121.343606" lat="31.234663"><ele>10.646656</ele><time>2026-03-07T05:15:40Z</time><extensions><speed>1.659081</speed><course>353.857718</course><hAcc>2.274052</hAcc><vAcc>2.379199</vAcc></extensions></trkpt>
      <trkpt lon="121.343605" lat="31.234678"><ele>10.583000</ele><time>2026-03-07T05:15:41Z</time><extensions><speed>1.641565</speed><course>358.155922</course><hAcc>2.324389</hAcc><vAcc>2.378582</vAcc></extensions></trkpt>
      <trkpt lon="121.343605" lat="31.234692"><ele>10.517981</ele><time>2026-03-07T05:15:42Z</time><extensions><speed>1.539493</speed><course>2.511819</course><hAcc>2.375812</hAcc><vAcc>2.378283</vAcc></extensions></trkpt>
      <trkpt lon="121.343606" lat="31.234705"><ele>10.451486</ele><time>2026-03-07T05:15:43Z</time><extensions><speed>1.358630</speed><course>8.840943</course><hAcc>2.419699</hAcc><vAcc>2.378320</vAcc></extensions></trkpt>
      <trkpt lon="121.343609" lat="31.234716"><ele>10.383506</ele><time>2026-03-07T05:15:44Z</time><extensions><speed>1.198101</speed><course>16.230126</course><hAcc>2.443926</hAcc><vAcc>2.378684</vAcc></extensions></trkpt>
      <trkpt lon="121.343613" lat="31.234727"><ele>10.316562</ele><time>2026-03-07T05:15:45Z</time><extensions><speed>1.251377</speed><course>17.606806</course><hAcc>2.450647</hAcc><vAcc>2.379377</vAcc></extensions></trkpt>
      <trkpt lon="121.343616" lat="31.234738"><ele>10.249663</ele><time>2026-03-07T05:15:46Z</time><extensions><speed>1.317740</speed><course>12.479903</course><hAcc>2.453852</hAcc><vAcc>2.380398</vAcc></extensions></trkpt>
      <trkpt lon="121.343619" lat="31.234750"><ele>10.180363</ele><time>2026-03-07T05:15:47Z</time><extensions><speed>1.373305</speed><course>9.112666</course><hAcc>2.456979</hAcc><vAcc>2.381754</vAcc></extensions></trkpt>
      <trkpt lon="121.343621" lat="31.234762"><ele>10.110433</ele><time>2026-03-07T05:15:48Z</time><extensions><speed>1.399968</speed><course>7.444829</course><hAcc>2.460058</hAcc><vAcc>2.383459</vAcc></extensions></trkpt>
      <trkpt lon="121.343623" lat="31.234775"><ele>10.041167</ele><time>2026-03-07T05:15:49Z</time><extensions><speed>1.411550</speed><course>10.298583</course><hAcc>2.463193</hAcc><vAcc>2.385531</vAcc></extensions></trkpt>
      <trkpt lon="121.343626" lat="31.234787"><ele>9.970936</ele><time>2026-03-07T05:15:50Z</time><extensions><speed>1.407001</speed><course>12.385485</course><hAcc>2.465645</hAcc><vAcc>2.387984</vAcc></extensions></trkpt>
      <trkpt lon="121.343629" lat="31.234799"><ele>9.900340</ele><time>2026-03-07T05:15:51Z</time><extensions><speed>1.283489</speed><course>10.846262</course><hAcc>2.462052</hAcc><vAcc>2.390816</vAcc></extensions></trkpt>
      <trkpt lon="121.343631" lat="31.234810"><ele>9.827986</ele><time>2026-03-07T05:15:52Z</time><extensions><speed>1.280903</speed><course>6.476479</course><hAcc>2.440473</hAcc><vAcc>2.394026</vAcc></extensions></trkpt>
      <trkpt lon="121.343632" lat="31.234822"><ele>9.815234</ele><time>2026-03-07T05:15:53Z</time><extensions><speed>1.271005</speed><course>2.698232</course><hAcc>2.409395</hAcc><vAcc>2.394990</vAcc></extensions></trkpt>
      <trkpt lon="121.343632" lat="31.234833"><ele>9.757747</ele><time>2026-03-07T05:15:54Z</time><extensions><speed>1.315341</speed><course>357.995751</course><hAcc>2.374123</hAcc><vAcc>2.398187</vAcc></extensions></trkpt>
      <trkpt lon="121.343631" lat="31.234845"><ele>9.697579</ele><time>2026-03-07T05:15:55Z</time><extensions><speed>1.372756</speed><course>353.261110</course><hAcc>2.333679</hAcc><vAcc>2.401611</vAcc></extensions></trkpt>
      <trkpt lon="121.343629" lat="31.234858"><ele>9.637105</ele><time>2026-03-07T05:15:56Z</time><extensions><speed>1.430922</speed><course>348.334132</course><hAcc>2.288967</hAcc><vAcc>2.405035</vAcc></extensions></trkpt>
      <trkpt lon="121.343625" lat="31.234871"><ele>9.576817</ele><time>2026-03-07T05:15:57Z</time><extensions><speed>1.527978</speed><course>346.762387</course><hAcc>2.241741</hAcc><vAcc>2.408341</vAcc></extensions></trkpt>
      <trkpt lon="121.343621" lat="31.234884"><ele>9.516811</ele><time>2026-03-07T05:15:58Z</time><extensions><speed>1.659923</speed><course>341.849905</course><hAcc>2.191712</hAcc><vAcc>2.411460</vAcc></extensions></trkpt>
      <trkpt lon="121.343615" lat="31.234899"><ele>9.457982</ele><time>2026-03-07T05:15:59Z</time><extensions><speed>1.723205</speed><course>343.464670</course><hAcc>2.134818</hAcc><vAcc>2.414359</vAcc></extensions></trkpt>
      <trkpt lon="121.343611" lat="31.234914"><ele>9.400041</ele><time>2026-03-07T05:16:00Z</time><extensions><speed>1.716741</speed><course>347.251067</course><hAcc>2.073913</hAcc><vAcc>2.417020</vAcc></extensions></trkpt>
      <trkpt lon="121.343608" lat="31.234929"><ele>9.342433</ele><time>2026-03-07T05:16:01Z</time><extensions><speed>1.663669</speed><course>353.212168</course><hAcc>2.014244</hAcc><vAcc>2.419420</vAcc></extensions></trkpt>
      <trkpt lon="121.343607" lat="31.234943"><ele>9.284579</ele><time>2026-03-07T05:16:02Z</time><extensions><speed>1.596871</speed><course>1.380625</course><hAcc>1.961990</hAcc><vAcc>2.421519</vAcc></extensions></trkpt>
      <trkpt lon="121.343609" lat="31.234957"><ele>9.226410</ele><time>2026-03-07T05:16:03Z</time><extensions><speed>1.547011</speed><course>10.308088</course><hAcc>1.917238</hAcc><vAcc>2.423256</vAcc></extensions></trkpt>
      <trkpt lon="121.343612" lat="31.234971"><ele>9.167910</ele><time>2026-03-07T05:16:04Z</time><extensions><speed>1.502180</speed><course>13.573484</course><hAcc>1.868978</hAcc><vAcc>2.424551</vAcc></extensions></trkpt>
      <trkpt lon="121.343616" lat="31.234984"><ele>9.109103</ele><time>2026-03-07T05:16:05Z</time><extensions><speed>1.585332</speed><course>16.444542</course><hAcc>1.818762</hAcc><vAcc>2.425311</vAcc></extensions></trkpt>
      <trkpt lon="121.343621" lat="31.234998"><ele>9.050025</ele><time>2026-03-07T05:16:06Z</time><extensions><speed>1.615757</speed><course>14.308227</course><hAcc>1.782227</hAcc><vAcc>2.425434</vAcc></extensions></trkpt>
      <trkpt lon="121.343625" lat="31.235013"><ele>8.990821</ele><time>2026-03-07T05:16:07Z</time><extensions><speed>1.713717</speed><course>12.854879</course><hAcc>1.757092</hAcc><vAcc>2.424806</vAcc></extensions></trkpt>
      <trkpt lon="121.343629" lat="31.235028"><ele>8.931487</ele><time>2026-03-07T05:16:08Z</time><extensions><speed>1.720468</speed><course>11.726971</course><hAcc>1.743037</hAcc><vAcc>2.423310</vAcc></extensions></trkpt>
      <trkpt lon="121.343632" lat="31.235043"><ele>8.872020</ele><time>2026-03-07T05:16:09Z</time><extensions><speed>1.727364</speed><course>8.898424</course><hAcc>1.739298</hAcc><vAcc>2.420823</vAcc></extensions></trkpt>
      <trkpt lon="121.343634" lat="31.235058"><ele>8.812445</ele><time>2026-03-07T05:16:10Z</time><extensions><speed>1.710022</speed><course>7.245095</course><hAcc>1.745518</hAcc><vAcc>2.417220</vAcc></extensions></trkpt>
      <trkpt lon="121.343636" lat="31.235073"><ele>8.752828</ele><time>2026-03-07T05:16:11Z</time><extensions><speed>1.669528</speed><course>3.494137</course><hAcc>1.759043</hAcc><vAcc>2.412378</vAcc></extensions></trkpt>
      <trkpt lon="121.343637" lat="31.235088"><ele>8.693278</ele><time>2026-03-07T05:16:12Z</time><extensions><speed>1.669375</speed><course>4.444252</course><hAcc>1.777650</hAcc><vAcc>2.406206</vAcc></extensions></trkpt>
      <trkpt lon="121.343639" lat="31.235103"><ele>8.633952</ele><time>2026-03-07T05:16:13Z</time><extensions><speed>1.665646</speed><course>6.190940</course><hAcc>1.801167</hAcc><vAcc>2.398533</vAcc></extensions></trkpt>
      <trkpt lon="121.343641" lat="31.235118"><ele>8.575083</ele><time>2026-03-07T05:16:14Z</time><extensions><speed>1.652678</speed><course>6.046912</course><hAcc>1.827446</hAcc><vAcc>2.389245</vAcc></extensions></trkpt>
      <trkpt lon="121.343642" lat="31.235133"><ele>8.516787</ele><time>2026-03-07T05:16:15Z</time><extensions><speed>1.643647</speed><course>0.811038</course><hAcc>1.854362</hAcc><vAcc>2.378226</vAcc></extensions></trkpt>
      <trkpt lon="121.343641" lat="31.235148"><ele>8.459283</ele><time>2026-03-07T05:16:16Z</time><extensions><speed>1.638422</speed><course>355.250786</course><hAcc>1.880444</hAcc><vAcc>2.365355</vAcc></extensions></trkpt>
      <trkpt lon="121.343639" lat="31.235162"><ele>8.402736</ele><time>2026-03-07T05:16:17Z</time><extensions><speed>1.617073</speed><course>350.598479</course><hAcc>1.905303</hAcc><vAcc>2.350509</vAcc></extensions></trkpt>
      <trkpt lon="121.343635" lat="31.235176"><ele>8.347384</ele><time>2026-03-07T05:16:18Z</time><extensions><speed>1.584339</speed><course>341.728579</course><hAcc>1.929385</hAcc><vAcc>2.333561</vAcc></extensions></trkpt>
      <trkpt lon="121.343629" lat="31.235189"><ele>8.293505</ele><time>2026-03-07T05:16:19Z</time><extensions><speed>1.546245</speed><course>332.474457</course><hAcc>1.953849</hAcc><vAcc>2.314382</vAcc></extensions></trkpt>
      <trkpt lon="121.343622" lat="31.235202"><ele>8.241377</ele><time>2026-03-07T05:16:20Z</time><extensions><speed>1.536310</speed><course>338.424973</course><hAcc>1.980762</hAcc><vAcc>2.292836</vAcc></extensions></trkpt>
      <trkpt lon="121.343617" lat="31.235215"><ele>8.191221</ele><time>2026-03-07T05:16:21Z</time><extensions><speed>1.536051</speed><course>346.977634</course><hAcc>2.012728</hAcc><vAcc>2.268781</vAcc></extensions></trkpt>
      <trkpt lon="121.343614" lat="31.235228"><ele>8.143567</ele><time>2026-03-07T05:16:22Z</time><extensions><speed>1.542134</speed><course>352.595689</course><hAcc>2.050607</hAcc><vAcc>2.242066</vAcc></extensions></trkpt>
      <trkpt lon="121.343613" lat="31.235242"><ele>8.098510</ele><time>2026-03-07T05:16:23Z</time><extensions><speed>1.546481</speed><course>355.179120</course><hAcc>2.092047</hAcc><vAcc>2.212535</vAcc></extensions></trkpt>
      <trkpt lon="121.343611" lat="31.235256"><ele>8.056485</ele><time>2026-03-07T05:16:24Z</time><extensions><speed>1.551438</speed><course>354.628621</course><hAcc>2.131135</hAcc><vAcc>2.180021</vAcc></extensions></trkpt>
      <trkpt lon="121.343610" lat="31.235270"><ele>8.017565</ele><time>2026-03-07T05:16:25Z</time><extensions><speed>1.570841</speed><course>354.786064</course><hAcc>2.163818</hAcc><vAcc>2.144351</vAcc></extensions></trkpt>
      <trkpt lon="121.343608" lat="31.235284"><ele>7.982024</ele><time>2026-03-07T05:16:26Z</time><extensions><speed>1.571763</speed><course>354.265942</course><hAcc>2.193672</hAcc><vAcc>2.105340</vAcc></extensions></trkpt>
      <trkpt lon="121.343607" lat="31.235298"><ele>7.950224</ele><time>2026-03-07T05:16:27Z</time><extensions><speed>1.561657</speed><course>354.756144</course><hAcc>2.220742</hAcc><vAcc>2.062792</vAcc></extensions></trkpt>
      <trkpt lon="121.343605" lat="31.235312"><ele>7.921128</ele><time>2026-03-07T05:16:28Z</time><extensions><speed>1.557154</speed><course>355.475698</course><hAcc>2.243768</hAcc><vAcc>2.016495</vAcc></extensions></trkpt>
      <trkpt lon="121.343604" lat="31.235326"><ele>7.896826</ele><time>2026-03-07T05:16:29Z</time><extensions><speed>1.542938</speed><course>356.200545</course><hAcc>2.261551</hAcc><vAcc>1.966277</vAcc></extensions></trkpt>
      <trkpt lon="121.343603" lat="31.235340"><ele>7.876921</ele><time>2026-03-07T05:16:30Z</time><extensions><speed>1.525182</speed><course>356.699076</course><hAcc>2.273234</hAcc><vAcc>1.911942</vAcc></extensions></trkpt>
      <trkpt lon="121.343602" lat="31.235353"><ele>7.861283</ele><time>2026-03-07T05:16:31Z</time><extensions><speed>1.497417</speed><course>356.095710</course><hAcc>2.279348</hAcc><vAcc>1.853325</vAcc></extensions></trkpt>
      <trkpt lon="121.343601" lat="31.235366"><ele>7.849949</ele><time>2026-03-07T05:16:32Z</time><extensions><speed>1.457117</speed><course>353.341963</course><hAcc>2.280390</hAcc><vAcc>1.790293</vAcc></extensions></trkpt>
      <trkpt lon="121.343599" lat="31.235379"><ele>7.842918</ele><time>2026-03-07T05:16:33Z</time><extensions><speed>1.416084</speed><course>351.266986</course><hAcc>2.277082</hAcc><vAcc>1.722759</vAcc></extensions></trkpt>
      <trkpt lon="121.343596" lat="31.235392"><ele>7.840152</ele><time>2026-03-07T05:16:34Z</time><extensions><speed>1.377350</speed><course>347.475694</course><hAcc>2.268841</hAcc><vAcc>1.650700</vAcc></extensions></trkpt>
      <trkpt lon="121.343592" lat="31.235403"><ele>7.841535</ele><time>2026-03-07T05:16:35Z</time><extensions><speed>1.348070</speed><course>339.665258</course><hAcc>2.253464</hAcc><vAcc>1.574180</vAcc></extensions></trkpt>
      <trkpt lon="121.343586" lat="31.235414"><ele>7.846865</ele><time>2026-03-07T05:16:36Z</time><extensions><speed>1.309678</speed><course>329.918515</course><hAcc>2.231769</hAcc><vAcc>1.493380</vAcc></extensions></trkpt>
      <trkpt lon="121.343579" lat="31.235424"><ele>7.855876</ele><time>2026-03-07T05:16:37Z</time><extensions><speed>1.285475</speed><course>330.710061</course><hAcc>2.202857</hAcc><vAcc>1.408640</vAcc></extensions></trkpt>
      <trkpt lon="121.343574" lat="31.235435"><ele>7.868229</ele><time>2026-03-07T05:16:38Z</time><extensions><speed>1.253133</speed><course>340.843331</course><hAcc>2.167778</hAcc><vAcc>1.320518</vAcc></extensions></trkpt>
      <trkpt lon="121.343571" lat="31.235445"><ele>7.883420</ele><time>2026-03-07T05:16:39Z</time><extensions><speed>1.215385</speed><course>351.982773</course><hAcc>2.127135</hAcc><vAcc>1.229880</vAcc></extensions></trkpt>
      <trkpt lon="121.343570" lat="31.235456"><ele>7.900921</ele><time>2026-03-07T05:16:40Z</time><extensions><speed>1.182230</speed><course>4.026910</course><hAcc>2.081507</hAcc><vAcc>1.138020</vAcc></extensions></trkpt>
      <trkpt lon="121.343572" lat="31.235466"><ele>7.920060</ele><time>2026-03-07T05:16:41Z</time><extensions><speed>1.138643</speed><course>11.212601</course><hAcc>2.031279</hAcc><vAcc>1.046835</vAcc></extensions></trkpt>
      <trkpt lon="121.343575" lat="31.235476"><ele>7.940035</ele><time>2026-03-07T05:16:42Z</time><extensions><speed>1.073223</speed><course>15.951598</course><hAcc>1.979602</hAcc><vAcc>0.959059</vAcc></extensions></trkpt>
      <trkpt lon="121.343580" lat="31.235489"><ele>7.967547</ele><time>2026-03-07T05:16:44Z</time><extensions><speed>1.058345</speed><course>22.343513</course><hAcc>1.896775</hAcc><vAcc>0.841506</vAcc></extensions></trkpt>
      <trkpt lon="121.343584" lat="31.235498"><ele>7.985240</ele><time>2026-03-07T05:16:45Z</time><extensions><speed>1.105766</speed><course>19.114113</course><hAcc>1.841453</hAcc><vAcc>0.765760</vAcc></extensions></trkpt>
      <trkpt lon="121.343587" lat="31.235507"><ele>8.000690</ele><time>2026-03-07T05:16:46Z</time><extensions><speed>1.106476</speed><course>12.884956</course><hAcc>1.801945</hAcc><vAcc>0.702734</vAcc></extensions></trkpt>
      <trkpt lon="121.343588" lat="31.235517"><ele>8.013241</ele><time>2026-03-07T05:16:47Z</time><extensions><speed>1.075236</speed><course>1.230354</course><hAcc>1.772709</hAcc><vAcc>0.653115</vAcc></extensions></trkpt>
      <trkpt lon="121.343587" lat="31.235526"><ele>8.022478</ele><time>2026-03-07T05:16:48Z</time><extensions><speed>1.022360</speed><course>339.189651</course><hAcc>1.748251</hAcc><vAcc>0.616257</vAcc></extensions></trkpt>
      <trkpt lon="121.343583" lat="31.235535"><ele>8.028247</ele><time>2026-03-07T05:16:49Z</time><extensions><speed>1.128887</speed><course>339.622980</course><hAcc>1.720173</hAcc><vAcc>0.590508</vAcc></extensions></trkpt>
      <trkpt lon="121.343578" lat="31.235545"><ele>8.030502</ele><time>2026-03-07T05:16:50Z</time><extensions><speed>1.255011</speed><course>337.811562</course><hAcc>1.695505</hAcc><vAcc>0.573694</vAcc></extensions></trkpt>
      <trkpt lon="121.343573" lat="31.235555"><ele>8.029372</ele><time>2026-03-07T05:16:51Z</time><extensions><speed>1.137172</speed><course>334.292729</course><hAcc>1.686320</hAcc><vAcc>0.563631</vAcc></extensions></trkpt>
      <trkpt lon="121.343568" lat="31.235565"><ele>8.025084</ele><time>2026-03-07T05:16:52Z</time><extensions><speed>1.145462</speed><course>340.207840</course><hAcc>1.676484</hAcc><vAcc>0.558514</vAcc></extensions></trkpt>
      <trkpt lon="121.343565" lat="31.235575"><ele>8.017867</ele><time>2026-03-07T05:16:53Z</time><extensions><speed>1.181290</speed><course>346.957196</course><hAcc>1.675085</hAcc><vAcc>0.557154</vAcc></extensions></trkpt>
      <trkpt lon="121.343564" lat="31.235585"><ele>8.008120</ele><time>2026-03-07T05:16:54Z</time><extensions><speed>1.100295</speed><course>2.144431</course><hAcc>1.683572</hAcc><vAcc>0.559047</vAcc></extensions></trkpt>
      <trkpt lon="121.343565" lat="31.235595"><ele>7.995985</ele><time>2026-03-07T05:16:55Z</time><extensions><speed>1.169049</speed><course>8.524045</course><hAcc>1.688653</hAcc><vAcc>0.564355</vAcc></extensions></trkpt>
      <trkpt lon="121.343567" lat="31.235606"><ele>7.981948</ele><time>2026-03-07T05:16:56Z</time><extensions><speed>1.178219</speed><course>8.650603</course><hAcc>1.696656</hAcc><vAcc>0.573807</vAcc></extensions></trkpt>
      <trkpt lon="121.343568" lat="31.235617"><ele>7.966223</ele><time>2026-03-07T05:16:57Z</time><extensions><speed>1.295159</speed><course>6.793407</course><hAcc>1.701313</hAcc><vAcc>0.588528</vAcc></extensions></trkpt>
      <trkpt lon="121.343570" lat="31.235629"><ele>7.949238</ele><time>2026-03-07T05:16:58Z</time><extensions><speed>1.432309</speed><course>6.365271</course><hAcc>1.715679</hAcc><vAcc>0.609781</vAcc></extensions></trkpt>
      <trkpt lon="121.343572" lat="31.235642"><ele>7.931204</ele><time>2026-03-07T05:16:59Z</time><extensions><speed>1.530773</speed><course>5.982577</course><hAcc>1.746614</hAcc><vAcc>0.638628</vAcc></extensions></trkpt>
      <trkpt lon="121.343573" lat="31.235656"><ele>7.912559</ele><time>2026-03-07T05:17:00Z</time><extensions><speed>1.556454</speed><course>5.746234</course><hAcc>1.790622</hAcc><vAcc>0.675545</vAcc></extensions></trkpt>
      <trkpt lon="121.343575" lat="31.235670"><ele>7.893690</ele><time>2026-03-07T05:17:01Z</time><extensions><speed>1.563842</speed><course>5.470106</course><hAcc>1.832966</hAcc><vAcc>0.720079</vAcc></extensions></trkpt>
      <trkpt lon="121.343577" lat="31.235684"><ele>7.875007</ele><time>2026-03-07T05:17:02Z</time><extensions><speed>1.572263</speed><course>4.926940</course><hAcc>1.861275</hAcc><vAcc>0.770597</vAcc></extensions></trkpt>
      <trkpt lon="121.343577" lat="31.235691"><ele>7.865545</ele><time>2026-03-07T05:17:02Z</time><extensions><speed>1.564613</speed><course>5.048001</course><hAcc>1.877681</hAcc><vAcc>0.799960</vAcc></extensions></trkpt>
      <trkpt lon="121.343579" lat="31.235705"><ele>7.847894</ele><time>2026-03-07T05:17:03Z</time><extensions><speed>1.529430</speed><course>7.325810</course><hAcc>1.909516</hAcc><vAcc>0.858714</vAcc></extensions></trkpt>
      <trkpt lon="121.343581" lat="31.235719"><ele>7.831365</ele><time>2026-03-07T05:17:04Z</time><extensions><speed>1.462826</speed><course>8.296294</course><hAcc>1.933309</hAcc><vAcc>0.915626</vAcc></extensions></trkpt>
      <trkpt lon="121.343583" lat="31.235732"><ele>7.816411</ele><time>2026-03-07T05:17:05Z</time><extensions><speed>1.429252</speed><course>7.532086</course><hAcc>1.956751</hAcc><vAcc>0.968455</vAcc></extensions></trkpt>
      <trkpt lon="121.343585" lat="31.235744"><ele>7.803329</ele><time>2026-03-07T05:17:06Z</time><extensions><speed>1.453393</speed><course>5.532694</course><hAcc>1.981178</hAcc><vAcc>1.015528</vAcc></extensions></trkpt>
      <trkpt lon="121.343586" lat="31.235758"><ele>7.792331</ele><time>2026-03-07T05:17:07Z</time><extensions><speed>1.481838</speed><course>2.781356</course><hAcc>2.001575</hAcc><vAcc>1.055689</vAcc></extensions></trkpt>
      <trkpt lon="121.343587" lat="31.235771"><ele>7.783570</ele><time>2026-03-07T05:17:08Z</time><extensions><speed>1.525157</speed><course>2.418712</course><hAcc>2.004346</hAcc><vAcc>1.088242</vAcc></extensions></trkpt>
      <trkpt lon="121.343587" lat="31.235785"><ele>7.777289</ele><time>2026-03-07T05:17:09Z</time><extensions><speed>1.543209</speed><course>0.197563</course><hAcc>1.996537</hAcc><vAcc>1.112911</vAcc></extensions></trkpt>
      <trkpt lon="121.343587" lat="31.235799"><ele>7.773613</ele><time>2026-03-07T05:17:10Z</time><extensions><speed>1.532355</speed><course>355.752483</course><hAcc>1.983514</hAcc><vAcc>1.129824</vAcc></extensions></trkpt>
      <trkpt lon="121.343585" lat="31.235812"><ele>7.772674</ele><time>2026-03-07T05:17:11Z</time><extensions><speed>1.506890</speed><course>353.901370</course><hAcc>1.967712</hAcc><vAcc>1.139521</vAcc></extensions></trkpt>
      <trkpt lon="121.343583" lat="31.235826"><ele>7.774140</ele><time>2026-03-07T05:17:12Z</time><extensions><speed>1.464733</speed><course>353.438296</course><hAcc>1.950341</hAcc><vAcc>1.142978</vAcc></extensions></trkpt>
      <trkpt lon="121.343582" lat="31.235838"><ele>7.778014</ele><time>2026-03-07T05:17:13Z</time><extensions><speed>1.404721</speed><course>355.615834</course><hAcc>1.930192</hAcc><vAcc>1.141656</vAcc></extensions></trkpt>
      <trkpt lon="121.343581" lat="31.235850"><ele>7.784057</ele><time>2026-03-07T05:17:14Z</time><extensions><speed>1.283647</speed><course>353.310279</course><hAcc>1.911470</hAcc><vAcc>1.137551</vAcc></extensions></trkpt>
      <trkpt lon="121.343578" lat="31.235861"><ele>7.791959</ele><time>2026-03-07T05:17:15Z</time><extensions><speed>1.125268</speed><course>345.197520</course><hAcc>1.894220</hAcc><vAcc>1.133237</vAcc></extensions></trkpt>
      <trkpt lon="121.343574" lat="31.235869"><ele>7.801407</ele><time>2026-03-07T05:17:16Z</time><extensions><speed>0.936186</speed><course>322.857043</course><hAcc>1.878932</hAcc><vAcc>1.131853</vAcc></extensions></trkpt>
      <trkpt lon="121.343569" lat="31.235878"><ele>7.812036</ele><time>2026-03-07T05:17:17Z</time><extensions><speed>1.197955</speed><course>342.132991</course><hAcc>1.854797</hAcc><vAcc>1.137003</vAcc></extensions></trkpt>
      <trkpt lon="121.343567" lat="31.235883"><ele>7.817824</ele><time>2026-03-07T05:17:18Z</time><extensions><speed>1.263646</speed><course>345.507348</course><hAcc>1.843816</hAcc><vAcc>1.144338</vAcc></extensions></trkpt>
      <trkpt lon="121.343565" lat="31.235896"><ele>7.829135</ele><time>2026-03-07T05:17:19Z</time><extensions><speed>1.485217</speed><course>354.726516</course><hAcc>1.826652</hAcc><vAcc>1.169279</vAcc></extensions></trkpt>
      <trkpt lon="121.343563" lat="31.235917"><ele>7.845649</ele><time>2026-03-07T05:17:20Z</time><extensions><speed>1.797215</speed><course>356.554904</course><hAcc>1.781874</hAcc><vAcc>1.221618</vAcc></extensions></trkpt>
      <trkpt lon="121.343560" lat="31.235933"><ele>7.856324</ele><time>2026-03-07T05:17:21Z</time><extensions><speed>1.672227</speed><course>347.660659</course><hAcc>1.759578</hAcc><vAcc>1.266053</vAcc></extensions></trkpt>
      <trkpt lon="121.343557" lat="31.235947"><ele>7.866352</ele><time>2026-03-07T05:17:22Z</time><extensions><speed>1.524754</speed><course>347.402642</course><hAcc>1.753710</hAcc><vAcc>1.317383</vAcc></extensions></trkpt>
      <trkpt lon="121.343554" lat="31.235960"><ele>7.875533</ele><time>2026-03-07T05:17:23Z</time><extensions><speed>1.456493</speed><course>354.071226</course><hAcc>1.744098</hAcc><vAcc>1.372828</vAcc></extensions></trkpt>
      <trkpt lon="121.343553" lat="31.235973"><ele>7.883711</ele><time>2026-03-07T05:17:24Z</time><extensions><speed>1.423985</speed><course>355.292782</course><hAcc>1.729286</hAcc><vAcc>1.430119</vAcc></extensions></trkpt>
      <trkpt lon="121.343552" lat="31.235985"><ele>7.890738</ele><time>2026-03-07T05:17:25Z</time><extensions><speed>1.391290</speed><course>358.783857</course><hAcc>1.713576</hAcc><vAcc>1.487494</vAcc></extensions></trkpt>
      <trkpt lon="121.343552" lat="31.235998"><ele>7.896384</ele><time>2026-03-07T05:17:26Z</time><extensions><speed>1.341299</speed><course>2.456583</course><hAcc>1.699074</hAcc><vAcc>1.543633</vAcc></extensions></trkpt>
      <trkpt lon="121.343552" lat="31.236009"><ele>7.900669</ele><time>2026-03-07T05:17:27Z</time><extensions><speed>1.268535</speed><course>357.462988</course><hAcc>1.685637</hAcc><vAcc>1.597590</vAcc></extensions></trkpt>
      <trkpt lon="121.343551" lat="31.236020"><ele>7.903527</ele><time>2026-03-07T05:17:28Z</time><extensions><speed>1.159970</speed><course>347.659825</course><hAcc>1.673747</hAcc><vAcc>1.648716</vAcc></extensions></trkpt>
      <trkpt lon="121.343548" lat="31.236030"><ele>7.904988</ele><time>2026-03-07T05:17:29Z</time><extensions><speed>1.168298</speed><course>347.392011</course><hAcc>1.667521</hAcc><vAcc>1.696600</vAcc></extensions></trkpt>
      <trkpt lon="121.343546" lat="31.236041"><ele>7.904995</ele><time>2026-03-07T05:17:30Z</time><extensions><speed>1.219484</speed><course>353.544154</course><hAcc>1.668099</hAcc><vAcc>1.741012</vAcc></extensions></trkpt>
      <trkpt lon="121.343545" lat="31.236052"><ele>7.903677</ele><time>2026-03-07T05:17:31Z</time><extensions><speed>1.194212</speed><course>355.001312</course><hAcc>1.673845</hAcc><vAcc>1.781864</vAcc></extensions></trkpt>
      <trkpt lon="121.343543" lat="31.236062"><ele>7.901247</ele><time>2026-03-07T05:17:32Z</time><extensions><speed>1.227600</speed><course>346.887843</course><hAcc>1.675027</hAcc><vAcc>1.819164</vAcc></extensions></trkpt>
      <trkpt lon="121.343539" lat="31.236073"><ele>7.897425</ele><time>2026-03-07T05:17:33Z</time><extensions><speed>1.164544</speed><course>341.125436</course><hAcc>1.679551</hAcc><vAcc>1.852993</vAcc></extensions></trkpt>
      <trkpt lon="121.343535" lat="31.236082"><ele>7.892508</ele><time>2026-03-07T05:17:34Z</time><extensions><speed>1.166909</speed><course>337.365638</course><hAcc>1.679624</hAcc><vAcc>1.883474</vAcc></extensions></trkpt>
      <trkpt lon="121.343530" lat="31.236092"><ele>7.886438</ele><time>2026-03-07T05:17:35Z</time><extensions><speed>1.198981</speed><course>334.387418</course><hAcc>1.686144</hAcc><vAcc>1.910757</vAcc></extensions></trkpt>
      <trkpt lon="121.343525" lat="31.236102"><ele>7.879134</ele><time>2026-03-07T05:17:36Z</time><extensions><speed>1.240465</speed><course>336.255206</course><hAcc>1.698091</hAcc><vAcc>1.935008</vAcc></extensions></trkpt>
      <trkpt lon="121.343520" lat="31.236113"><ele>7.870507</ele><time>2026-03-07T05:17:37Z</time><extensions><speed>1.289772</speed><course>338.306913</course><hAcc>1.713697</hAcc><vAcc>1.956400</vAcc></extensions></trkpt>
      <trkpt lon="121.343514" lat="31.236124"><ele>7.860603</ele><time>2026-03-07T05:17:38Z</time><extensions><speed>1.322014</speed><course>338.157811</course><hAcc>1.732983</hAcc><vAcc>1.975104</vAcc></extensions></trkpt>
      <trkpt lon="121.343509" lat="31.236134"><ele>7.849485</ele><time>2026-03-07T05:17:39Z</time><extensions><speed>1.274363</speed><course>336.758345</course><hAcc>1.754263</hAcc><vAcc>1.991288</vAcc></extensions></trkpt>
      <trkpt lon="121.343504" lat="31.236145"><ele>7.837115</ele><time>2026-03-07T05:17:40Z</time><extensions><speed>1.294213</speed><course>337.296095</course><hAcc>1.765548</hAcc><vAcc>2.005113</vAcc></extensions></trkpt>
      <trkpt lon="121.343499" lat="31.236156"><ele>7.823550</ele><time>2026-03-07T05:17:41Z</time><extensions><speed>1.216673</speed><course>341.816390</course><hAcc>1.773760</hAcc><vAcc>2.016739</vAcc></extensions></trkpt>
      <trkpt lon="121.343497" lat="31.236166"><ele>7.808981</ele><time>2026-03-07T05:17:42Z</time><extensions><speed>1.240875</speed><course>354.423959</course><hAcc>1.771527</hAcc><vAcc>2.026331</vAcc></extensions></trkpt>
      <trkpt lon="121.343497" lat="31.236178"><ele>7.793624</ele><time>2026-03-07T05:17:43Z</time><extensions><speed>1.285463</speed><course>2.947573</course><hAcc>1.769619</hAcc><vAcc>2.034056</vAcc></extensions></trkpt>
      <trkpt lon="121.343498" lat="31.236189"><ele>7.777761</ele><time>2026-03-07T05:17:44Z</time><extensions><speed>1.216013</speed><course>8.105426</course><hAcc>1.769758</hAcc><vAcc>2.040091</vAcc></extensions></trkpt>
      <trkpt lon="121.343500" lat="31.236199"><ele>7.761583</ele><time>2026-03-07T05:17:45Z</time><extensions><speed>1.165413</speed><course>9.912503</course><hAcc>1.756903</hAcc><vAcc>2.044618</vAcc></extensions></trkpt>
      <trkpt lon="121.343502" lat="31.236210"><ele>7.745204</ele><time>2026-03-07T05:17:46Z</time><extensions><speed>1.177320</speed><course>9.475186</course><hAcc>1.735238</hAcc><vAcc>2.047830</vAcc></extensions></trkpt>
      <trkpt lon="121.343504" lat="31.236220"><ele>7.728997</ele><time>2026-03-07T05:17:47Z</time><extensions><speed>1.204997</speed><course>11.473473</course><hAcc>1.712520</hAcc><vAcc>2.049925</vAcc></extensions></trkpt>
      <trkpt lon="121.343507" lat="31.236231"><ele>7.713021</ele><time>2026-03-07T05:17:48Z</time><extensions><speed>1.306150</speed><course>13.088855</course><hAcc>1.694163</hAcc><vAcc>2.051115</vAcc></extensions></trkpt>
      <trkpt lon="121.343510" lat="31.236243"><ele>7.697739</ele><time>2026-03-07T05:17:49Z</time><extensions><speed>1.362813</speed><course>14.484230</course><hAcc>1.687303</hAcc><vAcc>2.051613</vAcc></extensions></trkpt>
      <trkpt lon="121.343514" lat="31.236255"><ele>7.683196</ele><time>2026-03-07T05:17:50Z</time><extensions><speed>1.318752</speed><course>15.054575</course><hAcc>1.686190</hAcc><vAcc>2.051628</vAcc></extensions></trkpt>
      <trkpt lon="121.343517" lat="31.236266"><ele>7.669916</ele><time>2026-03-07T05:17:51Z</time><extensions><speed>1.349113</speed><course>13.350886</course><hAcc>1.673742</hAcc><vAcc>2.051362</vAcc></extensions></trkpt>
      <trkpt lon="121.343520" lat="31.236278"><ele>7.657651</ele><time>2026-03-07T05:17:52Z</time><extensions><speed>1.371031</speed><course>10.308077</course><hAcc>1.662229</hAcc><vAcc>2.051010</vAcc></extensions></trkpt>
      <trkpt lon="121.343522" lat="31.236290"><ele>7.646771</ele><time>2026-03-07T05:17:53Z</time><extensions><speed>1.363602</speed><course>5.961824</course><hAcc>1.658360</hAcc><vAcc>2.050757</vAcc></extensions></trkpt>
      <trkpt lon="121.343523" lat="31.236302"><ele>7.637411</ele><time>2026-03-07T05:17:54Z</time><extensions><speed>1.324526</speed><course>2.252326</course><hAcc>1.658740</hAcc><vAcc>2.050758</vAcc></extensions></trkpt>
      <trkpt lon="121.343523" lat="31.236314"><ele>7.628370</ele><time>2026-03-07T05:17:55Z</time><extensions><speed>1.326482</speed><course>0.360508</course><hAcc>1.658161</hAcc><vAcc>2.051366</vAcc></extensions></trkpt>
      <trkpt lon="121.343523" lat="31.236326"><ele>7.620625</ele><time>2026-03-07T05:17:56Z</time><extensions><speed>1.353652</speed><course>359.367558</course><hAcc>1.658173</hAcc><vAcc>2.052517</vAcc></extensions></trkpt>
      <trkpt lon="121.343523" lat="31.236339"><ele>7.614184</ele><time>2026-03-07T05:17:57Z</time><extensions><speed>1.386315</speed><course>359.084868</course><hAcc>1.660551</hAcc><vAcc>2.054290</vAcc></extensions></trkpt>
      <trkpt lon="121.343523" lat="31.236351"><ele>7.609050</ele><time>2026-03-07T05:17:58Z</time><extensions><speed>1.359319</speed><course>359.116496</course><hAcc>1.663259</hAcc><vAcc>2.056735</vAcc></extensions></trkpt>
      <trkpt lon="121.343523" lat="31.236363"><ele>7.605234</ele><time>2026-03-07T05:17:59Z</time><extensions><speed>1.368727</speed><course>359.124313</course><hAcc>1.659713</hAcc><vAcc>2.059879</vAcc></extensions></trkpt>
      <trkpt lon="121.343523" lat="31.236375"><ele>7.602776</ele><time>2026-03-07T05:18:00Z</time><extensions><speed>1.331700</speed><course>359.472910</course><hAcc>1.659160</hAcc><vAcc>2.063720</vAcc></extensions></trkpt>
      <trkpt lon="121.343522" lat="31.236387"><ele>7.601750</ele><time>2026-03-07T05:18:01Z</time><extensions><speed>1.337090</speed><course>359.326763</course><hAcc>1.653197</hAcc><vAcc>2.068230</vAcc></extensions></trkpt>
      <trkpt lon="121.343522" lat="31.236399"><ele>7.602252</ele><time>2026-03-07T05:18:02Z</time><extensions><speed>1.348799</speed><course>358.700233</course><hAcc>1.652197</hAcc><vAcc>2.073362</vAcc></extensions></trkpt>
      <trkpt lon="121.343522" lat="31.236412"><ele>7.604385</ele><time>2026-03-07T05:18:03Z</time><extensions><speed>1.357385</speed><course>357.287581</course><hAcc>1.659857</hAcc><vAcc>2.079046</vAcc></extensions></trkpt>
      <trkpt lon="121.343521" lat="31.236423"><ele>7.608255</ele><time>2026-03-07T05:18:04Z</time><extensions><speed>1.259201</speed><course>356.034467</course><hAcc>1.666042</hAcc><vAcc>2.085198</vAcc></extensions></trkpt>
      <trkpt lon="121.343520" lat="31.236434"><ele>7.613963</ele><time>2026-03-07T05:18:05Z</time><extensions><speed>1.223760</speed><course>358.296335</course><hAcc>1.665208</hAcc><vAcc>2.091730</vAcc></extensions></trkpt>
      <trkpt lon="121.343520" lat="31.236446"><ele>7.621608</ele><time>2026-03-07T05:18:06Z</time><extensions><speed>1.262452</speed><course>0.451822</course><hAcc>1.679560</hAcc><vAcc>2.098564</vAcc></extensions></trkpt>
      <trkpt lon="121.343521" lat="31.236457"><ele>7.631285</ele><time>2026-03-07T05:18:07Z</time><extensions><speed>1.347542</speed><course>3.378215</course><hAcc>1.706722</hAcc><vAcc>2.105638</vAcc></extensions></trkpt>
      <trkpt lon="121.343522" lat="31.236469"><ele>7.643090</ele><time>2026-03-07T05:18:08Z</time><extensions><speed>1.312027</speed><course>7.052943</course><hAcc>1.737431</hAcc><vAcc>2.112914</vAcc></extensions></trkpt>
      <trkpt lon="121.343524" lat="31.236481"><ele>7.657113</ele><time>2026-03-07T05:18:09Z</time><extensions><speed>1.343744</speed><course>9.744428</course><hAcc>1.763644</hAcc><vAcc>2.120380</vAcc></extensions></trkpt>
      <trkpt lon="121.343526" lat="31.236493"><ele>7.673420</ele><time>2026-03-07T05:18:10Z</time><extensions><speed>1.428425</speed><course>10.775964</course><hAcc>1.788796</hAcc><vAcc>2.128049</vAcc></extensions></trkpt>
      <trkpt lon="121.343529" lat="31.236506"><ele>7.692034</ele><time>2026-03-07T05:18:11Z</time><extensions><speed>1.406904</speed><course>9.984205</course><hAcc>1.815716</hAcc><vAcc>2.135963</vAcc></extensions></trkpt>
      <trkpt lon="121.343531" lat="31.236519"><ele>7.712936</ele><time>2026-03-07T05:18:12Z</time><extensions><speed>1.462871</speed><course>8.007922</course><hAcc>1.838027</hAcc><vAcc>2.144178</vAcc></extensions></trkpt>
      <trkpt lon="121.343533" lat="31.236532"><ele>7.736061</ele><time>2026-03-07T05:18:13Z</time><extensions><speed>1.450478</speed><course>6.637669</course><hAcc>1.866462</hAcc><vAcc>2.152762</vAcc></extensions></trkpt>
      <trkpt lon="121.343535" lat="31.236544"><ele>7.761299</ele><time>2026-03-07T05:18:14Z</time><extensions><speed>1.386712</speed><course>3.248658</course><hAcc>1.893523</hAcc><vAcc>2.161780</vAcc></extensions></trkpt>
      <trkpt lon="121.343536" lat="31.236557"><ele>7.788493</ele><time>2026-03-07T05:18:15Z</time><extensions><speed>1.393328</speed><course>3.088388</course><hAcc>1.901779</hAcc><vAcc>2.171284</vAcc></extensions></trkpt>
      <trkpt lon="121.343537" lat="31.236569"><ele>7.817438</ele><time>2026-03-07T05:18:16Z</time><extensions><speed>1.410050</speed><course>5.727481</course><hAcc>1.901679</hAcc><vAcc>2.181308</vAcc></extensions></trkpt>
      <trkpt lon="121.343538" lat="31.236582"><ele>7.847884</ele><time>2026-03-07T05:18:17Z</time><extensions><speed>1.383876</speed><course>6.447637</course><hAcc>1.900991</hAcc><vAcc>2.191873</vAcc></extensions></trkpt>
      <trkpt lon="121.343540" lat="31.236594"><ele>7.879528</ele><time>2026-03-07T05:18:18Z</time><extensions><speed>1.354947</speed><course>5.017214</course><hAcc>1.902057</hAcc><vAcc>2.202990</vAcc></extensions></trkpt>
      <trkpt lon="121.343540" lat="31.236606"><ele>7.912027</ele><time>2026-03-07T05:18:19Z</time><extensions><speed>1.378824</speed><course>0.411986</course><hAcc>1.903367</hAcc><vAcc>2.214660</vAcc></extensions></trkpt>
      <trkpt lon="121.343541" lat="31.236619"><ele>7.945138</ele><time>2026-03-07T05:18:20Z</time><extensions><speed>1.428020</speed><course>2.856707</course><hAcc>1.912083</hAcc><vAcc>2.226887</vAcc></extensions></trkpt>
      <trkpt lon="121.343541" lat="31.236628"><ele>7.969440</ele><time>2026-03-07T05:18:21Z</time><extensions><speed>1.395660</speed><course>4.173638</course><hAcc>1.927710</hAcc><vAcc>2.237185</vAcc></extensions></trkpt>
      <trkpt lon="121.343543" lat="31.236641"><ele>8.002667</ele><time>2026-03-07T05:18:22Z</time><extensions><speed>1.435103</speed><course>6.991959</course><hAcc>1.960801</hAcc><vAcc>2.253201</vAcc></extensions></trkpt>
      <trkpt lon="121.343545" lat="31.236653"><ele>8.035613</ele><time>2026-03-07T05:18:23Z</time><extensions><speed>1.307916</speed><course>7.196817</course><hAcc>2.010749</hAcc><vAcc>2.269909</vAcc></extensions></trkpt>
      <trkpt lon="121.343546" lat="31.236664"><ele>8.068084</ele><time>2026-03-07T05:18:24Z</time><extensions><speed>1.200382</speed><course>1.564521</course><hAcc>2.075659</hAcc><vAcc>2.287520</vAcc></extensions></trkpt>
      <trkpt lon="121.343544" lat="31.236673"><ele>8.099954</ele><time>2026-03-07T05:18:25Z</time><extensions><speed>0.807483</speed><course>341.521169</course><hAcc>2.158929</hAcc><vAcc>2.306276</vAcc></extensions></trkpt>
      <trkpt lon="121.343543" lat="31.236681"><ele>8.131167</ele><time>2026-03-07T05:18:26Z</time><extensions><speed>0.968224</speed><course>354.049407</course><hAcc>2.240626</hAcc><vAcc>2.326465</vAcc></extensions></trkpt>
      <trkpt lon="121.343542" lat="31.236690"><ele>8.161737</ele><time>2026-03-07T05:18:27Z</time><extensions><speed>1.023972</speed><course>358.667940</course><hAcc>2.314248</hAcc><vAcc>2.348423</vAcc></extensions></trkpt>
      <trkpt lon="121.343542" lat="31.236699"><ele>8.191722</ele><time>2026-03-07T05:18:28Z</time><extensions><speed>0.951534</speed><course>0.595628</course><hAcc>2.378924</hAcc><vAcc>2.372548</vAcc></extensions></trkpt>
      <trkpt lon="121.343542" lat="31.236707"><ele>8.221200</ele><time>2026-03-07T05:18:29Z</time><extensions><speed>0.812399</speed><course>1.632663</course><hAcc>2.438686</hAcc><vAcc>2.399298</vAcc></extensions></trkpt>
      <trkpt lon="121.343542" lat="31.236715"><ele>8.250252</ele><time>2026-03-07T05:18:30Z</time><extensions><speed>0.908511</speed><course>2.242768</course><hAcc>2.497150</hAcc><vAcc>2.429193</vAcc></extensions></trkpt>
      <trkpt lon="121.343543" lat="31.236724"><ele>8.278953</ele><time>2026-03-07T05:18:31Z</time><extensions><speed>1.087633</speed><course>2.445803</course><hAcc>2.555614</hAcc><vAcc>2.462801</vAcc></extensions></trkpt>
      <trkpt lon="121.343543" lat="31.236734"><ele>8.307350</ele><time>2026-03-07T05:18:32Z</time><extensions><speed>1.262139</speed><course>2.476390</course><hAcc>2.619500</hAcc><vAcc>2.500734</vAcc></extensions></trkpt>
      <trkpt lon="121.343544" lat="31.236746"><ele>8.335451</ele><time>2026-03-07T05:18:33Z</time><extensions><speed>1.334738</speed><course>2.470705</course><hAcc>2.691173</hAcc><vAcc>2.543649</vAcc></extensions></trkpt>
      <trkpt lon="121.343545" lat="31.236758"><ele>8.363231</ele><time>2026-03-07T05:18:34Z</time><extensions><speed>1.348109</speed><course>2.444370</course><hAcc>2.770296</hAcc><vAcc>2.592263</vAcc></extensions></trkpt>
      <trkpt lon="121.343545" lat="31.236770"><ele>8.390648</ele><time>2026-03-07T05:18:35Z</time><extensions><speed>1.341165</speed><course>2.391138</course><hAcc>2.855181</hAcc><vAcc>2.647358</vAcc></extensions></trkpt>
      <trkpt lon="121.343546" lat="31.236782"><ele>8.417662</ele><time>2026-03-07T05:18:36Z</time><extensions><speed>1.359377</speed><course>2.303895</course><hAcc>2.938608</hAcc><vAcc>2.709776</vAcc></extensions></trkpt>
      <trkpt lon="121.343546" lat="31.236795"><ele>8.444241</ele><time>2026-03-07T05:18:37Z</time><extensions><speed>1.370222</speed><course>2.272400</course><hAcc>3.016956</hAcc><vAcc>2.780425</vAcc></extensions></trkpt>
      <trkpt lon="121.343547" lat="31.236807"><ele>8.470366</ele><time>2026-03-07T05:18:38Z</time><extensions><speed>1.382730</speed><course>2.222695</course><hAcc>3.104932</hAcc><vAcc>2.860278</vAcc></extensions></trkpt>
      <trkpt lon="121.343547" lat="31.236820"><ele>8.496022</ele><time>2026-03-07T05:18:39Z</time><extensions><speed>1.381981</speed><course>2.175569</course><hAcc>3.204870</hAcc><vAcc>2.950370</vAcc></extensions></trkpt>
      <trkpt lon="121.343548" lat="31.236832"><ele>8.521202</ele><time>2026-03-07T05:18:40Z</time><extensions><speed>1.342935</speed><course>2.126549</course><hAcc>3.316322</hAcc><vAcc>3.051799</vAcc></extensions></trkpt>
      <trkpt lon="121.343548" lat="31.236844"><ele>8.545914</ele><time>2026-03-07T05:18:41Z</time><extensions><speed>1.310421</speed><course>2.085077</course><hAcc>3.437857</hAcc><vAcc>3.165724</vAcc></extensions></trkpt>
      <trkpt lon="121.343549" lat="31.236855"><ele>8.570185</ele><time>2026-03-07T05:18:42Z</time><extensions><speed>1.191940</speed><course>2.045225</course><hAcc>3.571712</hAcc><vAcc>3.293366</vAcc></extensions></trkpt>
      <trkpt lon="121.343549" lat="31.236865"><ele>8.594083</ele><time>2026-03-07T05:18:43Z</time><extensions><speed>1.083946</speed><course>2.019318</course><hAcc>3.726284</hAcc><vAcc>3.436010</vAcc></extensions></trkpt>
      <trkpt lon="121.343549" lat="31.236865"><ele>8.594084</ele><time>2026-03-07T05:18:43Z</time><extensions><speed>1.083946</speed><course>2.019318</course><hAcc>3.726298</hAcc><vAcc>3.436022</vAcc></extensions></trkpt>
    </trkseg>
  </trk>
</gpx>