<?xml version="1.0" encoding="UTF-8"?>
<gpx xmlns="http://www.topografix.com/GPX/1/1" xmlns:gpxtpx="http://www.garmin.com/xmlschemas/TrackPointExtension/v1" xmlns:xsi="http://www.w3.org/2001/XMLSchema-instance" xsi:schemaLocation="http://www.topografix.com/GPX/1/1 http://www.topografix.com/GPX/1/1/gpx.xsd" version="1.1" creator="gpx.py -- https://github.com/tkrajina/gpxpy">
  <trk>
    <name>gpx from keep</name>
    <type>Run</type>
    <trkseg>
      <trkpt lat="31.204914603197487" lon="121.61050420740622">
        <ele>8.849133181280294</ele>
        <time>2020-09-18T00:11:39Z</time>
      </trkpt>
      <trkpt lat="31.204976961833257" lon="121.61050772662117">
        <ele>8.80958166562949</ele>
        <time>2020-09-18T00:11:41Z</time>
      </trkpt>
      <trkpt lat="31.205015239288272" lon="121.61044103143898">
        <ele>8.837155164364486</ele>
        <time>2020-09-18T00:11:45Z</time>
      </trkpt>
      <trkpt lat="31.20502748910337" lon="121.61037216935672">
        <ele>8.776347152888775</ele>
        <time>2020-09-18T00:11:48Z</time>
      </trkpt>
      <trkpt lat="31.205119443012595" lon="121.61031685586282">
        <ele>8.581754746846855</ele>
        <time>2020-09-18T00:11:52Z</time>
      </trkpt>
      <trkpt lat="31.205221755970545" lon="121.6101815642858">
        <ele>8.129577715881169</ele>
        <time>2020-09-18T00:11:59Z</time>
      </trkpt>
      <trkpt lat="31.205280602973083" lon="121.61016637729718">
        <ele>7.965479586273432</ele>
        <time>2020-09-18T00:12:03Z</time>
      </trkpt>
      <trkpt lat="31.205517290065455" lon="121.61018669093026">
        <ele>8.26937849726528</ele>
        <time>2020-09-18T00:12:07Z</time>
      </trkpt>
      <trkpt lat="31.20575597379494" lon="121.61045181444695">
        <ele>6.841455835849047</ele>
        <time>2020-09-18T00:12:19Z</time>
      </trkpt>
      <trkpt lat="31.20580935978761" lon="121.61049084926837">
        <ele>5.950835732743144</ele>
        <time>2020-09-18T00:12:22Z</time>
      </trkpt>
      <trkpt lat="31.20600467750573" lon="121.61072994697115">
        <ele>7.238255193457007</ele>
        <time>2020-09-18T00:12:34Z</time>
      </trkpt>
      <trkpt lat="31.206063468578762" lon="121.61079283785337">
        <ele>5.935458681546152</ele>
        <time>2020-09-18T00:12:37Z</time>
      </trkpt>
      <trkpt lat="31.20618477897391" lon="121.61101079276204">
        <ele>6.335132378153503</ele>
        <time>2020-09-18T00:12:46Z</time>
      </trkpt>
      <trkpt lat="31.206364681499466" lon="121.61118997387237">
        <ele>7.644944021478295</ele>
        <time>2020-09-18T00:12:55Z</time>
      </trkpt>
      <trkpt lat="31.20641451436395" lon="121.61126587685635">
        <ele>6.719085176475346</ele>
        <time>2020-09-18T00:12:58Z</time>
      </trkpt>
      <trkpt lat="31.206644537550467" lon="121.61149547529752">
        <ele>5.20462395530194</ele>
        <time>2020-09-18T00:13:10Z</time>
      </trkpt>
      <trkpt lat="31.20667972596216" lon="121.61157436050102">
        <ele>7.151974153704941</ele>
        <time>2020-09-18T00:13:13Z</time>
      </trkpt>
      <trkpt lat="31.20640623989535" lon="121.61181375672844">
        <ele>7.052968830801547</ele>
        <time>2020-09-18T00:13:28Z</time>
      </trkpt>
      <trkpt lat="31.20617315510316" lon="121.61204772538879">
        <ele>7.6414549350738525</ele>
        <time>2020-09-18T00:13:40Z</time>
      </trkpt>
      <trkpt lat="31.20595879310769" lon="121.61226054554146">
        <ele>7.780843087472022</ele>
        <time>2020-09-18T00:13:51Z</time>
      </trkpt>
      <trkpt lat="31.20569967456893" lon="121.61249559616881">
        <ele>7.1917950278148055</ele>
        <time>2020-09-18T00:14:03Z</time>
      </trkpt>
      <trkpt lat="31.205608484832844" lon="121.61260728918631">
        <ele>7.3015895169228315</ele>
        <time>2020-09-18T00:14:07Z</time>
      </trkpt>
      <trkpt lat="31.20549805932217" lon="121.61269973662">
        <ele>6.388568004593253</ele>
        <time>2020-09-18T00:14:11Z</time>
      </trkpt>
      <trkpt lat="31.205428574744957" lon="121.61279245138029">
        <ele>7.199460784904659</ele>
        <time>2020-09-18T00:14:15Z</time>
      </trkpt>
      <trkpt lat="31.20536075489017" lon="121.6128374559678">
        <ele>7.733613732270896</ele>
        <time>2020-09-18T00:14:19Z</time>
      </trkpt>
      <trkpt lat="31.205309710757465" lon="121.6129255603494">
        <ele>7.679738008417189</ele>
        <time>2020-09-18T00:14:23Z</time>
      </trkpt>
      <trkpt lat="31.20506470906406" lon="121.6131315981504">
        <ele>8.320174243301153</ele>
        <time>2020-09-18T00:14:35Z</time>
      </trkpt>
      <trkpt lat="31.204910291009618" lon="121.61330591118822">
        <ele>7.5165872648358345</ele>
        <time>2020-09-18T00:14:43Z</time>
      </trkpt>
      <trkpt lat="31.204833190955032" lon="121.61342491809263">
        <ele>6.593878369778395</ele>
        <time>2020-09-18T00:14:47Z</time>
      </trkpt>
      <trkpt lat="31.204758318090125" lon="121.61347290382572">
        <ele>7.876055743545294</ele>
        <time>2020-09-18T00:14:50Z</time>
      </trkpt>
      <trkpt lat="31.20454418311495" lon="121.61372528689216">
        <ele>7.007377203553915</ele>
        <time>2020-09-18T00:15:00Z</time>
      </trkpt>
      <trkpt lat="31.204409330542415" lon="121.61384294112315">
        <ele>7.781492158770561</ele>
        <time>2020-09-18T00:15:06Z</time>
      </trkpt>
      <trkpt lat="31.204178900599548" lon="121.61412297004013">
        <ele>7.166529166512191</ele>
        <time>2020-09-18T00:15:18Z</time>
      </trkpt>
      <trkpt lat="31.20410700302477" lon="121.61417800173624">
        <ele>7.860971139743924</ele>
        <time>2020-09-18T00:15:21Z</time>
      </trkpt>
      <trkpt lat="31.20396614342661" lon="121.61434254775033">
        <ele>7.315806669183075</ele>
        <time>2020-09-18T00:15:28Z</time>
      </trkpt>
      <trkpt lat="31.20371677025013" lon="121.61457486619156">
        <ele>6.506479323841631</ele>
        <time>2020-09-18T00:15:40Z</time>
      </trkpt>
      <trkpt lat="31.203697729495545" lon="121.61464561379366">
        <ele>7.1956544844433665</ele>
        <time>2020-09-18T00:15:43Z</time>
      </trkpt>
      <trkpt lat="31.2037098601296" lon="121.61472665874831">
        <ele>7.489331235177815</ele>
        <time>2020-09-18T00:15:46Z</time>
      </trkpt>
      <trkpt lat="31.20383434278571" lon="121.61500014265322">
        <ele>6.7739475620910525</ele>
        <time>2020-09-18T00:15:57Z</time>
      </trkpt>
      <trkpt lat="31.20380311444375" lon="121.61505435580688">
        <ele>6.522799601778388</ele>
        <time>2020-09-18T00:16:09Z</time>
      </trkpt>
      <trkpt lat="31.203742050096306" lon="121.61512103969162">
        <ele>7.537112168967724</ele>
        <time>2020-09-18T00:16:45Z</time>
      </trkpt>
      <trkpt lat="31.20358764667686" lon="121.61526470948489">
        <ele>6.530750299803913</ele>
        <time>2020-09-18T00:16:54Z</time>
      </trkpt>
      <trkpt lat="31.203456624622063" lon="121.61533627746205">
        <ele>5.839200601913035</ele>
        <time>2020-09-18T00:17:00Z</time>
      </trkpt>
      <trkpt lat="31.2032517268232" lon="121.61554906722938">
        <ele>5.50323193334043</ele>
        <time>2020-09-18T00:17:12Z</time>
      </trkpt>
      <trkpt lat="31.20305062133306" lon="121.61576402316813">
        <ele>6.216000159271061</ele>
        <time>2020-09-18T00:17:21Z</time>
      </trkpt>
      <trkpt lat="31.202865530032263" lon="121.61595837666336">
        <ele>7.0739076640456915</ele>
        <time>2020-09-18T00:17:30Z</time>
      </trkpt>
      <trkpt lat="31.20279200352443" lon="121.61601177804127">
        <ele>6.5870882999151945</ele>
        <time>2020-09-18T00:17:33Z</time>
      </trkpt>
      <trkpt lat="31.202548272605632" lon="121.61628473578199">
        <ele>4.804319126531482</ele>
        <time>2020-09-18T00:17:46Z</time>
      </trkpt>
      <trkpt lat="31.202346063291998" lon="121.61651432127951">
        <ele>5.421297460794449</ele>
        <time>2020-09-18T00:17:55Z</time>
      </trkpt>
      <trkpt lat="31.20223508786801" lon="121.61660106190241">
        <ele>5.5138556603342295</ele>
        <time>2020-09-18T00:17:59Z</time>
      </trkpt>
      <trkpt lat="31.20216504076751" lon="121.61670135054607">
        <ele>4.655809667892754</ele>
        <time>2020-09-18T00:18:03Z</time>
      </trkpt>
      <trkpt lat="31.20208934072657" lon="121.61675800288506">
        <ele>4.651046948507428</ele>
        <time>2020-09-18T00:18:06Z</time>
      </trkpt>
      <trkpt lat="31.201892248415103" lon="121.61701983620668">
        <ele>5.06063714530319</ele>
        <time>2020-09-18T00:18:18Z</time>
      </trkpt>
      <trkpt lat="31.20162954719569" lon="121.61727327031599">
        <ele>3.9917314732447267</ele>
        <time>2020-09-18T00:18:30Z</time>
      </trkpt>
      <trkpt lat="31.201370100792804" lon="121.61752317823829">
        <ele>5.13852589763701</ele>
        <time>2020-09-18T00:18:42Z</time>
      </trkpt>
      <trkpt lat="31.201120112965416" lon="121.61780262429762">
        <ele>7.04449163749814</ele>
        <time>2020-09-18T00:18:54Z</time>
      </trkpt>
      <trkpt lat="31.201050915605546" lon="121.61786171277602">
        <ele>6.785025459714234</ele>
        <time>2020-09-18T00:18:57Z</time>
      </trkpt>
      <trkpt lat="31.20081173945183" lon="121.61817177922393">
        <ele>5.532950296998024</ele>
        <time>2020-09-18T00:19:09Z</time>
      </trkpt>
      <trkpt lat="31.20074957516997" lon="121.61824658526014">
        <ele>5.462838038802147</ele>
        <time>2020-09-18T00:19:12Z</time>
      </trkpt>
      <trkpt lat="31.200709898593058" lon="121.61833765019955">
        <ele>5.167958417907357</ele>
        <time>2020-09-18T00:19:15Z</time>
      </trkpt>
      <trkpt lat="31.20053750943138" lon="121.6185555606614">
        <ele>5.036957012489438</ele>
        <time>2020-09-18T00:19:24Z</time>
      </trkpt>
      <trkpt lat="31.200466151598015" lon="121.61860462005197">
        <ele>4.111437532119453</ele>
        <time>2020-09-18T00:19:27Z</time>
      </trkpt>
      <trkpt lat="31.20042622169242" lon="121.61867698385058">
        <ele>4.630521676503122</ele>
        <time>2020-09-18T00:19:30Z</time>
      </trkpt>
      <trkpt lat="31.200235109289103" lon="121.6189070884017">
        <ele>4.579821524210274</ele>
        <time>2020-09-18T00:19:40Z</time>
      </trkpt>
      <trkpt lat="31.19998565101287" lon="121.61918597705194">
        <ele>4.5886245388537645</ele>
        <time>2020-09-18T00:19:53Z</time>
      </trkpt>
      <trkpt lat="31.199929487398414" lon="121.61922365168193">
        <ele>4.412271909415722</ele>
        <time>2020-09-18T00:19:56Z</time>
      </trkpt>
      <trkpt lat="31.199670820265816" lon="121.61949034245616">
        <ele>5.885953322052956</ele>
        <time>2020-09-18T00:20:09Z</time>
      </trkpt>
      <trkpt lat="31.19941219593446" lon="121.61971394122061">
        <ele>5.151455608196557</ele>
        <time>2020-09-18T00:20:21Z</time>
      </trkpt>
      <trkpt lat="31.19920562884084" lon="121.6199364497378">
        <ele>5.477002973668277</ele>
        <time>2020-09-18T00:20:32Z</time>
      </trkpt>
      <trkpt lat="31.199066130611918" lon="121.6200643726564">
        <ele>5.769165727309883</ele>
        <time>2020-09-18T00:20:38Z</time>
      </trkpt>
      <trkpt lat="31.19886542124294" lon="121.62013051269301">
        <ele>5.169540635310113</ele>
        <time>2020-09-18T00:20:46Z</time>
      </trkpt>
      <trkpt lat="31.198795143655918" lon="121.62018119495653">
        <ele>6.172938008792698</ele>
        <time>2020-09-18T00:20:49Z</time>
      </trkpt>
      <trkpt lat="31.19874240236907" lon="121.6203137164105">
        <ele>5.301018285565078</ele>
        <time>2020-09-18T00:20:52Z</time>
      </trkpt>
      <trkpt lat="31.19861586840157" lon="121.62048689236572">
        <ele>6.866218696348369</ele>
        <time>2020-09-18T00:20:58Z</time>
      </trkpt>
      <trkpt lat="31.198345014281006" lon="121.62073026589368">
        <ele>5.666476860642433</ele>
        <time>2020-09-18T00:21:10Z</time>
      </trkpt>
      <trkpt lat="31.1981417567619" lon="121.62089450278708">
        <ele>5.520872572436929</ele>
        <time>2020-09-18T00:21:19Z</time>
      </trkpt>
      <trkpt lat="31.19789993419019" lon="121.6211164621559">
        <ele>7.017835641279817</ele>
        <time>2020-09-18T00:21:31Z</time>
      </trkpt>
      <trkpt lat="31.19782314508665" lon="121.62116958192503">
        <ele>5.80192069709301</ele>
        <time>2020-09-18T00:21:34Z</time>
      </trkpt>
      <trkpt lat="31.197779688072522" lon="121.62123841601169">
        <ele>7.359350950457156</ele>
        <time>2020-09-18T00:21:37Z</time>
      </trkpt>
      <trkpt lat="31.197644019429376" lon="121.62133083324461">
        <ele>5.51710672583431</ele>
        <time>2020-09-18T00:21:43Z</time>
      </trkpt>
      <trkpt lat="31.19753542401722" lon="121.62145928875276">
        <ele>6.071343406103551</ele>
        <time>2020-09-18T00:21:49Z</time>
      </trkpt>
      <trkpt lat="31.197267806754226" lon="121.62171078245511">
        <ele>6.325986356474459</ele>
        <time>2020-09-18T00:22:02Z</time>
      </trkpt>
      <trkpt lat="31.1969625160146" lon="121.62194791503661">
        <ele>5.562952306121588</ele>
        <time>2020-09-18T00:22:16Z</time>
      </trkpt>
      <trkpt lat="31.196722582923023" lon="121.62217067836285">
        <ele>5.681379256770015</ele>
        <time>2020-09-18T00:22:28Z</time>
      </trkpt>
      <trkpt lat="31.196676912521447" lon="121.62227663367815">
        <ele>5.941197878681123</ele>
        <time>2020-09-18T00:22:32Z</time>
      </trkpt>
      <trkpt lat="31.196688450520817" lon="121.62262049812962">
        <ele>5.767037281766534</ele>
        <time>2020-09-18T00:22:44Z</time>
      </trkpt>
      <trkpt lat="31.196696188447792" lon="121.6227294279329">
        <ele>5.3570100190117955</ele>
        <time>2020-09-18T00:22:50Z</time>
      </trkpt>
      <trkpt lat="31.196724536510814" lon="121.6228345620169">
        <ele>5.346515827812254</ele>
        <time>2020-09-18T00:22:57Z</time>
      </trkpt>
      <trkpt lat="31.196728733594597" lon="121.62295676870892">
        <ele>4.465620647184551</ele>
        <time>2020-09-18T00:23:04Z</time>
      </trkpt>
      <trkpt lat="31.196796917935565" lon="121.62331172940186">
        <ele>6.696570846252143</ele>
        <time>2020-09-18T00:23:26Z</time>
      </trkpt>
      <trkpt lat="31.19680929854119" lon="121.62339003712307">
        <ele>5.718368916772306</ele>
        <time>2020-09-18T00:23:32Z</time>
      </trkpt>
      <trkpt lat="31.19676827580102" lon="121.62345967821206">
        <ele>5.546875262632966</ele>
        <time>2020-09-18T00:23:35Z</time>
      </trkpt>
      <trkpt lat="31.196772819576964" lon="121.62351549624842">
        <ele>6.36490482557565</ele>
        <time>2020-09-18T00:23:38Z</time>
      </trkpt>
      <trkpt lat="31.1968152645569" lon="121.62362008421199">
        <ele>5.215801395475864</ele>
        <time>2020-09-18T00:23:44Z</time>
      </trkpt>
      <trkpt lat="31.19686893682895" lon="121.62385987997132">
        <ele>3.944464494474232</ele>
        <time>2020-09-18T00:23:59Z</time>
      </trkpt>
      <trkpt lat="31.196866416583628" lon="121.62392734901378">
        <ele>6.074334600940347</ele>
        <time>2020-09-18T00:24:05Z</time>
      </trkpt>
      <trkpt lat="31.196889659687" lon="121.62398993851123">
        <ele>6.771619409322739</ele>
        <time>2020-09-18T00:24:11Z</time>
      </trkpt>
      <trkpt lat="31.196931243569598" lon="121.6239053959724">
        <ele>8.350695247761905</ele>
        <time>2020-09-18T00:24:18Z</time>
      </trkpt>
      <trkpt lat="31.19695479741343" lon="121.62370569647614">
        <ele>5.527044058777392</ele>
        <time>2020-09-18T00:24:30Z</time>
      </trkpt>
      <trkpt lat="31.1969432242691" lon="121.62340221942048">
        <ele>4.70836132671684</ele>
        <time>2020-09-18T00:24:46Z</time>
      </trkpt>
      <trkpt lat="31.196895602020394" lon="121.62331903728486">
        <ele>5.669366545043886</ele>
        <time>2020-09-18T00:24:49Z</time>
      </trkpt>
      <trkpt lat="31.196838494419463" lon="121.62299848873101">
        <ele>5.268785355612636</ele>
        <time>2020-09-18T00:24:58Z</time>
      </trkpt>
      <trkpt lat="31.19683264005431" lon="121.62290283733653">
        <ele>5.321496818214655</ele>
        <time>2020-09-18T00:25:01Z</time>
      </trkpt>
      <trkpt lat="31.19678150577143" lon="121.6228074603226">
        <ele>4.162076912820339</ele>
        <time>2020-09-18T00:25:04Z</time>
      </trkpt>
      <trkpt lat="31.19695335920799" lon="121.62261072121782">
        <ele>5.225176955573261</ele>
        <time>2020-09-18T00:25:13Z</time>
      </trkpt>
      <trkpt lat="31.197073275282207" lon="121.62254513601447">
        <ele>5.624195377342403</ele>
        <time>2020-09-18T00:25:17Z</time>
      </trkpt>
      <trkpt lat="31.197064415410903" lon="121.62246845140591">
        <ele>3.838313446380198</ele>
        <time>2020-09-18T00:25:20Z</time>
      </trkpt>
      <trkpt lat="31.197331101389217" lon="121.62232643893738">
        <ele>4.75759563036263</ele>
        <time>2020-09-18T00:25:29Z</time>
      </trkpt>
      <trkpt lat="31.197435284069247" lon="121.6222670867782">
        <ele>4.8292196886613965</ele>
        <time>2020-09-18T00:25:32Z</time>
      </trkpt>
      <trkpt lat="31.19767355028399" lon="121.62208063536828">
        <ele>5.772487526759505</ele>
        <time>2020-09-18T00:25:41Z</time>
      </trkpt>
      <trkpt lat="31.197826907340584" lon="121.6219326686956">
        <ele>7.048422105610371</ele>
        <time>2020-09-18T00:25:47Z</time>
      </trkpt>
      <trkpt lat="31.19798937122386" lon="121.62188387903292">
        <ele>6.089664187282324</ele>
        <time>2020-09-18T00:25:53Z</time>
      </trkpt>
      <trkpt lat="31.19819506889987" lon="121.6217245257448">
        <ele>6.199508354999125</ele>
        <time>2020-09-18T00:26:02Z</time>
      </trkpt>
      <trkpt lat="31.198373977635843" lon="121.6215163968285">
        <ele>5.767323814332485</ele>
        <time>2020-09-18T00:26:11Z</time>
      </trkpt>
      <trkpt lat="31.198473665734397" lon="121.62135190140066">
        <ele>6.33124865591526</ele>
        <time>2020-09-18T00:26:18Z</time>
      </trkpt>
      <trkpt lat="31.19862459785691" lon="121.62118685873578">
        <ele>6.902131802402437</ele>
        <time>2020-09-18T00:26:25Z</time>
      </trkpt>
      <trkpt lat="31.198857608323646" lon="121.62108982615942">
        <ele>5.9929258255288005</ele>
        <time>2020-09-18T00:26:34Z</time>
      </trkpt>
      <trkpt lat="31.198942491073975" lon="121.62107355988888">
        <ele>5.126513842493296</ele>
        <time>2020-09-18T00:26:37Z</time>
      </trkpt>
      <trkpt lat="31.19907355274309" lon="121.6209784322512">
        <ele>4.424476597458124</ele>
        <time>2020-09-18T00:26:43Z</time>
      </trkpt>
      <trkpt lat="31.19913354926918" lon="121.62090878314905">
        <ele>5.676364099606872</ele>
        <time>2020-09-18T00:26:46Z</time>
      </trkpt>
      <trkpt lat="31.199177291714427" lon="121.62082612768667">
        <ele>5.972538106143475</ele>
        <time>2020-09-18T00:26:49Z</time>
      </trkpt>
      <trkpt lat="31.199395972631997" lon="121.62069061420246">
        <ele>6.328829043544829</ele>
        <time>2020-09-18T00:27:02Z</time>
      </trkpt>
      <trkpt lat="31.199606673763956" lon="121.6206629556216">
        <ele>7.4243224039673805</ele>
        <time>2020-09-18T00:27:17Z</time>
      </trkpt>
      <trkpt lat="31.199852249583575" lon="121.62072932819785">
        <ele>5.621974589303136</ele>
        <time>2020-09-18T00:27:32Z</time>
      </trkpt>
      <trkpt lat="31.199942538175637" lon="121.62072850775309">
        <ele>4.961897933855653</ele>
        <time>2020-09-18T00:27:38Z</time>
      </trkpt>
      <trkpt lat="31.20002817933734" lon="121.62076291651101">
        <ele>6.366739220917225</ele>
        <time>2020-09-18T00:27:44Z</time>
      </trkpt>
      <trkpt lat="31.200254500653916" lon="121.62083281329613">
        <ele>5.086429390124977</ele>
        <time>2020-09-18T00:28:02Z</time>
      </trkpt>
      <trkpt lat="31.20060641484033" lon="121.62084958554833">
        <ele>6.110274355858564</ele>
        <time>2020-09-18T00:28:26Z</time>
      </trkpt>
      <trkpt lat="31.200873680023392" lon="121.62091703981048">
        <ele>5.421790529973805</ele>
        <time>2020-09-18T00:28:46Z</time>
      </trkpt>
      <trkpt lat="31.200933599861553" lon="121.62091784781909">
        <ele>4.517510178498924</ele>
        <time>2020-09-18T00:28:52Z</time>
      </trkpt>
      <trkpt lat="31.200974517263653" lon="121.62093979454238">
        <ele>4.606611554510891</ele>
        <time>2020-09-18T00:28:55Z</time>
      </trkpt>
      <trkpt lat="31.201053954362706" lon="121.620944665768">
        <ele>4.596547433175147</ele>
        <time>2020-09-18T00:29:01Z</time>
      </trkpt>
      <trkpt lat="31.201134229670746" lon="121.62092677385493">
        <ele>4.43586846627295</ele>
        <time>2020-09-18T00:29:07Z</time>
      </trkpt>
      <trkpt lat="31.201384125318203" lon="121.62100967568502">
        <ele>5.484539834782481</ele>
        <time>2020-09-18T00:29:26Z</time>
      </trkpt>
      <trkpt lat="31.20154895474461" lon="121.62102836022083">
        <ele>6.679065810516477</ele>
        <time>2020-09-18T00:29:38Z</time>
      </trkpt>
      <trkpt lat="31.201858507249376" lon="121.62110448211294">
        <ele>5.863495822995901</ele>
        <time>2020-09-18T00:29:59Z</time>
      </trkpt>
      <trkpt lat="31.202196567142032" lon="121.6211456441549">
        <ele>5.388831875286996</ele>
        <time>2020-09-18T00:30:23Z</time>
      </trkpt>
      <trkpt lat="31.202466826397494" lon="121.62120225796015">
        <ele>7.566931159235537</ele>
        <time>2020-09-18T00:30:42Z</time>
      </trkpt>
      <trkpt lat="31.2025953154375" lon="121.62122853297224">
        <ele>5.966562130488455</ele>
        <time>2020-09-18T00:30:51Z</time>
      </trkpt>
      <trkpt lat="31.202642782505496" lon="121.62121172791174">
        <ele>6.277982515282929</ele>
        <time>2020-09-18T00:30:54Z</time>
      </trkpt>
      <trkpt lat="31.202696190421538" lon="121.62121687222651">
        <ele>5.305595383048058</ele>
        <time>2020-09-18T00:30:57Z</time>
      </trkpt>
      <trkpt lat="31.202787724569774" lon="121.62131631633628">
        <ele>3.4884540466591716</ele>
        <time>2020-09-18T00:31:03Z</time>
      </trkpt>
      <trkpt lat="31.2028418561512" lon="121.62140275593231">
        <ele>3.883120502345264</ele>
        <time>2020-09-18T00:31:06Z</time>
      </trkpt>
      <trkpt lat="31.202926716894847" lon="121.62140681367003">
        <ele>4.61939905770123</ele>
        <time>2020-09-18T00:31:09Z</time>
      </trkpt>
      <trkpt lat="31.203008091209558" lon="121.621376185716">
        <ele>4.28708238247782</ele>
        <time>2020-09-18T00:31:12Z</time>
      </trkpt>
      <trkpt lat="31.203100542850343" lon="121.62138105578254">
        <ele>4.415947177447379</ele>
        <time>2020-09-18T00:31:15Z</time>
      </trkpt>
      <trkpt lat="31.203219358589443" lon="121.62132793296362">
        <ele>2.775081836618483</ele>
        <time>2020-09-18T00:31:21Z</time>
      </trkpt>
      <trkpt lat="31.203219358589443" lon="121.62132793296362">
        <ele>2.775081836618483</ele>
        <time>2020-09-18T00:31:28Z</time>
      </trkpt>
      <trkpt lat="31.203378415411574" lon="121.62117183204185">
        <ele>4.86970383114123</ele>
        <time>2020-09-18T00:31:34Z</time>
      </trkpt>
      <trkpt lat="31.203317335309116" lon="121.62123985461882">
        <ele>4.8867108626785765</ele>
        <time>2020-09-18T00:31:37Z</time>
      </trkpt>
      <trkpt lat="31.203317335309116" lon="121.62123985461882">
        <ele>4.8867108626785765</ele>
        <time>2020-09-18T00:31:38Z</time>
      </trkpt>
      <trkpt lat="31.203264407614675" lon="121.62129107526452">
        <ele>4.7486447535072</ele>
        <time>2020-09-18T00:31:43Z</time>
      </trkpt>
      <trkpt lat="31.20327579170415" lon="121.62129432614528">
        <ele>4.783983814530075</ele>
        <time>2020-09-18T00:31:47Z</time>
      </trkpt>
      <trkpt lat="31.203219472248534" lon="121.62122468750998">
        <ele>5.082789022475481</ele>
        <time>2020-09-18T00:32:24Z</time>
      </trkpt>
      <trkpt lat="31.203203039783112" lon="121.621127404735">
        <ele>5.099719618447125</ele>
        <time>2020-09-18T00:32:27Z</time>
      </trkpt>
      <trkpt lat="31.20315973945965" lon="121.62105315778992">
        <ele>4.052829527296126</ele>
        <time>2020-09-18T00:32:30Z</time>
      </trkpt>
      <trkpt lat="31.203134211702366" lon="121.62084205962456">
        <ele>4.635559362359345</ele>
        <time>2020-09-18T00:32:36Z</time>
      </trkpt>
      <trkpt lat="31.203080484701736" lon="121.62063069109945">
        <ele>4.233537185937166</ele>
        <time>2020-09-18T00:32:42Z</time>
      </trkpt>
      <trkpt lat="31.203073807074347" lon="121.62053719921514">
        <ele>3.8586123501881957</ele>
        <time>2020-09-18T00:32:45Z</time>
      </trkpt>
      <trkpt lat="31.20304730895817" lon="121.62046918206204">
        <ele>3.9411506159231067</ele>
        <time>2020-09-18T00:32:48Z</time>
      </trkpt>
      <trkpt lat="31.202966272467037" lon="121.620438566455">
        <ele>4.959429974667728</ele>
        <time>2020-09-18T00:32:51Z</time>
      </trkpt>
      <trkpt lat="31.202919996645" lon="121.62035618795274">
        <ele>5.305564598180354</ele>
        <time>2020-09-18T00:32:54Z</time>
      </trkpt>
      <trkpt lat="31.20285493635079" lon="121.6200903459363">
        <ele>3.0411667050793767</ele>
        <time>2020-09-18T00:33:03Z</time>
      </trkpt>
      <trkpt lat="31.202840957285986" lon="121.61997706979751">
        <ele>4.782466489821672</ele>
        <time>2020-09-18T00:33:06Z</time>
      </trkpt>
      <trkpt lat="31.202805499566328" lon="121.61991934989958">
        <ele>3.4033423820510507</ele>
        <time>2020-09-18T00:33:09Z</time>
      </trkpt>
      <trkpt lat="31.20281266181295" lon="121.61981230427631">
        <ele>4.929504245519638</ele>
        <time>2020-09-18T00:33:12Z</time>
      </trkpt>
      <trkpt lat="31.20269701755884" lon="121.61942803206487">
        <ele>5.618664965964854</ele>
        <time>2020-09-18T00:33:24Z</time>
      </trkpt>
      <trkpt lat="31.202608192532416" lon="121.61906136742907">
        <ele>5.242295148782432</ele>
        <time>2020-09-18T00:33:36Z</time>
      </trkpt>
      <trkpt lat="31.202550765610777" lon="121.6187429350923">
        <ele>5.124585401266813</ele>
        <time>2020-09-18T00:33:46Z</time>
      </trkpt>
      <trkpt lat="31.202675342171595" lon="121.61861880099013">
        <ele>4.9114252878353</ele>
        <time>2020-09-18T00:33:59Z</time>
      </trkpt>
      <trkpt lat="31.20272985561284" lon="121.61860361972956">
        <ele>6.4311334220692515</ele>
        <time>2020-09-18T00:34:05Z</time>
      </trkpt>
      <trkpt lat="31.202855752097758" lon="121.61851444572105">
        <ele>5.690042154863477</ele>
        <time>2020-09-18T00:34:14Z</time>
      </trkpt>
      <trkpt lat="31.202820793343253" lon="121.61822608760258">
        <ele>4.863979838788509</ele>
        <time>2020-09-18T00:34:29Z</time>
      </trkpt>
      <trkpt lat="31.202739933859355" lon="121.61801469972039">
        <ele>6.996008367277682</ele>
        <time>2020-09-18T00:34:38Z</time>
      </trkpt>
      <trkpt lat="31.202731352801454" lon="121.61791821718694">
        <ele>5.743908880278468</ele>
        <time>2020-09-18T00:34:41Z</time>
      </trkpt>
      <trkpt lat="31.202653090813175" lon="121.6178206559581">
        <ele>5.938282137736678</ele>
        <time>2020-09-18T00:34:44Z</time>
      </trkpt>
      <trkpt lat="31.202573593245273" lon="121.61759977868599">
        <ele>6.970520283095539</ele>
        <time>2020-09-18T00:34:50Z</time>
      </trkpt>
      <trkpt lat="31.20252403966011" lon="121.61753392378631">
        <ele>5.4372427854686975</ele>
        <time>2020-09-18T00:34:53Z</time>
      </trkpt>
      <trkpt lat="31.202483543789256" lon="121.61735396585406">
        <ele>5.288351263850927</ele>
        <time>2020-09-18T00:34:59Z</time>
      </trkpt>
      <trkpt lat="31.20249824154238" lon="121.61729542273503">
        <ele>3.811641501262784</ele>
        <time>2020-09-18T00:35:02Z</time>
      </trkpt>
      <trkpt lat="31.202726776530262" lon="121.61704578610684">
        <ele>4.188227883540094</ele>
        <time>2020-09-18T00:35:14Z</time>
      </trkpt>
      <trkpt lat="31.20278754539973" lon="121.61700946298194">
        <ele>5.705692516639829</ele>
        <time>2020-09-18T00:35:17Z</time>
      </trkpt>
      <trkpt lat="31.202828269587194" lon="121.61695281411473">
        <ele>5.034176706336439</ele>
        <time>2020-09-18T00:35:20Z</time>
      </trkpt>
      <trkpt lat="31.202845685318863" lon="121.61688640989055">
        <ele>5.473912185057998</ele>
        <time>2020-09-18T00:35:23Z</time>
      </trkpt>
      <trkpt lat="31.202944480088775" lon="121.61677907275924">
        <ele>5.072906388901174</ele>
        <time>2020-09-18T00:35:29Z</time>
      </trkpt>
      <trkpt lat="31.203100445891636" lon="121.61671211453802">
        <ele>3.797967066988349</ele>
        <time>2020-09-18T00:35:35Z</time>
      </trkpt>
      <trkpt lat="31.20316368185097" lon="121.61664679001356">
        <ele>5.965626685880125</ele>
        <time>2020-09-18T00:35:38Z</time>
      </trkpt>
      <trkpt lat="31.203387247041764" lon="121.61648686048328">
        <ele>4.548997264355421</ele>
        <time>2020-09-18T00:35:51Z</time>
      </trkpt>
      <trkpt lat="31.203514254005537" lon="121.61636271492742">
        <ele>7.7227010345086455</ele>
        <time>2020-09-18T00:36:01Z</time>
      </trkpt>
      <trkpt lat="31.203787945284407" lon="121.61623774349091">
        <ele>6.808585160411894</ele>
        <time>2020-09-18T00:36:20Z</time>
      </trkpt>
      <trkpt lat="31.20387636368021" lon="121.61620710871725">
        <ele>6.6792569803074</ele>
        <time>2020-09-18T00:36:26Z</time>
      </trkpt>
      <trkpt lat="31.203912193336215" lon="121.61616401041267">
        <ele>7.903286959975958</ele>
        <time>2020-09-18T00:36:29Z</time>
      </trkpt>
      <trkpt lat="31.20392879055509" lon="121.61610112765105">
        <ele>5.501937332563102</ele>
        <time>2020-09-18T00:36:32Z</time>
      </trkpt>
      <trkpt lat="31.20397629206239" lon="121.61604366300071">
        <ele>6.7214558981359005</ele>
        <time>2020-09-18T00:36:38Z</time>
      </trkpt>
      <trkpt lat="31.204022950710804" lon="121.61601818123104">
        <ele>6.760934477671981</ele>
        <time>2020-09-18T00:36:41Z</time>
      </trkpt>
      <trkpt lat="31.20424613451745" lon="121.61597506709579">
        <ele>6.426786679774523</ele>
        <time>2020-09-18T00:36:59Z</time>
      </trkpt>
      <trkpt lat="31.204361009531798" lon="121.61606910906298">
        <ele>6.057794195599854</ele>
        <time>2020-09-18T00:37:05Z</time>
      </trkpt>
      <trkpt lat="31.204557678369216" lon="121.61625909191726">
        <ele>6.069238479249179</ele>
        <time>2020-09-18T00:37:20Z</time>
      </trkpt>
      <trkpt lat="31.20461649111711" lon="121.61628456471088">
        <ele>6.005498914979398</ele>
        <time>2020-09-18T00:37:23Z</time>
      </trkpt>
      <trkpt lat="31.204653058414152" lon="121.61632332020064">
        <ele>5.485623402521014</ele>
        <time>2020-09-18T00:37:26Z</time>
      </trkpt>
      <trkpt lat="31.204708897437246" lon="121.61633930683905">
        <ele>8.49072300735861</ele>
        <time>2020-09-18T00:37:29Z</time>
      </trkpt>
      <trkpt lat="31.20457107398717" lon="121.61614010437135">
        <ele>8.199056120589375</ele>
        <time>2020-09-18T00:37:41Z</time>
      </trkpt>
      <trkpt lat="31.20453043766001" lon="121.61610324621265">
        <ele>7.713493601419032</ele>
        <time>2020-09-18T00:37:44Z</time>
      </trkpt>
      <trkpt lat="31.20443855995435" lon="121.61606286870065">
        <ele>8.824462269432843</ele>
        <time>2020-09-18T00:37:50Z</time>
      </trkpt>
      <trkpt lat="31.204355664964847" lon="121.61598400242781">
        <ele>10.053307374939322</ele>
        <time>2020-09-18T00:37:57Z</time>
      </trkpt>
      <trkpt lat="31.204306883213498" lon="121.61595934161717">
        <ele>7.814971439540386</ele>
        <time>2020-09-18T00:38:00Z</time>
      </trkpt>
      <trkpt lat="31.204088542716903" lon="121.61574604837382">
        <ele>4.599209905602038</ele>
        <time>2020-09-18T00:38:19Z</time>
      </trkpt>
      <trkpt lat="31.203826586368546" lon="121.61548993136961">
        <ele>5.786080584861338</ele>
        <time>2020-09-18T00:38:43Z</time>
      </trkpt>
      <trkpt lat="31.20371064356529" lon="121.61537501648273">
        <ele>1.599694606848061</ele>
        <time>2020-09-18T00:38:55Z</time>
      </trkpt>
      <trkpt lat="31.20358517264555" lon="121.61530265668468">
        <ele>5.811861665919423</ele>
        <time>2020-09-18T00:39:07Z</time>
      </trkpt>
      <trkpt lat="31.203781965424042" lon="121.61505489966105">
        <ele>5.453880882821977</ele>
        <time>2020-09-18T00:39:25Z</time>
      </trkpt>
      <trkpt lat="31.203822168663237" lon="121.61496951463332">
        <ele>5.297566463239491</ele>
        <time>2020-09-18T00:39:28Z</time>
      </trkpt>
      <trkpt lat="31.204026789500197" lon="121.61475834609902">
        <ele>6.088716819882393</ele>
        <time>2020-09-18T00:39:37Z</time>
      </trkpt>
      <trkpt lat="31.204125346082662" lon="121.61460356453107">
        <ele>7.027529600076377</ele>
        <time>2020-09-18T00:39:43Z</time>
      </trkpt>
      <trkpt lat="31.204281078181463" lon="121.61448726763668">
        <ele>7.255662512034178</ele>
        <time>2020-09-18T00:39:49Z</time>
      </trkpt>
      <trkpt lat="31.20435659463028" lon="121.61432327014927">
        <ele>7.551679578609765</ele>
        <time>2020-09-18T00:39:55Z</time>
      </trkpt>
      <trkpt lat="31.204414143856994" lon="121.61424303124662">
        <ele>7.466988993808627</ele>
        <time>2020-09-18T00:39:58Z</time>
      </trkpt>
      <trkpt lat="31.2045012366875" lon="121.61417444532182">
        <ele>7.250750591978431</ele>
        <time>2020-09-18T00:40:01Z</time>
      </trkpt>
      <trkpt lat="31.20454307753846" lon="121.61407306425696">
        <ele>6.893907418474555</ele>
        <time>2020-09-18T00:40:05Z</time>
      </trkpt>
      <trkpt lat="31.204676828318117" lon="121.61397709645456">
        <ele>6.483665921725333</ele>
        <time>2020-09-18T00:40:11Z</time>
      </trkpt>
      <trkpt lat="31.204787567046814" lon="121.613839657049">
        <ele>7.528811685740948</ele>
        <time>2020-09-18T00:40:17Z</time>
      </trkpt>
      <trkpt lat="31.204839657943168" lon="121.6138003480857">
        <ele>7.373694298788905</ele>
        <time>2020-09-18T00:40:20Z</time>
      </trkpt>
      <trkpt lat="31.204889146655574" lon="121.61362984235038">
        <ele>6.783764146268368</ele>
        <time>2020-09-18T00:40:26Z</time>
      </trkpt>
      <trkpt lat="31.205071737422212" lon="121.61348887106726">
        <ele>5.484617261216044</ele>
        <time>2020-09-18T00:40:35Z</time>
      </trkpt>
      <trkpt lat="31.205189271395195" lon="121.61332784498178">
        <ele>5.5769813396036625</ele>
        <time>2020-09-18T00:40:41Z</time>
      </trkpt>
      <trkpt lat="31.2053127510947" lon="121.6131893164415">
        <ele>6.039429681375623</ele>
        <time>2020-09-18T00:40:47Z</time>
      </trkpt>
      <trkpt lat="31.20528352681099" lon="121.61311748417712">
        <ele>7.521368873305619</ele>
        <time>2020-09-18T00:40:50Z</time>
      </trkpt>
      <trkpt lat="31.20527654486176" lon="121.61303399360317">
        <ele>7.802801098674536</ele>
        <time>2020-09-18T00:40:53Z</time>
      </trkpt>
      <trkpt lat="31.205248129419708" lon="121.61296731124786">
        <ele>7.469899396412075</ele>
        <time>2020-09-18T00:40:56Z</time>
      </trkpt>
      <trkpt lat="31.20528781727365" lon="121.61284017277798">
        <ele>7.225746754556894</ele>
        <time>2020-09-18T00:41:08Z</time>
      </trkpt>
      <trkpt lat="31.205346403141057" lon="121.61281441551914">
        <ele>10.304918401874602</ele>
        <time>2020-09-18T00:41:17Z</time>
      </trkpt>
      <trkpt lat="31.205568341741586" lon="121.61262626814025">
        <ele>7.264660507440567</ele>
        <time>2020-09-18T00:41:38Z</time>
      </trkpt>
      <trkpt lat="31.205736031480704" lon="121.61246414764017">
        <ele>8.99182903766632</ele>
        <time>2020-09-18T00:41:47Z</time>
      </trkpt>
      <trkpt lat="31.205797882123903" lon="121.61242375123219">
        <ele>9.837252846919</ele>
        <time>2020-09-18T00:41:50Z</time>
      </trkpt>
      <trkpt lat="31.205869250457447" lon="121.61234757095494">
        <ele>8.39244119822979</ele>
        <time>2020-09-18T00:41:53Z</time>
      </trkpt>
      <trkpt lat="31.206015742141773" lon="121.61224698659613">
        <ele>6.72552337590605</ele>
        <time>2020-09-18T00:41:59Z</time>
      </trkpt>
      <trkpt lat="31.20616201282758" lon="121.61208107000454">
        <ele>7.095443896017969</ele>
        <time>2020-09-18T00:42:05Z</time>
      </trkpt>
      <trkpt lat="31.20626293940304" lon="121.61199783787714">
        <ele>8.1326073538512</ele>
        <time>2020-09-18T00:42:09Z</time>
      </trkpt>
      <trkpt lat="31.206427402928405" lon="121.61179477867861">
        <ele>8.15302456356585</ele>
        <time>2020-09-18T00:42:17Z</time>
      </trkpt>
      <trkpt lat="31.20652479995172" lon="121.61171669654125">
        <ele>7.707455310970545</ele>
        <time>2020-09-18T00:42:21Z</time>
      </trkpt>
      <trkpt lat="31.206608685325143" lon="121.611578432765">
        <ele>6.989603134803474</ele>
        <time>2020-09-18T00:42:28Z</time>
      </trkpt>
      <trkpt lat="31.20640366371307" lon="121.6112729262575">
        <ele>7.76503474265337</ele>
        <time>2020-09-18T00:43:01Z</time>
      </trkpt>
      <trkpt lat="31.206344021885073" lon="121.61126208733532">
        <ele>7.457269006408751</ele>
        <time>2020-09-18T00:43:04Z</time>
      </trkpt>
      <trkpt lat="31.20616165794229" lon="121.61111245671293">
        <ele>6.396728926338255</ele>
        <time>2020-09-18T00:43:16Z</time>
      </trkpt>
      <trkpt lat="31.206021120397754" lon="121.61086332775632">
        <ele>7.252384262159467</ele>
        <time>2020-09-18T00:43:31Z</time>
      </trkpt>
      <trkpt lat="31.2060211694582" lon="121.61079555236986">
        <ele>7.453536937944591</ele>
        <time>2020-09-18T00:43:37Z</time>
      </trkpt>
      <trkpt lat="31.205999253426373" lon="121.61073184513849">
        <ele>7.5027077086269855</ele>
        <time>2020-09-18T00:43:43Z</time>
      </trkpt>
      <trkpt lat="31.205900118142416" lon="121.61059196391577">
        <ele>7.767133664339781</ele>
        <time>2020-09-18T00:43:52Z</time>
      </trkpt>
      <trkpt lat="31.205854054313075" lon="121.61055103092902">
        <ele>8.42518040817231</ele>
        <time>2020-09-18T00:43:55Z</time>
      </trkpt>
      <trkpt lat="31.205793066190616" lon="121.61052663652171">
        <ele>8.141042795963585</ele>
        <time>2020-09-18T00:43:58Z</time>
      </trkpt>
      <trkpt lat="31.205793066190616" lon="121.61052663652171">
        <ele>8.141042795963585</ele>
        <time>2020-09-18T00:44:04Z</time>
      </trkpt>
    </trkseg>
  </trk>
</gpx>