<?xml version="1.0" encoding="UTF-8"?>
<gpx xmlns="http://www.topografix.com/GPX/1/1" xmlns:gpxtpx="http://www.garmin.com/xmlschemas/TrackPointExtension/v1" xmlns:xsi="http://www.w3.org/2001/XMLSchema-instance" xsi:schemaLocation="http://www.topografix.com/GPX/1/1 http://www.topografix.com/GPX/1/1/gpx.xsd" version="1.1" creator="gpx.py -- https://github.com/tkrajina/gpxpy">
  <trk>
    <name>gpx from keep</name>
    <type>Run</type>
    <trkseg>
      <trkpt lat="31.204717614462897" lon="121.61070619632264">
        <ele>8.843804651094022</ele>
        <time>2020-07-30T23:12:41Z</time>
      </trkpt>
      <trkpt lat="31.204750197024076" lon="121.61064167102357">
        <ele>8.810090631560833</ele>
        <time>2020-07-30T23:12:43Z</time>
      </trkpt>
      <trkpt lat="31.204810408877027" lon="121.61061401344473">
        <ele>8.788680526427925</ele>
        <time>2020-07-30T23:12:47Z</time>
      </trkpt>
      <trkpt lat="31.204890445895067" lon="121.61054107970881">
        <ele>8.714160195551813</ele>
        <time>2020-07-30T23:12:51Z</time>
      </trkpt>
      <trkpt lat="31.20494204233247" lon="121.61042748217787">
        <ele>8.530188296921551</ele>
        <time>2020-07-30T23:12:55Z</time>
      </trkpt>
      <trkpt lat="31.205065717283862" lon="121.61037487726618">
        <ele>8.467929641716182</ele>
        <time>2020-07-30T23:12:59Z</time>
      </trkpt>
      <trkpt lat="31.205141678218595" lon="121.6103138718404">
        <ele>8.409079185687006</ele>
        <time>2020-07-30T23:13:02Z</time>
      </trkpt>
      <trkpt lat="31.205168293311285" lon="121.61025151478769">
        <ele>6.086467441171408</ele>
        <time>2020-07-30T23:13:05Z</time>
      </trkpt>
      <trkpt lat="31.20531233415076" lon="121.61015444585526">
        <ele>6.809953686781228</ele>
        <time>2020-07-30T23:13:11Z</time>
      </trkpt>
      <trkpt lat="31.205363084444368" lon="121.61008557971935">
        <ele>7.044074164703488</ele>
        <time>2020-07-30T23:13:14Z</time>
      </trkpt>
      <trkpt lat="31.20561315783143" lon="121.61034934794237">
        <ele>8.46881115436554</ele>
        <time>2020-07-30T23:13:26Z</time>
      </trkpt>
      <trkpt lat="31.205810957857413" lon="121.61053124382946">
        <ele>8.463054488413036</ele>
        <time>2020-07-30T23:13:35Z</time>
      </trkpt>
      <trkpt lat="31.20594239804417" lon="121.61061608869545">
        <ele>8.4846759615466</ele>
        <time>2020-07-30T23:13:41Z</time>
      </trkpt>
      <trkpt lat="31.20605401364893" lon="121.6107445824342">
        <ele>8.412304745055735</ele>
        <time>2020-07-30T23:13:47Z</time>
      </trkpt>
      <trkpt lat="31.206069670772823" lon="121.61083973793225">
        <ele>7.584476334042847</ele>
        <time>2020-07-30T23:13:50Z</time>
      </trkpt>
      <trkpt lat="31.206304832919287" lon="121.6110915703072">
        <ele>7.764367111958563</ele>
        <time>2020-07-30T23:14:02Z</time>
      </trkpt>
      <trkpt lat="31.206445090121484" lon="121.61135018513843">
        <ele>7.725040378980339</ele>
        <time>2020-07-30T23:14:11Z</time>
      </trkpt>
      <trkpt lat="31.20651283852317" lon="121.61139789226965">
        <ele>7.567747903056443</ele>
        <time>2020-07-30T23:14:14Z</time>
      </trkpt>
      <trkpt lat="31.206568907520992" lon="121.61147298076776">
        <ele>6.435136193409562</ele>
        <time>2020-07-30T23:14:17Z</time>
      </trkpt>
      <trkpt lat="31.20664993606911" lon="121.61152773497132">
        <ele>8.58399304561317</ele>
        <time>2020-07-30T23:14:20Z</time>
      </trkpt>
      <trkpt lat="31.206649886126222" lon="121.61159415272728">
        <ele>7.813694735057652</ele>
        <time>2020-07-30T23:14:23Z</time>
      </trkpt>
      <trkpt lat="31.206515367618923" lon="121.61164079170761">
        <ele>5.49298951216042</ele>
        <time>2020-07-30T23:14:29Z</time>
      </trkpt>
      <trkpt lat="31.206380246953056" lon="121.61176631809829">
        <ele>6.742056971415877</ele>
        <time>2020-07-30T23:14:35Z</time>
      </trkpt>
      <trkpt lat="31.206199758950756" lon="121.61200543355623">
        <ele>5.584413873031735</ele>
        <time>2020-07-30T23:14:45Z</time>
      </trkpt>
      <trkpt lat="31.206133797761428" lon="121.61210303035391">
        <ele>6.216035236604512</ele>
        <time>2020-07-30T23:14:48Z</time>
      </trkpt>
      <trkpt lat="31.205977277328643" lon="121.61220009205714">
        <ele>7.496322245337069</ele>
        <time>2020-07-30T23:14:54Z</time>
      </trkpt>
      <trkpt lat="31.205862485626607" lon="121.61233022215524">
        <ele>8.052093088626862</ele>
        <time>2020-07-30T23:15:00Z</time>
      </trkpt>
      <trkpt lat="31.205829893772396" lon="121.61240124870659">
        <ele>8.560913900844753</ele>
        <time>2020-07-30T23:15:03Z</time>
      </trkpt>
      <trkpt lat="31.20570456077205" lon="121.61248827655216">
        <ele>5.1713568065315485</ele>
        <time>2020-07-30T23:15:09Z</time>
      </trkpt>
      <trkpt lat="31.205652176243834" lon="121.61255849101354">
        <ele>6.588209277950227</ele>
        <time>2020-07-30T23:15:12Z</time>
      </trkpt>
      <trkpt lat="31.20563748775062" lon="121.61261813000985">
        <ele>7.194731155410409</ele>
        <time>2020-07-30T23:15:18Z</time>
      </trkpt>
      <trkpt lat="31.205577280619977" lon="121.61263711061397">
        <ele>5.353604333475232</ele>
        <time>2020-07-30T23:15:21Z</time>
      </trkpt>
      <trkpt lat="31.20554197379132" lon="121.61271166048508">
        <ele>5.5997644839808345</ele>
        <time>2020-07-30T23:15:24Z</time>
      </trkpt>
      <trkpt lat="31.20530508510657" lon="121.61294589149107">
        <ele>7.857891855761409</ele>
        <time>2020-07-30T23:15:36Z</time>
      </trkpt>
      <trkpt lat="31.205254326417432" lon="121.6130158333648">
        <ele>6.069266147911549</ele>
        <time>2020-07-30T23:15:39Z</time>
      </trkpt>
      <trkpt lat="31.205043523728687" lon="121.61317686930344">
        <ele>7.689582357183099</ele>
        <time>2020-07-30T23:15:51Z</time>
      </trkpt>
      <trkpt lat="31.20479846889912" lon="121.61344525129009">
        <ele>7.692764938808978</ele>
        <time>2020-07-30T23:16:03Z</time>
      </trkpt>
      <trkpt lat="31.204656487970375" lon="121.61365940806753">
        <ele>7.040678559802473</ele>
        <time>2020-07-30T23:16:12Z</time>
      </trkpt>
      <trkpt lat="31.204523258408024" lon="121.61378194169936">
        <ele>6.407764472067356</ele>
        <time>2020-07-30T23:16:18Z</time>
      </trkpt>
      <trkpt lat="31.204413065459807" lon="121.61391558647885">
        <ele>7.921155600808561</ele>
        <time>2020-07-30T23:16:24Z</time>
      </trkpt>
      <trkpt lat="31.204177518918904" lon="121.61415360026768">
        <ele>7.739373540505767</ele>
        <time>2020-07-30T23:16:36Z</time>
      </trkpt>
      <trkpt lat="31.203965087422933" lon="121.61430920735805">
        <ele>7.526898036710918</ele>
        <time>2020-07-30T23:16:45Z</time>
      </trkpt>
      <trkpt lat="31.2039099754463" lon="121.61439269855713">
        <ele>7.217097216285765</ele>
        <time>2020-07-30T23:16:48Z</time>
      </trkpt>
      <trkpt lat="31.20364457571999" lon="121.61465862893026">
        <ele>7.06922937836498</ele>
        <time>2020-07-30T23:17:01Z</time>
      </trkpt>
      <trkpt lat="31.20366699574838" lon="121.61475539423904">
        <ele>7.137787050567567</ele>
        <time>2020-07-30T23:17:04Z</time>
      </trkpt>
      <trkpt lat="31.20378537828008" lon="121.61487383559708">
        <ele>6.856307064183056</ele>
        <time>2020-07-30T23:17:10Z</time>
      </trkpt>
      <trkpt lat="31.203819741556256" lon="121.61495460688653">
        <ele>7.872779778204858</ele>
        <time>2020-07-30T23:17:13Z</time>
      </trkpt>
      <trkpt lat="31.20379148456429" lon="121.61502155938787">
        <ele>6.88969255797565</ele>
        <time>2020-07-30T23:17:19Z</time>
      </trkpt>
      <trkpt lat="31.203736130422023" lon="121.61506981133697">
        <ele>6.66792391333729</ele>
        <time>2020-07-30T23:17:32Z</time>
      </trkpt>
      <trkpt lat="31.20372040075348" lon="121.61507414947548">
        <ele>5.840933740139008</ele>
        <time>2020-07-30T23:17:56Z</time>
      </trkpt>
      <trkpt lat="31.203724735802254" lon="121.61507767279693">
        <ele>5.7169993203133345</ele>
        <time>2020-07-30T23:17:57Z</time>
      </trkpt>
      <trkpt lat="31.203628611234553" lon="121.6152386852657">
        <ele>7.552625138312578</ele>
        <time>2020-07-30T23:18:15Z</time>
      </trkpt>
      <trkpt lat="31.203584378811314" lon="121.61528070171042">
        <ele>7.26948428247124</ele>
        <time>2020-07-30T23:18:18Z</time>
      </trkpt>
      <trkpt lat="31.20348808959946" lon="121.61532136713954">
        <ele>4.97772965580225</ele>
        <time>2020-07-30T23:18:24Z</time>
      </trkpt>
      <trkpt lat="31.20329350748294" lon="121.61552033277624">
        <ele>5.585383682511747</ele>
        <time>2020-07-30T23:18:36Z</time>
      </trkpt>
      <trkpt lat="31.203269318836607" lon="121.61558430185696">
        <ele>7.389253417961299</ele>
        <time>2020-07-30T23:18:39Z</time>
      </trkpt>
      <trkpt lat="31.203013438131038" lon="121.61580549602888">
        <ele>6.2536414954811335</ele>
        <time>2020-07-30T23:18:51Z</time>
      </trkpt>
      <trkpt lat="31.202941817269053" lon="121.61585076627796">
        <ele>5.871961283497512</ele>
        <time>2020-07-30T23:18:54Z</time>
      </trkpt>
      <trkpt lat="31.202687000334183" lon="121.61609228601274">
        <ele>4.710726316086948</ele>
        <time>2020-07-30T23:19:07Z</time>
      </trkpt>
      <trkpt lat="31.202575487179462" lon="121.6161755046569">
        <ele>6.335229590535164</ele>
        <time>2020-07-30T23:19:13Z</time>
      </trkpt>
      <trkpt lat="31.202332816963207" lon="121.61647231172178">
        <ele>5.097707457840443</ele>
        <time>2020-07-30T23:19:25Z</time>
      </trkpt>
      <trkpt lat="31.202113212869264" lon="121.61674499129657">
        <ele>5.246187126263976</ele>
        <time>2020-07-30T23:19:37Z</time>
      </trkpt>
      <trkpt lat="31.201873286040655" lon="121.61700194974436">
        <ele>6.49377506505698</ele>
        <time>2020-07-30T23:19:49Z</time>
      </trkpt>
      <trkpt lat="31.20181737513641" lon="121.61706185211835">
        <ele>5.8309102403</ele>
        <time>2020-07-30T23:19:52Z</time>
      </trkpt>
      <trkpt lat="31.201702388643856" lon="121.61708842257609">
        <ele>4.650387693196535</ele>
        <time>2020-07-30T23:19:58Z</time>
      </trkpt>
      <trkpt lat="31.201638902670435" lon="121.61713070845879">
        <ele>5.190040037967265</ele>
        <time>2020-07-30T23:20:01Z</time>
      </trkpt>
      <trkpt lat="31.2015666997395" lon="121.61721527547711">
        <ele>3.98786763753742</ele>
        <time>2020-07-30T23:20:04Z</time>
      </trkpt>
      <trkpt lat="31.201510704491458" lon="121.61736217713677">
        <ele>6.843153102323413</ele>
        <time>2020-07-30T23:20:10Z</time>
      </trkpt>
      <trkpt lat="31.201259720032397" lon="121.61755300011956">
        <ele>2.532189594581723</ele>
        <time>2020-07-30T23:20:22Z</time>
      </trkpt>
      <trkpt lat="31.201037092809305" lon="121.61785656451067">
        <ele>4.160272749140859</ele>
        <time>2020-07-30T23:20:34Z</time>
      </trkpt>
      <trkpt lat="31.200830489746405" lon="121.61812949880829">
        <ele>6.114820029586554</ele>
        <time>2020-07-30T23:20:46Z</time>
      </trkpt>
      <trkpt lat="31.200742237779615" lon="121.6182633889358">
        <ele>4.945000168867409</ele>
        <time>2020-07-30T23:20:52Z</time>
      </trkpt>
      <trkpt lat="31.200564471411532" lon="121.61843658300252">
        <ele>3.7470379527658224</ele>
        <time>2020-07-30T23:21:01Z</time>
      </trkpt>
      <trkpt lat="31.200332866307523" lon="121.61876100537248">
        <ele>4.164708864875138</ele>
        <time>2020-07-30T23:21:15Z</time>
      </trkpt>
      <trkpt lat="31.200152094037026" lon="121.61895425100832">
        <ele>2.9741836776956916</ele>
        <time>2020-07-30T23:21:25Z</time>
      </trkpt>
      <trkpt lat="31.199920256535194" lon="121.61923557674533">
        <ele>5.124989653006196</ele>
        <time>2020-07-30T23:21:49Z</time>
      </trkpt>
      <trkpt lat="31.19969009193302" lon="121.61947001554996">
        <ele>5.724159291945398</ele>
        <time>2020-07-30T23:22:10Z</time>
      </trkpt>
      <trkpt lat="31.199465655057722" lon="121.61967030548847">
        <ele>5.87718178331852</ele>
        <time>2020-07-30T23:22:31Z</time>
      </trkpt>
      <trkpt lat="31.199371237915997" lon="121.61972993370411">
        <ele>5.012437794357538</ele>
        <time>2020-07-30T23:22:37Z</time>
      </trkpt>
      <trkpt lat="31.19916737174363" lon="121.6199621978286">
        <ele>5.639078400097787</ele>
        <time>2020-07-30T23:22:49Z</time>
      </trkpt>
      <trkpt lat="31.198958925913058" lon="121.62016492159256">
        <ele>5.650585332885385</ele>
        <time>2020-07-30T23:22:58Z</time>
      </trkpt>
      <trkpt lat="31.198923060630918" lon="121.62023592566538">
        <ele>2.588740322738886</ele>
        <time>2020-07-30T23:23:01Z</time>
      </trkpt>
      <trkpt lat="31.198827005158837" lon="121.62030530855135">
        <ele>5.687933047302067</ele>
        <time>2020-07-30T23:23:04Z</time>
      </trkpt>
      <trkpt lat="31.19872799663422" lon="121.62034705001557">
        <ele>5.808482683263719</ele>
        <time>2020-07-30T23:23:07Z</time>
      </trkpt>
      <trkpt lat="31.198459804411545" lon="121.62063730629241">
        <ele>6.955496788956225</ele>
        <time>2020-07-30T23:23:19Z</time>
      </trkpt>
      <trkpt lat="31.19838543200614" lon="121.62071291911492">
        <ele>6.681941702961922</ele>
        <time>2020-07-30T23:23:23Z</time>
      </trkpt>
      <trkpt lat="31.198128455276347" lon="121.6209091373098">
        <ele>5.808808640576899</ele>
        <time>2020-07-30T23:23:34Z</time>
      </trkpt>
      <trkpt lat="31.197958818292086" lon="121.62107255733908">
        <ele>7.328421366401017</ele>
        <time>2020-07-30T23:23:47Z</time>
      </trkpt>
      <trkpt lat="31.19782782951157" lon="121.62110102185426">
        <ele>7.002101064659655</ele>
        <time>2020-07-30T23:23:59Z</time>
      </trkpt>
      <trkpt lat="31.197682810379103" lon="121.62131375798155">
        <ele>5.451265190728009</ele>
        <time>2020-07-30T23:24:17Z</time>
      </trkpt>
      <trkpt lat="31.197553060007394" lon="121.62144817696483">
        <ele>5.848335416987538</ele>
        <time>2020-07-30T23:24:29Z</time>
      </trkpt>
      <trkpt lat="31.19750172956786" lon="121.62152595341418">
        <ele>6.729826962575316</ele>
        <time>2020-07-30T23:24:35Z</time>
      </trkpt>
      <trkpt lat="31.19733647905987" lon="121.62164303143656">
        <ele>4.69030915107578</ele>
        <time>2020-07-30T23:24:47Z</time>
      </trkpt>
      <trkpt lat="31.1971771609636" lon="121.62178883236922">
        <ele>5.134459954686463</ele>
        <time>2020-07-30T23:24:59Z</time>
      </trkpt>
      <trkpt lat="31.197123452559715" lon="121.62181024424129">
        <ele>4.166779454797506</ele>
        <time>2020-07-30T23:25:02Z</time>
      </trkpt>
      <trkpt lat="31.19687110836218" lon="121.62197962707704">
        <ele>4.974281054921448</ele>
        <time>2020-07-30T23:25:15Z</time>
      </trkpt>
      <trkpt lat="31.19681920713183" lon="121.62208151900549">
        <ele>5.943951405584812</ele>
        <time>2020-07-30T23:25:19Z</time>
      </trkpt>
      <trkpt lat="31.196726928411564" lon="121.62216417457051">
        <ele>5.434988617897034</ele>
        <time>2020-07-30T23:25:23Z</time>
      </trkpt>
      <trkpt lat="31.196653060449904" lon="121.62226986126981">
        <ele>5.559301607310772</ele>
        <time>2020-07-30T23:25:27Z</time>
      </trkpt>
      <trkpt lat="31.196665093049237" lon="121.62241808336947">
        <ele>5.1509490720927715</ele>
        <time>2020-07-30T23:25:31Z</time>
      </trkpt>
      <trkpt lat="31.196657902943272" lon="121.6225413767766">
        <ele>4.09907482098788</ele>
        <time>2020-07-30T23:25:35Z</time>
      </trkpt>
      <trkpt lat="31.196695087100263" lon="121.62274406043828">
        <ele>4.174085629172623</ele>
        <time>2020-07-30T23:25:41Z</time>
      </trkpt>
      <trkpt lat="31.19667602514051" lon="121.6228158691194">
        <ele>2.916487214155495</ele>
        <time>2020-07-30T23:25:44Z</time>
      </trkpt>
      <trkpt lat="31.196710839915912" lon="121.62318953108056">
        <ele>3.7090396899729967</ele>
        <time>2020-07-30T23:25:56Z</time>
      </trkpt>
      <trkpt lat="31.196791020194407" lon="121.62348595977073">
        <ele>3.8414058927446604</ele>
        <time>2020-07-30T23:26:05Z</time>
      </trkpt>
      <trkpt lat="31.196773009817015" lon="121.62358432072092">
        <ele>3.924957923591137</ele>
        <time>2020-07-30T23:26:08Z</time>
      </trkpt>
      <trkpt lat="31.196847226545653" lon="121.62387641029326">
        <ele>5.281316106207669</ele>
        <time>2020-07-30T23:26:17Z</time>
      </trkpt>
      <trkpt lat="31.196895652978704" lon="121.6239660936807">
        <ele>5.593396658077836</ele>
        <time>2020-07-30T23:26:20Z</time>
      </trkpt>
      <trkpt lat="31.196880579025915" lon="121.62364446536195">
        <ele>6.372694222256541</ele>
        <time>2020-07-30T23:26:32Z</time>
      </trkpt>
      <trkpt lat="31.196842999881717" lon="121.62355234136763">
        <ele>5.84519659075886</ele>
        <time>2020-07-30T23:26:35Z</time>
      </trkpt>
      <trkpt lat="31.19674413252099" lon="121.62347024778279">
        <ele>4.347935480065644</ele>
        <time>2020-07-30T23:26:38Z</time>
      </trkpt>
      <trkpt lat="31.196715762213305" lon="121.62338598040326">
        <ele>6.001704967580736</ele>
        <time>2020-07-30T23:26:41Z</time>
      </trkpt>
      <trkpt lat="31.196722482574096" lon="121.62320334938543">
        <ele>4.892651453614235</ele>
        <time>2020-07-30T23:26:47Z</time>
      </trkpt>
      <trkpt lat="31.196660745745756" lon="121.62313317421588">
        <ele>3.091689662076533</ele>
        <time>2020-07-30T23:26:50Z</time>
      </trkpt>
      <trkpt lat="31.1965956151642" lon="121.6229497345468">
        <ele>5.250767137855291</ele>
        <time>2020-07-30T23:27:02Z</time>
      </trkpt>
      <trkpt lat="31.1966488555766" lon="121.62286464589596">
        <ele>5.506050649099052</ele>
        <time>2020-07-30T23:27:08Z</time>
      </trkpt>
      <trkpt lat="31.19658898971132" lon="121.62281723117229">
        <ele>4.635922315530479</ele>
        <time>2020-07-30T23:27:11Z</time>
      </trkpt>
      <trkpt lat="31.196760177215218" lon="121.62272833875392">
        <ele>5.014651275239885</ele>
        <time>2020-07-30T23:27:21Z</time>
      </trkpt>
      <trkpt lat="31.196808775132187" lon="121.62267170179234">
        <ele>4.938957270234823</ele>
        <time>2020-07-30T23:27:25Z</time>
      </trkpt>
      <trkpt lat="31.196944679209125" lon="121.62261397359879">
        <ele>7.002279524691403</ele>
        <time>2020-07-30T23:27:29Z</time>
      </trkpt>
      <trkpt lat="31.197079075471347" lon="121.62245192081468">
        <ele>4.579079834744334</ele>
        <time>2020-07-30T23:27:44Z</time>
      </trkpt>
      <trkpt lat="31.19731293019965" lon="121.62233104701171">
        <ele>4.938660537824035</ele>
        <time>2020-07-30T23:28:02Z</time>
      </trkpt>
      <trkpt lat="31.197502393626568" lon="121.62214378715528">
        <ele>6.368643868714571</ele>
        <time>2020-07-30T23:28:17Z</time>
      </trkpt>
      <trkpt lat="31.197548497381213" lon="121.62213402818034">
        <ele>5.780971464700997</ele>
        <time>2020-07-30T23:28:20Z</time>
      </trkpt>
      <trkpt lat="31.197698308303938" lon="121.6220053015413">
        <ele>6.115030253306031</ele>
        <time>2020-07-30T23:28:32Z</time>
      </trkpt>
      <trkpt lat="31.197745831944633" lon="121.62193836595829">
        <ele>6.435349018312991</ele>
        <time>2020-07-30T23:28:38Z</time>
      </trkpt>
      <trkpt lat="31.19783457294019" lon="121.62186682014685">
        <ele>7.121520443819463</ele>
        <time>2020-07-30T23:28:44Z</time>
      </trkpt>
      <trkpt lat="31.19803802065583" lon="121.62177981877849">
        <ele>6.440415570512414</ele>
        <time>2020-07-30T23:29:02Z</time>
      </trkpt>
      <trkpt lat="31.1982771708047" lon="121.62152724415677">
        <ele>5.928960734978318</ele>
        <time>2020-07-30T23:29:27Z</time>
      </trkpt>
      <trkpt lat="31.19848754525591" lon="121.62130501986402">
        <ele>6.8165992852300406</ele>
        <time>2020-07-30T23:29:49Z</time>
      </trkpt>
      <trkpt lat="31.19865662081149" lon="121.62116029940952">
        <ele>6.339693761430681</ele>
        <time>2020-07-30T23:29:58Z</time>
      </trkpt>
      <trkpt lat="31.19875292091416" lon="121.62111693354406">
        <ele>5.216177763417363</ele>
        <time>2020-07-30T23:30:01Z</time>
      </trkpt>
      <trkpt lat="31.198873750282885" lon="121.6209570406848">
        <ele>5.669710464775562</ele>
        <time>2020-07-30T23:30:07Z</time>
      </trkpt>
      <trkpt lat="31.198942414784" lon="121.62089497851171">
        <ele>6.006293388083577</ele>
        <time>2020-07-30T23:30:10Z</time>
      </trkpt>
      <trkpt lat="31.19906650920327" lon="121.62072343141374">
        <ele>4.045465656556189</ele>
        <time>2020-07-30T23:30:16Z</time>
      </trkpt>
      <trkpt lat="31.199140562230053" lon="121.62069253227777">
        <ele>2.9782542614266276</ele>
        <time>2020-07-30T23:30:19Z</time>
      </trkpt>
      <trkpt lat="31.199300009889953" lon="121.62067327868293">
        <ele>6.191786374896765</ele>
        <time>2020-07-30T23:30:25Z</time>
      </trkpt>
      <trkpt lat="31.19964674772106" lon="121.62071281474252">
        <ele>9.243592909537256</ele>
        <time>2020-07-30T23:30:37Z</time>
      </trkpt>
      <trkpt lat="31.1999956520303" lon="121.62075478947966">
        <ele>5.358178574591875</ele>
        <time>2020-07-30T23:30:49Z</time>
      </trkpt>
      <trkpt lat="31.200123111859725" lon="121.6207301187567">
        <ele>3.982414025813341</ele>
        <time>2020-07-30T23:30:55Z</time>
      </trkpt>
      <trkpt lat="31.20022339634229" lon="121.62076262936556">
        <ele>5.110256826505065</ele>
        <time>2020-07-30T23:31:04Z</time>
      </trkpt>
      <trkpt lat="31.200285504016474" lon="121.6207460937863">
        <ele>5.250376631505787</ele>
        <time>2020-07-30T23:31:10Z</time>
      </trkpt>
      <trkpt lat="31.200373328063407" lon="121.62076776578155">
        <ele>5.043219876475632</ele>
        <time>2020-07-30T23:31:16Z</time>
      </trkpt>
      <trkpt lat="31.200624642037884" lon="121.62079321809532">
        <ele>6.154958791099489</ele>
        <time>2020-07-30T23:31:35Z</time>
      </trkpt>
      <trkpt lat="31.20073954126308" lon="121.62085011651105">
        <ele>5.209453463554382</ele>
        <time>2020-07-30T23:31:43Z</time>
      </trkpt>
      <trkpt lat="31.200987361421866" lon="121.6208471151143">
        <ele>4.79246935993433</ele>
        <time>2020-07-30T23:32:00Z</time>
      </trkpt>
      <trkpt lat="31.201275509956865" lon="121.62090914787025">
        <ele>5.78919661603868</ele>
        <time>2020-07-30T23:32:21Z</time>
      </trkpt>
      <trkpt lat="31.201424809413773" lon="121.62099693587096">
        <ele>5.231358661316335</ele>
        <time>2020-07-30T23:32:30Z</time>
      </trkpt>
      <trkpt lat="31.20170156623174" lon="121.62106249205347">
        <ele>4.090965550392866</ele>
        <time>2020-07-30T23:32:39Z</time>
      </trkpt>
      <trkpt lat="31.201972103793615" lon="121.62111260232594">
        <ele>6.1055693961679935</ele>
        <time>2020-07-30T23:32:48Z</time>
      </trkpt>
      <trkpt lat="31.202295767695638" lon="121.62117734137715">
        <ele>4.5555321564897895</ele>
        <time>2020-07-30T23:33:00Z</time>
      </trkpt>
      <trkpt lat="31.20236300347807" lon="121.62118248455427">
        <ele>5.54834842029959</ele>
        <time>2020-07-30T23:33:03Z</time>
      </trkpt>
      <trkpt lat="31.202412379453904" lon="121.62115565280186">
        <ele>4.15907742921263</ele>
        <time>2020-07-30T23:33:06Z</time>
      </trkpt>
      <trkpt lat="31.20240654030699" lon="121.6207917156784">
        <ele>3.848098849877715</ele>
        <time>2020-07-30T23:33:21Z</time>
      </trkpt>
      <trkpt lat="31.202389221753155" lon="121.62050907257651">
        <ele>5.600858630612493</ele>
        <time>2020-07-30T23:33:30Z</time>
      </trkpt>
      <trkpt lat="31.2023961388081" lon="121.62037980785423">
        <ele>4.865905093029141</ele>
        <time>2020-07-30T23:33:40Z</time>
      </trkpt>
      <trkpt lat="31.202457695699376" lon="121.6203711309283">
        <ele>5.290389242582023</ele>
        <time>2020-07-30T23:34:38Z</time>
      </trkpt>
      <trkpt lat="31.202678959730957" lon="121.62035431093527">
        <ele>4.875258021056652</ele>
        <time>2020-07-30T23:34:47Z</time>
      </trkpt>
      <trkpt lat="31.2028443989605" lon="121.62031039602323">
        <ele>4.40690612513572</ele>
        <time>2020-07-30T23:34:53Z</time>
      </trkpt>
      <trkpt lat="31.20286427681974" lon="121.62023072160237">
        <ele>4.151100700721145</ele>
        <time>2020-07-30T23:34:56Z</time>
      </trkpt>
      <trkpt lat="31.202789462554243" lon="121.61995729113086">
        <ele>5.105694443918765</ele>
        <time>2020-07-30T23:35:05Z</time>
      </trkpt>
      <trkpt lat="31.2027364041638" lon="121.61987762165818">
        <ele>4.014369583688676</ele>
        <time>2020-07-30T23:35:08Z</time>
      </trkpt>
      <trkpt lat="31.20273742589936" lon="121.61967924884362">
        <ele>4.4668858936056495</ele>
        <time>2020-07-30T23:35:14Z</time>
      </trkpt>
      <trkpt lat="31.2026350540208" lon="121.61930608478792">
        <ele>6.47547912877053</ele>
        <time>2020-07-30T23:35:26Z</time>
      </trkpt>
      <trkpt lat="31.20258779147748" lon="121.61912559807182">
        <ele>6.683795850723982</ele>
        <time>2020-07-30T23:35:32Z</time>
      </trkpt>
      <trkpt lat="31.20257624582786" lon="121.6190152985704">
        <ele>6.389267330989242</ele>
        <time>2020-07-30T23:35:35Z</time>
      </trkpt>
      <trkpt lat="31.20248844141198" lon="121.61870662461624">
        <ele>6.838087061420083</ele>
        <time>2020-07-30T23:35:45Z</time>
      </trkpt>
      <trkpt lat="31.202532457103416" lon="121.61861583166514">
        <ele>6.227208042517304</ele>
        <time>2020-07-30T23:35:53Z</time>
      </trkpt>
      <trkpt lat="31.20264772936246" lon="121.61857625414795">
        <ele>5.895474263466895</ele>
        <time>2020-07-30T23:36:01Z</time>
      </trkpt>
      <trkpt lat="31.202747845581925" lon="121.61850930537388">
        <ele>5.529295952990651</ele>
        <time>2020-07-30T23:36:10Z</time>
      </trkpt>
      <trkpt lat="31.20280235815079" lon="121.61849493709158">
        <ele>5.8951159324496984</ele>
        <time>2020-07-30T23:36:13Z</time>
      </trkpt>
      <trkpt lat="31.202844984882763" lon="121.61843666534857">
        <ele>7.474913272075355</ele>
        <time>2020-07-30T23:36:19Z</time>
      </trkpt>
      <trkpt lat="31.20276332192087" lon="121.61821687775922">
        <ele>5.751124244183302</ele>
        <time>2020-07-30T23:36:34Z</time>
      </trkpt>
      <trkpt lat="31.20276231421598" lon="121.61813963769643">
        <ele>5.594167387112975</ele>
        <time>2020-07-30T23:36:40Z</time>
      </trkpt>
      <trkpt lat="31.202681662630106" lon="121.61799166784547">
        <ele>6.48101301677525</ele>
        <time>2020-07-30T23:36:49Z</time>
      </trkpt>
      <trkpt lat="31.20263290116878" lon="121.61794830863008">
        <ele>4.459889774210751</ele>
        <time>2020-07-30T23:36:52Z</time>
      </trkpt>
      <trkpt lat="31.20249763795889" lon="121.61763827039427">
        <ele>6.766399423591793</ele>
        <time>2020-07-30T23:37:13Z</time>
      </trkpt>
      <trkpt lat="31.202459506404146" lon="121.61753718142509">
        <ele>5.874508946202695</ele>
        <time>2020-07-30T23:37:19Z</time>
      </trkpt>
      <trkpt lat="31.202456576827927" lon="121.61748270558063">
        <ele>5.778564031235874</ele>
        <time>2020-07-30T23:37:22Z</time>
      </trkpt>
      <trkpt lat="31.202384308177052" lon="121.61735424509001">
        <ele>6.090014691464603</ele>
        <time>2020-07-30T23:37:31Z</time>
      </trkpt>
      <trkpt lat="31.202384674928616" lon="121.61725504897663">
        <ele>3.9298565350472927</ele>
        <time>2020-07-30T23:37:37Z</time>
      </trkpt>
      <trkpt lat="31.202494836386737" lon="121.61717102101308">
        <ele>5.78192363679409</ele>
        <time>2020-07-30T23:37:46Z</time>
      </trkpt>
      <trkpt lat="31.20256947945407" lon="121.6170864536425">
        <ele>5.247229292988777</ele>
        <time>2020-07-30T23:37:53Z</time>
      </trkpt>
      <trkpt lat="31.20267825993851" lon="121.61702844416942">
        <ele>5.523848031647503</ele>
        <time>2020-07-30T23:38:01Z</time>
      </trkpt>
      <trkpt lat="31.202750753349253" lon="121.6169230070542">
        <ele>6.295024770312011</ele>
        <time>2020-07-30T23:38:09Z</time>
      </trkpt>
      <trkpt lat="31.202920547096525" lon="121.61685631911281">
        <ele>4.687513398006558</ele>
        <time>2020-07-30T23:38:21Z</time>
      </trkpt>
      <trkpt lat="31.202968616734985" lon="121.61677310802905">
        <ele>4.762299727648497</ele>
        <time>2020-07-30T23:38:27Z</time>
      </trkpt>
      <trkpt lat="31.203032399953603" lon="121.61670263397285">
        <ele>5.232129952870309</ele>
        <time>2020-07-30T23:38:33Z</time>
      </trkpt>
      <trkpt lat="31.203232038186947" lon="121.61661453120003">
        <ele>5.942006189376116</ele>
        <time>2020-07-30T23:38:48Z</time>
      </trkpt>
      <trkpt lat="31.203283094170715" lon="121.6165264404014">
        <ele>5.962317510508001</ele>
        <time>2020-07-30T23:38:54Z</time>
      </trkpt>
      <trkpt lat="31.2033463360314" lon="121.61645433946072">
        <ele>6.72819038014859</ele>
        <time>2020-07-30T23:39:00Z</time>
      </trkpt>
      <trkpt lat="31.203429888855787" lon="121.61640798519568">
        <ele>6.456719794310629</ele>
        <time>2020-07-30T23:39:06Z</time>
      </trkpt>
      <trkpt lat="31.203493674954352" lon="121.61633344451721">
        <ele>5.670787628740072</ele>
        <time>2020-07-30T23:39:12Z</time>
      </trkpt>
      <trkpt lat="31.203544657414408" lon="121.61632368292165">
        <ele>6.486338573507965</ele>
        <time>2020-07-30T23:39:15Z</time>
      </trkpt>
      <trkpt lat="31.203730497482486" lon="121.6162022420684">
        <ele>5.665256354026496</ele>
        <time>2020-07-30T23:39:30Z</time>
      </trkpt>
      <trkpt lat="31.20377551343055" lon="121.61619410715275">
        <ele>6.126678596250713</ele>
        <time>2020-07-30T23:39:33Z</time>
      </trkpt>
      <trkpt lat="31.203886829155604" lon="121.61603093144856">
        <ele>6.886459229514003</ele>
        <time>2020-07-30T23:39:45Z</time>
      </trkpt>
      <trkpt lat="31.203987774918563" lon="121.61593985295106">
        <ele>4.5767175341024995</ele>
        <time>2020-07-30T23:39:54Z</time>
      </trkpt>
      <trkpt lat="31.204207420960973" lon="121.6159108332066">
        <ele>2.9431303525343537</ele>
        <time>2020-07-30T23:40:09Z</time>
      </trkpt>
      <trkpt lat="31.204259506902368" lon="121.61588020102721">
        <ele>3.370996286161244</ele>
        <time>2020-07-30T23:40:13Z</time>
      </trkpt>
      <trkpt lat="31.20431425221213" lon="121.61590648768292">
        <ele>4.8941115932539105</ele>
        <time>2020-07-30T23:40:16Z</time>
      </trkpt>
      <trkpt lat="31.204459416678713" lon="121.61608536338824">
        <ele>7.458861875347793</ele>
        <time>2020-07-30T23:40:28Z</time>
      </trkpt>
      <trkpt lat="31.20449971660792" lon="121.61619296309114">
        <ele>6.940058710984886</ele>
        <time>2020-07-30T23:40:34Z</time>
      </trkpt>
      <trkpt lat="31.204622682192085" lon="121.61633308009188">
        <ele>6.932677076198161</ele>
        <time>2020-07-30T23:40:46Z</time>
      </trkpt>
      <trkpt lat="31.20464144863534" lon="121.61627046862594">
        <ele>6.941606564447284</ele>
        <time>2020-07-30T23:40:52Z</time>
      </trkpt>
      <trkpt lat="31.204556923402794" lon="121.61619593979678">
        <ele>7.783996478654444</ele>
        <time>2020-07-30T23:40:58Z</time>
      </trkpt>
      <trkpt lat="31.204418249963936" lon="121.61603549519968">
        <ele>8.519558057188988</ele>
        <time>2020-07-30T23:41:10Z</time>
      </trkpt>
      <trkpt lat="31.20436134389484" lon="121.61600026447992">
        <ele>7.8803030820563436</ele>
        <time>2020-07-30T23:41:13Z</time>
      </trkpt>
      <trkpt lat="31.20423592333109" lon="121.61587451106833">
        <ele>9.258693916723132</ele>
        <time>2020-07-30T23:41:19Z</time>
      </trkpt>
      <trkpt lat="31.204157329952157" lon="121.61583521625242">
        <ele>8.30251107364893</ele>
        <time>2020-07-30T23:41:22Z</time>
      </trkpt>
      <trkpt lat="31.20388182645823" lon="121.61556934363102">
        <ele>6.6527301194146276</ele>
        <time>2020-07-30T23:41:34Z</time>
      </trkpt>
      <trkpt lat="31.20364885359004" lon="121.61534276674787">
        <ele>6.610383863560855</ele>
        <time>2020-07-30T23:41:46Z</time>
      </trkpt>
      <trkpt lat="31.203564284604756" lon="121.61531458459837">
        <ele>5.519840311259031</ele>
        <time>2020-07-30T23:41:52Z</time>
      </trkpt>
      <trkpt lat="31.203492690427204" lon="121.61533085349114">
        <ele>5.700443439185619</ele>
        <time>2020-07-30T23:41:58Z</time>
      </trkpt>
      <trkpt lat="31.203293092348343" lon="121.6150736427102">
        <ele>7.1093797497451305</ele>
        <time>2020-07-30T23:42:15Z</time>
      </trkpt>
      <trkpt lat="31.20327362157003" lon="121.6150159101041">
        <ele>7.130573815666139</ele>
        <time>2020-07-30T23:42:22Z</time>
      </trkpt>
      <trkpt lat="31.20328348300131" lon="121.61490152465632">
        <ele>5.425840983167291</ele>
        <time>2020-07-30T23:42:31Z</time>
      </trkpt>
      <trkpt lat="31.20328348300131" lon="121.61490152465632">
        <ele>5.425840983167291</ele>
        <time>2020-07-30T23:42:46Z</time>
      </trkpt>
      <trkpt lat="31.20332587021697" lon="121.61479852030412">
        <ele>7.288700013421476</ele>
        <time>2020-07-30T23:43:19Z</time>
      </trkpt>
      <trkpt lat="31.203561854789516" lon="121.61468709674214">
        <ele>7.4193955808877945</ele>
        <time>2020-07-30T23:43:37Z</time>
      </trkpt>
      <trkpt lat="31.203716792046677" lon="121.61454965778448">
        <ele>6.315251989290118</ele>
        <time>2020-07-30T23:43:55Z</time>
      </trkpt>
      <trkpt lat="31.20376946544858" lon="121.61446481204085">
        <ele>7.645602176897228</ele>
        <time>2020-07-30T23:44:01Z</time>
      </trkpt>
      <trkpt lat="31.20388613415711" lon="121.61437101571494">
        <ele>7.281964452937245</ele>
        <time>2020-07-30T23:44:11Z</time>
      </trkpt>
      <trkpt lat="31.20409623675648" lon="121.61408475694469">
        <ele>8.397614643909037</ele>
        <time>2020-07-30T23:44:36Z</time>
      </trkpt>
      <trkpt lat="31.204253393205473" lon="121.6138841560643">
        <ele>8.161817013286054</ele>
        <time>2020-07-30T23:44:54Z</time>
      </trkpt>
      <trkpt lat="31.204496475951" lon="121.61371011104232">
        <ele>7.192245714366436</ele>
        <time>2020-07-30T23:45:09Z</time>
      </trkpt>
      <trkpt lat="31.20455565084606" lon="121.61362905672172">
        <ele>7.881332790479064</ele>
        <time>2020-07-30T23:45:15Z</time>
      </trkpt>
      <trkpt lat="31.20462429168157" lon="121.61357646364284">
        <ele>7.975513271987438</ele>
        <time>2020-07-30T23:45:21Z</time>
      </trkpt>
      <trkpt lat="31.204675812782067" lon="121.61356995371622">
        <ele>6.956292510032654</ele>
        <time>2020-07-30T23:45:24Z</time>
      </trkpt>
      <trkpt lat="31.20471138081508" lon="121.6135103154175">
        <ele>8.25959026440978</ele>
        <time>2020-07-30T23:45:27Z</time>
      </trkpt>
      <trkpt lat="31.2048237079037" lon="121.61341678674138">
        <ele>6.090141281485558</ele>
        <time>2020-07-30T23:45:33Z</time>
      </trkpt>
      <trkpt lat="31.205045952481893" lon="121.61319096494621">
        <ele>7.630361745133996</ele>
        <time>2020-07-30T23:45:45Z</time>
      </trkpt>
      <trkpt lat="31.20509644686089" lon="121.61311316245138">
        <ele>8.368663998320699</ele>
        <time>2020-07-30T23:45:48Z</time>
      </trkpt>
      <trkpt lat="31.20522125707659" lon="121.61300445091035">
        <ele>6.499556541442871</ele>
        <time>2020-07-30T23:45:54Z</time>
      </trkpt>
      <trkpt lat="31.205377841416166" lon="121.61283121976174">
        <ele>6.907183508388698</ele>
        <time>2020-07-30T23:46:00Z</time>
      </trkpt>
      <trkpt lat="31.205484805554022" lon="121.61265961791099">
        <ele>6.455796661786735</ele>
        <time>2020-07-30T23:46:06Z</time>
      </trkpt>
      <trkpt lat="31.205609309824734" lon="121.61259265076082">
        <ele>7.848109241575003</ele>
        <time>2020-07-30T23:46:12Z</time>
      </trkpt>
      <trkpt lat="31.205826101698605" lon="121.61239636952551">
        <ele>7.186816916801035</ele>
        <time>2020-07-30T23:46:23Z</time>
      </trkpt>
      <trkpt lat="31.205995679158676" lon="121.61224563283096">
        <ele>7.708236607722938</ele>
        <time>2020-07-30T23:46:31Z</time>
      </trkpt>
      <trkpt lat="31.206086673890017" lon="121.61203336491639">
        <ele>7.846569522283971</ele>
        <time>2020-07-30T23:46:49Z</time>
      </trkpt>
      <trkpt lat="31.206294021880197" lon="121.61177147594546">
        <ele>7.295946684665978</ele>
        <time>2020-07-30T23:47:07Z</time>
      </trkpt>
      <trkpt lat="31.206477678316045" lon="121.61164269246721">
        <ele>8.627720828168094</ele>
        <time>2020-07-30T23:47:19Z</time>
      </trkpt>
      <trkpt lat="31.206531920607336" lon="121.61162262717292">
        <ele>8.507427637465298</ele>
        <time>2020-07-30T23:47:22Z</time>
      </trkpt>
      <trkpt lat="31.206590291893615" lon="121.61152014929031">
        <ele>8.744288496673107</ele>
        <time>2020-07-30T23:47:31Z</time>
      </trkpt>
      <trkpt lat="31.206517954681825" lon="121.6114453333858">
        <ele>7.342598191462457</ele>
        <time>2020-07-30T23:47:37Z</time>
      </trkpt>
      <trkpt lat="31.206460494557625" lon="121.61141768650855">
        <ele>9.25893921032548</ele>
        <time>2020-07-30T23:47:40Z</time>
      </trkpt>
    </trkseg>
  </trk>
</gpx>