<?xml version="1.0" encoding="UTF-8"?>
<gpx xmlns="http://www.topografix.com/GPX/1/1" xmlns:gpxtpx="http://www.garmin.com/xmlschemas/TrackPointExtension/v1" xmlns:xsi="http://www.w3.org/2001/XMLSchema-instance" xsi:schemaLocation="http://www.topografix.com/GPX/1/1 http://www.topografix.com/GPX/1/1/gpx.xsd" version="1.1" creator="gpx.py -- https://github.com/tkrajina/gpxpy">
  <trk>
    <name>gpx from keep</name>
    <type>Run</type>
    <trkseg>
      <trkpt lat="31.204634117053697" lon="121.61068912372984">
        <ele>8.808750683628812</ele>
        <time>2020-06-09T23:01:26Z</time>
      </trkpt>
      <trkpt lat="31.204677514086136" lon="121.6106677029791">
        <ele>8.303974837716918</ele>
        <time>2020-06-09T23:01:30Z</time>
      </trkpt>
      <trkpt lat="31.2046799968427" lon="121.61060833103892">
        <ele>8.042820565402508</ele>
        <time>2020-06-09T23:01:34Z</time>
      </trkpt>
      <trkpt lat="31.204789289771572" lon="121.61057280733033">
        <ele>7.866835556924343</ele>
        <time>2020-06-09T23:01:37Z</time>
      </trkpt>
      <trkpt lat="31.204925721098615" lon="121.61050230874919">
        <ele>7.783771772868931</ele>
        <time>2020-06-09T23:01:41Z</time>
      </trkpt>
      <trkpt lat="31.204988941843045" lon="121.61043723812635">
        <ele>7.708152855746448</ele>
        <time>2020-06-09T23:01:45Z</time>
      </trkpt>
      <trkpt lat="31.205073286653" lon="121.61040659613165">
        <ele>7.8598655285313725</ele>
        <time>2020-06-09T23:01:48Z</time>
      </trkpt>
      <trkpt lat="31.205157955312057" lon="121.61030112843021">
        <ele>7.870703309774399</ele>
        <time>2020-06-09T23:01:52Z</time>
      </trkpt>
      <trkpt lat="31.205368488295825" lon="121.61011269029787">
        <ele>8.83210299257189</ele>
        <time>2020-06-09T23:02:02Z</time>
      </trkpt>
      <trkpt lat="31.205417236319214" lon="121.61019347693052">
        <ele>8.077960363589227</ele>
        <time>2020-06-09T23:02:06Z</time>
      </trkpt>
      <trkpt lat="31.205430212661103" lon="121.61024796872566">
        <ele>6.87550491746515</ele>
        <time>2020-06-09T23:02:09Z</time>
      </trkpt>
      <trkpt lat="31.205550486836238" lon="121.61040411672289">
        <ele>7.5813951175659895</ele>
        <time>2020-06-09T23:02:17Z</time>
      </trkpt>
      <trkpt lat="31.20566216722932" lon="121.61044287570115">
        <ele>7.387237875722349</ele>
        <time>2020-06-09T23:02:21Z</time>
      </trkpt>
      <trkpt lat="31.205749942495967" lon="121.61054507522866">
        <ele>6.381660427898169</ele>
        <time>2020-06-09T23:02:27Z</time>
      </trkpt>
      <trkpt lat="31.205851846117557" lon="121.61060579422455">
        <ele>6.250163910910487</ele>
        <time>2020-06-09T23:02:34Z</time>
      </trkpt>
      <trkpt lat="31.206047398716358" lon="121.61089341778897">
        <ele>7.4568595150485635</ele>
        <time>2020-06-09T23:02:48Z</time>
      </trkpt>
      <trkpt lat="31.206149590845552" lon="121.61092919461369">
        <ele>8.157460324466228</ele>
        <time>2020-06-09T23:02:52Z</time>
      </trkpt>
      <trkpt lat="31.206237381675386" lon="121.61100753522035">
        <ele>5.620812883600593</ele>
        <time>2020-06-09T23:02:56Z</time>
      </trkpt>
      <trkpt lat="31.206353311987243" lon="121.61116530494935">
        <ele>8.298935703001916</ele>
        <time>2020-06-09T23:03:03Z</time>
      </trkpt>
      <trkpt lat="31.206386869758763" lon="121.61125069774127">
        <ele>8.079074229113758</ele>
        <time>2020-06-09T23:03:06Z</time>
      </trkpt>
      <trkpt lat="31.206501177461647" lon="121.61140087527629">
        <ele>8.670411149039865</ele>
        <time>2020-06-09T23:03:13Z</time>
      </trkpt>
      <trkpt lat="31.20656919508546" lon="121.61145102212735">
        <ele>6.438829670660198</ele>
        <time>2020-06-09T23:03:16Z</time>
      </trkpt>
      <trkpt lat="31.206597355656786" lon="121.61150117216422">
        <ele>4.018101753666997</ele>
        <time>2020-06-09T23:03:20Z</time>
      </trkpt>
      <trkpt lat="31.206592412893123" lon="121.61158412705556">
        <ele>7.742893564514816</ele>
        <time>2020-06-09T23:03:24Z</time>
      </trkpt>
      <trkpt lat="31.20642519274007" lon="121.61184872573045">
        <ele>9.052921990863979</ele>
        <time>2020-06-09T23:03:38Z</time>
      </trkpt>
      <trkpt lat="31.20615113179314" lon="121.61212715560605">
        <ele>7.48030995670706</ele>
        <time>2020-06-09T23:03:52Z</time>
      </trkpt>
      <trkpt lat="31.206042846634467" lon="121.61225864099887">
        <ele>7.49710784573108</ele>
        <time>2020-06-09T23:03:58Z</time>
      </trkpt>
      <trkpt lat="31.205866526378955" lon="121.6123638361925">
        <ele>8.21930905431509</ele>
        <time>2020-06-09T23:04:05Z</time>
      </trkpt>
      <trkpt lat="31.205806533979914" lon="121.61245492501149">
        <ele>7.299178901128471</ele>
        <time>2020-06-09T23:04:09Z</time>
      </trkpt>
      <trkpt lat="31.20557592171812" lon="121.61264117692984">
        <ele>7.632298951037228</ele>
        <time>2020-06-09T23:04:20Z</time>
      </trkpt>
      <trkpt lat="31.205385116246617" lon="121.61288841654849">
        <ele>7.95966328214854</ele>
        <time>2020-06-09T23:04:30Z</time>
      </trkpt>
      <trkpt lat="31.205166353372288" lon="121.61317035336984">
        <ele>8.12456466909498</ele>
        <time>2020-06-09T23:04:47Z</time>
      </trkpt>
      <trkpt lat="31.205043693400818" lon="121.61330129192402">
        <ele>7.609034835360944</ele>
        <time>2020-06-09T23:04:54Z</time>
      </trkpt>
      <trkpt lat="31.204912139220706" lon="121.61336663119833">
        <ele>8.16347855515778</ele>
        <time>2020-06-09T23:05:00Z</time>
      </trkpt>
      <trkpt lat="31.204841302708996" lon="121.61345202451962">
        <ele>7.130970461294055</ele>
        <time>2020-06-09T23:05:04Z</time>
      </trkpt>
      <trkpt lat="31.204680323305567" lon="121.61368895253744">
        <ele>7.812771037220955</ele>
        <time>2020-06-09T23:05:16Z</time>
      </trkpt>
      <trkpt lat="31.20446566342688" lon="121.6139182927841">
        <ele>8.305076288059354</ele>
        <time>2020-06-09T23:05:26Z</time>
      </trkpt>
      <trkpt lat="31.204386150688837" lon="121.61400151631094">
        <ele>8.192051198333502</ele>
        <time>2020-06-09T23:05:30Z</time>
      </trkpt>
      <trkpt lat="31.204144160994158" lon="121.61416336128413">
        <ele>7.382010267116129</ele>
        <time>2020-06-09T23:05:40Z</time>
      </trkpt>
      <trkpt lat="31.203909686619827" lon="121.61441329913583">
        <ele>8.894251412712038</ele>
        <time>2020-06-09T23:05:52Z</time>
      </trkpt>
      <trkpt lat="31.203746603320116" lon="121.61456537669329">
        <ele>7.551641369238496</ele>
        <time>2020-06-09T23:06:00Z</time>
      </trkpt>
      <trkpt lat="31.20369393125168" lon="121.61464832467937">
        <ele>8.10679017007351</ele>
        <time>2020-06-09T23:06:03Z</time>
      </trkpt>
      <trkpt lat="31.2037044268039" lon="121.61473885672606">
        <ele>6.531240715645254</ele>
        <time>2020-06-09T23:06:06Z</time>
      </trkpt>
      <trkpt lat="31.20380151369712" lon="121.61502481119324">
        <ele>5.76768038328737</ele>
        <time>2020-06-09T23:06:17Z</time>
      </trkpt>
      <trkpt lat="31.20376702713419" lon="121.61508417455329">
        <ele>6.721126911230385</ele>
        <time>2020-06-09T23:06:39Z</time>
      </trkpt>
      <trkpt lat="31.203730961848876" lon="121.61508905647533">
        <ele>7.170977185480297</ele>
        <time>2020-06-09T23:06:46Z</time>
      </trkpt>
      <trkpt lat="31.20363648186629" lon="121.6152300109981">
        <ele>6.152416294440627</ele>
        <time>2020-06-09T23:06:53Z</time>
      </trkpt>
      <trkpt lat="31.203566216140874" lon="121.61527690851226">
        <ele>6.38485321495682</ele>
        <time>2020-06-09T23:06:57Z</time>
      </trkpt>
      <trkpt lat="31.203526576987365" lon="121.6153368137754">
        <ele>5.653179122135043</ele>
        <time>2020-06-09T23:07:00Z</time>
      </trkpt>
      <trkpt lat="31.20343271433026" lon="121.61539265764355">
        <ele>4.923708114773035</ele>
        <time>2020-06-09T23:07:04Z</time>
      </trkpt>
      <trkpt lat="31.203345336912093" lon="121.61547289516415">
        <ele>6.206582670100033</ele>
        <time>2020-06-09T23:07:08Z</time>
      </trkpt>
      <trkpt lat="31.20310269082145" lon="121.61575127976292">
        <ele>6.7977319322526455</ele>
        <time>2020-06-09T23:07:22Z</time>
      </trkpt>
      <trkpt lat="31.202881515822728" lon="121.61597057224668">
        <ele>5.373993411660194</ele>
        <time>2020-06-09T23:07:33Z</time>
      </trkpt>
      <trkpt lat="31.202743650806617" lon="121.61611044106216">
        <ele>6.347962096333504</ele>
        <time>2020-06-09T23:07:40Z</time>
      </trkpt>
      <trkpt lat="31.20269992006211" lon="121.61619500923693">
        <ele>6.543802946805954</ele>
        <time>2020-06-09T23:07:44Z</time>
      </trkpt>
      <trkpt lat="31.202616355343935" lon="121.61625464482728">
        <ele>5.595219627022743</ele>
        <time>2020-06-09T23:07:48Z</time>
      </trkpt>
      <trkpt lat="31.202394882771756" lon="121.61649805506167">
        <ele>6.212236089631915</ele>
        <time>2020-06-09T23:07:59Z</time>
      </trkpt>
      <trkpt lat="31.202196208237346" lon="121.61671517070715">
        <ele>4.045184235088527</ele>
        <time>2020-06-09T23:08:10Z</time>
      </trkpt>
      <trkpt lat="31.20194757514554" lon="121.61700384081541">
        <ele>5.895373146049678</ele>
        <time>2020-06-09T23:08:24Z</time>
      </trkpt>
      <trkpt lat="31.201881541724653" lon="121.61715833337735">
        <ele>6.2040854981169105</ele>
        <time>2020-06-09T23:08:32Z</time>
      </trkpt>
      <trkpt lat="31.20182567055989" lon="121.61717649694548">
        <ele>5.2985862558707595</ele>
        <time>2020-06-09T23:08:35Z</time>
      </trkpt>
      <trkpt lat="31.20154155696781" lon="121.6174209873574">
        <ele>4.827752842567861</ele>
        <time>2020-06-09T23:08:45Z</time>
      </trkpt>
      <trkpt lat="31.20140940477441" lon="121.61753401599135">
        <ele>4.35798800829798</ele>
        <time>2020-06-09T23:08:52Z</time>
      </trkpt>
      <trkpt lat="31.201209364871303" lon="121.6177530198157">
        <ele>3.8643934577703476</ele>
        <time>2020-06-09T23:09:02Z</time>
      </trkpt>
      <trkpt lat="31.20099085831591" lon="121.61800020934106">
        <ele>5.518346248194575</ele>
        <time>2020-06-09T23:09:13Z</time>
      </trkpt>
      <trkpt lat="31.200762017883555" lon="121.61827612510211">
        <ele>5.07368877902627</ele>
        <time>2020-06-09T23:09:25Z</time>
      </trkpt>
      <trkpt lat="31.200665899346355" lon="121.61841299627103">
        <ele>6.055781450122595</ele>
        <time>2020-06-09T23:09:31Z</time>
      </trkpt>
      <trkpt lat="31.20041508377856" lon="121.61869812375403">
        <ele>5.646070961840451</ele>
        <time>2020-06-09T23:09:44Z</time>
      </trkpt>
      <trkpt lat="31.20022018334986" lon="121.61892036913501">
        <ele>4.970602521672845</ele>
        <time>2020-06-09T23:09:55Z</time>
      </trkpt>
      <trkpt lat="31.200029875472044" lon="121.61915724660582">
        <ele>4.9094515377655625</ele>
        <time>2020-06-09T23:10:06Z</time>
      </trkpt>
      <trkpt lat="31.199837951244792" lon="121.61938219778466">
        <ele>4.532435751520097</ele>
        <time>2020-06-09T23:10:18Z</time>
      </trkpt>
      <trkpt lat="31.19959394998764" lon="121.61962395346433">
        <ele>4.832731275819242</ele>
        <time>2020-06-09T23:10:32Z</time>
      </trkpt>
      <trkpt lat="31.199318470661375" lon="121.61988901547151">
        <ele>6.48489427100867</ele>
        <time>2020-06-09T23:10:46Z</time>
      </trkpt>
      <trkpt lat="31.199262545258556" lon="121.61995704097086">
        <ele>5.524444210343063</ele>
        <time>2020-06-09T23:10:50Z</time>
      </trkpt>
      <trkpt lat="31.19923128774115" lon="121.62002994222114">
        <ele>7.061572168953717</ele>
        <time>2020-06-09T23:10:53Z</time>
      </trkpt>
      <trkpt lat="31.199059232261526" lon="121.62017737914994">
        <ele>5.097540747374296</ele>
        <time>2020-06-09T23:11:01Z</time>
      </trkpt>
      <trkpt lat="31.198858552094006" lon="121.62021587727543">
        <ele>5.374069602228701</ele>
        <time>2020-06-09T23:11:08Z</time>
      </trkpt>
      <trkpt lat="31.198646253162554" lon="121.62047035923682">
        <ele>5.105051138438284</ele>
        <time>2020-06-09T23:11:19Z</time>
      </trkpt>
      <trkpt lat="31.198377821193112" lon="121.62073053417008">
        <ele>6.914913348853588</ele>
        <time>2020-06-09T23:11:32Z</time>
      </trkpt>
      <trkpt lat="31.198148494101048" lon="121.6209321697253">
        <ele>6.909040801227093</ele>
        <time>2020-06-09T23:11:42Z</time>
      </trkpt>
      <trkpt lat="31.19789285293204" lon="121.62114545834383">
        <ele>5.658646581694484</ele>
        <time>2020-06-09T23:11:55Z</time>
      </trkpt>
      <trkpt lat="31.19767355806742" lon="121.6213443800408">
        <ele>6.502898841165006</ele>
        <time>2020-06-09T23:12:07Z</time>
      </trkpt>
      <trkpt lat="31.197408378022264" lon="121.62159939739905">
        <ele>6.101541033945978</ele>
        <time>2020-06-09T23:12:21Z</time>
      </trkpt>
      <trkpt lat="31.197261301661264" lon="121.6217088861264">
        <ele>5.303532919846475</ele>
        <time>2020-06-09T23:12:28Z</time>
      </trkpt>
      <trkpt lat="31.19700481012087" lon="121.62195035034362">
        <ele>5.817711001262069</ele>
        <time>2020-06-09T23:12:40Z</time>
      </trkpt>
      <trkpt lat="31.19674642153406" lon="121.62218937375019">
        <ele>4.875979198142886</ele>
        <time>2020-06-09T23:12:54Z</time>
      </trkpt>
      <trkpt lat="31.196649540321786" lon="121.62226579693092">
        <ele>5.027533473446965</ele>
        <time>2020-06-09T23:12:58Z</time>
      </trkpt>
      <trkpt lat="31.196626912862076" lon="121.62237445970676">
        <ele>5.641287721693516</ele>
        <time>2020-06-09T23:13:02Z</time>
      </trkpt>
      <trkpt lat="31.19663385340715" lon="121.62247011288072">
        <ele>6.130117014981806</ele>
        <time>2020-06-09T23:13:05Z</time>
      </trkpt>
      <trkpt lat="31.19667276509716" lon="121.62258527307097">
        <ele>5.6195103619247675</ele>
        <time>2020-06-09T23:13:09Z</time>
      </trkpt>
      <trkpt lat="31.19672697296613" lon="121.62283781345093">
        <ele>4.828300995752215</ele>
        <time>2020-06-09T23:13:19Z</time>
      </trkpt>
      <trkpt lat="31.196765508326756" lon="121.62304266252339">
        <ele>4.375432837754488</ele>
        <time>2020-06-09T23:13:27Z</time>
      </trkpt>
      <trkpt lat="31.196769443535654" lon="121.62315619737677">
        <ele>5.200635616667569</ele>
        <time>2020-06-09T23:13:31Z</time>
      </trkpt>
      <trkpt lat="31.196836968433864" lon="121.62337784144405">
        <ele>5.4437759052962065</ele>
        <time>2020-06-09T23:13:39Z</time>
      </trkpt>
      <trkpt lat="31.196839404380032" lon="121.62361249528061">
        <ele>4.188729885965586</ele>
        <time>2020-06-09T23:13:47Z</time>
      </trkpt>
      <trkpt lat="31.196901781876264" lon="121.62382790401256">
        <ele>5.27543013356626</ele>
        <time>2020-06-09T23:13:55Z</time>
      </trkpt>
      <trkpt lat="31.196931404915446" lon="121.62399779284293">
        <ele>6.190796907991171</ele>
        <time>2020-06-09T23:14:01Z</time>
      </trkpt>
      <trkpt lat="31.196929684850925" lon="121.62361844896925">
        <ele>6.314460327848792</ele>
        <time>2020-06-09T23:14:16Z</time>
      </trkpt>
      <trkpt lat="31.19690673526772" lon="121.62330467522332">
        <ele>5.442411622963846</ele>
        <time>2020-06-09T23:14:27Z</time>
      </trkpt>
      <trkpt lat="31.196825469654957" lon="121.62300743175224">
        <ele>6.50946777779609</ele>
        <time>2020-06-09T23:14:38Z</time>
      </trkpt>
      <trkpt lat="31.196842418377848" lon="121.62288766226044">
        <ele>4.468336537480354</ele>
        <time>2020-06-09T23:14:42Z</time>
      </trkpt>
      <trkpt lat="31.197016776234207" lon="121.62263537440033">
        <ele>5.191521268337965</ele>
        <time>2020-06-09T23:14:53Z</time>
      </trkpt>
      <trkpt lat="31.197200536246932" lon="121.62245814315163">
        <ele>4.5589103838428855</ele>
        <time>2020-06-09T23:15:03Z</time>
      </trkpt>
      <trkpt lat="31.19746569740622" lon="121.62222616695168">
        <ele>8.950065624900162</ele>
        <time>2020-06-09T23:15:16Z</time>
      </trkpt>
      <trkpt lat="31.197630379470358" lon="121.62213429238032">
        <ele>6.386661844328046</ele>
        <time>2020-06-09T23:15:23Z</time>
      </trkpt>
      <trkpt lat="31.197707219117582" lon="121.62203781814411">
        <ele>6.008934895507991</ele>
        <time>2020-06-09T23:15:27Z</time>
      </trkpt>
      <trkpt lat="31.197953059636657" lon="121.62186572642332">
        <ele>6.501815504394472</ele>
        <time>2020-06-09T23:15:38Z</time>
      </trkpt>
      <trkpt lat="31.198240181594763" lon="121.62163076247087">
        <ele>5.7515566777437925</ele>
        <time>2020-06-09T23:15:52Z</time>
      </trkpt>
      <trkpt lat="31.19839490659527" lon="121.62146978598344">
        <ele>4.6182639906182885</ele>
        <time>2020-06-09T23:16:00Z</time>
      </trkpt>
      <trkpt lat="31.19859582491426" lon="121.62121666959918">
        <ele>6.728017619810998</ele>
        <time>2020-06-09T23:16:11Z</time>
      </trkpt>
      <trkpt lat="31.19868917383133" lon="121.62114485047326">
        <ele>5.7739269603043795</ele>
        <time>2020-06-09T23:16:15Z</time>
      </trkpt>
      <trkpt lat="31.198786243373217" lon="121.62114159059881">
        <ele>5.246239507570863</ele>
        <time>2020-06-09T23:16:19Z</time>
      </trkpt>
      <trkpt lat="31.19895262546805" lon="121.62097979720065">
        <ele>4.951105065643787</ele>
        <time>2020-06-09T23:16:26Z</time>
      </trkpt>
      <trkpt lat="31.19921388039974" lon="121.62083940316924">
        <ele>5.7634024592116475</ele>
        <time>2020-06-09T23:16:39Z</time>
      </trkpt>
      <trkpt lat="31.19931780356832" lon="121.6207667691655">
        <ele>6.751948203891516</ele>
        <time>2020-06-09T23:16:43Z</time>
      </trkpt>
      <trkpt lat="31.1996941736262" lon="121.62073367713568">
        <ele>5.698257014155388</ele>
        <time>2020-06-09T23:16:57Z</time>
      </trkpt>
      <trkpt lat="31.199863654525664" lon="121.62071333877576">
        <ele>6.60979254450649</ele>
        <time>2020-06-09T23:17:04Z</time>
      </trkpt>
      <trkpt lat="31.20019004153246" lon="121.62076750995841">
        <ele>3.41660088673234</ele>
        <time>2020-06-09T23:17:17Z</time>
      </trkpt>
      <trkpt lat="31.20029279381308" lon="121.62077454721202">
        <ele>3.922779534943402</ele>
        <time>2020-06-09T23:17:21Z</time>
      </trkpt>
      <trkpt lat="31.200376807845746" lon="121.62080922703397">
        <ele>4.416531707160175</ele>
        <time>2020-06-09T23:17:24Z</time>
      </trkpt>
      <trkpt lat="31.200620529727004" lon="121.62083495092551">
        <ele>4.907409465871751</ele>
        <time>2020-06-09T23:17:32Z</time>
      </trkpt>
      <trkpt lat="31.20082544639959" lon="121.62089102883289">
        <ele>5.8952872743830085</ele>
        <time>2020-06-09T23:17:40Z</time>
      </trkpt>
      <trkpt lat="31.200904340048403" lon="121.62089698406999">
        <ele>6.125619106926024</ele>
        <time>2020-06-09T23:17:43Z</time>
      </trkpt>
      <trkpt lat="31.200983205671783" lon="121.62092868327639">
        <ele>6.013137413188815</ele>
        <time>2020-06-09T23:17:47Z</time>
      </trkpt>
      <trkpt lat="31.201139383293096" lon="121.62092487650517">
        <ele>6.704149316065013</ele>
        <time>2020-06-09T23:17:53Z</time>
      </trkpt>
      <trkpt lat="31.201332634887457" lon="121.62098664594177">
        <ele>6.15781978610903</ele>
        <time>2020-06-09T23:18:00Z</time>
      </trkpt>
      <trkpt lat="31.20160804225519" lon="121.62104651151888">
        <ele>4.9238714864477515</ele>
        <time>2020-06-09T23:18:11Z</time>
      </trkpt>
      <trkpt lat="31.201797811634314" lon="121.62106925877782">
        <ele>6.027258740738034</ele>
        <time>2020-06-09T23:18:18Z</time>
      </trkpt>
      <trkpt lat="31.202100334199933" lon="121.62112749599987">
        <ele>6.035409991629422</ele>
        <time>2020-06-09T23:18:29Z</time>
      </trkpt>
      <trkpt lat="31.202396913472217" lon="121.62116595157303">
        <ele>4.59024937544018</ele>
        <time>2020-06-09T23:18:41Z</time>
      </trkpt>
      <trkpt lat="31.202460972282516" lon="121.6211011804048">
        <ele>2.542339232750237</ele>
        <time>2020-06-09T23:18:48Z</time>
      </trkpt>
      <trkpt lat="31.202426488879407" lon="121.62089794205603">
        <ele>3.7222315510734916</ele>
        <time>2020-06-09T23:18:55Z</time>
      </trkpt>
      <trkpt lat="31.20243770970152" lon="121.6205510724995">
        <ele>3.4738153079524636</ele>
        <time>2020-06-09T23:19:06Z</time>
      </trkpt>
      <trkpt lat="31.20243432149212" lon="121.62042397679268">
        <ele>4.141402202658355</ele>
        <time>2020-06-09T23:19:10Z</time>
      </trkpt>
      <trkpt lat="31.202451467719" lon="121.62036354358852">
        <ele>4.261584491468966</ele>
        <time>2020-06-09T23:19:17Z</time>
      </trkpt>
      <trkpt lat="31.20239588101754" lon="121.62036734211647">
        <ele>5.191024644300342</ele>
        <time>2020-06-09T23:19:31Z</time>
      </trkpt>
      <trkpt lat="31.20240676235603" lon="121.62033373783557">
        <ele>4.715675397776067</ele>
        <time>2020-06-09T23:19:35Z</time>
      </trkpt>
      <trkpt lat="31.202459347735143" lon="121.62034755423431">
        <ele>5.068348818458617</ele>
        <time>2020-06-09T23:19:59Z</time>
      </trkpt>
      <trkpt lat="31.202708554288055" lon="121.6203160981683">
        <ele>5.789760517887771</ele>
        <time>2020-06-09T23:20:10Z</time>
      </trkpt>
      <trkpt lat="31.20280592905399" lon="121.6202811316849">
        <ele>3.8976194290444255</ele>
        <time>2020-06-09T23:20:14Z</time>
      </trkpt>
      <trkpt lat="31.20284993293703" lon="121.62020606211868">
        <ele>5.708546265028417</ele>
        <time>2020-06-09T23:20:18Z</time>
      </trkpt>
      <trkpt lat="31.202847295951578" lon="121.62013614514292">
        <ele>5.785247408784926</ele>
        <time>2020-06-09T23:20:21Z</time>
      </trkpt>
      <trkpt lat="31.202810257683375" lon="121.62003506603936">
        <ele>4.124222752638161</ele>
        <time>2020-06-09T23:20:25Z</time>
      </trkpt>
      <trkpt lat="31.202812330789722" lon="121.6198692143753">
        <ele>5.59987613465637</ele>
        <time>2020-06-09T23:20:32Z</time>
      </trkpt>
      <trkpt lat="31.202832189225408" lon="121.61980688264705">
        <ele>5.780708597972989</ele>
        <time>2020-06-09T23:20:35Z</time>
      </trkpt>
      <trkpt lat="31.202768818487844" lon="121.61973561460887">
        <ele>5.372324085794389</ele>
        <time>2020-06-09T23:20:39Z</time>
      </trkpt>
      <trkpt lat="31.202724183096905" lon="121.6196383285985">
        <ele>5.194168641231954</ele>
        <time>2020-06-09T23:20:43Z</time>
      </trkpt>
      <trkpt lat="31.202631258412662" lon="121.61930581409598">
        <ele>5.918040927499533</ele>
        <time>2020-06-09T23:20:56Z</time>
      </trkpt>
      <trkpt lat="31.20253028027858" lon="121.61889063789079">
        <ele>5.438057703897357</ele>
        <time>2020-06-09T23:21:10Z</time>
      </trkpt>
      <trkpt lat="31.202516809348936" lon="121.61880635462778">
        <ele>5.900469735264778</ele>
        <time>2020-06-09T23:21:13Z</time>
      </trkpt>
      <trkpt lat="31.202686436792877" lon="121.61864048112834">
        <ele>5.22745709400624</ele>
        <time>2020-06-09T23:21:23Z</time>
      </trkpt>
      <trkpt lat="31.20282588385129" lon="121.6185575394509">
        <ele>3.804570710286498</ele>
        <time>2020-06-09T23:21:30Z</time>
      </trkpt>
      <trkpt lat="31.202815152422612" lon="121.61844425624322">
        <ele>4.736384610645473</ele>
        <time>2020-06-09T23:21:34Z</time>
      </trkpt>
      <trkpt lat="31.20278729211736" lon="121.61837785973889">
        <ele>4.458576655015349</ele>
        <time>2020-06-09T23:21:37Z</time>
      </trkpt>
      <trkpt lat="31.202750632251654" lon="121.6181629462408">
        <ele>4.284358438104391</ele>
        <time>2020-06-09T23:21:44Z</time>
      </trkpt>
      <trkpt lat="31.20270301927753" lon="121.618055355715">
        <ele>5.758762284182012</ele>
        <time>2020-06-09T23:21:48Z</time>
      </trkpt>
      <trkpt lat="31.20269633282411" lon="121.61796239644674">
        <ele>5.958783990703523</ele>
        <time>2020-06-09T23:21:52Z</time>
      </trkpt>
      <trkpt lat="31.20262998305558" lon="121.61788299283525">
        <ele>4.74411584995687</ele>
        <time>2020-06-09T23:21:55Z</time>
      </trkpt>
      <trkpt lat="31.202561590326216" lon="121.61767458228121">
        <ele>3.980284650810063</ele>
        <time>2020-06-09T23:22:02Z</time>
      </trkpt>
      <trkpt lat="31.202505039663293" lon="121.61755506530267">
        <ele>4.932807373814285</ele>
        <time>2020-06-09T23:22:06Z</time>
      </trkpt>
      <trkpt lat="31.202495991378967" lon="121.61737944135021">
        <ele>4.431314553134143</ele>
        <time>2020-06-09T23:22:13Z</time>
      </trkpt>
      <trkpt lat="31.20272347888536" lon="121.6170918615019">
        <ele>4.331401384435594</ele>
        <time>2020-06-09T23:22:26Z</time>
      </trkpt>
      <trkpt lat="31.202901765970942" lon="121.61693302273473">
        <ele>5.605969005264342</ele>
        <time>2020-06-09T23:22:37Z</time>
      </trkpt>
      <trkpt lat="31.203070877097726" lon="121.61672810798783">
        <ele>5.86838186904788</ele>
        <time>2020-06-09T23:22:48Z</time>
      </trkpt>
      <trkpt lat="31.203215468382464" lon="121.61664705676473">
        <ele>4.27316053211689</ele>
        <time>2020-06-09T23:22:55Z</time>
      </trkpt>
      <trkpt lat="31.20327518452504" lon="121.616576311648">
        <ele>4.061521480791271</ele>
        <time>2020-06-09T23:22:58Z</time>
      </trkpt>
      <trkpt lat="31.20349389642456" lon="121.61638683897387">
        <ele>6.181918518617749</ele>
        <time>2020-06-09T23:23:08Z</time>
      </trkpt>
      <trkpt lat="31.20367214095821" lon="121.61626973568616">
        <ele>4.459483019076288</ele>
        <time>2020-06-09T23:23:16Z</time>
      </trkpt>
      <trkpt lat="31.203885975394957" lon="121.61607484021881">
        <ele>6.528746563009918</ele>
        <time>2020-06-09T23:23:26Z</time>
      </trkpt>
      <trkpt lat="31.203949456899753" lon="121.61603580501676">
        <ele>6.612936522811651</ele>
        <time>2020-06-09T23:23:29Z</time>
      </trkpt>
      <trkpt lat="31.204031609616933" lon="121.61603715342937">
        <ele>6.193029112182558</ele>
        <time>2020-06-09T23:23:33Z</time>
      </trkpt>
      <trkpt lat="31.204142277053883" lon="121.61598889883552">
        <ele>5.722819623537362</ele>
        <time>2020-06-09T23:23:40Z</time>
      </trkpt>
      <trkpt lat="31.204196777470973" lon="121.6159864549489">
        <ele>6.538516713306308</ele>
        <time>2020-06-09T23:23:44Z</time>
      </trkpt>
      <trkpt lat="31.20426777362425" lon="121.61603144202263">
        <ele>6.928687797859311</ele>
        <time>2020-06-09T23:23:48Z</time>
      </trkpt>
      <trkpt lat="31.204310288035824" lon="121.6160899834198">
        <ele>6.730949024669826</ele>
        <time>2020-06-09T23:23:51Z</time>
      </trkpt>
      <trkpt lat="31.204372885081014" lon="121.61612819498484">
        <ele>6.481749444268644</ele>
        <time>2020-06-09T23:23:54Z</time>
      </trkpt>
      <trkpt lat="31.204428384218225" lon="121.61621871775849">
        <ele>5.825535641051829</ele>
        <time>2020-06-09T23:23:58Z</time>
      </trkpt>
      <trkpt lat="31.204495021993" lon="121.61628511683601">
        <ele>6.466188427992165</ele>
        <time>2020-06-09T23:24:02Z</time>
      </trkpt>
      <trkpt lat="31.20456172957305" lon="121.61627616703703">
        <ele>7.302493408322334</ele>
        <time>2020-06-09T23:24:06Z</time>
      </trkpt>
      <trkpt lat="31.20456172957305" lon="121.61627616703703">
        <ele>7.302493408322334</ele>
        <time>2020-06-09T23:24:10Z</time>
      </trkpt>
      <trkpt lat="31.204507026989383" lon="121.61620407511555">
        <ele>6.747467825189233</ele>
        <time>2020-06-09T23:24:15Z</time>
      </trkpt>
      <trkpt lat="31.204272441092616" lon="121.61596801782112">
        <ele>6.500358969904482</ele>
        <time>2020-06-09T23:24:29Z</time>
      </trkpt>
      <trkpt lat="31.204070902187624" lon="121.61576448087081">
        <ele>7.786061545833945</ele>
        <time>2020-06-09T23:24:41Z</time>
      </trkpt>
      <trkpt lat="31.203832272898254" lon="121.61549806232735">
        <ele>6.639681872911751</ele>
        <time>2020-06-09T23:25:02Z</time>
      </trkpt>
      <trkpt lat="31.20376320422711" lon="121.6154191930721">
        <ele>5.59579090308398</ele>
        <time>2020-06-09T23:25:06Z</time>
      </trkpt>
      <trkpt lat="31.203619830508558" lon="121.61535577951118">
        <ele>5.813534528948367</ele>
        <time>2020-06-09T23:25:12Z</time>
      </trkpt>
      <trkpt lat="31.203496814250542" lon="121.61526715644861">
        <ele>5.883035987615585</ele>
        <time>2020-06-09T23:25:19Z</time>
      </trkpt>
      <trkpt lat="31.203381424824073" lon="121.6151386878768">
        <ele>5.351231002248824</ele>
        <time>2020-06-09T23:25:26Z</time>
      </trkpt>
      <trkpt lat="31.203349502320112" lon="121.61505791700455">
        <ele>6.371186044998467</ele>
        <time>2020-06-09T23:25:30Z</time>
      </trkpt>
      <trkpt lat="31.203315506870222" lon="121.61486736914468">
        <ele>7.573267589323223</ele>
        <time>2020-06-09T23:25:37Z</time>
      </trkpt>
      <trkpt lat="31.203267300551914" lon="121.61480367520065">
        <ele>6.55924329534173</ele>
        <time>2020-06-09T23:25:40Z</time>
      </trkpt>
      <trkpt lat="31.20319132643013" lon="121.61455647769475">
        <ele>7.132882425561547</ele>
        <time>2020-06-09T23:25:51Z</time>
      </trkpt>
      <trkpt lat="31.203173007698567" lon="121.6144190523119">
        <ele>6.9133266638964415</ele>
        <time>2020-06-09T23:25:58Z</time>
      </trkpt>
      <trkpt lat="31.20311076000116" lon="121.61428677993314">
        <ele>9.105603084899485</ele>
        <time>2020-06-09T23:26:06Z</time>
      </trkpt>
      <trkpt lat="31.20299831019467" lon="121.6142033022177">
        <ele>6.431000757962465</ele>
        <time>2020-06-09T23:26:13Z</time>
      </trkpt>
      <trkpt lat="31.202830468758936" lon="121.61389321889982">
        <ele>6.7503023548051715</ele>
        <time>2020-06-09T23:26:27Z</time>
      </trkpt>
      <trkpt lat="31.202795842323678" lon="121.61379916175797">
        <ele>7.35284092836082</ele>
        <time>2020-06-09T23:26:30Z</time>
      </trkpt>
      <trkpt lat="31.202728675758923" lon="121.61370944401851">
        <ele>7.750754131004214</ele>
        <time>2020-06-09T23:26:34Z</time>
      </trkpt>
      <trkpt lat="31.20267267529012" lon="121.61355954764234">
        <ele>8.222799388691783</ele>
        <time>2020-06-09T23:26:41Z</time>
      </trkpt>
      <trkpt lat="31.202673814252893" lon="121.6134936775456">
        <ele>7.966116562485695</ele>
        <time>2020-06-09T23:26:44Z</time>
      </trkpt>
      <trkpt lat="31.20274555017869" lon="121.61330337945958">
        <ele>8.564477342180908</ele>
        <time>2020-06-09T23:26:52Z</time>
      </trkpt>
      <trkpt lat="31.2027572698441" lon="121.61322883342291">
        <ele>8.607761526480317</ele>
        <time>2020-06-09T23:26:55Z</time>
      </trkpt>
      <trkpt lat="31.20260600424631" lon="121.61285909888814">
        <ele>9.038153900764883</ele>
        <time>2020-06-09T23:27:09Z</time>
      </trkpt>
      <trkpt lat="31.202470940467702" lon="121.61256688647752">
        <ele>8.267631557770073</ele>
        <time>2020-06-09T23:27:20Z</time>
      </trkpt>
      <trkpt lat="31.202379006078026" lon="121.61224620294053">
        <ele>7.8488697381690145</ele>
        <time>2020-06-09T23:27:37Z</time>
      </trkpt>
      <trkpt lat="31.202343529753403" lon="121.61219171775862">
        <ele>7.650603952817619</ele>
        <time>2020-06-09T23:27:41Z</time>
      </trkpt>
      <trkpt lat="31.202420076620914" lon="121.61207948177474">
        <ele>7.088481257669628</ele>
        <time>2020-06-09T23:27:48Z</time>
      </trkpt>
      <trkpt lat="31.20249223964671" lon="121.61202607165117">
        <ele>7.5488158874213696</ele>
        <time>2020-06-09T23:27:52Z</time>
      </trkpt>
      <trkpt lat="31.202515619297007" lon="121.61194528552961">
        <ele>5.557484061457217</ele>
        <time>2020-06-09T23:27:55Z</time>
      </trkpt>
      <trkpt lat="31.202563657269433" lon="121.61188374441954">
        <ele>7.277624395675957</ele>
        <time>2020-06-09T23:27:58Z</time>
      </trkpt>
      <trkpt lat="31.202767934339054" lon="121.61173598351104">
        <ele>5.966308958828449</ele>
        <time>2020-06-09T23:28:08Z</time>
      </trkpt>
      <trkpt lat="31.20290905269262" lon="121.61156626836929">
        <ele>6.989604022353888</ele>
        <time>2020-06-09T23:28:15Z</time>
      </trkpt>
      <trkpt lat="31.203135862761183" lon="121.61137756824614">
        <ele>6.721392163075507</ele>
        <time>2020-06-09T23:28:26Z</time>
      </trkpt>
      <trkpt lat="31.203177673582882" lon="121.61130220024468">
        <ele>6.636005191132426</ele>
        <time>2020-06-09T23:28:29Z</time>
      </trkpt>
      <trkpt lat="31.203322810458364" lon="121.61119456290898">
        <ele>6.530604237690568</ele>
        <time>2020-06-09T23:28:36Z</time>
      </trkpt>
      <trkpt lat="31.203480772565552" lon="121.61097441786124">
        <ele>5.619921718724072</ele>
        <time>2020-06-09T23:28:47Z</time>
      </trkpt>
      <trkpt lat="31.20352641667529" lon="121.61084591241416">
        <ele>6.259777731262147</ele>
        <time>2020-06-09T23:28:57Z</time>
      </trkpt>
      <trkpt lat="31.20349628862883" lon="121.61089010438054">
        <ele>6.319210161454976</ele>
        <time>2020-06-09T23:29:01Z</time>
      </trkpt>
      <trkpt lat="31.20351992925639" lon="121.61081853169854">
        <ele>6.954789443872869</ele>
        <time>2020-06-09T23:29:08Z</time>
      </trkpt>
      <trkpt lat="31.20352808760663" lon="121.61078491439267">
        <ele>6.3637801222503185</ele>
        <time>2020-06-09T23:29:29Z</time>
      </trkpt>
      <trkpt lat="31.203532153262408" lon="121.61078681177095">
        <ele>6.814499707892537</ele>
        <time>2020-06-09T23:29:34Z</time>
      </trkpt>
      <trkpt lat="31.20353292784496" lon="121.61084048984844">
        <ele>6.60218695551157</ele>
        <time>2020-06-09T23:30:03Z</time>
      </trkpt>
      <trkpt lat="31.20353292784496" lon="121.61084048984844">
        <ele>6.60218695551157</ele>
        <time>2020-06-09T23:30:04Z</time>
      </trkpt>
      <trkpt lat="31.20354756364059" lon="121.61084807947664">
        <ele>7.458827814087272</ele>
        <time>2020-06-09T23:30:11Z</time>
      </trkpt>
      <trkpt lat="31.203612446204584" lon="121.6107355667895">
        <ele>7.454958974383771</ele>
        <time>2020-06-09T23:30:41Z</time>
      </trkpt>
      <trkpt lat="31.203758932385806" lon="121.61063361985411">
        <ele>6.445268803276122</ele>
        <time>2020-06-09T23:30:51Z</time>
      </trkpt>
      <trkpt lat="31.203864751771153" lon="121.61052625372149">
        <ele>6.764533850364387</ele>
        <time>2020-06-09T23:30:57Z</time>
      </trkpt>
      <trkpt lat="31.20404460942461" lon="121.61039231251569">
        <ele>7.817051933147013</ele>
        <time>2020-06-09T23:31:04Z</time>
      </trkpt>
      <trkpt lat="31.204275245144803" lon="121.61014910939404">
        <ele>6.912833816371858</ele>
        <time>2020-06-09T23:31:17Z</time>
      </trkpt>
      <trkpt lat="31.20434984284376" lon="121.61009813455466">
        <ele>7.703861448913813</ele>
        <time>2020-06-09T23:31:21Z</time>
      </trkpt>
      <trkpt lat="31.204422575924866" lon="121.60999890196669">
        <ele>9.059669812209904</ele>
        <time>2020-06-09T23:31:25Z</time>
      </trkpt>
      <trkpt lat="31.204648842987734" lon="121.60979500652606">
        <ele>7.811722123995423</ele>
        <time>2020-06-09T23:31:35Z</time>
      </trkpt>
      <trkpt lat="31.20471045799874" lon="121.60969631575452">
        <ele>8.190330357290804</ele>
        <time>2020-06-09T23:31:39Z</time>
      </trkpt>
      <trkpt lat="31.20477909646372" lon="121.6096355802176">
        <ele>8.688215003348887</ele>
        <time>2020-06-09T23:31:43Z</time>
      </trkpt>
      <trkpt lat="31.20477535152456" lon="121.60956021020117">
        <ele>9.692642582580447</ele>
        <time>2020-06-09T23:31:50Z</time>
      </trkpt>
      <trkpt lat="31.20474826940397" lon="121.60951358031302">
        <ele>9.273055693134665</ele>
        <time>2020-06-09T23:31:54Z</time>
      </trkpt>
    </trkseg>
  </trk>
</gpx>