<?xml version="1.0" encoding="UTF-8"?>
<gpx xmlns="http://www.topografix.com/GPX/1/1" xmlns:gpxtpx="http://www.garmin.com/xmlschemas/TrackPointExtension/v1" xmlns:xsi="http://www.w3.org/2001/XMLSchema-instance" xsi:schemaLocation="http://www.topografix.com/GPX/1/1 http://www.topografix.com/GPX/1/1/gpx.xsd" version="1.1" creator="gpx.py -- https://github.com/tkrajina/gpxpy">
  <trk>
    <name>gpx from keep</name>
    <type>Run</type>
    <trkseg>
      <trkpt lat="31.148579429892706" lon="120.32340186099435">
        <ele>3.2031211853027344</ele>
        <time>2018-10-20T21:47:53Z</time>
      </trkpt>
      <trkpt lat="31.14856584924112" lon="120.32327321136778">
        <ele>9.27181625366211</ele>
        <time>2018-10-20T21:47:57Z</time>
      </trkpt>
      <trkpt lat="31.14860423408499" lon="120.32319168410413">
        <ele>5.953065688326447</ele>
        <time>2018-10-20T21:48:00Z</time>
      </trkpt>
      <trkpt lat="31.148659405784024" lon="120.32312207252572">
        <ele>6.5114370621652355</ele>
        <time>2018-10-20T21:48:04Z</time>
      </trkpt>
      <trkpt lat="31.148718483876838" lon="120.32313615136023">
        <ele>6.822227430361245</ele>
        <time>2018-10-20T21:48:07Z</time>
      </trkpt>
      <trkpt lat="31.149004709668848" lon="120.32332002985788">
        <ele>5.92614311353347</ele>
        <time>2018-10-20T21:48:20Z</time>
      </trkpt>
      <trkpt lat="31.149315322165755" lon="120.32351148984273">
        <ele>4.861902976062332</ele>
        <time>2018-10-20T21:48:33Z</time>
      </trkpt>
      <trkpt lat="31.14961971132827" lon="120.32369645006078">
        <ele>4.220624518837994</ele>
        <time>2018-10-20T21:48:46Z</time>
      </trkpt>
      <trkpt lat="31.149936263250243" lon="120.32390118077818">
        <ele>3.0588454400801908</ele>
        <time>2018-10-20T21:49:00Z</time>
      </trkpt>
      <trkpt lat="31.15019081081289" lon="120.32406258178575">
        <ele>2.7634654484029824</ele>
        <time>2018-10-20T21:49:11Z</time>
      </trkpt>
      <trkpt lat="31.15044022471839" lon="120.32421477452992">
        <ele>2.1393838470019517</ele>
        <time>2018-10-20T21:49:22Z</time>
      </trkpt>
      <trkpt lat="31.150757627620727" lon="120.32440000435041">
        <ele>1.2538189698057067</ele>
        <time>2018-10-20T21:49:36Z</time>
      </trkpt>
      <trkpt lat="31.151014079473118" lon="120.32455815501447">
        <ele>0.6172179221641869</ele>
        <time>2018-10-20T21:49:47Z</time>
      </trkpt>
      <trkpt lat="31.151301939290768" lon="120.3247385121448">
        <ele>0.19267151662650406</ele>
        <time>2018-10-20T21:50:00Z</time>
      </trkpt>
      <trkpt lat="31.151554880160177" lon="120.32488962116092">
        <ele>-0.5665161852087977</ele>
        <time>2018-10-20T21:50:11Z</time>
      </trkpt>
      <trkpt lat="31.15182161887763" lon="120.32505616706963">
        <ele>-0.6169459262454637</ele>
        <time>2018-10-20T21:50:23Z</time>
      </trkpt>
      <trkpt lat="31.152070488346038" lon="120.32520971402161">
        <ele>-0.31674818001535243</ele>
        <time>2018-10-20T21:50:35Z</time>
      </trkpt>
      <trkpt lat="31.152376495195025" lon="120.3253998199582">
        <ele>0.0440979237837027</ele>
        <time>2018-10-20T21:50:48Z</time>
      </trkpt>
      <trkpt lat="31.152619124286105" lon="120.32555580504763">
        <ele>0.27348280266596703</ele>
        <time>2018-10-20T21:50:59Z</time>
      </trkpt>
      <trkpt lat="31.152901301917304" lon="120.32573047496898">
        <ele>0.4973907412962859</ele>
        <time>2018-10-20T21:51:12Z</time>
      </trkpt>
      <trkpt lat="31.15316401259664" lon="120.325876978848">
        <ele>1.0139898351211585</ele>
        <time>2018-10-20T21:51:24Z</time>
      </trkpt>
      <trkpt lat="31.15344022464294" lon="120.32605219100589">
        <ele>1.715067781504331</ele>
        <time>2018-10-20T21:51:38Z</time>
      </trkpt>
      <trkpt lat="31.15373865092176" lon="120.32623688081996">
        <ele>2.346261704116273</ele>
        <time>2018-10-20T21:51:53Z</time>
      </trkpt>
      <trkpt lat="31.1540631141757" lon="120.3264169641037">
        <ele>2.9418333406351707</ele>
        <time>2018-10-20T21:52:08Z</time>
      </trkpt>
      <trkpt lat="31.154348641269916" lon="120.32654179863711">
        <ele>3.1091708478608524</ele>
        <time>2018-10-20T21:52:21Z</time>
      </trkpt>
      <trkpt lat="31.15462550384708" lon="120.32666067536958">
        <ele>3.3549391453306043</ele>
        <time>2018-10-20T21:52:34Z</time>
      </trkpt>
      <trkpt lat="31.154942496705477" lon="120.3267776527853">
        <ele>3.630990638184116</ele>
        <time>2018-10-20T21:52:48Z</time>
      </trkpt>
      <trkpt lat="31.155254337247325" lon="120.32689517235042">
        <ele>4.041758233511757</ele>
        <time>2018-10-20T21:53:02Z</time>
      </trkpt>
      <trkpt lat="31.155572720133666" lon="120.3269942739929">
        <ele>4.158862340129865</ele>
        <time>2018-10-20T21:53:17Z</time>
      </trkpt>
      <trkpt lat="31.15587587657256" lon="120.32711612784738">
        <ele>4.398149368261834</ele>
        <time>2018-10-20T21:53:31Z</time>
      </trkpt>
      <trkpt lat="31.15620858478095" lon="120.327238520891">
        <ele>4.679617402212848</ele>
        <time>2018-10-20T21:53:46Z</time>
      </trkpt>
      <trkpt lat="31.156522877787715" lon="120.3273498109305">
        <ele>4.667139923681454</ele>
        <time>2018-10-20T21:54:01Z</time>
      </trkpt>
      <trkpt lat="31.15679301000937" lon="120.3274440415895">
        <ele>5.0147091691360615</ele>
        <time>2018-10-20T21:54:15Z</time>
      </trkpt>
      <trkpt lat="31.157094014423603" lon="120.32755722872328">
        <ele>5.584250433054919</ele>
        <time>2018-10-20T21:54:30Z</time>
      </trkpt>
      <trkpt lat="31.1573847202972" lon="120.32766825001245">
        <ele>5.6188272821422345</ele>
        <time>2018-10-20T21:54:45Z</time>
      </trkpt>
      <trkpt lat="31.157684360491885" lon="120.32778604167628">
        <ele>5.668653475261529</ele>
        <time>2018-10-20T21:54:59Z</time>
      </trkpt>
      <trkpt lat="31.157987271378747" lon="120.32789489522779">
        <ele>5.972198660862297</ele>
        <time>2018-10-20T21:55:13Z</time>
      </trkpt>
      <trkpt lat="31.158321917051914" lon="120.32799697498244">
        <ele>6.117253156485695</ele>
        <time>2018-10-20T21:55:28Z</time>
      </trkpt>
      <trkpt lat="31.158598647339172" lon="120.32804380742228">
        <ele>6.021724699957531</ele>
        <time>2018-10-20T21:55:40Z</time>
      </trkpt>
      <trkpt lat="31.158914978659347" lon="120.32808196945363">
        <ele>6.02631159090874</ele>
        <time>2018-10-20T21:55:54Z</time>
      </trkpt>
      <trkpt lat="31.159205047004143" lon="120.32810117461167">
        <ele>6.275499151967985</ele>
        <time>2018-10-20T21:56:08Z</time>
      </trkpt>
      <trkpt lat="31.159305098799447" lon="120.32809791591926">
        <ele>6.2307530623738145</ele>
        <time>2018-10-20T21:56:12Z</time>
      </trkpt>
      <trkpt lat="31.15963362217838" lon="120.32814068127111">
        <ele>6.560489900250182</ele>
        <time>2018-10-20T21:56:26Z</time>
      </trkpt>
      <trkpt lat="31.159910819516384" lon="120.3282270570119">
        <ele>6.314042939643002</ele>
        <time>2018-10-20T21:56:40Z</time>
      </trkpt>
      <trkpt lat="31.160229136154953" lon="120.3283616396302">
        <ele>5.599995862388425</ele>
        <time>2018-10-20T21:56:55Z</time>
      </trkpt>
      <trkpt lat="31.160422559729586" lon="120.3284458558337">
        <ele>5.161726923205883</ele>
        <time>2018-10-20T21:57:05Z</time>
      </trkpt>
      <trkpt lat="31.16057539911595" lon="120.32848565696084">
        <ele>5.4472438846175635</ele>
        <time>2018-10-20T21:57:12Z</time>
      </trkpt>
      <trkpt lat="31.160868125803155" lon="120.32867495257817">
        <ele>5.302804272092516</ele>
        <time>2018-10-20T21:57:27Z</time>
      </trkpt>
      <trkpt lat="31.16112919542036" lon="120.32883039536756">
        <ele>4.6415358345308775</ele>
        <time>2018-10-20T21:57:41Z</time>
      </trkpt>
      <trkpt lat="31.16143036767669" lon="120.32899856454401">
        <ele>4.301812761182866</ele>
        <time>2018-10-20T21:57:56Z</time>
      </trkpt>
      <trkpt lat="31.16171986516122" lon="120.32917540188068">
        <ele>4.114787266626472</ele>
        <time>2018-10-20T21:58:11Z</time>
      </trkpt>
      <trkpt lat="31.162008308249227" lon="120.32933653037277">
        <ele>4.89857418636425</ele>
        <time>2018-10-20T21:58:26Z</time>
      </trkpt>
      <trkpt lat="31.162092525546022" lon="120.32939069232319">
        <ele>5.7852033109087415</ele>
        <time>2018-10-20T21:58:38Z</time>
      </trkpt>
      <trkpt lat="31.162102556722107" lon="120.32939096231075">
        <ele>5.971380920580792</ele>
        <time>2018-10-20T21:59:06Z</time>
      </trkpt>
      <trkpt lat="31.162371203665312" lon="120.3295542594028">
        <ele>5.342763355348659</ele>
        <time>2018-10-20T21:59:21Z</time>
      </trkpt>
      <trkpt lat="31.16267966934834" lon="120.32973705412451">
        <ele>5.151852465430309</ele>
        <time>2018-10-20T21:59:39Z</time>
      </trkpt>
      <trkpt lat="31.16293100935505" lon="120.32987678930189">
        <ele>5.712827580713302</ele>
        <time>2018-10-20T21:59:52Z</time>
      </trkpt>
      <trkpt lat="31.163222424823974" lon="120.33004360579285">
        <ele>6.187709626657586</ele>
        <time>2018-10-20T22:00:07Z</time>
      </trkpt>
      <trkpt lat="31.163489735400887" lon="120.33019715298254">
        <ele>6.816557759443221</ele>
        <time>2018-10-20T22:00:22Z</time>
      </trkpt>
      <trkpt lat="31.16377463341424" lon="120.33036965806824">
        <ele>6.615899566307306</ele>
        <time>2018-10-20T22:00:36Z</time>
      </trkpt>
      <trkpt lat="31.164055476562954" lon="120.33053593416084">
        <ele>6.516719673518487</ele>
        <time>2018-10-20T22:00:50Z</time>
      </trkpt>
      <trkpt lat="31.164344999590302" lon="120.3307003137183">
        <ele>6.134338337133514</ele>
        <time>2018-10-20T22:01:04Z</time>
      </trkpt>
      <trkpt lat="31.16463476828176" lon="120.33087823578083">
        <ele>4.790328658047947</ele>
        <time>2018-10-20T22:01:18Z</time>
      </trkpt>
      <trkpt lat="31.164908588952052" lon="120.33103069967048">
        <ele>4.502418004060942</ele>
        <time>2018-10-20T22:01:32Z</time>
      </trkpt>
      <trkpt lat="31.165222201929524" lon="120.3312167454589">
        <ele>3.68742547119858</ele>
        <time>2018-10-20T22:01:47Z</time>
      </trkpt>
      <trkpt lat="31.165497884003607" lon="120.33138871056892">
        <ele>3.34880448254318</ele>
        <time>2018-10-20T22:02:00Z</time>
      </trkpt>
      <trkpt lat="31.16582153795439" lon="120.3315701514526">
        <ele>3.7537587959851706</ele>
        <time>2018-10-20T22:02:15Z</time>
      </trkpt>
      <trkpt lat="31.16609806617661" lon="120.33172505335996">
        <ele>3.7563292770747196</ele>
        <time>2018-10-20T22:02:28Z</time>
      </trkpt>
      <trkpt lat="31.16627841494245" lon="120.33184258644906">
        <ele>4.504685350462367</ele>
        <time>2018-10-20T22:02:43Z</time>
      </trkpt>
      <trkpt lat="31.16627841494245" lon="120.33184258644906">
        <ele>4.504685350462367</ele>
        <time>2018-10-20T22:02:44Z</time>
      </trkpt>
      <trkpt lat="31.16632691504894" lon="120.33185937495087">
        <ele>3.600413394443919</ele>
        <time>2018-10-20T22:03:03Z</time>
      </trkpt>
      <trkpt lat="31.166625620886208" lon="120.33204352699124">
        <ele>4.214534752412646</ele>
        <time>2018-10-20T22:03:17Z</time>
      </trkpt>
      <trkpt lat="31.166911877123606" lon="120.33221603377028">
        <ele>4.370142500475758</ele>
        <time>2018-10-20T22:03:30Z</time>
      </trkpt>
      <trkpt lat="31.16719843540848" lon="120.33237228970819">
        <ele>3.672210124419813</ele>
        <time>2018-10-20T22:03:43Z</time>
      </trkpt>
      <trkpt lat="31.16751639420557" lon="120.33255535732154">
        <ele>4.464130967595636</ele>
        <time>2018-10-20T22:03:58Z</time>
      </trkpt>
      <trkpt lat="31.16781023364638" lon="120.33273273936396">
        <ele>4.56872072384531</ele>
        <time>2018-10-20T22:04:12Z</time>
      </trkpt>
      <trkpt lat="31.16779695399116" lon="120.33272976114169">
        <ele>5.271106334253261</ele>
        <time>2018-10-20T22:04:19Z</time>
      </trkpt>
      <trkpt lat="31.167821329992318" lon="120.33274330159782">
        <ele>4.3106484344761355</ele>
        <time>2018-10-20T22:04:22Z</time>
      </trkpt>
      <trkpt lat="31.168086998436298" lon="120.3329068728771">
        <ele>4.745376651125191</ele>
        <time>2018-10-20T22:04:35Z</time>
      </trkpt>
      <trkpt lat="31.168366422818853" lon="120.33310863324328">
        <ele>4.93390625314035</ele>
        <time>2018-10-20T22:04:49Z</time>
      </trkpt>
      <trkpt lat="31.16860189122329" lon="120.33332827391173">
        <ele>5.970707442471074</ele>
        <time>2018-10-20T22:05:02Z</time>
      </trkpt>
      <trkpt lat="31.168829163652966" lon="120.33358123051592">
        <ele>6.445624100369507</ele>
        <time>2018-10-20T22:05:16Z</time>
      </trkpt>
      <trkpt lat="31.16909298001833" lon="120.33386560346352">
        <ele>6.567445188002068</ele>
        <time>2018-10-20T22:05:31Z</time>
      </trkpt>
      <trkpt lat="31.169327256295464" lon="120.33414347910883">
        <ele>7.596930671632926</ele>
        <time>2018-10-20T22:05:46Z</time>
      </trkpt>
      <trkpt lat="31.169538666225066" lon="120.33432574577081">
        <ele>7.764644515705861</ele>
        <time>2018-10-20T22:06:10Z</time>
      </trkpt>
      <trkpt lat="31.169558420579186" lon="120.33434605814948">
        <ele>6.763041630013404</ele>
        <time>2018-10-20T22:06:14Z</time>
      </trkpt>
      <trkpt lat="31.169628496879792" lon="120.33442405821177">
        <ele>6.782096050430511</ele>
        <time>2018-10-20T22:06:17Z</time>
      </trkpt>
      <trkpt lat="31.169921496170684" lon="120.33461742337641">
        <ele>5.397138350691428</ele>
        <time>2018-10-20T22:06:31Z</time>
      </trkpt>
      <trkpt lat="31.170196887172484" lon="120.33480293557277">
        <ele>4.1774842272705826</ele>
        <time>2018-10-20T22:06:43Z</time>
      </trkpt>
      <trkpt lat="31.170437574097466" lon="120.334988451052">
        <ele>3.886267009265744</ele>
        <time>2018-10-20T22:06:55Z</time>
      </trkpt>
      <trkpt lat="31.17045458951562" lon="120.33502366086053">
        <ele>4.828540565426472</ele>
        <time>2018-10-20T22:07:05Z</time>
      </trkpt>
      <trkpt lat="31.170515520683203" lon="120.33506265890213">
        <ele>4.316899662454254</ele>
        <time>2018-10-20T22:07:20Z</time>
      </trkpt>
      <trkpt lat="31.170772665714473" lon="120.33529178132113">
        <ele>4.0503905972358325</ele>
        <time>2018-10-20T22:07:34Z</time>
      </trkpt>
      <trkpt lat="31.17099952702853" lon="120.33547675711509">
        <ele>4.921939875687386</ele>
        <time>2018-10-20T22:07:47Z</time>
      </trkpt>
      <trkpt lat="31.17124828718672" lon="120.33569558856516">
        <ele>4.77252475097395</ele>
        <time>2018-10-20T22:08:01Z</time>
      </trkpt>
      <trkpt lat="31.171522208513064" lon="120.33594367102597">
        <ele>5.118469322826847</ele>
        <time>2018-10-20T22:08:16Z</time>
      </trkpt>
      <trkpt lat="31.17180723824184" lon="120.33619635775668">
        <ele>6.131365919145949</ele>
        <time>2018-10-20T22:08:31Z</time>
      </trkpt>
      <trkpt lat="31.172034075280138" lon="120.33639541991516">
        <ele>7.0502869432148</ele>
        <time>2018-10-20T22:08:43Z</time>
      </trkpt>
      <trkpt lat="31.17226876196918" lon="120.3366017950401">
        <ele>7.695496876726985</ele>
        <time>2018-10-20T22:08:55Z</time>
      </trkpt>
      <trkpt lat="31.172510741098026" lon="120.33682360905985">
        <ele>8.410453465518813</ele>
        <time>2018-10-20T22:09:08Z</time>
      </trkpt>
      <trkpt lat="31.17278443137703" lon="120.33705165070964">
        <ele>9.381725962740077</ele>
        <time>2018-10-20T22:09:22Z</time>
      </trkpt>
      <trkpt lat="31.173002053971402" lon="120.33724963204081">
        <ele>9.541635859884913</ele>
        <time>2018-10-20T22:09:34Z</time>
      </trkpt>
      <trkpt lat="31.173276277687705" lon="120.33748309198388">
        <ele>10.490556785907344</ele>
        <time>2018-10-20T22:09:48Z</time>
      </trkpt>
      <trkpt lat="31.17355942194792" lon="120.33773144928328">
        <ele>10.805552733325385</ele>
        <time>2018-10-20T22:10:03Z</time>
      </trkpt>
      <trkpt lat="31.1737897733178" lon="120.33793809872078">
        <ele>11.713694059655708</ele>
        <time>2018-10-20T22:10:15Z</time>
      </trkpt>
      <trkpt lat="31.17404123804656" lon="120.33816397826752">
        <ele>13.096299105660634</ele>
        <time>2018-10-20T22:10:29Z</time>
      </trkpt>
      <trkpt lat="31.1742789011014" lon="120.33837604546109">
        <ele>14.692590072346</ele>
        <time>2018-10-20T22:10:42Z</time>
      </trkpt>
      <trkpt lat="31.174513868284013" lon="120.33857998744492">
        <ele>16.16186671592441</ele>
        <time>2018-10-20T22:10:56Z</time>
      </trkpt>
      <trkpt lat="31.174650562930534" lon="120.33870349089113">
        <ele>16.556820958615788</ele>
        <time>2018-10-20T22:11:04Z</time>
      </trkpt>
      <trkpt lat="31.17490745096426" lon="120.33893018470324">
        <ele>17.994041391406597</ele>
        <time>2018-10-20T22:11:18Z</time>
      </trkpt>
      <trkpt lat="31.175163523326233" lon="120.33915850445106">
        <ele>19.431936033609453</ele>
        <time>2018-10-20T22:11:32Z</time>
      </trkpt>
      <trkpt lat="31.175412563756094" lon="120.33937761592576">
        <ele>20.451005311831068</ele>
        <time>2018-10-20T22:11:46Z</time>
      </trkpt>
      <trkpt lat="31.175685971584826" lon="120.33961595771073">
        <ele>21.826745206815545</ele>
        <time>2018-10-20T22:12:01Z</time>
      </trkpt>
      <trkpt lat="31.175941533247077" lon="120.33982802731474">
        <ele>22.484121220160112</ele>
        <time>2018-10-20T22:12:15Z</time>
      </trkpt>
      <trkpt lat="31.17619975635997" lon="120.34006799707812">
        <ele>23.598624995836254</ele>
        <time>2018-10-20T22:12:30Z</time>
      </trkpt>
      <trkpt lat="31.17643878241218" lon="120.34027898592126">
        <ele>24.68832305363992</ele>
        <time>2018-10-20T22:12:45Z</time>
      </trkpt>
      <trkpt lat="31.17667185059289" lon="120.3404864545448">
        <ele>24.10285396899002</ele>
        <time>2018-10-20T22:12:59Z</time>
      </trkpt>
      <trkpt lat="31.176920068029975" lon="120.34071315453939">
        <ele>23.798708695296767</ele>
        <time>2018-10-20T22:13:13Z</time>
      </trkpt>
      <trkpt lat="31.177181040021058" lon="120.34093389492709">
        <ele>22.958412048049972</ele>
        <time>2018-10-20T22:13:27Z</time>
      </trkpt>
      <trkpt lat="31.1774379258588" lon="120.34116574228682">
        <ele>22.16785118059083</ele>
        <time>2018-10-20T22:13:41Z</time>
      </trkpt>
      <trkpt lat="31.177691561845613" lon="120.3413959654578">
        <ele>21.03630969526273</ele>
        <time>2018-10-20T22:13:55Z</time>
      </trkpt>
      <trkpt lat="31.177947659135256" lon="120.34161481234432">
        <ele>21.329758132305827</ele>
        <time>2018-10-20T22:14:09Z</time>
      </trkpt>
      <trkpt lat="31.17809812960537" lon="120.34177028344625">
        <ele>22.15521052185052</ele>
        <time>2018-10-20T22:14:25Z</time>
      </trkpt>
      <trkpt lat="31.178096009904362" lon="120.34174265403757">
        <ele>21.52012901065541</ele>
        <time>2018-10-20T22:14:46Z</time>
      </trkpt>
      <trkpt lat="31.178379430204842" lon="120.34199644315936">
        <ele>21.320940208480856</ele>
        <time>2018-10-20T22:15:01Z</time>
      </trkpt>
      <trkpt lat="31.17865797212466" lon="120.34224969193758">
        <ele>19.497647567539758</ele>
        <time>2018-10-20T22:15:16Z</time>
      </trkpt>
      <trkpt lat="31.178943568759586" lon="120.34250050318559">
        <ele>18.709291733063665</ele>
        <time>2018-10-20T22:15:31Z</time>
      </trkpt>
      <trkpt lat="31.179023701211303" lon="120.34256930024418">
        <ele>19.897442525146012</ele>
        <time>2018-10-20T22:15:45Z</time>
      </trkpt>
      <trkpt lat="31.179028860853116" lon="120.34256469481105">
        <ele>18.336430584500754</ele>
        <time>2018-10-20T22:15:52Z</time>
      </trkpt>
      <trkpt lat="31.179296830969367" lon="120.34281794678031">
        <ele>17.765662422830367</ele>
        <time>2018-10-20T22:16:07Z</time>
      </trkpt>
      <trkpt lat="31.17951503330306" lon="120.34300375398463">
        <ele>17.591462859224407</ele>
        <time>2018-10-20T22:16:20Z</time>
      </trkpt>
      <trkpt lat="31.17969910198098" lon="120.3431735825001">
        <ele>16.201022801151517</ele>
        <time>2018-10-20T22:16:30Z</time>
      </trkpt>
      <trkpt lat="31.17997386620828" lon="120.3434192516173">
        <ele>14.995672012789576</ele>
        <time>2018-10-20T22:16:44Z</time>
      </trkpt>
      <trkpt lat="31.18024022353766" lon="120.34366654778823">
        <ele>13.47797372836979</ele>
        <time>2018-10-20T22:16:58Z</time>
      </trkpt>
      <trkpt lat="31.180492002581992" lon="120.34387863084028">
        <ele>12.4400774125454</ele>
        <time>2018-10-20T22:17:11Z</time>
      </trkpt>
      <trkpt lat="31.180712362069166" lon="120.34407310960114">
        <ele>11.59996487482173</ele>
        <time>2018-10-20T22:17:22Z</time>
      </trkpt>
      <trkpt lat="31.18097304731281" lon="120.34430957344472">
        <ele>9.963901175217558</ele>
        <time>2018-10-20T22:17:36Z</time>
      </trkpt>
      <trkpt lat="31.181209671355507" lon="120.34450676117733">
        <ele>9.803098117996846</ele>
        <time>2018-10-20T22:17:57Z</time>
      </trkpt>
      <trkpt lat="31.181427023650397" lon="120.34471668316075">
        <ele>9.464304012745608</ele>
        <time>2018-10-20T22:18:08Z</time>
      </trkpt>
      <trkpt lat="31.181709128988626" lon="120.3449542314338">
        <ele>8.603682271740425</ele>
        <time>2018-10-20T22:18:22Z</time>
      </trkpt>
      <trkpt lat="31.1819812166325" lon="120.34518419655767">
        <ele>8.728627121998706</ele>
        <time>2018-10-20T22:18:36Z</time>
      </trkpt>
      <trkpt lat="31.18222564520311" lon="120.34541687397672">
        <ele>7.809595034032178</ele>
        <time>2018-10-20T22:18:50Z</time>
      </trkpt>
      <trkpt lat="31.18247515152897" lon="120.34569289538781">
        <ele>6.53870173043714</ele>
        <time>2018-10-20T22:19:05Z</time>
      </trkpt>
      <trkpt lat="31.18271083014951" lon="120.34596973211013">
        <ele>6.428346835063003</ele>
        <time>2018-10-20T22:19:19Z</time>
      </trkpt>
      <trkpt lat="31.182903132913157" lon="120.34624440682033">
        <ele>6.778827630908992</ele>
        <time>2018-10-20T22:19:32Z</time>
      </trkpt>
      <trkpt lat="31.183070561508323" lon="120.34647899181645">
        <ele>8.360541681575164</ele>
        <time>2018-10-20T22:19:44Z</time>
      </trkpt>
      <trkpt lat="31.18312557749264" lon="120.34649280302219">
        <ele>8.005728933849568</ele>
        <time>2018-10-20T22:19:47Z</time>
      </trkpt>
      <trkpt lat="31.183155743889763" lon="120.34645135264563">
        <ele>8.196859569945737</ele>
        <time>2018-10-20T22:19:50Z</time>
      </trkpt>
      <trkpt lat="31.183180954958804" lon="120.34629531205898">
        <ele>7.672152907426124</ele>
        <time>2018-10-20T22:20:04Z</time>
      </trkpt>
      <trkpt lat="31.182977275571123" lon="120.34601413650292">
        <ele>8.159121791109499</ele>
        <time>2018-10-20T22:20:18Z</time>
      </trkpt>
      <trkpt lat="31.18276686880065" lon="120.34570424798585">
        <ele>8.504401741663557</ele>
        <time>2018-10-20T22:20:34Z</time>
      </trkpt>
      <trkpt lat="31.1826819775023" lon="120.34556284745187">
        <ele>9.358903994261652</ele>
        <time>2018-10-20T22:20:41Z</time>
      </trkpt>
      <trkpt lat="31.18245926497371" lon="120.3453149974407">
        <ele>10.164107364527453</ele>
        <time>2018-10-20T22:20:56Z</time>
      </trkpt>
      <trkpt lat="31.182215910014616" lon="120.34508882180968">
        <ele>10.84921005823437</ele>
        <time>2018-10-20T22:21:11Z</time>
      </trkpt>
      <trkpt lat="31.181965762165092" lon="120.34487158714387">
        <ele>11.308220386584033</ele>
        <time>2018-10-20T22:21:25Z</time>
      </trkpt>
      <trkpt lat="31.181716169676054" lon="120.34464731010662">
        <ele>10.690914441409703</ele>
        <time>2018-10-20T22:21:39Z</time>
      </trkpt>
      <trkpt lat="31.181475513093023" lon="120.34443007634658">
        <ele>9.993250729394191</ele>
        <time>2018-10-20T22:21:53Z</time>
      </trkpt>
      <trkpt lat="31.18123079320988" lon="120.34421121843307">
        <ele>9.57369765759617</ele>
        <time>2018-10-20T22:22:07Z</time>
      </trkpt>
      <trkpt lat="31.180977097898342" lon="120.34400888630982">
        <ele>9.20154981820071</ele>
        <time>2018-10-20T22:22:21Z</time>
      </trkpt>
      <trkpt lat="31.180802497377368" lon="120.34384989009416">
        <ele>9.2818608252962</ele>
        <time>2018-10-20T22:22:38Z</time>
      </trkpt>
      <trkpt lat="31.180764880087217" lon="120.3438100728683">
        <ele>8.855398162442938</ele>
        <time>2018-10-20T22:23:07Z</time>
      </trkpt>
      <trkpt lat="31.18051932436511" lon="120.3436053034639">
        <ele>9.428292554580679</ele>
        <time>2018-10-20T22:23:22Z</time>
      </trkpt>
      <trkpt lat="31.180253760565552" lon="120.34336938466471">
        <ele>9.72473293199132</ele>
        <time>2018-10-20T22:23:46Z</time>
      </trkpt>
      <trkpt lat="31.180034497875393" lon="120.3431692195564">
        <ele>9.388800252874738</ele>
        <time>2018-10-20T22:24:07Z</time>
      </trkpt>
      <trkpt lat="31.17978137040757" lon="120.34295443030838">
        <ele>10.131645396022812</ele>
        <time>2018-10-20T22:24:35Z</time>
      </trkpt>
      <trkpt lat="31.179542082853146" lon="120.34273313944632">
        <ele>10.746382010610247</ele>
        <time>2018-10-20T22:25:02Z</time>
      </trkpt>
      <trkpt lat="31.179470069226053" lon="120.34267273885915">
        <ele>11.349919384838053</ele>
        <time>2018-10-20T22:25:19Z</time>
      </trkpt>
      <trkpt lat="31.179443295509813" lon="120.34263427589136">
        <ele>10.577191396994365</ele>
        <time>2018-10-20T22:25:21Z</time>
      </trkpt>
      <trkpt lat="31.179150638294498" lon="120.3423894240995">
        <ele>11.524522916346392</ele>
        <time>2018-10-20T22:25:35Z</time>
      </trkpt>
      <trkpt lat="31.178886959209418" lon="120.34216353237115">
        <ele>11.860939566027241</ele>
        <time>2018-10-20T22:25:48Z</time>
      </trkpt>
      <trkpt lat="31.178647136027458" lon="120.34194007730588">
        <ele>12.066195270078076</ele>
        <time>2018-10-20T22:26:00Z</time>
      </trkpt>
      <trkpt lat="31.178428939188425" lon="120.34175291884155">
        <ele>11.995242173958303</ele>
        <time>2018-10-20T22:26:11Z</time>
      </trkpt>
      <trkpt lat="31.178134684258705" lon="120.34149371405017">
        <ele>12.81082570819293</ele>
        <time>2018-10-20T22:26:26Z</time>
      </trkpt>
      <trkpt lat="31.177896210753257" lon="120.3412748660505">
        <ele>13.98264892401209</ele>
        <time>2018-10-20T22:26:38Z</time>
      </trkpt>
      <trkpt lat="31.177614389281793" lon="120.34103814470195">
        <ele>15.142217876119986</ele>
        <time>2018-10-20T22:26:52Z</time>
      </trkpt>
      <trkpt lat="31.177477980743678" lon="120.34090407320446">
        <ele>15.792073094206728</ele>
        <time>2018-10-20T22:26:59Z</time>
      </trkpt>
      <trkpt lat="31.17725163488168" lon="120.34072694067423">
        <ele>16.747976336630565</ele>
        <time>2018-10-20T22:27:10Z</time>
      </trkpt>
      <trkpt lat="31.177027495144138" lon="120.34052949289514">
        <ele>17.61916309075977</ele>
        <time>2018-10-20T22:27:21Z</time>
      </trkpt>
      <trkpt lat="31.176741125273853" lon="120.34026054065758">
        <ele>18.499115218818154</ele>
        <time>2018-10-20T22:27:36Z</time>
      </trkpt>
      <trkpt lat="31.17651701085959" lon="120.3400498214621">
        <ele>18.826944785809836</ele>
        <time>2018-10-20T22:27:47Z</time>
      </trkpt>
      <trkpt lat="31.176243860886686" lon="120.3398179791624">
        <ele>18.24873639464444</ele>
        <time>2018-10-20T22:28:01Z</time>
      </trkpt>
      <trkpt lat="31.176091482585075" lon="120.33967036782035">
        <ele>17.49428821960172</ele>
        <time>2018-10-20T22:28:09Z</time>
      </trkpt>
      <trkpt lat="31.175876825465487" lon="120.33947833949868">
        <ele>16.90875739714918</ele>
        <time>2018-10-20T22:28:20Z</time>
      </trkpt>
      <trkpt lat="31.175654323827217" lon="120.33927656106111">
        <ele>16.10645812785362</ele>
        <time>2018-10-20T22:28:31Z</time>
      </trkpt>
      <trkpt lat="31.175432352657158" lon="120.33908155481258">
        <ele>15.979755273471973</ele>
        <time>2018-10-20T22:28:42Z</time>
      </trkpt>
      <trkpt lat="31.175171100342336" lon="120.33886894604188">
        <ele>16.42313679426792</ele>
        <time>2018-10-20T22:28:56Z</time>
      </trkpt>
      <trkpt lat="31.175171100342336" lon="120.33886894604188">
        <ele>16.42313679426792</ele>
        <time>2018-10-20T22:29:01Z</time>
      </trkpt>
      <trkpt lat="31.175150508837376" lon="120.33886109265443">
        <ele>16.522154771655757</ele>
        <time>2018-10-20T22:29:12Z</time>
      </trkpt>
      <trkpt lat="31.17490770086794" lon="120.3386446907643">
        <ele>15.594719937205113</ele>
        <time>2018-10-20T22:29:25Z</time>
      </trkpt>
      <trkpt lat="31.174641618504527" lon="120.3384052678589">
        <ele>15.799433488593273</ele>
        <time>2018-10-20T22:29:40Z</time>
      </trkpt>
      <trkpt lat="31.174385279157217" lon="120.33817586682808">
        <ele>16.362267183385818</ele>
        <time>2018-10-20T22:29:55Z</time>
      </trkpt>
      <trkpt lat="31.174132733295266" lon="120.33794809129321">
        <ele>16.341219217716763</ele>
        <time>2018-10-20T22:30:09Z</time>
      </trkpt>
      <trkpt lat="31.173918623714826" lon="120.33775552535079">
        <ele>16.362078490478375</ele>
        <time>2018-10-20T22:30:20Z</time>
      </trkpt>
      <trkpt lat="31.173617070942118" lon="120.33749173037766">
        <ele>15.74256685221117</ele>
        <time>2018-10-20T22:30:34Z</time>
      </trkpt>
      <trkpt lat="31.173408941234566" lon="120.33729158079656">
        <ele>15.327724022075962</ele>
        <time>2018-10-20T22:30:44Z</time>
      </trkpt>
      <trkpt lat="31.17318425564278" lon="120.33710091324414">
        <ele>15.129636424932542</ele>
        <time>2018-10-20T22:30:55Z</time>
      </trkpt>
      <trkpt lat="31.172909489150836" lon="120.33686826692829">
        <ele>14.93283432955812</ele>
        <time>2018-10-20T22:31:08Z</time>
      </trkpt>
      <trkpt lat="31.172692691778636" lon="120.33666432742771">
        <ele>14.624411200713737</ele>
        <time>2018-10-20T22:31:19Z</time>
      </trkpt>
      <trkpt lat="31.17247640955761" lon="120.33647528561751">
        <ele>14.197837565213476</ele>
        <time>2018-10-20T22:31:30Z</time>
      </trkpt>
      <trkpt lat="31.17220896620679" lon="120.33624209851422">
        <ele>13.299215867458813</ele>
        <time>2018-10-20T22:31:43Z</time>
      </trkpt>
      <trkpt lat="31.171988918720075" lon="120.3360370772001">
        <ele>12.097183697028889</ele>
        <time>2018-10-20T22:31:54Z</time>
      </trkpt>
      <trkpt lat="31.17173014858016" lon="120.33580605726206">
        <ele>10.83447194621855</ele>
        <time>2018-10-20T22:32:07Z</time>
      </trkpt>
      <trkpt lat="31.17150981278905" lon="120.33561078773678">
        <ele>10.038224397124715</ele>
        <time>2018-10-20T22:32:18Z</time>
      </trkpt>
      <trkpt lat="31.171224515952506" lon="120.33535674821088">
        <ele>9.018866560209354</ele>
        <time>2018-10-20T22:32:32Z</time>
      </trkpt>
      <trkpt lat="31.170999837465832" lon="120.3351644593215">
        <ele>8.019922914863336</ele>
        <time>2018-10-20T22:32:43Z</time>
      </trkpt>
      <trkpt lat="31.170739456805382" lon="120.33492585750265">
        <ele>7.641677854720797</ele>
        <time>2018-10-20T22:32:56Z</time>
      </trkpt>
      <trkpt lat="31.170499323822465" lon="120.33473411241219">
        <ele>7.504617506775489</ele>
        <time>2018-10-20T22:33:07Z</time>
      </trkpt>
      <trkpt lat="31.170263780140104" lon="120.33455320144822">
        <ele>8.202505421722833</ele>
        <time>2018-10-20T22:33:18Z</time>
      </trkpt>
      <trkpt lat="31.17000026192422" lon="120.33439829518954">
        <ele>9.507727540699442</ele>
        <time>2018-10-20T22:33:30Z</time>
      </trkpt>
      <trkpt lat="31.169791232643185" lon="120.33424771813473">
        <ele>10.487341308655004</ele>
        <time>2018-10-20T22:33:40Z</time>
      </trkpt>
      <trkpt lat="31.16958524992681" lon="120.33406301344635">
        <ele>11.326620864764678</ele>
        <time>2018-10-20T22:33:51Z</time>
      </trkpt>
      <trkpt lat="31.169533520755106" lon="120.33403295312604">
        <ele>11.537690777462245</ele>
        <time>2018-10-20T22:33:54Z</time>
      </trkpt>
      <trkpt lat="31.16926974355095" lon="120.33372745326261">
        <ele>11.45371359066597</ele>
        <time>2018-10-20T22:34:08Z</time>
      </trkpt>
      <trkpt lat="31.169077121748412" lon="120.33350293290312">
        <ele>10.922778302393823</ele>
        <time>2018-10-20T22:34:19Z</time>
      </trkpt>
      <trkpt lat="31.168946867323168" lon="120.33341870898356">
        <ele>10.192110168395956</ele>
        <time>2018-10-20T22:34:27Z</time>
      </trkpt>
      <trkpt lat="31.16876347363556" lon="120.33318931304127">
        <ele>9.580504828240308</ele>
        <time>2018-10-20T22:34:37Z</time>
      </trkpt>
      <trkpt lat="31.16854945004172" lon="120.33295612820068">
        <ele>8.955716275638544</ele>
        <time>2018-10-20T22:34:48Z</time>
      </trkpt>
      <trkpt lat="31.168246481083287" lon="120.33273134775146">
        <ele>7.417086252842246</ele>
        <time>2018-10-20T22:35:02Z</time>
      </trkpt>
      <trkpt lat="31.16799437074763" lon="120.33256696296472">
        <ele>6.886198476411309</ele>
        <time>2018-10-20T22:35:14Z</time>
      </trkpt>
      <trkpt lat="31.167666678299984" lon="120.33236954111206">
        <ele>7.122682654813964</ele>
        <time>2018-10-20T22:35:29Z</time>
      </trkpt>
      <trkpt lat="31.167417524826188" lon="120.33221896982377">
        <ele>7.0033907648184766</ele>
        <time>2018-10-20T22:35:40Z</time>
      </trkpt>
      <trkpt lat="31.167115005929006" lon="120.3320437559398">
        <ele>6.72877793312572</ele>
        <time>2018-10-20T22:35:54Z</time>
      </trkpt>
      <trkpt lat="31.166827929813216" lon="120.33187477046539">
        <ele>6.713776812262559</ele>
        <time>2018-10-20T22:36:08Z</time>
      </trkpt>
      <trkpt lat="31.16654113019563" lon="120.33170307665699">
        <ele>7.193285043199779</ele>
        <time>2018-10-20T22:36:22Z</time>
      </trkpt>
      <trkpt lat="31.16622426487526" lon="120.33151594722689">
        <ele>6.9919638816826435</ele>
        <time>2018-10-20T22:36:37Z</time>
      </trkpt>
      <trkpt lat="31.165901723606684" lon="120.33131960964623">
        <ele>6.864541483683972</ele>
        <time>2018-10-20T22:36:52Z</time>
      </trkpt>
      <trkpt lat="31.16558294970131" lon="120.3311384394593">
        <ele>7.368567633575651</ele>
        <time>2018-10-20T22:37:07Z</time>
      </trkpt>
      <trkpt lat="31.16530508704455" lon="120.33097270428178">
        <ele>7.972767156966903</ele>
        <time>2018-10-20T22:37:20Z</time>
      </trkpt>
      <trkpt lat="31.16499550681299" lon="120.33080480518832">
        <ele>8.830607872527196</ele>
        <time>2018-10-20T22:37:34Z</time>
      </trkpt>
      <trkpt lat="31.164735256052506" lon="120.3306452982909">
        <ele>9.414424533712449</ele>
        <time>2018-10-20T22:37:46Z</time>
      </trkpt>
      <trkpt lat="31.164450611229" lon="120.33048200175254">
        <ele>10.30067290101897</ele>
        <time>2018-10-20T22:37:59Z</time>
      </trkpt>
      <trkpt lat="31.164156215805004" lon="120.33031356009067">
        <ele>10.338041688731465</ele>
        <time>2018-10-20T22:38:13Z</time>
      </trkpt>
      <trkpt lat="31.16384394215849" lon="120.33013672384888">
        <ele>10.12031676944072</ele>
        <time>2018-10-20T22:38:28Z</time>
      </trkpt>
      <trkpt lat="31.16356390403529" lon="120.32997505239824">
        <ele>9.280975668215838</ele>
        <time>2018-10-20T22:38:41Z</time>
      </trkpt>
      <trkpt lat="31.163275512675355" lon="120.32978629715356">
        <ele>8.190217310669176</ele>
        <time>2018-10-20T22:38:55Z</time>
      </trkpt>
      <trkpt lat="31.163014440441312" lon="120.32963166633073">
        <ele>7.480464335391503</ele>
        <time>2018-10-20T22:39:07Z</time>
      </trkpt>
      <trkpt lat="31.162700841411485" lon="120.32943939252584">
        <ele>7.069409803745302</ele>
        <time>2018-10-20T22:39:21Z</time>
      </trkpt>
      <trkpt lat="31.16241457588894" lon="120.3292736594076">
        <ele>6.747047409949374</ele>
        <time>2018-10-20T22:39:34Z</time>
      </trkpt>
      <trkpt lat="31.162127456406957" lon="120.32912932326542">
        <ele>6.462396161553521</ele>
        <time>2018-10-20T22:39:47Z</time>
      </trkpt>
      <trkpt lat="31.161910530003837" lon="120.32900014853823">
        <ele>7.9117572942447865</ele>
        <time>2018-10-20T22:40:12Z</time>
      </trkpt>
      <trkpt lat="31.161910530003837" lon="120.32900014853823">
        <ele>7.5387612460533475</ele>
        <time>2018-10-20T22:40:24Z</time>
      </trkpt>
      <trkpt lat="31.161899392129495" lon="120.32901152499802">
        <ele>7.115756603691395</ele>
        <time>2018-10-20T22:40:34Z</time>
      </trkpt>
      <trkpt lat="31.16188260652767" lon="120.32899879670012">
        <ele>7.181501095546118</ele>
        <time>2018-10-20T22:40:35Z</time>
      </trkpt>
      <trkpt lat="31.16158629999865" lon="120.32883821077561">
        <ele>6.983864374436905</ele>
        <time>2018-10-20T22:40:48Z</time>
      </trkpt>
      <trkpt lat="31.161293789930173" lon="120.32867735377133">
        <ele>6.928562627560652</ele>
        <time>2018-10-20T22:41:02Z</time>
      </trkpt>
      <trkpt lat="31.16101352619271" lon="120.32849266145186">
        <ele>6.77675671587712</ele>
        <time>2018-10-20T22:41:15Z</time>
      </trkpt>
      <trkpt lat="31.16073647429686" lon="120.32832990739327">
        <ele>6.727146146307568</ele>
        <time>2018-10-20T22:41:29Z</time>
      </trkpt>
      <trkpt lat="31.16059564925994" lon="120.32824568672144">
        <ele>7.726475009672868</ele>
        <time>2018-10-20T22:41:51Z</time>
      </trkpt>
      <trkpt lat="31.160573214516166" lon="120.32820966629511">
        <ele>7.056606101753587</ele>
        <time>2018-10-20T22:41:56Z</time>
      </trkpt>
      <trkpt lat="31.160536143599476" lon="120.32817120952261">
        <ele>7.31121324010757</ele>
        <time>2018-10-20T22:42:00Z</time>
      </trkpt>
      <trkpt lat="31.160520595617882" lon="120.32807831114812">
        <ele>6.747683254126088</ele>
        <time>2018-10-20T22:42:07Z</time>
      </trkpt>
      <trkpt lat="31.16071577239391" lon="120.32781232517362">
        <ele>6.724853924838129</ele>
        <time>2018-10-20T22:42:25Z</time>
      </trkpt>
      <trkpt lat="31.160867131494353" lon="120.32749163260813">
        <ele>6.653954529808779</ele>
        <time>2018-10-20T22:42:40Z</time>
      </trkpt>
      <trkpt lat="31.160875840157246" lon="120.32747456868108">
        <ele>7.09449722177434</ele>
        <time>2018-10-20T22:42:51Z</time>
      </trkpt>
      <trkpt lat="31.160868790348797" lon="120.32747484012815">
        <ele>6.790369126193596</ele>
        <time>2018-10-20T22:43:09Z</time>
      </trkpt>
      <trkpt lat="31.160945540273048" lon="120.32718015521728">
        <ele>7.082120302880526</ele>
        <time>2018-10-20T22:43:27Z</time>
      </trkpt>
      <trkpt lat="31.160936169449624" lon="120.32711813275016">
        <ele>7.032724464537573</ele>
        <time>2018-10-20T22:43:59Z</time>
      </trkpt>
      <trkpt lat="31.161043435101572" lon="120.32674544243203">
        <ele>7.412431208383893</ele>
        <time>2018-10-20T22:44:13Z</time>
      </trkpt>
      <trkpt lat="31.16115533619307" lon="120.32635920976571">
        <ele>7.954988022083974</ele>
        <time>2018-10-20T22:44:30Z</time>
      </trkpt>
      <trkpt lat="31.16128511746387" lon="120.32598055938153">
        <ele>8.066128899965335</ele>
        <time>2018-10-20T22:44:45Z</time>
      </trkpt>
      <trkpt lat="31.161387974984873" lon="120.32564497553922">
        <ele>7.902293562009845</ele>
        <time>2018-10-20T22:44:59Z</time>
      </trkpt>
      <trkpt lat="31.161469450242574" lon="120.325431814809">
        <ele>7.539324669869373</ele>
        <time>2018-10-20T22:45:07Z</time>
      </trkpt>
      <trkpt lat="31.161508035133796" lon="120.32524601294658">
        <ele>7.274882923084242</ele>
        <time>2018-10-20T22:45:14Z</time>
      </trkpt>
      <trkpt lat="31.16162144726107" lon="120.32492072036167">
        <ele>7.112326065304927</ele>
        <time>2018-10-20T22:45:27Z</time>
      </trkpt>
      <trkpt lat="31.161722724234274" lon="120.3245613025442">
        <ele>7.1034637308647675</ele>
        <time>2018-10-20T22:45:41Z</time>
      </trkpt>
      <trkpt lat="31.161832452987188" lon="120.32417750804785">
        <ele>6.59859879197672</ele>
        <time>2018-10-20T22:45:55Z</time>
      </trkpt>
      <trkpt lat="31.161935936561196" lon="120.3237985891638">
        <ele>6.88248624849971</ele>
        <time>2018-10-20T22:46:09Z</time>
      </trkpt>
      <trkpt lat="31.161980731106777" lon="120.32348521930632">
        <ele>6.582320118967026</ele>
        <time>2018-10-20T22:46:21Z</time>
      </trkpt>
      <trkpt lat="31.161947003270047" lon="120.32311741642586">
        <ele>6.431982828624953</ele>
        <time>2018-10-20T22:46:34Z</time>
      </trkpt>
      <trkpt lat="31.16188321666978" lon="120.32273065680494">
        <ele>6.2427556625831215</ele>
        <time>2018-10-20T22:46:48Z</time>
      </trkpt>
      <trkpt lat="31.161842122591842" lon="120.3223866883226">
        <ele>5.976845876988762</ele>
        <time>2018-10-20T22:47:00Z</time>
      </trkpt>
      <trkpt lat="31.16178888480736" lon="120.32201292770881">
        <ele>6.367148379770569</ele>
        <time>2018-10-20T22:47:13Z</time>
      </trkpt>
      <trkpt lat="31.161733112782965" lon="120.32168818982743">
        <ele>6.368770742594833</ele>
        <time>2018-10-20T22:47:24Z</time>
      </trkpt>
      <trkpt lat="31.161666092851434" lon="120.32129059528063">
        <ele>6.966611527375896</ele>
        <time>2018-10-20T22:47:38Z</time>
      </trkpt>
      <trkpt lat="31.1615955469603" lon="120.32089354219248">
        <ele>7.1725954358048725</ele>
        <time>2018-10-20T22:47:52Z</time>
      </trkpt>
      <trkpt lat="31.16154898276125" lon="120.32057394836791">
        <ele>7.644338773036864</ele>
        <time>2018-10-20T22:48:03Z</time>
      </trkpt>
      <trkpt lat="31.1614811128005" lon="120.32019504064237">
        <ele>7.962186621086801</ele>
        <time>2018-10-20T22:48:17Z</time>
      </trkpt>
      <trkpt lat="31.16141066715279" lon="120.31988682347577">
        <ele>7.8265129120268995</ele>
        <time>2018-10-20T22:48:28Z</time>
      </trkpt>
      <trkpt lat="31.161307386956107" lon="120.31959323440644">
        <ele>7.798510415537592</ele>
        <time>2018-10-20T22:48:40Z</time>
      </trkpt>
      <trkpt lat="31.16117790966609" lon="120.31924601936542">
        <ele>7.802184423813024</ele>
        <time>2018-10-20T22:48:55Z</time>
      </trkpt>
      <trkpt lat="31.161062718958288" lon="120.31894213813739">
        <ele>8.157630607704974</ele>
        <time>2018-10-20T22:49:08Z</time>
      </trkpt>
      <trkpt lat="31.160959357415372" lon="120.31854860456683">
        <ele>7.8285611751667545</ele>
        <time>2018-10-20T22:49:23Z</time>
      </trkpt>
      <trkpt lat="31.160863022881113" lon="120.31816644514987">
        <ele>7.535292927408619</ele>
        <time>2018-10-20T22:49:37Z</time>
      </trkpt>
      <trkpt lat="31.16074437746715" lon="120.31782518503826">
        <ele>7.053828837160701</ele>
        <time>2018-10-20T22:49:51Z</time>
      </trkpt>
      <trkpt lat="31.16064940562585" lon="120.31743869013715">
        <ele>6.41274800002968</ele>
        <time>2018-10-20T22:50:05Z</time>
      </trkpt>
      <trkpt lat="31.160573313068287" lon="120.31710419600543">
        <ele>6.4601818121061925</ele>
        <time>2018-10-20T22:50:17Z</time>
      </trkpt>
      <trkpt lat="31.160474484940224" lon="120.31674884742908">
        <ele>6.2036709609128025</ele>
        <time>2018-10-20T22:50:30Z</time>
      </trkpt>
      <trkpt lat="31.160376137240267" lon="120.3164257293052">
        <ele>6.106708546545647</ele>
        <time>2018-10-20T22:50:43Z</time>
      </trkpt>
      <trkpt lat="31.160302611919853" lon="120.31616625871183">
        <ele>5.932533484056037</ele>
        <time>2018-10-20T22:50:53Z</time>
      </trkpt>
      <trkpt lat="31.160309563345397" lon="120.31578868851585">
        <ele>6.875533804737543</ele>
        <time>2018-10-20T22:51:07Z</time>
      </trkpt>
      <trkpt lat="31.16030450594352" lon="120.31559584088916">
        <ele>6.30604096852673</ele>
        <time>2018-10-20T22:51:14Z</time>
      </trkpt>
      <trkpt lat="31.160214079154972" lon="120.31524075815688">
        <ele>6.59027699701285</ele>
        <time>2018-10-20T22:51:28Z</time>
      </trkpt>
      <trkpt lat="31.160169692398767" lon="120.31505603863344">
        <ele>6.642988432062118</ele>
        <time>2018-10-20T22:51:35Z</time>
      </trkpt>
      <trkpt lat="31.160069226553233" lon="120.31470420532267">
        <ele>7.049255296274524</ele>
        <time>2018-10-20T22:51:50Z</time>
      </trkpt>
      <trkpt lat="31.16000517048578" lon="120.31445393918744">
        <ele>6.932158904899822</ele>
        <time>2018-10-20T22:51:59Z</time>
      </trkpt>
      <trkpt lat="31.15986876251115" lon="120.31418282258113">
        <ele>6.492591919180505</ele>
        <time>2018-10-20T22:52:10Z</time>
      </trkpt>
      <trkpt lat="31.159727241335666" lon="120.3140352170756">
        <ele>6.426548616722862</ele>
        <time>2018-10-20T22:52:18Z</time>
      </trkpt>
      <trkpt lat="31.15958937004667" lon="120.31396507655259">
        <ele>6.3364659244335755</ele>
        <time>2018-10-20T22:52:25Z</time>
      </trkpt>
      <trkpt lat="31.15932467105518" lon="120.31371915946416">
        <ele>6.269387809878964</ele>
        <time>2018-10-20T22:52:40Z</time>
      </trkpt>
      <trkpt lat="31.15906667147134" lon="120.31351495356785">
        <ele>6.540679913902714</ele>
        <time>2018-10-20T22:52:53Z</time>
      </trkpt>
      <trkpt lat="31.158810895000073" lon="120.31328176500729">
        <ele>6.3235906009057885</ele>
        <time>2018-10-20T22:53:06Z</time>
      </trkpt>
      <trkpt lat="31.158581758558224" lon="120.31301119478532">
        <ele>6.2144430727302264</ele>
        <time>2018-10-20T22:53:20Z</time>
      </trkpt>
      <trkpt lat="31.158409139340584" lon="120.31281943970485">
        <ele>6.684554066710824</ele>
        <time>2018-10-20T22:53:30Z</time>
      </trkpt>
      <trkpt lat="31.158275624282236" lon="120.3127392760247">
        <ele>6.757721405712424</ele>
        <time>2018-10-20T22:53:37Z</time>
      </trkpt>
      <trkpt lat="31.15800511805286" lon="120.31269785721915">
        <ele>6.819136144442872</ele>
        <time>2018-10-20T22:53:48Z</time>
      </trkpt>
      <trkpt lat="31.157780423533595" lon="120.31266103914336">
        <ele>6.996834847477764</ele>
        <time>2018-10-20T22:53:59Z</time>
      </trkpt>
      <trkpt lat="31.15775556001513" lon="120.31261824504763">
        <ele>7.691201494163465</ele>
        <time>2018-10-20T22:54:09Z</time>
      </trkpt>
      <trkpt lat="31.15776394718436" lon="120.31262772450866">
        <ele>7.392924146466925</ele>
        <time>2018-10-20T22:54:22Z</time>
      </trkpt>
      <trkpt lat="31.15760795701062" lon="120.31267730556917">
        <ele>7.472128801545608</ele>
        <time>2018-10-20T22:54:29Z</time>
      </trkpt>
      <trkpt lat="31.157342122087588" lon="120.31289239241471">
        <ele>6.711315128180203</ele>
        <time>2018-10-20T22:54:43Z</time>
      </trkpt>
      <trkpt lat="31.157138784392334" lon="120.31303352841672">
        <ele>6.863561725671886</ele>
        <time>2018-10-20T22:54:53Z</time>
      </trkpt>
      <trkpt lat="31.156915972235616" lon="120.31314974669138">
        <ele>6.470497664363712</ele>
        <time>2018-10-20T22:55:03Z</time>
      </trkpt>
      <trkpt lat="31.156753610544406" lon="120.31312700823968">
        <ele>6.381964086352099</ele>
        <time>2018-10-20T22:55:10Z</time>
      </trkpt>
      <trkpt lat="31.1566271694271" lon="120.31317848253619">
        <ele>6.036768883094169</ele>
        <time>2018-10-20T22:55:17Z</time>
      </trkpt>
      <trkpt lat="31.1563506506386" lon="120.31316279619969">
        <ele>6.108622994254759</ele>
        <time>2018-10-20T22:55:31Z</time>
      </trkpt>
      <trkpt lat="31.156190690542086" lon="120.31316064295308">
        <ele>6.236820708467114</ele>
        <time>2018-10-20T22:55:38Z</time>
      </trkpt>
      <trkpt lat="31.155914764857222" lon="120.31297323075988">
        <ele>6.132851880012915</ele>
        <time>2018-10-20T22:55:52Z</time>
      </trkpt>
      <trkpt lat="31.155620357768868" lon="120.31280965558508">
        <ele>6.669411243346907</ele>
        <time>2018-10-20T22:56:07Z</time>
      </trkpt>
      <trkpt lat="31.1553287489317" lon="120.31259949157959">
        <ele>6.208598080708924</ele>
        <time>2018-10-20T22:56:22Z</time>
      </trkpt>
      <trkpt lat="31.155113246207442" lon="120.31228693435476">
        <ele>6.4505234290977285</ele>
        <time>2018-10-20T22:56:36Z</time>
      </trkpt>
      <trkpt lat="31.155068711318744" lon="120.31217940538788">
        <ele>6.590416929003318</ele>
        <time>2018-10-20T22:56:40Z</time>
      </trkpt>
      <trkpt lat="31.154889754371055" lon="120.3118963677645">
        <ele>7.19095860293212</ele>
        <time>2018-10-20T22:56:55Z</time>
      </trkpt>
      <trkpt lat="31.15467771337101" lon="120.31161658239809">
        <ele>7.045296825304327</ele>
        <time>2018-10-20T22:57:09Z</time>
      </trkpt>
      <trkpt lat="31.15447683364419" lon="120.31131214630089">
        <ele>7.125808227759265</ele>
        <time>2018-10-20T22:57:24Z</time>
      </trkpt>
      <trkpt lat="31.154271818810553" lon="120.311044005634">
        <ele>7.013463258343819</ele>
        <time>2018-10-20T22:57:37Z</time>
      </trkpt>
      <trkpt lat="31.15411584987023" lon="120.31079048676426">
        <ele>7.002070190078008</ele>
        <time>2018-10-20T22:57:49Z</time>
      </trkpt>
      <trkpt lat="31.153985739002714" lon="120.3104819784399">
        <ele>7.169220043096125</ele>
        <time>2018-10-20T22:58:03Z</time>
      </trkpt>
      <trkpt lat="31.153849663931865" lon="120.31017265677097">
        <ele>7.094841030043916</ele>
        <time>2018-10-20T22:58:17Z</time>
      </trkpt>
      <trkpt lat="31.15368079822145" lon="120.30985439786359">
        <ele>6.656812137818683</ele>
        <time>2018-10-20T22:58:32Z</time>
      </trkpt>
      <trkpt lat="31.153501308205453" lon="120.30956295487198">
        <ele>6.697123675168861</ele>
        <time>2018-10-20T22:58:45Z</time>
      </trkpt>
      <trkpt lat="31.15337297131107" lon="120.30931972184071">
        <ele>6.894879070379368</ele>
        <time>2018-10-20T22:58:56Z</time>
      </trkpt>
      <trkpt lat="31.15330097044963" lon="120.30896000708849">
        <ele>8.516974128057086</ele>
        <time>2018-10-20T22:59:11Z</time>
      </trkpt>
      <trkpt lat="31.15328063218164" lon="120.30881427799613">
        <ele>9.159998030406008</ele>
        <time>2018-10-20T22:59:18Z</time>
      </trkpt>
      <trkpt lat="31.153233030815016" lon="120.30875062629673">
        <ele>9.302371615238563</ele>
        <time>2018-10-20T22:59:25Z</time>
      </trkpt>
      <trkpt lat="31.153184283874484" lon="120.30872029236663">
        <ele>9.605891955054268</ele>
        <time>2018-10-20T22:59:28Z</time>
      </trkpt>
      <trkpt lat="31.153120568480087" lon="120.30872083954523">
        <ele>9.615988661274372</ele>
        <time>2018-10-20T22:59:31Z</time>
      </trkpt>
      <trkpt lat="31.1530461645596" lon="120.30878395991326">
        <ele>9.612518149516035</ele>
        <time>2018-10-20T22:59:35Z</time>
      </trkpt>
      <trkpt lat="31.152975312542043" lon="120.30912770616301">
        <ele>9.31703407263285</ele>
        <time>2018-10-20T22:59:48Z</time>
      </trkpt>
      <trkpt lat="31.152907938475945" lon="120.30949609986878">
        <ele>10.5385928117298</ele>
        <time>2018-10-20T23:00:02Z</time>
      </trkpt>
      <trkpt lat="31.15285097209752" lon="120.30980679516556">
        <ele>10.797709472723248</ele>
        <time>2018-10-20T23:00:15Z</time>
      </trkpt>
      <trkpt lat="31.152790487077016" lon="120.31011369726095">
        <ele>11.628887210220682</ele>
        <time>2018-10-20T23:00:33Z</time>
      </trkpt>
      <trkpt lat="31.152705808801354" lon="120.3104541879628">
        <ele>12.153831930706595</ele>
        <time>2018-10-20T23:00:46Z</time>
      </trkpt>
      <trkpt lat="31.15258042143196" lon="120.31081580833145">
        <ele>13.080968991878152</ele>
        <time>2018-10-20T23:01:01Z</time>
      </trkpt>
      <trkpt lat="31.152456153011393" lon="120.31115819539382">
        <ele>13.910527612383937</ele>
        <time>2018-10-20T23:01:15Z</time>
      </trkpt>
      <trkpt lat="31.152402464548498" lon="120.31130717661628">
        <ele>14.150260872024447</ele>
        <time>2018-10-20T23:01:21Z</time>
      </trkpt>
      <trkpt lat="31.15227764320981" lon="120.31165443721986">
        <ele>15.224943473021895</ele>
        <time>2018-10-20T23:01:35Z</time>
      </trkpt>
      <trkpt lat="31.152149852038367" lon="120.31199438329813">
        <ele>15.267892867346305</ele>
        <time>2018-10-20T23:01:49Z</time>
      </trkpt>
      <trkpt lat="31.152022619804608" lon="120.31232484776838">
        <ele>15.704551511295278</ele>
        <time>2018-10-20T23:02:03Z</time>
      </trkpt>
      <trkpt lat="31.15189838370196" lon="120.31264745573604">
        <ele>16.35918666518758</ele>
        <time>2018-10-20T23:02:17Z</time>
      </trkpt>
      <trkpt lat="31.151758926685837" lon="120.31298983670649">
        <ele>17.29836483363013</ele>
        <time>2018-10-20T23:02:32Z</time>
      </trkpt>
      <trkpt lat="31.151642006138662" lon="120.31331406685746">
        <ele>17.607111200652078</ele>
        <time>2018-10-20T23:02:46Z</time>
      </trkpt>
      <trkpt lat="31.15150250098105" lon="120.31368109357949">
        <ele>18.212158768093303</ele>
        <time>2018-10-20T23:03:02Z</time>
      </trkpt>
      <trkpt lat="31.151377490321572" lon="120.31398121570744">
        <ele>18.55598668524324</ele>
        <time>2018-10-20T23:03:16Z</time>
      </trkpt>
      <trkpt lat="31.15125622678134" lon="120.31430679722409">
        <ele>18.618217425523923</ele>
        <time>2018-10-20T23:03:30Z</time>
      </trkpt>
      <trkpt lat="31.1511376665824" lon="120.31463616947912">
        <ele>18.869697623860347</ele>
        <time>2018-10-20T23:03:44Z</time>
      </trkpt>
      <trkpt lat="31.15103159937338" lon="120.31495389285367">
        <ele>18.468403089856515</ele>
        <time>2018-10-20T23:03:57Z</time>
      </trkpt>
      <trkpt lat="31.150916584892393" lon="120.31527134521937">
        <ele>18.63371996457422</ele>
        <time>2018-10-20T23:04:10Z</time>
      </trkpt>
      <trkpt lat="31.150806367472555" lon="120.31563240382317">
        <ele>17.82326213946238</ele>
        <time>2018-10-20T23:04:24Z</time>
      </trkpt>
      <trkpt lat="31.150706174195232" lon="120.31599698156086">
        <ele>17.647650387692813</ele>
        <time>2018-10-20T23:04:39Z</time>
      </trkpt>
      <trkpt lat="31.150638121344343" lon="120.3162832790522">
        <ele>17.258911165814197</ele>
        <time>2018-10-20T23:04:52Z</time>
      </trkpt>
      <trkpt lat="31.15055299622974" lon="120.31642196284693">
        <ele>16.8417564924806</ele>
        <time>2018-10-20T23:04:59Z</time>
      </trkpt>
      <trkpt lat="31.150603253858023" lon="120.31665516231713">
        <ele>15.838257976703176</ele>
        <time>2018-10-20T23:05:07Z</time>
      </trkpt>
      <trkpt lat="31.150675542281803" lon="120.31685152368665">
        <ele>15.356809914043048</ele>
        <time>2018-10-20T23:05:14Z</time>
      </trkpt>
      <trkpt lat="31.150452089296458" lon="120.31673318055721">
        <ele>15.119265788838185</ele>
        <time>2018-10-20T23:05:17Z</time>
      </trkpt>
      <trkpt lat="31.15032309095113" lon="120.31698860458101">
        <ele>14.467256641241299</ele>
        <time>2018-10-20T23:05:27Z</time>
      </trkpt>
      <trkpt lat="31.15029678307447" lon="120.31799048230411">
        <ele>12.833983406188331</ele>
        <time>2018-10-20T23:05:44Z</time>
      </trkpt>
      <trkpt lat="31.150299587982957" lon="120.31779899138267">
        <ele>12.20538998496967</ele>
        <time>2018-10-20T23:05:51Z</time>
      </trkpt>
      <trkpt lat="31.15025666400224" lon="120.31812888973792">
        <ele>10.96555917138334</ele>
        <time>2018-10-20T23:06:05Z</time>
      </trkpt>
      <trkpt lat="31.15017082025101" lon="120.31850158516181">
        <ele>9.928876386491503</ele>
        <time>2018-10-20T23:06:20Z</time>
      </trkpt>
      <trkpt lat="31.15012765340336" lon="120.31867411932014">
        <ele>9.589462785468143</ele>
        <time>2018-10-20T23:06:27Z</time>
      </trkpt>
      <trkpt lat="31.150113004670548" lon="120.31882037860933">
        <ele>9.756435158179336</ele>
        <time>2018-10-20T23:06:34Z</time>
      </trkpt>
      <trkpt lat="31.150045550306384" lon="120.3190752522562">
        <ele>8.986548298781635</ele>
        <time>2018-10-20T23:06:47Z</time>
      </trkpt>
      <trkpt lat="31.150027206982106" lon="120.31945227348616">
        <ele>8.882446897547283</ele>
        <time>2018-10-20T23:07:04Z</time>
      </trkpt>
      <trkpt lat="31.150012118108137" lon="120.3195449044938">
        <ele>8.313812528174545</ele>
        <time>2018-10-20T23:07:08Z</time>
      </trkpt>
      <trkpt lat="31.149942691947665" lon="120.31969631387605">
        <ele>8.599366360239841</ele>
        <time>2018-10-20T23:07:15Z</time>
      </trkpt>
      <trkpt lat="31.149860758483918" lon="120.32000806538876">
        <ele>8.18810694544679</ele>
        <time>2018-10-20T23:07:29Z</time>
      </trkpt>
      <trkpt lat="31.149758191826233" lon="120.32033417306585">
        <ele>7.631160505915169</ele>
        <time>2018-10-20T23:07:43Z</time>
      </trkpt>
      <trkpt lat="31.149714580237827" lon="120.32059689735192">
        <ele>7.4627166539201255</ele>
        <time>2018-10-20T23:07:53Z</time>
      </trkpt>
      <trkpt lat="31.149621351156693" lon="120.32086043813464">
        <ele>7.139656494619331</ele>
        <time>2018-10-20T23:08:04Z</time>
      </trkpt>
      <trkpt lat="31.14947406338408" lon="120.32117869400965">
        <ele>7.605818740468138</ele>
        <time>2018-10-20T23:08:20Z</time>
      </trkpt>
      <trkpt lat="31.14934787696019" lon="120.32152105293027">
        <ele>6.757384505324076</ele>
        <time>2018-10-20T23:08:37Z</time>
      </trkpt>
      <trkpt lat="31.149211500266066" lon="120.32180463906388">
        <ele>6.985418072120282</ele>
        <time>2018-10-20T23:08:51Z</time>
      </trkpt>
      <trkpt lat="31.14909341547199" lon="120.32202213735017">
        <ele>6.903616995868731</ele>
        <time>2018-10-20T23:09:01Z</time>
      </trkpt>
      <trkpt lat="31.149062856949076" lon="120.32212262325777">
        <ele>6.826112356356923</ele>
        <time>2018-10-20T23:09:05Z</time>
      </trkpt>
      <trkpt lat="31.14893169893014" lon="120.32237099872559">
        <ele>6.226443612754387</ele>
        <time>2018-10-20T23:09:16Z</time>
      </trkpt>
      <trkpt lat="31.148770073167363" lon="120.32267246209304">
        <ele>6.15605260328816</ele>
        <time>2018-10-20T23:09:30Z</time>
      </trkpt>
      <trkpt lat="31.148632647010174" lon="120.32293763011704">
        <ele>6.80757707151065</ele>
        <time>2018-10-20T23:09:43Z</time>
      </trkpt>
      <trkpt lat="31.14855331101778" lon="120.32316649997733">
        <ele>6.7723678514217625</ele>
        <time>2018-10-20T23:09:54Z</time>
      </trkpt>
      <trkpt lat="31.14855331101778" lon="120.32316649997733">
        <ele>6.7723678514217625</ele>
        <time>2018-10-20T23:09:58Z</time>
      </trkpt>
    </trkseg>
  </trk>
</gpx>