<?xml version="1.0" encoding="UTF-8"?>
<gpx xmlns="http://www.topografix.com/GPX/1/1" xmlns:gpxtpx="http://www.garmin.com/xmlschemas/TrackPointExtension/v1" xmlns:xsi="http://www.w3.org/2001/XMLSchema-instance" xsi:schemaLocation="http://www.topografix.com/GPX/1/1 http://www.topografix.com/GPX/1/1/gpx.xsd" version="1.1" creator="gpx.py -- https://github.com/tkrajina/gpxpy">
  <trk>
    <name>gpx from keep</name>
    <type>Run</type>
    <trkseg>
      <trkpt lat="31.204503189433733" lon="121.6106463002069">
        <ele>8.832683994630038</ele>
        <time>2020-06-03T22:21:00Z</time>
      </trkpt>
      <trkpt lat="31.204570355574447" lon="121.61075121154995">
        <ele>8.688467683374018</ele>
        <time>2020-06-03T22:21:03Z</time>
      </trkpt>
      <trkpt lat="31.204608019913206" lon="121.6107837407088">
        <ele>8.567132778465748</ele>
        <time>2020-06-03T22:21:07Z</time>
      </trkpt>
      <trkpt lat="31.20472847565891" lon="121.61068423607114">
        <ele>8.282578921876848</ele>
        <time>2020-06-03T22:21:15Z</time>
      </trkpt>
      <trkpt lat="31.204760772468763" lon="121.61064004352664">
        <ele>8.219947135075927</ele>
        <time>2020-06-03T22:21:19Z</time>
      </trkpt>
      <trkpt lat="31.20485273757845" lon="121.61056981993451">
        <ele>8.376367051154375</ele>
        <time>2020-06-03T22:21:25Z</time>
      </trkpt>
      <trkpt lat="31.205059421095545" lon="121.61045973410401">
        <ele>7.396793085150421</ele>
        <time>2020-06-03T22:21:32Z</time>
      </trkpt>
      <trkpt lat="31.205122369454294" lon="121.61039629002197">
        <ele>7.243600626476109</ele>
        <time>2020-06-03T22:21:38Z</time>
      </trkpt>
      <trkpt lat="31.205189144277874" lon="121.61028919710408">
        <ele>7.368607751093805</ele>
        <time>2020-06-03T22:21:42Z</time>
      </trkpt>
      <trkpt lat="31.20532259959859" lon="121.61020839575066">
        <ele>6.530206138268113</ele>
        <time>2020-06-03T22:21:48Z</time>
      </trkpt>
      <trkpt lat="31.205383381672334" lon="121.61014007116918">
        <ele>7.1887847520411015</ele>
        <time>2020-06-03T22:21:52Z</time>
      </trkpt>
      <trkpt lat="31.20548228341457" lon="121.61022980014637">
        <ele>7.02818444557488</ele>
        <time>2020-06-03T22:21:56Z</time>
      </trkpt>
      <trkpt lat="31.205619362168253" lon="121.61039435118926">
        <ele>4.449394881725311</ele>
        <time>2020-06-03T22:22:04Z</time>
      </trkpt>
      <trkpt lat="31.205846689110576" lon="121.61061338556704">
        <ele>4.585064094513655</ele>
        <time>2020-06-03T22:22:18Z</time>
      </trkpt>
      <trkpt lat="31.20595261087153" lon="121.61074187979193">
        <ele>5.150355118326843</ele>
        <time>2020-06-03T22:22:25Z</time>
      </trkpt>
      <trkpt lat="31.206050378845436" lon="121.6108966707516">
        <ele>6.1479034423828125</ele>
        <time>2020-06-03T22:22:32Z</time>
      </trkpt>
      <trkpt lat="31.206077983579313" lon="121.61096688345047">
        <ele>5.30668321531266</ele>
        <time>2020-06-03T22:22:35Z</time>
      </trkpt>
      <trkpt lat="31.20622915139357" lon="121.61113874764004">
        <ele>7.311481401324272</ele>
        <time>2020-06-03T22:22:45Z</time>
      </trkpt>
      <trkpt lat="31.20632853137123" lon="121.61131034372372">
        <ele>5.4627984799444675</ele>
        <time>2020-06-03T22:22:53Z</time>
      </trkpt>
      <trkpt lat="31.206570763606738" lon="121.61152882589036">
        <ele>5.608236652798951</ele>
        <time>2020-06-03T22:23:04Z</time>
      </trkpt>
      <trkpt lat="31.20660567423991" lon="121.61161638595485">
        <ele>6.875565608032048</ele>
        <time>2020-06-03T22:23:08Z</time>
      </trkpt>
      <trkpt lat="31.206534052430385" lon="121.61167196571284">
        <ele>8.243971595540643</ele>
        <time>2020-06-03T22:23:14Z</time>
      </trkpt>
      <trkpt lat="31.206477852523783" lon="121.61177064747478">
        <ele>7.26402138825506</ele>
        <time>2020-06-03T22:23:18Z</time>
      </trkpt>
      <trkpt lat="31.206307961468102" lon="121.61198021344559">
        <ele>6.81511097215116</ele>
        <time>2020-06-03T22:23:29Z</time>
      </trkpt>
      <trkpt lat="31.206070843729968" lon="121.61216836731207">
        <ele>7.121840834617615</ele>
        <time>2020-06-03T22:23:40Z</time>
      </trkpt>
      <trkpt lat="31.206014937169545" lon="121.6122361432678">
        <ele>7.732235106639564</ele>
        <time>2020-06-03T22:23:44Z</time>
      </trkpt>
      <trkpt lat="31.20575963795863" lon="121.61244164584869">
        <ele>7.632765433751047</ele>
        <time>2020-06-03T22:23:58Z</time>
      </trkpt>
      <trkpt lat="31.205627530291995" lon="121.61252379463532">
        <ele>5.858886881731451</ele>
        <time>2020-06-03T22:24:05Z</time>
      </trkpt>
      <trkpt lat="31.205616640990247" lon="121.61257936719284">
        <ele>7.993444283492863</ele>
        <time>2020-06-03T22:24:13Z</time>
      </trkpt>
      <trkpt lat="31.20558053102242" lon="121.61264117654872">
        <ele>7.309470889158547</ele>
        <time>2020-06-03T22:24:27Z</time>
      </trkpt>
      <trkpt lat="31.20535066789572" lon="121.61290603941727">
        <ele>7.627070149406791</ele>
        <time>2020-06-03T22:24:44Z</time>
      </trkpt>
      <trkpt lat="31.205125447141047" lon="121.6131269848607">
        <ele>8.917551258578897</ele>
        <time>2020-06-03T22:24:58Z</time>
      </trkpt>
      <trkpt lat="31.204984597624804" lon="121.61328692996064">
        <ele>7.793188403360546</ele>
        <time>2020-06-03T22:25:08Z</time>
      </trkpt>
      <trkpt lat="31.204697777437683" lon="121.61356669906613">
        <ele>7.979032643139362</ele>
        <time>2020-06-03T22:25:23Z</time>
      </trkpt>
      <trkpt lat="31.204630762304543" lon="121.61362064737676">
        <ele>6.713335415348411</ele>
        <time>2020-06-03T22:25:26Z</time>
      </trkpt>
      <trkpt lat="31.204573738446165" lon="121.61372338697431">
        <ele>7.241375621408224</ele>
        <time>2020-06-03T22:25:30Z</time>
      </trkpt>
      <trkpt lat="31.204498315998713" lon="121.61377950415856">
        <ele>7.6339206444099545</ele>
        <time>2020-06-03T22:25:33Z</time>
      </trkpt>
      <trkpt lat="31.204370486051186" lon="121.61392887220553">
        <ele>6.872846042737365</ele>
        <time>2020-06-03T22:25:40Z</time>
      </trkpt>
      <trkpt lat="31.20429913593082" lon="121.61397821194706">
        <ele>8.267256116494536</ele>
        <time>2020-06-03T22:25:43Z</time>
      </trkpt>
      <trkpt lat="31.204218517365597" lon="121.61408637321398">
        <ele>6.608908272348344</ele>
        <time>2020-06-03T22:25:47Z</time>
      </trkpt>
      <trkpt lat="31.204071987584822" lon="121.61422381414954">
        <ele>8.109303372912109</ele>
        <time>2020-06-03T22:25:54Z</time>
      </trkpt>
      <trkpt lat="31.203814237027437" lon="121.61442496259842">
        <ele>8.758880655281246</ele>
        <time>2020-06-03T22:26:06Z</time>
      </trkpt>
      <trkpt lat="31.203692640396607" lon="121.61457351289714">
        <ele>7.66685367655009</ele>
        <time>2020-06-03T22:26:13Z</time>
      </trkpt>
      <trkpt lat="31.203708555369303" lon="121.61466811063329">
        <ele>7.612666592001915</ele>
        <time>2020-06-03T22:26:17Z</time>
      </trkpt>
      <trkpt lat="31.203805716027933" lon="121.61487085231447">
        <ele>6.728695558384061</ele>
        <time>2020-06-03T22:26:24Z</time>
      </trkpt>
      <trkpt lat="31.203822736191583" lon="121.61494078289743">
        <ele>6.270214203745127</ele>
        <time>2020-06-03T22:26:27Z</time>
      </trkpt>
      <trkpt lat="31.203780615968537" lon="121.61504785240551">
        <ele>6.848863589577377</ele>
        <time>2020-06-03T22:26:35Z</time>
      </trkpt>
      <trkpt lat="31.2037529542036" lon="121.61505463100781">
        <ele>6.72889537923038</ele>
        <time>2020-06-03T22:26:52Z</time>
      </trkpt>
      <trkpt lat="31.20374944427648" lon="121.61503782603437">
        <ele>6.435220193117857</ele>
        <time>2020-06-03T22:26:56Z</time>
      </trkpt>
      <trkpt lat="31.203546953230937" lon="121.61529073365357">
        <ele>7.016784104518592</ele>
        <time>2020-06-03T22:27:39Z</time>
      </trkpt>
      <trkpt lat="31.203381716664758" lon="121.61541976672021">
        <ele>6.928655938245356</ele>
        <time>2020-06-03T22:27:47Z</time>
      </trkpt>
      <trkpt lat="31.203274759867497" lon="121.61556397290406">
        <ele>7.548672445118427</ele>
        <time>2020-06-03T22:27:54Z</time>
      </trkpt>
      <trkpt lat="31.203192554349545" lon="121.61562117051425">
        <ele>6.868252199143171</ele>
        <time>2020-06-03T22:27:58Z</time>
      </trkpt>
      <trkpt lat="31.202970536559086" lon="121.61587380259874">
        <ele>5.492489201016724</ele>
        <time>2020-06-03T22:28:09Z</time>
      </trkpt>
      <trkpt lat="31.20284622851951" lon="121.6160139418908">
        <ele>6.921662426553667</ele>
        <time>2020-06-03T22:28:16Z</time>
      </trkpt>
      <trkpt lat="31.202758598901976" lon="121.61607168097211">
        <ele>5.847241001203656</ele>
        <time>2020-06-03T22:28:19Z</time>
      </trkpt>
      <trkpt lat="31.202536592682186" lon="121.61630750399527">
        <ele>4.948601287789643</ele>
        <time>2020-06-03T22:28:33Z</time>
      </trkpt>
      <trkpt lat="31.202395480988905" lon="121.61643815588994">
        <ele>6.170571737922728</ele>
        <time>2020-06-03T22:28:40Z</time>
      </trkpt>
      <trkpt lat="31.202197053055166" lon="121.61668183342978">
        <ele>5.861269262619317</ele>
        <time>2020-06-03T22:28:51Z</time>
      </trkpt>
      <trkpt lat="31.201971475788305" lon="121.61696101592742">
        <ele>5.736434541642666</ele>
        <time>2020-06-03T22:29:05Z</time>
      </trkpt>
      <trkpt lat="31.201823336474828" lon="121.61706564604792">
        <ele>6.828739018179476</ele>
        <time>2020-06-03T22:29:13Z</time>
      </trkpt>
      <trkpt lat="31.201585038544025" lon="121.61731745150524">
        <ele>6.479308997280896</ele>
        <time>2020-06-03T22:29:24Z</time>
      </trkpt>
      <trkpt lat="31.201328002676693" lon="121.61759744250567">
        <ele>5.96442860737443</ele>
        <time>2020-06-03T22:29:38Z</time>
      </trkpt>
      <trkpt lat="31.201123359928683" lon="121.61780939958133">
        <ele>6.401828380301595</ele>
        <time>2020-06-03T22:29:48Z</time>
      </trkpt>
      <trkpt lat="31.201056846421537" lon="121.61789640301178">
        <ele>5.4425293784588575</ele>
        <time>2020-06-03T22:29:52Z</time>
      </trkpt>
      <trkpt lat="31.200991448230493" lon="121.61795196768796">
        <ele>5.792382033541799</ele>
        <time>2020-06-03T22:29:55Z</time>
      </trkpt>
      <trkpt lat="31.200789760573986" lon="121.61818885517877">
        <ele>5.246338105760515</ele>
        <time>2020-06-03T22:30:06Z</time>
      </trkpt>
      <trkpt lat="31.200719173769336" lon="121.61828100695213">
        <ele>5.769299034960568</ele>
        <time>2020-06-03T22:30:10Z</time>
      </trkpt>
      <trkpt lat="31.200656769522812" lon="121.61832437479028">
        <ele>6.494448001496494</ele>
        <time>2020-06-03T22:30:13Z</time>
      </trkpt>
      <trkpt lat="31.200591323239184" lon="121.61842709524446">
        <ele>5.911375154741108</ele>
        <time>2020-06-03T22:30:17Z</time>
      </trkpt>
      <trkpt lat="31.20040021143866" lon="121.61865855713187">
        <ele>6.068388518877327</ele>
        <time>2020-06-03T22:30:28Z</time>
      </trkpt>
      <trkpt lat="31.20034513028553" lon="121.6186989425787">
        <ele>4.38893689122051</ele>
        <time>2020-06-03T22:30:31Z</time>
      </trkpt>
      <trkpt lat="31.200180301974754" lon="121.61894449232209">
        <ele>5.872753189876676</ele>
        <time>2020-06-03T22:30:42Z</time>
      </trkpt>
      <trkpt lat="31.20006167754609" lon="121.61908000669752">
        <ele>4.554773945361376</ele>
        <time>2020-06-03T22:30:49Z</time>
      </trkpt>
      <trkpt lat="31.199964728986195" lon="121.61922933990996">
        <ele>5.672287899069488</ele>
        <time>2020-06-03T22:30:56Z</time>
      </trkpt>
      <trkpt lat="31.199813289824053" lon="121.61937081760442">
        <ele>6.4508220767602324</ele>
        <time>2020-06-03T22:31:04Z</time>
      </trkpt>
      <trkpt lat="31.199636287391478" lon="121.619585196555">
        <ele>6.139260922558606</ele>
        <time>2020-06-03T22:31:14Z</time>
      </trkpt>
      <trkpt lat="31.19939965239886" lon="121.61978196359257">
        <ele>5.849553876556456</ele>
        <time>2020-06-03T22:31:26Z</time>
      </trkpt>
      <trkpt lat="31.199253306367837" lon="121.61997628266658">
        <ele>5.577649924904108</ele>
        <time>2020-06-03T22:31:36Z</time>
      </trkpt>
      <trkpt lat="31.19919333183377" lon="121.62002723537782">
        <ele>4.335923967882991</ele>
        <time>2020-06-03T22:31:39Z</time>
      </trkpt>
      <trkpt lat="31.199140370184466" lon="121.62011260411418">
        <ele>5.680937107652426</ele>
        <time>2020-06-03T22:31:43Z</time>
      </trkpt>
      <trkpt lat="31.199068444189177" lon="121.62018361131396">
        <ele>6.221532040275633</ele>
        <time>2020-06-03T22:31:47Z</time>
      </trkpt>
      <trkpt lat="31.19893875548762" lon="121.62026492094542">
        <ele>5.587257808074355</ele>
        <time>2020-06-03T22:31:53Z</time>
      </trkpt>
      <trkpt lat="31.198783097652345" lon="121.62029013643254">
        <ele>6.206512188538909</ele>
        <time>2020-06-03T22:31:57Z</time>
      </trkpt>
      <trkpt lat="31.198719876233927" lon="121.6203343139168">
        <ele>5.528941218741238</ele>
        <time>2020-06-03T22:32:00Z</time>
      </trkpt>
      <trkpt lat="31.198648731465127" lon="121.62043485882369">
        <ele>6.3173504415899515</ele>
        <time>2020-06-03T22:32:04Z</time>
      </trkpt>
      <trkpt lat="31.198421016165657" lon="121.62065221405967">
        <ele>7.165059099905193</ele>
        <time>2020-06-03T22:32:15Z</time>
      </trkpt>
      <trkpt lat="31.198328219228735" lon="121.62071617574391">
        <ele>6.208470651879907</ele>
        <time>2020-06-03T22:32:18Z</time>
      </trkpt>
      <trkpt lat="31.198098601630015" lon="121.62093569671039">
        <ele>6.143169726245105</ele>
        <time>2020-06-03T22:32:30Z</time>
      </trkpt>
      <trkpt lat="31.19798080502792" lon="121.62104979255683">
        <ele>6.77307936642319</ele>
        <time>2020-06-03T22:32:37Z</time>
      </trkpt>
      <trkpt lat="31.197921607674242" lon="121.62113217760854">
        <ele>6.747821049764752</ele>
        <time>2020-06-03T22:32:41Z</time>
      </trkpt>
      <trkpt lat="31.19779189564836" lon="121.62123245331257">
        <ele>5.377016677521169</ele>
        <time>2020-06-03T22:32:48Z</time>
      </trkpt>
      <trkpt lat="31.197551674940183" lon="121.62147473346664">
        <ele>5.5820831079036</ele>
        <time>2020-06-03T22:33:02Z</time>
      </trkpt>
      <trkpt lat="31.197280841112995" lon="121.62169289662464">
        <ele>5.104424333199859</ele>
        <time>2020-06-03T22:33:16Z</time>
      </trkpt>
      <trkpt lat="31.196996411369675" lon="121.6219446604883">
        <ele>5.840612411499023</ele>
        <time>2020-06-03T22:33:31Z</time>
      </trkpt>
      <trkpt lat="31.196779528018723" lon="121.62216444119377">
        <ele>6.6098224632442</ele>
        <time>2020-06-03T22:33:44Z</time>
      </trkpt>
      <trkpt lat="31.19670816502573" lon="121.62221295183016">
        <ele>6.412870528176427</ele>
        <time>2020-06-03T22:33:47Z</time>
      </trkpt>
      <trkpt lat="31.1966673881087" lon="121.62230725465326">
        <ele>6.4224485931918025</ele>
        <time>2020-06-03T22:33:51Z</time>
      </trkpt>
      <trkpt lat="31.19670419798468" lon="121.6226015287937">
        <ele>4.868901147507131</ele>
        <time>2020-06-03T22:34:06Z</time>
      </trkpt>
      <trkpt lat="31.196784041710877" lon="121.62295947381531">
        <ele>4.533148841001093</ele>
        <time>2020-06-03T22:34:20Z</time>
      </trkpt>
      <trkpt lat="31.196848755993518" lon="121.62326755779554">
        <ele>4.679463773965836</ele>
        <time>2020-06-03T22:34:31Z</time>
      </trkpt>
      <trkpt lat="31.196887931232382" lon="121.62361763953992">
        <ele>4.483881851658225</ele>
        <time>2020-06-03T22:34:43Z</time>
      </trkpt>
      <trkpt lat="31.196920109723866" lon="121.62392002867925">
        <ele>5.394192197360098</ele>
        <time>2020-06-03T22:34:54Z</time>
      </trkpt>
      <trkpt lat="31.19696639307773" lon="121.62398776449307">
        <ele>4.631034709513187</ele>
        <time>2020-06-03T22:34:58Z</time>
      </trkpt>
      <trkpt lat="31.19692940478231" lon="121.62362603592392">
        <ele>5.731664055027068</ele>
        <time>2020-06-03T22:35:12Z</time>
      </trkpt>
      <trkpt lat="31.196888721972485" lon="121.62340601742784">
        <ele>5.327548451721668</ele>
        <time>2020-06-03T22:35:20Z</time>
      </trkpt>
      <trkpt lat="31.196885859561736" lon="121.62330332212639">
        <ele>5.900296430103481</ele>
        <time>2020-06-03T22:35:24Z</time>
      </trkpt>
      <trkpt lat="31.196828602606946" lon="121.62311148297916">
        <ele>5.403126524761319</ele>
        <time>2020-06-03T22:35:32Z</time>
      </trkpt>
      <trkpt lat="31.19681447504223" lon="121.62290202593309">
        <ele>6.2255992610007524</ele>
        <time>2020-06-03T22:35:40Z</time>
      </trkpt>
      <trkpt lat="31.196839499334562" lon="121.622832655714">
        <ele>4.4226582534611225</ele>
        <time>2020-06-03T22:35:43Z</time>
      </trkpt>
      <trkpt lat="31.19706675413742" lon="121.62255733031637">
        <ele>5.611753473058343</ele>
        <time>2020-06-03T22:35:58Z</time>
      </trkpt>
      <trkpt lat="31.19736307423555" lon="121.62234486256814">
        <ele>5.437487306073308</ele>
        <time>2020-06-03T22:36:13Z</time>
      </trkpt>
      <trkpt lat="31.197565275835355" lon="121.62216220835339">
        <ele>6.211647602729499</ele>
        <time>2020-06-03T22:36:24Z</time>
      </trkpt>
      <trkpt lat="31.197719667156925" lon="121.6220592243413">
        <ele>6.089859940111637</ele>
        <time>2020-06-03T22:36:31Z</time>
      </trkpt>
      <trkpt lat="31.19777993877698" lon="121.62198822316606">
        <ele>6.221979125402868</ele>
        <time>2020-06-03T22:36:34Z</time>
      </trkpt>
      <trkpt lat="31.197862976350955" lon="121.62192534928364">
        <ele>6.543076872825623</ele>
        <time>2020-06-03T22:36:38Z</time>
      </trkpt>
      <trkpt lat="31.19798990559247" lon="121.6218909244478">
        <ele>5.724031410180032</ele>
        <time>2020-06-03T22:36:45Z</time>
      </trkpt>
      <trkpt lat="31.198197776610407" lon="121.62172777729074">
        <ele>5.41172198113054</ele>
        <time>2020-06-03T22:36:56Z</time>
      </trkpt>
      <trkpt lat="31.198404619376152" lon="121.62151314249677">
        <ele>6.489329929463565</ele>
        <time>2020-06-03T22:37:07Z</time>
      </trkpt>
      <trkpt lat="31.19844238682779" lon="121.62144105779247">
        <ele>7.7774191135540605</ele>
        <time>2020-06-03T22:37:10Z</time>
      </trkpt>
      <trkpt lat="31.198632429193367" lon="121.62121558262581">
        <ele>5.764449962414801</ele>
        <time>2020-06-03T22:37:21Z</time>
      </trkpt>
      <trkpt lat="31.1986999870878" lon="121.62117411613528">
        <ele>5.714049958623946</ele>
        <time>2020-06-03T22:37:24Z</time>
      </trkpt>
      <trkpt lat="31.198749405076963" lon="121.62110880422149">
        <ele>4.36158555559814</ele>
        <time>2020-06-03T22:37:28Z</time>
      </trkpt>
      <trkpt lat="31.19889728247491" lon="121.62100879753262">
        <ele>5.563690295442939</ele>
        <time>2020-06-03T22:37:35Z</time>
      </trkpt>
      <trkpt lat="31.19898516510307" lon="121.62097654264588">
        <ele>5.29710996709764</ele>
        <time>2020-06-03T22:37:39Z</time>
      </trkpt>
      <trkpt lat="31.19920745315244" lon="121.62076569433424">
        <ele>4.722417747601867</ele>
        <time>2020-06-03T22:37:50Z</time>
      </trkpt>
      <trkpt lat="31.19934847665794" lon="121.6207345187154">
        <ele>6.7301358981058</ele>
        <time>2020-06-03T22:37:57Z</time>
      </trkpt>
      <trkpt lat="31.19967193299108" lon="121.62074072474196">
        <ele>6.3317967262119055</ele>
        <time>2020-06-03T22:38:10Z</time>
      </trkpt>
      <trkpt lat="31.199830833790482" lon="121.62072580708583">
        <ele>4.914938470348716</ele>
        <time>2020-06-03T22:38:17Z</time>
      </trkpt>
      <trkpt lat="31.20014420984357" lon="121.62077672743257">
        <ele>4.334126655943692</ele>
        <time>2020-06-03T22:38:31Z</time>
      </trkpt>
      <trkpt lat="31.200222571191283" lon="121.62077346906074">
        <ele>3.8216567737981677</ele>
        <time>2020-06-03T22:38:34Z</time>
      </trkpt>
      <trkpt lat="31.20031147886931" lon="121.62079595391481">
        <ele>5.30456795822829</ele>
        <time>2020-06-03T22:38:38Z</time>
      </trkpt>
      <trkpt lat="31.200428885932574" lon="121.6207905243907">
        <ele>4.140465632081032</ele>
        <time>2020-06-03T22:38:42Z</time>
      </trkpt>
      <trkpt lat="31.200597759143605" lon="121.6208306169699">
        <ele>4.37476790510118</ele>
        <time>2020-06-03T22:38:49Z</time>
      </trkpt>
      <trkpt lat="31.20067146530936" lon="121.62086963340457">
        <ele>4.7569235153496265</ele>
        <time>2020-06-03T22:38:52Z</time>
      </trkpt>
      <trkpt lat="31.20084683003705" lon="121.62092408774889">
        <ele>4.28821667842567</ele>
        <time>2020-06-03T22:38:59Z</time>
      </trkpt>
      <trkpt lat="31.201141498910836" lon="121.62097392530163">
        <ele>3.1490674819797277</ele>
        <time>2020-06-03T22:39:11Z</time>
      </trkpt>
      <trkpt lat="31.201477926944214" lon="121.6210196944824">
        <ele>3.381824491545558</ele>
        <time>2020-06-03T22:39:25Z</time>
      </trkpt>
      <trkpt lat="31.20175308152437" lon="121.62106275877764">
        <ele>4.136039192788303</ele>
        <time>2020-06-03T22:39:37Z</time>
      </trkpt>
      <trkpt lat="31.201845806922584" lon="121.62106518999204">
        <ele>3.8822380350902677</ele>
        <time>2020-06-03T22:39:41Z</time>
      </trkpt>
      <trkpt lat="31.201945007236088" lon="121.62109715829888">
        <ele>3.3270017886534333</ele>
        <time>2020-06-03T22:39:45Z</time>
      </trkpt>
      <trkpt lat="31.202267344612103" lon="121.62113534079802">
        <ele>5.076850103214383</ele>
        <time>2020-06-03T22:40:00Z</time>
      </trkpt>
      <trkpt lat="31.202389894577433" lon="121.6211380405239">
        <ele>4.609243316575885</ele>
        <time>2020-06-03T22:40:07Z</time>
      </trkpt>
      <trkpt lat="31.20242112495531" lon="121.62109251211018">
        <ele>3.533801579847932</ele>
        <time>2020-06-03T22:40:11Z</time>
      </trkpt>
      <trkpt lat="31.20238935667479" lon="121.6208857506069">
        <ele>3.839467450045049</ele>
        <time>2020-06-03T22:40:18Z</time>
      </trkpt>
      <trkpt lat="31.202406057945044" lon="121.62073643361454">
        <ele>4.766875633969903</ele>
        <time>2020-06-03T22:40:32Z</time>
      </trkpt>
      <trkpt lat="31.2023209773149" lon="121.62068495231664">
        <ele>5.2054643630981445</ele>
        <time>2020-06-03T22:40:36Z</time>
      </trkpt>
      <trkpt lat="31.202398999635946" lon="121.62074456392715">
        <ele>4.866062525759176</ele>
        <time>2020-06-03T22:40:43Z</time>
      </trkpt>
      <trkpt lat="31.20241587508875" lon="121.62068440248">
        <ele>3.255038089118898</ele>
        <time>2020-06-03T22:41:20Z</time>
      </trkpt>
      <trkpt lat="31.20240233658773" lon="121.62041557861689">
        <ele>3.6443789564073086</ele>
        <time>2020-06-03T22:41:33Z</time>
      </trkpt>
      <trkpt lat="31.20243549192689" lon="121.62034376227774">
        <ele>4.316512251272798</ele>
        <time>2020-06-03T22:41:40Z</time>
      </trkpt>
      <trkpt lat="31.20238234167383" lon="121.62035108354213">
        <ele>4.538208364509046</ele>
        <time>2020-06-03T22:41:51Z</time>
      </trkpt>
      <trkpt lat="31.202389914891157" lon="121.62036842658948">
        <ele>4.122144615277648</ele>
        <time>2020-06-03T22:42:56Z</time>
      </trkpt>
      <trkpt lat="31.202424333058485" lon="121.62038332845185">
        <ele>5.934992575086653</ele>
        <time>2020-06-03T22:43:13Z</time>
      </trkpt>
      <trkpt lat="31.202485082349238" lon="121.62036923169833">
        <ele>5.621743246912956</ele>
        <time>2020-06-03T22:43:15Z</time>
      </trkpt>
      <trkpt lat="31.202651852329705" lon="121.62034862228371">
        <ele>5.26510445587337</ele>
        <time>2020-06-03T22:43:23Z</time>
      </trkpt>
      <trkpt lat="31.202812167471063" lon="121.62027896320274">
        <ele>4.331798421218991</ele>
        <time>2020-06-03T22:43:31Z</time>
      </trkpt>
      <trkpt lat="31.20275264169288" lon="121.61990661729324">
        <ele>2.657210742123425</ele>
        <time>2020-06-03T22:43:46Z</time>
      </trkpt>
      <trkpt lat="31.2027578785958" lon="121.61982558783755">
        <ele>5.535226659849286</ele>
        <time>2020-06-03T22:43:49Z</time>
      </trkpt>
      <trkpt lat="31.2026571460961" lon="121.61944212760437">
        <ele>3.5328634213656187</ele>
        <time>2020-06-03T22:44:04Z</time>
      </trkpt>
      <trkpt lat="31.20264070186445" lon="121.61935052926411">
        <ele>5.159180642105639</ele>
        <time>2020-06-03T22:44:07Z</time>
      </trkpt>
      <trkpt lat="31.202606883722" lon="121.61927925751183">
        <ele>5.370343320071697</ele>
        <time>2020-06-03T22:44:10Z</time>
      </trkpt>
      <trkpt lat="31.202516682888756" lon="121.61893047751487">
        <ele>5.47597149759531</ele>
        <time>2020-06-03T22:44:23Z</time>
      </trkpt>
      <trkpt lat="31.202481825788357" lon="121.61881340381532">
        <ele>5.448661862872541</ele>
        <time>2020-06-03T22:44:27Z</time>
      </trkpt>
      <trkpt lat="31.20251227463156" lon="121.61873291083134">
        <ele>2.4874386796727777</ele>
        <time>2020-06-03T22:44:31Z</time>
      </trkpt>
      <trkpt lat="31.20265639474226" lon="121.61858709397967">
        <ele>6.7615627609193325</ele>
        <time>2020-06-03T22:44:43Z</time>
      </trkpt>
      <trkpt lat="31.202692817739784" lon="121.61849684325685">
        <ele>5.349657516926527</ele>
        <time>2020-06-03T22:44:47Z</time>
      </trkpt>
      <trkpt lat="31.20266692911727" lon="121.61835700146354">
        <ele>5.61439942009747</ele>
        <time>2020-06-03T22:44:54Z</time>
      </trkpt>
      <trkpt lat="31.20268760933566" lon="121.61828301224027">
        <ele>5.75826923828572</ele>
        <time>2020-06-03T22:44:57Z</time>
      </trkpt>
      <trkpt lat="31.202730798957003" lon="121.61820360058204">
        <ele>5.8344333646818995</ele>
        <time>2020-06-03T22:45:01Z</time>
      </trkpt>
      <trkpt lat="31.202671220091656" lon="121.61785805545625">
        <ele>5.070982998237014</ele>
        <time>2020-06-03T22:45:16Z</time>
      </trkpt>
      <trkpt lat="31.202603279347247" lon="121.61774179257343">
        <ele>4.690429812297225</ele>
        <time>2020-06-03T22:45:20Z</time>
      </trkpt>
      <trkpt lat="31.202561685220804" lon="121.61757728464165">
        <ele>4.626072883605957</ele>
        <time>2020-06-03T22:45:27Z</time>
      </trkpt>
      <trkpt lat="31.202464049546787" lon="121.6173255096143">
        <ele>4.247010639868677</ele>
        <time>2020-06-03T22:45:38Z</time>
      </trkpt>
      <trkpt lat="31.202487156855547" lon="121.61726235825664">
        <ele>5.785383359529078</ele>
        <time>2020-06-03T22:45:41Z</time>
      </trkpt>
      <trkpt lat="31.2025547007171" lon="121.61722982928664">
        <ele>4.770370091311634</ele>
        <time>2020-06-03T22:45:45Z</time>
      </trkpt>
      <trkpt lat="31.20279409678656" lon="121.6169631161327">
        <ele>4.399151291698217</ele>
        <time>2020-06-03T22:46:03Z</time>
      </trkpt>
      <trkpt lat="31.203011460412668" lon="121.61676849691722">
        <ele>5.195510843768716</ele>
        <time>2020-06-03T22:46:21Z</time>
      </trkpt>
      <trkpt lat="31.20326895782338" lon="121.61656628384556">
        <ele>4.832096189260483</ele>
        <time>2020-06-03T22:46:36Z</time>
      </trkpt>
      <trkpt lat="31.20350691671199" lon="121.6163806040302">
        <ele>5.535458997823298</ele>
        <time>2020-06-03T22:46:47Z</time>
      </trkpt>
      <trkpt lat="31.203768970340604" lon="121.6162328663525">
        <ele>6.497356169857085</ele>
        <time>2020-06-03T22:47:00Z</time>
      </trkpt>
      <trkpt lat="31.203933733299838" lon="121.61603336694328">
        <ele>7.372820666059852</ele>
        <time>2020-06-03T22:47:14Z</time>
      </trkpt>
      <trkpt lat="31.20407227815446" lon="121.61603904735617">
        <ele>7.092529973946512</ele>
        <time>2020-06-03T22:47:24Z</time>
      </trkpt>
      <trkpt lat="31.204271059829917" lon="121.61599593527622">
        <ele>4.300884813070297</ele>
        <time>2020-06-03T22:47:36Z</time>
      </trkpt>
      <trkpt lat="31.204444900141738" lon="121.61624392305374">
        <ele>4.62324426881969</ele>
        <time>2020-06-03T22:47:52Z</time>
      </trkpt>
      <trkpt lat="31.204563564615604" lon="121.61634392650915">
        <ele>5.139237590134144</ele>
        <time>2020-06-03T22:48:00Z</time>
      </trkpt>
      <trkpt lat="31.20447533471078" lon="121.61617101087458">
        <ele>6.741754028946161</ele>
        <time>2020-06-03T22:48:07Z</time>
      </trkpt>
      <trkpt lat="31.20422532678361" lon="121.61589890583338">
        <ele>6.430103280581534</ele>
        <time>2020-06-03T22:48:22Z</time>
      </trkpt>
      <trkpt lat="31.204156247880853" lon="121.61583250590395">
        <ele>6.520429529249668</ele>
        <time>2020-06-03T22:48:26Z</time>
      </trkpt>
      <trkpt lat="31.20404033816428" lon="121.61568262779974">
        <ele>7.074191101826727</ele>
        <time>2020-06-03T22:48:33Z</time>
      </trkpt>
      <trkpt lat="31.20376833805751" lon="121.61543897917564">
        <ele>4.515873531810939</ele>
        <time>2020-06-03T22:48:48Z</time>
      </trkpt>
      <trkpt lat="31.203649665784724" lon="121.61534412192717">
        <ele>3.9364055320620537</ele>
        <time>2020-06-03T22:48:55Z</time>
      </trkpt>
      <trkpt lat="31.20351167302848" lon="121.61532732827827">
        <ele>4.706695350818336</ele>
        <time>2020-06-03T22:49:02Z</time>
      </trkpt>
      <trkpt lat="31.20347893164228" lon="121.61525333436585">
        <ele>4.947679167613387</ele>
        <time>2020-06-03T22:49:05Z</time>
      </trkpt>
      <trkpt lat="31.203364068098818" lon="121.61514329718898">
        <ele>6.1558266673237085</ele>
        <time>2020-06-03T22:49:12Z</time>
      </trkpt>
      <trkpt lat="31.203325624481266" lon="121.61507824790895">
        <ele>5.912952330894768</ele>
        <time>2020-06-03T22:49:16Z</time>
      </trkpt>
      <trkpt lat="31.203330592867534" lon="121.61497850005149">
        <ele>5.945452082902193</ele>
        <time>2020-06-03T22:49:20Z</time>
      </trkpt>
      <trkpt lat="31.203314923012023" lon="121.61491480371214">
        <ele>5.432739591225982</ele>
        <time>2020-06-03T22:49:23Z</time>
      </trkpt>
      <trkpt lat="31.203327982168037" lon="121.61486384440208">
        <ele>5.974829229526222</ele>
        <time>2020-06-03T22:49:29Z</time>
      </trkpt>
      <trkpt lat="31.203190455067226" lon="121.61462342904552">
        <ele>4.820449758321047</ele>
        <time>2020-06-03T22:49:42Z</time>
      </trkpt>
      <trkpt lat="31.203041359171323" lon="121.61427540109656">
        <ele>6.512300947681069</ele>
        <time>2020-06-03T22:49:57Z</time>
      </trkpt>
      <trkpt lat="31.20295092424824" lon="121.61412957710026">
        <ele>7.296052715741098</ele>
        <time>2020-06-03T22:50:04Z</time>
      </trkpt>
      <trkpt lat="31.20282535267762" lon="121.61385093302684">
        <ele>6.8325109565630555</ele>
        <time>2020-06-03T22:50:15Z</time>
      </trkpt>
      <trkpt lat="31.202682160973556" lon="121.61356442611012">
        <ele>7.145148612558842</ele>
        <time>2020-06-03T22:50:27Z</time>
      </trkpt>
      <trkpt lat="31.202640495719884" lon="121.61345600149194">
        <ele>8.182040195912123</ele>
        <time>2020-06-03T22:50:31Z</time>
      </trkpt>
      <trkpt lat="31.202643825973837" lon="121.61336275268242">
        <ele>7.633841124363244</ele>
        <time>2020-06-03T22:50:35Z</time>
      </trkpt>
      <trkpt lat="31.2026791227933" lon="121.61330257173441">
        <ele>9.205978250131011</ele>
        <time>2020-06-03T22:50:38Z</time>
      </trkpt>
      <trkpt lat="31.20270716966223" lon="121.61315537655783">
        <ele>8.620606387034059</ele>
        <time>2020-06-03T22:50:45Z</time>
      </trkpt>
      <trkpt lat="31.202690495730188" lon="121.61298676914393">
        <ele>8.343292955309153</ele>
        <time>2020-06-03T22:50:53Z</time>
      </trkpt>
      <trkpt lat="31.202523473018502" lon="121.61265227251967">
        <ele>6.643879508599639</ele>
        <time>2020-06-03T22:51:12Z</time>
      </trkpt>
      <trkpt lat="31.202447398365905" lon="121.6125077926721">
        <ele>6.5475565595552325</ele>
        <time>2020-06-03T22:51:19Z</time>
      </trkpt>
      <trkpt lat="31.202386710660793" lon="121.6124487017875">
        <ele>8.252691527828574</ele>
        <time>2020-06-03T22:51:23Z</time>
      </trkpt>
      <trkpt lat="31.202319407376987" lon="121.61218060524607">
        <ele>8.019260284490883</ele>
        <time>2020-06-03T22:51:38Z</time>
      </trkpt>
      <trkpt lat="31.202320290635882" lon="121.61209033349306">
        <ele>8.108869034796953</ele>
        <time>2020-06-03T22:51:45Z</time>
      </trkpt>
      <trkpt lat="31.202404930054485" lon="121.61203150061678">
        <ele>7.264264631085098</ele>
        <time>2020-06-03T22:51:52Z</time>
      </trkpt>
      <trkpt lat="31.202626367745705" lon="121.61178099624583">
        <ele>6.979895510710776</ele>
        <time>2020-06-03T22:52:08Z</time>
      </trkpt>
      <trkpt lat="31.20280924789379" lon="121.61160233193611">
        <ele>7.2505270997062325</ele>
        <time>2020-06-03T22:52:18Z</time>
      </trkpt>
      <trkpt lat="31.202923721887608" lon="121.61152912741116">
        <ele>6.444000767543912</ele>
        <time>2020-06-03T22:52:25Z</time>
      </trkpt>
      <trkpt lat="31.202923721887608" lon="121.61152912741116">
        <ele>6.444000767543912</ele>
        <time>2020-06-03T22:52:25Z</time>
      </trkpt>
    </trkseg>
  </trk>
</gpx>