<?xml version="1.0" encoding="UTF-8"?>
<gpx xmlns="http://www.topografix.com/GPX/1/1" xmlns:gpxtpx="http://www.garmin.com/xmlschemas/TrackPointExtension/v1" xmlns:xsi="http://www.w3.org/2001/XMLSchema-instance" xsi:schemaLocation="http://www.topografix.com/GPX/1/1 http://www.topografix.com/GPX/1/1/gpx.xsd" version="1.1" creator="gpx.py -- https://github.com/tkrajina/gpxpy">
  <trk>
    <name>gpx from keep</name>
    <type>Run</type>
    <trkseg>
      <trkpt lat="31.20485900172369" lon="121.61053050921203">
        <ele>8.788129730869656</ele>
        <time>2020-07-13T23:09:33Z</time>
      </trkpt>
      <trkpt lat="31.204940909307915" lon="121.61049580096234">
        <ele>8.614388027069545</ele>
        <time>2020-07-13T23:09:36Z</time>
      </trkpt>
      <trkpt lat="31.205036168117" lon="121.61036837314116">
        <ele>8.173986962996423</ele>
        <time>2020-07-13T23:09:44Z</time>
      </trkpt>
      <trkpt lat="31.20518540049439" lon="121.61021491370622">
        <ele>7.125393886119127</ele>
        <time>2020-07-13T23:09:52Z</time>
      </trkpt>
      <trkpt lat="31.205219879790437" lon="121.61015038685395">
        <ele>6.88261288497597</ele>
        <time>2020-07-13T23:09:55Z</time>
      </trkpt>
      <trkpt lat="31.205360637062007" lon="121.61009588211508">
        <ele>6.663247112184763</ele>
        <time>2020-07-13T23:09:59Z</time>
      </trkpt>
      <trkpt lat="31.20541651790952" lon="121.6100571086907">
        <ele>8.083710886538029</ele>
        <time>2020-07-13T23:10:02Z</time>
      </trkpt>
      <trkpt lat="31.205493733071126" lon="121.61014114648577">
        <ele>8.796840730123222</ele>
        <time>2020-07-13T23:10:06Z</time>
      </trkpt>
      <trkpt lat="31.205619404652822" lon="121.61033416541456">
        <ele>6.599288168363273</ele>
        <time>2020-07-13T23:10:13Z</time>
      </trkpt>
      <trkpt lat="31.205662177219704" lon="121.6104287781768">
        <ele>6.410571025684476</ele>
        <time>2020-07-13T23:10:17Z</time>
      </trkpt>
      <trkpt lat="31.205802781621152" lon="121.61059034533652">
        <ele>6.392237680964172</ele>
        <time>2020-07-13T23:10:24Z</time>
      </trkpt>
      <trkpt lat="31.205879202862885" lon="121.61064483093321">
        <ele>6.406638064421713</ele>
        <time>2020-07-13T23:10:28Z</time>
      </trkpt>
      <trkpt lat="31.205921954758978" lon="121.61076655264702">
        <ele>7.359440429136157</ele>
        <time>2020-07-13T23:10:32Z</time>
      </trkpt>
      <trkpt lat="31.206121895097994" lon="121.61098395910714">
        <ele>6.32907984033227</ele>
        <time>2020-07-13T23:10:43Z</time>
      </trkpt>
      <trkpt lat="31.206293641341137" lon="121.61119350400976">
        <ele>5.100775747559965</ele>
        <time>2020-07-13T23:10:53Z</time>
      </trkpt>
      <trkpt lat="31.20643948172356" lon="121.61123496978725">
        <ele>7.187678004615009</ele>
        <time>2020-07-13T23:10:57Z</time>
      </trkpt>
      <trkpt lat="31.206466262083747" lon="121.61131873630536">
        <ele>6.830848291516304</ele>
        <time>2020-07-13T23:11:00Z</time>
      </trkpt>
      <trkpt lat="31.206531041768756" lon="121.6113480092691">
        <ele>8.144202035851777</ele>
        <time>2020-07-13T23:11:03Z</time>
      </trkpt>
      <trkpt lat="31.206615269506518" lon="121.61147595896726">
        <ele>5.703861873596907</ele>
        <time>2020-07-13T23:11:10Z</time>
      </trkpt>
      <trkpt lat="31.20660112287444" lon="121.61153939601431">
        <ele>6.45239173527807</ele>
        <time>2020-07-13T23:11:14Z</time>
      </trkpt>
      <trkpt lat="31.206505019979627" lon="121.61169961943548">
        <ele>8.034549431875348</ele>
        <time>2020-07-13T23:11:25Z</time>
      </trkpt>
      <trkpt lat="31.206289011709377" lon="121.61194144940538">
        <ele>6.2817516988143325</ele>
        <time>2020-07-13T23:11:36Z</time>
      </trkpt>
      <trkpt lat="31.20609441550405" lon="121.61219032329669">
        <ele>7.785220366902649</ele>
        <time>2020-07-13T23:11:47Z</time>
      </trkpt>
      <trkpt lat="31.206042026894963" lon="121.6122667736054">
        <ele>7.298737899400294</ele>
        <time>2020-07-13T23:11:50Z</time>
      </trkpt>
      <trkpt lat="31.205799207565224" lon="121.6124622448404">
        <ele>8.406414965167642</ele>
        <time>2020-07-13T23:12:01Z</time>
      </trkpt>
      <trkpt lat="31.205496666311024" lon="121.61274663344662">
        <ele>7.073083035647869</ele>
        <time>2020-07-13T23:12:12Z</time>
      </trkpt>
      <trkpt lat="31.20527113878587" lon="121.61301339229172">
        <ele>7.449040317907929</ele>
        <time>2020-07-13T23:12:26Z</time>
      </trkpt>
      <trkpt lat="31.205065413916095" lon="121.61326496637689">
        <ele>7.5441509280353785</ele>
        <time>2020-07-13T23:12:37Z</time>
      </trkpt>
      <trkpt lat="31.204841298467485" lon="121.613457174865">
        <ele>6.957573117688298</ele>
        <time>2020-07-13T23:12:47Z</time>
      </trkpt>
      <trkpt lat="31.204619325974825" lon="121.61367919912803">
        <ele>7.495704569853842</ele>
        <time>2020-07-13T23:12:58Z</time>
      </trkpt>
      <trkpt lat="31.204371273444565" lon="121.61395977356949">
        <ele>7.984054760076106</ele>
        <time>2020-07-13T23:13:12Z</time>
      </trkpt>
      <trkpt lat="31.20414114138032" lon="121.6142070025825">
        <ele>7.485640622675419</ele>
        <time>2020-07-13T23:13:22Z</time>
      </trkpt>
      <trkpt lat="31.203866520392122" lon="121.61447808591313">
        <ele>6.556796817108989</ele>
        <time>2020-07-13T23:13:36Z</time>
      </trkpt>
      <trkpt lat="31.203717268622096" lon="121.61462555393842">
        <ele>6.809002204798162</ele>
        <time>2020-07-13T23:13:43Z</time>
      </trkpt>
      <trkpt lat="31.203556151054343" lon="121.61469848159273">
        <ele>6.668837116099894</ele>
        <time>2020-07-13T23:13:50Z</time>
      </trkpt>
      <trkpt lat="31.203478540074453" lon="121.6147746547876">
        <ele>5.862530816346407</ele>
        <time>2020-07-13T23:13:54Z</time>
      </trkpt>
      <trkpt lat="31.203377745783953" lon="121.61500641463657">
        <ele>5.7552341325208545</ele>
        <time>2020-07-13T23:14:07Z</time>
      </trkpt>
      <trkpt lat="31.203394509062953" lon="121.6150598106499">
        <ele>7.002386333420873</ele>
        <time>2020-07-13T23:14:25Z</time>
      </trkpt>
      <trkpt lat="31.203403979156445" lon="121.6150820361605">
        <ele>6.807140648365021</ele>
        <time>2020-07-13T23:14:29Z</time>
      </trkpt>
      <trkpt lat="31.203504402894602" lon="121.61527067947272">
        <ele>5.815085946582258</ele>
        <time>2020-07-13T23:15:01Z</time>
      </trkpt>
      <trkpt lat="31.20347529878498" lon="121.61537449384913">
        <ele>6.7948252484202385</ele>
        <time>2020-07-13T23:15:09Z</time>
      </trkpt>
      <trkpt lat="31.20338170646131" lon="121.6154311507527">
        <ele>7.644377392716706</ele>
        <time>2020-07-13T23:15:13Z</time>
      </trkpt>
      <trkpt lat="31.203123047350452" lon="121.61572769717691">
        <ele>6.794304249808192</ele>
        <time>2020-07-13T23:15:27Z</time>
      </trkpt>
      <trkpt lat="31.20286958613382" lon="121.6159703021911">
        <ele>7.282287396490574</ele>
        <time>2020-07-13T23:15:38Z</time>
      </trkpt>
      <trkpt lat="31.20272981043974" lon="121.6161239942391">
        <ele>5.81255023367703</ele>
        <time>2020-07-13T23:15:45Z</time>
      </trkpt>
      <trkpt lat="31.202620398754263" lon="121.61628012215658">
        <ele>6.392426759004593</ele>
        <time>2020-07-13T23:15:52Z</time>
      </trkpt>
      <trkpt lat="31.202371550979528" lon="121.61651323502637">
        <ele>7.151841353625059</ele>
        <time>2020-07-13T23:16:03Z</time>
      </trkpt>
      <trkpt lat="31.202164211777568" lon="121.61671788369381">
        <ele>5.856250671669841</ele>
        <time>2020-07-13T23:16:13Z</time>
      </trkpt>
      <trkpt lat="31.201932937228616" lon="121.61700031862495">
        <ele>6.609839502722025</ele>
        <time>2020-07-13T23:16:26Z</time>
      </trkpt>
      <trkpt lat="31.201871871658653" lon="121.6170634737918">
        <ele>5.854040586389601</ele>
        <time>2020-07-13T23:16:30Z</time>
      </trkpt>
      <trkpt lat="31.201812742015868" lon="121.61708678726842">
        <ele>3.0689220502972603</ele>
        <time>2020-07-13T23:16:33Z</time>
      </trkpt>
      <trkpt lat="31.201735918215963" lon="121.61718355112141">
        <ele>4.712667495012283</ele>
        <time>2020-07-13T23:16:37Z</time>
      </trkpt>
      <trkpt lat="31.20149248684623" lon="121.61741557089024">
        <ele>5.269995907321572</ele>
        <time>2020-07-13T23:16:48Z</time>
      </trkpt>
      <trkpt lat="31.20133536447185" lon="121.61755516206087">
        <ele>6.5133219147101045</ele>
        <time>2020-07-13T23:16:55Z</time>
      </trkpt>
      <trkpt lat="31.201092968103293" lon="121.61783460713384">
        <ele>5.180459477938712</ele>
        <time>2020-07-13T23:17:06Z</time>
      </trkpt>
      <trkpt lat="31.200881243789166" lon="121.61807718796719">
        <ele>5.209456910379231</ele>
        <time>2020-07-13T23:17:16Z</time>
      </trkpt>
      <trkpt lat="31.200685771422343" lon="121.61833385796638">
        <ele>5.895505047403276</ele>
        <time>2020-07-13T23:17:27Z</time>
      </trkpt>
      <trkpt lat="31.200509287677683" lon="121.61857914120355">
        <ele>5.998103520832956</ele>
        <time>2020-07-13T23:17:37Z</time>
      </trkpt>
      <trkpt lat="31.20026306099946" lon="121.61888269515556">
        <ele>5.132917057722807</ele>
        <time>2020-07-13T23:17:50Z</time>
      </trkpt>
      <trkpt lat="31.20005458742499" lon="121.61911957447991">
        <ele>4.770224802196026</ele>
        <time>2020-07-13T23:18:01Z</time>
      </trkpt>
      <trkpt lat="31.199884383672888" lon="121.61931606859049">
        <ele>5.499974082224071</ele>
        <time>2020-07-13T23:18:11Z</time>
      </trkpt>
      <trkpt lat="31.199802698734906" lon="121.61938707879433">
        <ele>6.172086260281503</ele>
        <time>2020-07-13T23:18:15Z</time>
      </trkpt>
      <trkpt lat="31.19973372848074" lon="121.619485459178">
        <ele>5.4572939313948154</ele>
        <time>2020-07-13T23:18:19Z</time>
      </trkpt>
      <trkpt lat="31.19957254454112" lon="121.6196104050999">
        <ele>4.617050249129534</ele>
        <time>2020-07-13T23:18:26Z</time>
      </trkpt>
      <trkpt lat="31.19934129616075" lon="121.61984131756566">
        <ele>5.904351653531194</ele>
        <time>2020-07-13T23:18:37Z</time>
      </trkpt>
      <trkpt lat="31.199165383495657" lon="121.6200475625621">
        <ele>6.644029245711863</ele>
        <time>2020-07-13T23:18:47Z</time>
      </trkpt>
      <trkpt lat="31.1989238552542" lon="121.62025354034755">
        <ele>5.085082304663956</ele>
        <time>2020-07-13T23:18:58Z</time>
      </trkpt>
      <trkpt lat="31.198764483298113" lon="121.62045571578618">
        <ele>6.512298760004342</ele>
        <time>2020-07-13T23:19:08Z</time>
      </trkpt>
      <trkpt lat="31.19866610292789" lon="121.62041724276126">
        <ele>5.413163827732205</ele>
        <time>2020-07-13T23:19:11Z</time>
      </trkpt>
      <trkpt lat="31.19851661006861" lon="121.62050858005767">
        <ele>5.417918679304421</ele>
        <time>2020-07-13T23:19:14Z</time>
      </trkpt>
      <trkpt lat="31.19846062921918" lon="121.62062673753265">
        <ele>6.716766376979649</ele>
        <time>2020-07-13T23:19:18Z</time>
      </trkpt>
      <trkpt lat="31.198268535443155" lon="121.62074788663581">
        <ele>6.188556097447872</ele>
        <time>2020-07-13T23:19:25Z</time>
      </trkpt>
      <trkpt lat="31.198125462182727" lon="121.62091889316763">
        <ele>6.209929188713431</ele>
        <time>2020-07-13T23:19:33Z</time>
      </trkpt>
      <trkpt lat="31.19803754865186" lon="121.62097960193516">
        <ele>7.080257358960807</ele>
        <time>2020-07-13T23:19:37Z</time>
      </trkpt>
      <trkpt lat="31.19796151421087" lon="121.62108664846406">
        <ele>7.608731087297201</ele>
        <time>2020-07-13T23:19:43Z</time>
      </trkpt>
      <trkpt lat="31.197881467094135" lon="121.62114383336525">
        <ele>7.27735938038677</ele>
        <time>2020-07-13T23:19:47Z</time>
      </trkpt>
      <trkpt lat="31.19777476204602" lon="121.62127987721864">
        <ele>6.90373167861253</ele>
        <time>2020-07-13T23:19:54Z</time>
      </trkpt>
      <trkpt lat="31.197509876802588" lon="121.62151402949043">
        <ele>5.599919747561216</ele>
        <time>2020-07-13T23:20:08Z</time>
      </trkpt>
      <trkpt lat="31.197198055821893" lon="121.62177311378368">
        <ele>6.898993926122785</ele>
        <time>2020-07-13T23:20:22Z</time>
      </trkpt>
      <trkpt lat="31.19697740309431" lon="121.62197040501775">
        <ele>6.39162708632648</ele>
        <time>2020-07-13T23:20:33Z</time>
      </trkpt>
      <trkpt lat="31.19675133380193" lon="121.6221611918102">
        <ele>5.90442362986505</ele>
        <time>2020-07-13T23:20:43Z</time>
      </trkpt>
      <trkpt lat="31.196691076862955" lon="121.62221891471357">
        <ele>6.5585572542622685</ele>
        <time>2020-07-13T23:20:46Z</time>
      </trkpt>
      <trkpt lat="31.196614355886496" lon="121.62244897856792">
        <ele>6.510714872740209</ele>
        <time>2020-07-13T23:20:57Z</time>
      </trkpt>
      <trkpt lat="31.19666682743133" lon="121.62256142800243">
        <ele>4.9965738244354725</ele>
        <time>2020-07-13T23:21:04Z</time>
      </trkpt>
      <trkpt lat="31.196680842330267" lon="121.62263486026086">
        <ele>4.972853891551495</ele>
        <time>2020-07-13T23:21:08Z</time>
      </trkpt>
      <trkpt lat="31.19668586326469" lon="121.62274866770086">
        <ele>5.163401212543249</ele>
        <time>2020-07-13T23:21:15Z</time>
      </trkpt>
      <trkpt lat="31.196709387048802" lon="121.62280502756225">
        <ele>5.687209227122366</ele>
        <time>2020-07-13T23:21:19Z</time>
      </trkpt>
      <trkpt lat="31.19669188949501" lon="121.62293075877622">
        <ele>5.15595634188503</ele>
        <time>2020-07-13T23:21:27Z</time>
      </trkpt>
      <trkpt lat="31.196723498636377" lon="121.6230288466505">
        <ele>5.451954746618867</ele>
        <time>2020-07-13T23:21:35Z</time>
      </trkpt>
      <trkpt lat="31.196721946300197" lon="121.62319820107568">
        <ele>4.834209246560931</ele>
        <time>2020-07-13T23:21:46Z</time>
      </trkpt>
      <trkpt lat="31.196783055937498" lon="121.62334099474357">
        <ele>6.1534021478146315</ele>
        <time>2020-07-13T23:21:56Z</time>
      </trkpt>
      <trkpt lat="31.196777551171998" lon="121.62341117494506">
        <ele>5.157890708185732</ele>
        <time>2020-07-13T23:22:00Z</time>
      </trkpt>
      <trkpt lat="31.196859675228698" lon="121.6236669568976">
        <ele>5.649550470523536</ele>
        <time>2020-07-13T23:22:18Z</time>
      </trkpt>
      <trkpt lat="31.196852553489254" lon="121.62372819469509">
        <ele>6.214353753253818</ele>
        <time>2020-07-13T23:22:21Z</time>
      </trkpt>
      <trkpt lat="31.1969028262812" lon="121.62386177388237">
        <ele>5.894751881249249</ele>
        <time>2020-07-13T23:22:29Z</time>
      </trkpt>
      <trkpt lat="31.196905184184246" lon="121.62393113922802">
        <ele>6.116645109839737</ele>
        <time>2020-07-13T23:22:33Z</time>
      </trkpt>
      <trkpt lat="31.196960485143315" lon="121.62393980533044">
        <ele>5.537367885932326</ele>
        <time>2020-07-13T23:22:40Z</time>
      </trkpt>
      <trkpt lat="31.19693724147973" lon="121.62364825413391">
        <ele>6.762046125717461</ele>
        <time>2020-07-13T23:23:00Z</time>
      </trkpt>
      <trkpt lat="31.196953373230418" lon="121.62353363581043">
        <ele>5.28151739295572</ele>
        <time>2020-07-13T23:23:07Z</time>
      </trkpt>
      <trkpt lat="31.19691088031495" lon="121.62346969205333">
        <ele>6.979242312721908</ele>
        <time>2020-07-13T23:23:11Z</time>
      </trkpt>
      <trkpt lat="31.19684141041369" lon="121.6232889646574">
        <ele>5.7551494827494025</ele>
        <time>2020-07-13T23:23:25Z</time>
      </trkpt>
      <trkpt lat="31.196836111827302" lon="121.62318247559148">
        <ele>6.067600717768073</ele>
        <time>2020-07-13T23:23:33Z</time>
      </trkpt>
      <trkpt lat="31.196721185225037" lon="121.6231532207401">
        <ele>5.176928108558059</ele>
        <time>2020-07-13T23:23:37Z</time>
      </trkpt>
      <trkpt lat="31.19673997212147" lon="121.62308547748093">
        <ele>5.96467965003103</ele>
        <time>2020-07-13T23:23:41Z</time>
      </trkpt>
      <trkpt lat="31.196694804600074" lon="121.62298901674191">
        <ele>5.076508481055498</ele>
        <time>2020-07-13T23:23:45Z</time>
      </trkpt>
      <trkpt lat="31.19673201726269" lon="121.62293075545487">
        <ele>5.138755378313363</ele>
        <time>2020-07-13T23:23:48Z</time>
      </trkpt>
      <trkpt lat="31.19670878640361" lon="121.6228556989454">
        <ele>4.631562348455191</ele>
        <time>2020-07-13T23:23:51Z</time>
      </trkpt>
      <trkpt lat="31.196758461913053" lon="121.6228052944704">
        <ele>4.824506017379463</ele>
        <time>2020-07-13T23:23:54Z</time>
      </trkpt>
      <trkpt lat="31.196824658418784" lon="121.62277060481597">
        <ele>4.778944634832442</ele>
        <time>2020-07-13T23:23:57Z</time>
      </trkpt>
      <trkpt lat="31.196900664551208" lon="121.62269337188108">
        <ele>4.881601868197322</ele>
        <time>2020-07-13T23:24:01Z</time>
      </trkpt>
      <trkpt lat="31.196954180674393" lon="121.62260367587963">
        <ele>5.617464310489595</ele>
        <time>2020-07-13T23:24:05Z</time>
      </trkpt>
      <trkpt lat="31.19714357160315" lon="121.62248145157102">
        <ele>5.296942192129791</ele>
        <time>2020-07-13T23:24:13Z</time>
      </trkpt>
      <trkpt lat="31.197229832581765" lon="121.62244594691991">
        <ele>4.399749086238444</ele>
        <time>2020-07-13T23:24:16Z</time>
      </trkpt>
      <trkpt lat="31.197296075567195" lon="121.62237006873626">
        <ele>3.9470035694539547</ele>
        <time>2020-07-13T23:24:19Z</time>
      </trkpt>
      <trkpt lat="31.19739673359083" lon="121.6223107169651">
        <ele>5.67052545119077</ele>
        <time>2020-07-13T23:24:23Z</time>
      </trkpt>
      <trkpt lat="31.197680354285062" lon="121.62205787270759">
        <ele>6.580178024247289</ele>
        <time>2020-07-13T23:24:34Z</time>
      </trkpt>
      <trkpt lat="31.19790478779356" lon="121.62187467273752">
        <ele>6.901710935868323</ele>
        <time>2020-07-13T23:24:44Z</time>
      </trkpt>
      <trkpt lat="31.197988876619636" lon="121.62184133530047">
        <ele>6.181573917157948</ele>
        <time>2020-07-13T23:24:48Z</time>
      </trkpt>
      <trkpt lat="31.19821086021869" lon="121.62166572152782">
        <ele>6.0324828047305346</ele>
        <time>2020-07-13T23:24:59Z</time>
      </trkpt>
      <trkpt lat="31.19839408268986" lon="121.6214792704708">
        <ele>5.207235551439226</ele>
        <time>2020-07-13T23:25:07Z</time>
      </trkpt>
      <trkpt lat="31.1985361036051" lon="121.62128198209845">
        <ele>6.063545345328748</ele>
        <time>2020-07-13T23:25:15Z</time>
      </trkpt>
      <trkpt lat="31.198619709709206" lon="121.62119390478462">
        <ele>6.403755748644471</ele>
        <time>2020-07-13T23:25:19Z</time>
      </trkpt>
      <trkpt lat="31.198652862668222" lon="121.62112588439611">
        <ele>4.881990006193519</ele>
        <time>2020-07-13T23:25:22Z</time>
      </trkpt>
      <trkpt lat="31.198719047563852" lon="121.62110013514314">
        <ele>4.588417769409716</ele>
        <time>2020-07-13T23:25:25Z</time>
      </trkpt>
      <trkpt lat="31.19884225528111" lon="121.62099687860318">
        <ele>5.840265418402851</ele>
        <time>2020-07-13T23:25:32Z</time>
      </trkpt>
      <trkpt lat="31.198909533477266" lon="121.62096299947493">
        <ele>4.498223434202373</ele>
        <time>2020-07-13T23:25:36Z</time>
      </trkpt>
      <trkpt lat="31.1991361454691" lon="121.62076515825353">
        <ele>6.46418084949255</ele>
        <time>2020-07-13T23:25:46Z</time>
      </trkpt>
      <trkpt lat="31.199257400223768" lon="121.62071176299607">
        <ele>7.754858513362706</ele>
        <time>2020-07-13T23:25:50Z</time>
      </trkpt>
      <trkpt lat="31.19937887564805" lon="121.62070497816164">
        <ele>6.792630217969418</ele>
        <time>2020-07-13T23:25:54Z</time>
      </trkpt>
      <trkpt lat="31.199485414663606" lon="121.62072041584675">
        <ele>6.0814579064026475</ele>
        <time>2020-07-13T23:25:58Z</time>
      </trkpt>
      <trkpt lat="31.199587863480676" lon="121.62075726214202">
        <ele>5.091101977042854</ele>
        <time>2020-07-13T23:26:01Z</time>
      </trkpt>
      <trkpt lat="31.199823791338673" lon="121.6207193038811">
        <ele>6.73383866250515</ele>
        <time>2020-07-13T23:26:09Z</time>
      </trkpt>
      <trkpt lat="31.199971271662264" lon="121.6207347381695">
        <ele>5.142119419761002</ele>
        <time>2020-07-13T23:26:16Z</time>
      </trkpt>
      <trkpt lat="31.20003527695491" lon="121.62071847340678">
        <ele>4.4742498975247145</ele>
        <time>2020-07-13T23:26:19Z</time>
      </trkpt>
      <trkpt lat="31.200119593860034" lon="121.62072388625256">
        <ele>6.111829270608723</ele>
        <time>2020-07-13T23:26:26Z</time>
      </trkpt>
      <trkpt lat="31.20018353137135" lon="121.6207702204038">
        <ele>4.5007319804281</ele>
        <time>2020-07-13T23:26:33Z</time>
      </trkpt>
      <trkpt lat="31.200447843290153" lon="121.62081084709692">
        <ele>5.53143988084048</ele>
        <time>2020-07-13T23:26:52Z</time>
      </trkpt>
      <trkpt lat="31.20071481233294" lon="121.62090133558362">
        <ele>6.24457329697907</ele>
        <time>2020-07-13T23:27:13Z</time>
      </trkpt>
      <trkpt lat="31.201008131447026" lon="121.62094575351553">
        <ele>5.973269801586866</ele>
        <time>2020-07-13T23:27:34Z</time>
      </trkpt>
      <trkpt lat="31.201162631736846" lon="121.62098828594141">
        <ele>5.3077225759625435</ele>
        <time>2020-07-13T23:27:45Z</time>
      </trkpt>
      <trkpt lat="31.201200559512202" lon="121.62101673656824">
        <ele>5.2134370086714625</ele>
        <time>2020-07-13T23:27:48Z</time>
      </trkpt>
      <trkpt lat="31.201334186213934" lon="121.62105574776648">
        <ele>5.89017768856138</ele>
        <time>2020-07-13T23:27:58Z</time>
      </trkpt>
      <trkpt lat="31.20167688111958" lon="121.62107333359917">
        <ele>3.1160181602463126</ele>
        <time>2020-07-13T23:28:16Z</time>
      </trkpt>
      <trkpt lat="31.201840613249022" lon="121.62110367063231">
        <ele>3.7715239683166146</ele>
        <time>2020-07-13T23:28:22Z</time>
      </trkpt>
      <trkpt lat="31.20196967129787" lon="121.62110555686154">
        <ele>3.0535803604871035</ele>
        <time>2020-07-13T23:28:26Z</time>
      </trkpt>
      <trkpt lat="31.202264883302824" lon="121.62115458106256">
        <ele>2.6986791472882032</ele>
        <time>2020-07-13T23:28:36Z</time>
      </trkpt>
      <trkpt lat="31.202456566109174" lon="121.62116323677022">
        <ele>2.4445637026801705</ele>
        <time>2020-07-13T23:28:44Z</time>
      </trkpt>
      <trkpt lat="31.202412978404205" lon="121.62085539781647">
        <ele>4.509943748824298</ele>
        <time>2020-07-13T23:28:55Z</time>
      </trkpt>
      <trkpt lat="31.202417646252503" lon="121.62080147041252">
        <ele>4.380252539180219</ele>
        <time>2020-07-13T23:28:59Z</time>
      </trkpt>
      <trkpt lat="31.20243858297374" lon="121.62074672857842">
        <ele>5.28954812604934</ele>
        <time>2020-07-13T23:29:34Z</time>
      </trkpt>
      <trkpt lat="31.20243232837662" lon="121.62076380151619">
        <ele>3.346647910773754</ele>
        <time>2020-07-13T23:29:52Z</time>
      </trkpt>
      <trkpt lat="31.202440183357123" lon="121.6207711176142">
        <ele>4.245693529956043</ele>
        <time>2020-07-13T23:29:59Z</time>
      </trkpt>
      <trkpt lat="31.202440183357123" lon="121.6207711176142">
        <ele>4.245693529956043</ele>
        <time>2020-07-13T23:30:03Z</time>
      </trkpt>
      <trkpt lat="31.202452101538935" lon="121.62078195625087">
        <ele>4.404740252532065</ele>
        <time>2020-07-13T23:30:20Z</time>
      </trkpt>
      <trkpt lat="31.202452101538935" lon="121.62078195625087">
        <ele>4.404740252532065</ele>
        <time>2020-07-13T23:30:23Z</time>
      </trkpt>
      <trkpt lat="31.202463800274984" lon="121.62074510054609">
        <ele>4.8157023675739765</ele>
        <time>2020-07-13T23:30:38Z</time>
      </trkpt>
      <trkpt lat="31.202421402790716" lon="121.62058711588182">
        <ele>4.68156776484102</ele>
        <time>2020-07-13T23:30:45Z</time>
      </trkpt>
      <trkpt lat="31.20242048402581" lon="121.62043292074613">
        <ele>4.643542720004916</ele>
        <time>2020-07-13T23:30:52Z</time>
      </trkpt>
      <trkpt lat="31.20244033523675" lon="121.62037844922324">
        <ele>4.845024625770748</ele>
        <time>2020-07-13T23:30:56Z</time>
      </trkpt>
      <trkpt lat="31.20248920530587" lon="121.62031692930655">
        <ele>4.3413639180362225</ele>
        <time>2020-07-13T23:31:03Z</time>
      </trkpt>
      <trkpt lat="31.20251304402745" lon="121.62033670998707">
        <ele>4.6293248338624835</ele>
        <time>2020-07-13T23:31:10Z</time>
      </trkpt>
      <trkpt lat="31.202485103226607" lon="121.62034972006312">
        <ele>4.515620792284608</ele>
        <time>2020-07-13T23:31:19Z</time>
      </trkpt>
      <trkpt lat="31.202470421918573" lon="121.62038711856275">
        <ele>6.348470330238342</ele>
        <time>2020-07-13T23:31:30Z</time>
      </trkpt>
      <trkpt lat="31.202494774391454" lon="121.62043345658645">
        <ele>6.987632302567363</ele>
        <time>2020-07-13T23:31:54Z</time>
      </trkpt>
      <trkpt lat="31.202417859466866" lon="121.62035189358785">
        <ele>5.2999449064955115</ele>
        <time>2020-07-13T23:32:05Z</time>
      </trkpt>
      <trkpt lat="31.202388030286826" lon="121.62035596098087">
        <ele>5.369343430735171</ele>
        <time>2020-07-13T23:32:19Z</time>
      </trkpt>
      <trkpt lat="31.202431394749688" lon="121.62037194608921">
        <ele>5.226468559354544</ele>
        <time>2020-07-13T23:32:34Z</time>
      </trkpt>
      <trkpt lat="31.202426228680796" lon="121.6203854962522">
        <ele>5.027466827072203</ele>
        <time>2020-07-13T23:32:41Z</time>
      </trkpt>
      <trkpt lat="31.202427858972058" lon="121.6203822441814">
        <ele>5.4622657326981425</ele>
        <time>2020-07-13T23:32:44Z</time>
      </trkpt>
      <trkpt lat="31.202427858972058" lon="121.6203822441814">
        <ele>5.471680546179414</ele>
        <time>2020-07-13T23:32:48Z</time>
      </trkpt>
      <trkpt lat="31.20243843294054" lon="121.62038251430103">
        <ele>5.300834819674492</ele>
        <time>2020-07-13T23:32:50Z</time>
      </trkpt>
      <trkpt lat="31.202511130722986" lon="121.62035107288422">
        <ele>5.339133949019015</ele>
        <time>2020-07-13T23:32:53Z</time>
      </trkpt>
      <trkpt lat="31.202664066730765" lon="121.62033615549889">
        <ele>5.5943728014826775</ele>
        <time>2020-07-13T23:33:00Z</time>
      </trkpt>
      <trkpt lat="31.202753571657485" lon="121.62030769358532">
        <ele>5.406896062195301</ele>
        <time>2020-07-13T23:33:04Z</time>
      </trkpt>
      <trkpt lat="31.202817897149096" lon="121.620245359234">
        <ele>5.265128941275179</ele>
        <time>2020-07-13T23:33:08Z</time>
      </trkpt>
      <trkpt lat="31.20277237132027" lon="121.6202220573264">
        <ele>5.505062412470579</ele>
        <time>2020-07-13T23:33:11Z</time>
      </trkpt>
      <trkpt lat="31.202722838978314" lon="121.6201418463836">
        <ele>4.921971826814115</ele>
        <time>2020-07-13T23:33:15Z</time>
      </trkpt>
      <trkpt lat="31.202713418583198" lon="121.6200765367598">
        <ele>2.264630801975727</ele>
        <time>2020-07-13T23:33:18Z</time>
      </trkpt>
      <trkpt lat="31.202796868391292" lon="121.61987653265491">
        <ele>4.881958093494177</ele>
        <time>2020-07-13T23:33:22Z</time>
      </trkpt>
      <trkpt lat="31.202684608545553" lon="121.61988602694147">
        <ele>5.617418638430536</ele>
        <time>2020-07-13T23:33:26Z</time>
      </trkpt>
      <trkpt lat="31.20260190834387" lon="121.61963156365366">
        <ele>4.679165837354958</ele>
        <time>2020-07-13T23:33:38Z</time>
      </trkpt>
      <trkpt lat="31.20269741896814" lon="121.6193022855435">
        <ele>5.621587812900543</ele>
        <time>2020-07-13T23:33:42Z</time>
      </trkpt>
      <trkpt lat="31.20267962225145" lon="121.61920716372273">
        <ele>5.355328091420233</ele>
        <time>2020-07-13T23:33:45Z</time>
      </trkpt>
      <trkpt lat="31.202570125772148" lon="121.61890174601842">
        <ele>4.488140717148781</ele>
        <time>2020-07-13T23:33:53Z</time>
      </trkpt>
      <trkpt lat="31.20255328764153" lon="121.61866217318214">
        <ele>3.822454093955457</ele>
        <time>2020-07-13T23:34:01Z</time>
      </trkpt>
      <trkpt lat="31.2026322434941" lon="121.61860715098057">
        <ele>5.198570627719164</ele>
        <time>2020-07-13T23:34:05Z</time>
      </trkpt>
      <trkpt lat="31.20275045037137" lon="121.61861500058924">
        <ele>5.191667948849499</ele>
        <time>2020-07-13T23:34:09Z</time>
      </trkpt>
      <trkpt lat="31.202848963357006" lon="121.61852474482922">
        <ele>5.51199009642005</ele>
        <time>2020-07-13T23:34:13Z</time>
      </trkpt>
      <trkpt lat="31.2028837808365" lon="121.61841308379906">
        <ele>5.259056627750397</ele>
        <time>2020-07-13T23:34:16Z</time>
      </trkpt>
      <trkpt lat="31.202803037279754" lon="121.61889522249973">
        <ele>5.633063700981438</ele>
        <time>2020-07-13T23:34:20Z</time>
      </trkpt>
      <trkpt lat="31.202690294035083" lon="121.61884726294886">
        <ele>4.277592990547419</ele>
        <time>2020-07-13T23:34:27Z</time>
      </trkpt>
      <trkpt lat="31.202641570488797" lon="121.61876786067006">
        <ele>6.043308649212122</ele>
        <time>2020-07-13T23:34:31Z</time>
      </trkpt>
      <trkpt lat="31.20260755461764" lon="121.61862260078475">
        <ele>4.808913447894156</ele>
        <time>2020-07-13T23:34:38Z</time>
      </trkpt>
      <trkpt lat="31.202559111417585" lon="121.61853344126709">
        <ele>4.179016807116568</ele>
        <time>2020-07-13T23:34:42Z</time>
      </trkpt>
      <trkpt lat="31.202509255339965" lon="121.61850092366284">
        <ele>5.575344148091972</ele>
        <time>2020-07-13T23:34:45Z</time>
      </trkpt>
      <trkpt lat="31.202435384012716" lon="121.61835295537759">
        <ele>5.989440003409982</ele>
        <time>2020-07-13T23:34:53Z</time>
      </trkpt>
      <trkpt lat="31.202438967296107" lon="121.61829441551929">
        <ele>5.4773161904886365</ele>
        <time>2020-07-13T23:34:56Z</time>
      </trkpt>
      <trkpt lat="31.202394818840148" lon="121.61824780423804">
        <ele>5.10009207110852</ele>
        <time>2020-07-13T23:34:59Z</time>
      </trkpt>
      <trkpt lat="31.202415493379583" lon="121.6181792350552">
        <ele>4.636586143635213</ele>
        <time>2020-07-13T23:35:03Z</time>
      </trkpt>
      <trkpt lat="31.202512093847993" lon="121.61810225781998">
        <ele>4.44754203222692</ele>
        <time>2020-07-13T23:35:10Z</time>
      </trkpt>
      <trkpt lat="31.20256315444958" lon="121.61801417230558">
        <ele>3.4301089346408844</ele>
        <time>2020-07-13T23:35:13Z</time>
      </trkpt>
      <trkpt lat="31.20262720680145" lon="121.61794885114226">
        <ele>4.578993341885507</ele>
        <time>2020-07-13T23:35:16Z</time>
      </trkpt>
      <trkpt lat="31.20284173271722" lon="121.61761303669265">
        <ele>5.91845552995801</ele>
        <time>2020-07-13T23:35:30Z</time>
      </trkpt>
      <trkpt lat="31.202901941840956" lon="121.61759541513368">
        <ele>5.675121118314564</ele>
        <time>2020-07-13T23:35:33Z</time>
      </trkpt>
      <trkpt lat="31.20294295704701" lon="121.61751952480009">
        <ele>6.25731036812067</ele>
        <time>2020-07-13T23:35:36Z</time>
      </trkpt>
      <trkpt lat="31.20308327877711" lon="121.61736990683067">
        <ele>5.468954239040613</ele>
        <time>2020-07-13T23:35:44Z</time>
      </trkpt>
      <trkpt lat="31.20314763422474" lon="121.61726989240381">
        <ele>6.737986529245973</ele>
        <time>2020-07-13T23:35:47Z</time>
      </trkpt>
      <trkpt lat="31.20323388123555" lon="121.61724278246174">
        <ele>6.33486558124423</ele>
        <time>2020-07-13T23:35:51Z</time>
      </trkpt>
      <trkpt lat="31.20337306691395" lon="121.61714547162477">
        <ele>6.323666803538799</ele>
        <time>2020-07-13T23:35:55Z</time>
      </trkpt>
      <trkpt lat="31.20353322317941" lon="121.61695004548696">
        <ele>5.953301765955985</ele>
        <time>2020-07-13T23:35:59Z</time>
      </trkpt>
      <trkpt lat="31.20366628863949" lon="121.61672914287203">
        <ele>6.12571391556412</ele>
        <time>2020-07-13T23:36:03Z</time>
      </trkpt>
      <trkpt lat="31.203844786868302" lon="121.61634208869712">
        <ele>6.171704784035683</ele>
        <time>2020-07-13T23:36:09Z</time>
      </trkpt>
      <trkpt lat="31.203909444676434" lon="121.6162043955844">
        <ele>7.3144269566982985</ele>
        <time>2020-07-13T23:36:12Z</time>
      </trkpt>
      <trkpt lat="31.203996308705356" lon="121.61609515916764">
        <ele>7.6830715192481875</ele>
        <time>2020-07-13T23:36:16Z</time>
      </trkpt>
      <trkpt lat="31.204103200262427" lon="121.61602522167762">
        <ele>4.766937106847763</ele>
        <time>2020-07-13T23:36:20Z</time>
      </trkpt>
      <trkpt lat="31.204207854477605" lon="121.61602954968754">
        <ele>6.185555370524526</ele>
        <time>2020-07-13T23:36:24Z</time>
      </trkpt>
      <trkpt lat="31.20430946390041" lon="121.61610163824567">
        <ele>5.368204682134092</ele>
        <time>2020-07-13T23:36:27Z</time>
      </trkpt>
      <trkpt lat="31.204454889946657" lon="121.61628945677558">
        <ele>3.97534216940403</ele>
        <time>2020-07-13T23:36:34Z</time>
      </trkpt>
      <trkpt lat="31.204540221518222" lon="121.61637130327483">
        <ele>5.40153781324625</ele>
        <time>2020-07-13T23:36:38Z</time>
      </trkpt>
      <trkpt lat="31.204613971082" lon="121.61637048406094">
        <ele>7.614785126410425</ele>
        <time>2020-07-13T23:36:42Z</time>
      </trkpt>
      <trkpt lat="31.204556282982413" lon="121.61630191616678">
        <ele>6.8435900174081326</ele>
        <time>2020-07-13T23:36:46Z</time>
      </trkpt>
      <trkpt lat="31.204460710416473" lon="121.61615258135458">
        <ele>6.584983072243631</ele>
        <time>2020-07-13T23:36:53Z</time>
      </trkpt>
      <trkpt lat="31.204389447806385" lon="121.61610271579303">
        <ele>7.278409242630005</ele>
        <time>2020-07-13T23:36:56Z</time>
      </trkpt>
      <trkpt lat="31.204178483191935" lon="121.6158300646704">
        <ele>8.407061172649264</ele>
        <time>2020-07-13T23:37:18Z</time>
      </trkpt>
      <trkpt lat="31.204107495834116" lon="121.61577504858013">
        <ele>6.793976885266602</ele>
        <time>2020-07-13T23:37:24Z</time>
      </trkpt>
      <trkpt lat="31.204001071867612" lon="121.61562923502748">
        <ele>7.636890923604369</ele>
        <time>2020-07-13T23:37:35Z</time>
      </trkpt>
      <trkpt lat="31.20378735055049" lon="121.61540211501719">
        <ele>7.253967497497797</ele>
        <time>2020-07-13T23:37:56Z</time>
      </trkpt>
      <trkpt lat="31.203702815046405" lon="121.61533652815024">
        <ele>6.603329095989466</ele>
        <time>2020-07-13T23:38:03Z</time>
      </trkpt>
      <trkpt lat="31.203599288584932" lon="121.61528368202711">
        <ele>7.010306203737855</ele>
        <time>2020-07-13T23:38:10Z</time>
      </trkpt>
      <trkpt lat="31.20356652250228" lon="121.6152373351483">
        <ele>6.799124451354146</ele>
        <time>2020-07-13T23:38:14Z</time>
      </trkpt>
      <trkpt lat="31.20358446173188" lon="121.61518746032334">
        <ele>6.936409913003445</ele>
        <time>2020-07-13T23:38:17Z</time>
      </trkpt>
      <trkpt lat="31.203833848684" lon="121.6149453898931">
        <ele>5.760797421447933</ele>
        <time>2020-07-13T23:38:32Z</time>
      </trkpt>
      <trkpt lat="31.204068643810537" lon="121.61464395677615">
        <ele>6.29068583343178</ele>
        <time>2020-07-13T23:38:44Z</time>
      </trkpt>
      <trkpt lat="31.204132447653773" lon="121.61454338906945">
        <ele>6.084409351460636</ele>
        <time>2020-07-13T23:38:48Z</time>
      </trkpt>
      <trkpt lat="31.204384293992995" lon="121.61427230836641">
        <ele>7.567917177453637</ele>
        <time>2020-07-13T23:38:59Z</time>
      </trkpt>
      <trkpt lat="31.20449063334722" lon="121.61420860005359">
        <ele>7.205239290371537</ele>
        <time>2020-07-13T23:39:03Z</time>
      </trkpt>
      <trkpt lat="31.204774189888642" lon="121.61394862658304">
        <ele>7.5502100847661495</ele>
        <time>2020-07-13T23:39:15Z</time>
      </trkpt>
      <trkpt lat="31.20488462306181" lon="121.61385211807246">
        <ele>7.088441355153918</ele>
        <time>2020-07-13T23:39:19Z</time>
      </trkpt>
      <trkpt lat="31.205023317008035" lon="121.6136799789252">
        <ele>8.245203063823283</ele>
        <time>2020-07-13T23:39:26Z</time>
      </trkpt>
      <trkpt lat="31.205298428786584" lon="121.61346201633704">
        <ele>7.170098274946213</ele>
        <time>2020-07-13T23:39:39Z</time>
      </trkpt>
      <trkpt lat="31.20536683092059" lon="121.61336957538875">
        <ele>7.364472956396639</ele>
        <time>2020-07-13T23:39:43Z</time>
      </trkpt>
      <trkpt lat="31.205420808221675" lon="121.6133435480209">
        <ele>7.860995096154511</ele>
        <time>2020-07-13T23:39:46Z</time>
      </trkpt>
      <trkpt lat="31.20567886547249" lon="121.6130889886274">
        <ele>7.12570995464921</ele>
        <time>2020-07-13T23:40:06Z</time>
      </trkpt>
      <trkpt lat="31.20589108931448" lon="121.61284581552941">
        <ele>6.024178866297007</ele>
        <time>2020-07-13T23:40:16Z</time>
      </trkpt>
      <trkpt lat="31.20597500943167" lon="121.61267123381415">
        <ele>9.048966116271913</ele>
        <time>2020-07-13T23:40:24Z</time>
      </trkpt>
      <trkpt lat="31.206141372637237" lon="121.61247251767287">
        <ele>7.678531038574874</ele>
        <time>2020-07-13T23:40:34Z</time>
      </trkpt>
      <trkpt lat="31.206225470056005" lon="121.61241477014424">
        <ele>7.025461222045124</ele>
        <time>2020-07-13T23:40:38Z</time>
      </trkpt>
      <trkpt lat="31.20629931754666" lon="121.61228871017153">
        <ele>7.147864216938615</ele>
        <time>2020-07-13T23:40:42Z</time>
      </trkpt>
      <trkpt lat="31.206504173756034" lon="121.61209703582588">
        <ele>8.88667808007449</ele>
        <time>2020-07-13T23:40:52Z</time>
      </trkpt>
      <trkpt lat="31.206579076588636" lon="121.61200702871848">
        <ele>8.301812558434904</ele>
        <time>2020-07-13T23:40:56Z</time>
      </trkpt>
      <trkpt lat="31.206821066696445" lon="121.61182809018881">
        <ele>8.386506961658597</ele>
        <time>2020-07-13T23:41:10Z</time>
      </trkpt>
      <trkpt lat="31.2068240991084" lon="121.6117624861328">
        <ele>8.31160571333021</ele>
        <time>2020-07-13T23:41:29Z</time>
      </trkpt>
      <trkpt lat="31.206831968224247" lon="121.61175435276601">
        <ele>6.9548810087144375</ele>
        <time>2020-07-13T23:41:46Z</time>
      </trkpt>
      <trkpt lat="31.206781841407114" lon="121.61171044019389">
        <ele>6.9213163536041975</ele>
        <time>2020-07-13T23:41:51Z</time>
      </trkpt>
      <trkpt lat="31.206668850105014" lon="121.61161475417802">
        <ele>7.863030438311398</ele>
        <time>2020-07-13T23:41:58Z</time>
      </trkpt>
      <trkpt lat="31.20657405788301" lon="121.61147460690528">
        <ele>5.793970490805805</ele>
        <time>2020-07-13T23:42:05Z</time>
      </trkpt>
      <trkpt lat="31.206427468113095" lon="121.6113477467371">
        <ele>5.399033288471401</ele>
        <time>2020-07-13T23:42:12Z</time>
      </trkpt>
      <trkpt lat="31.20633612397633" lon="121.61130925871265">
        <ele>5.547503882087767</ele>
        <time>2020-07-13T23:42:16Z</time>
      </trkpt>
      <trkpt lat="31.20619525264868" lon="121.61114796776796">
        <ele>7.233879811130464</ele>
        <time>2020-07-13T23:42:23Z</time>
      </trkpt>
      <trkpt lat="31.20611530469324" lon="121.6110975501411">
        <ele>5.275601048953831</ele>
        <time>2020-07-13T23:42:27Z</time>
      </trkpt>
      <trkpt lat="31.205965513388573" lon="121.61089667776778">
        <ele>6.8651860151439905</ele>
        <time>2020-07-13T23:42:34Z</time>
      </trkpt>
      <trkpt lat="31.20589775309453" lon="121.61086415125894">
        <ele>6.173594960942864</ele>
        <time>2020-07-13T23:42:37Z</time>
      </trkpt>
      <trkpt lat="31.205824613748078" lon="121.61077116943275">
        <ele>6.304022959433496</ele>
        <time>2020-07-13T23:42:41Z</time>
      </trkpt>
      <trkpt lat="31.20573826122764" lon="121.61057652434305">
        <ele>6.131483881734312</ele>
        <time>2020-07-13T23:42:47Z</time>
      </trkpt>
      <trkpt lat="31.205644842008255" lon="121.61040410892261">
        <ele>6.411301760002971</ele>
        <time>2020-07-13T23:42:54Z</time>
      </trkpt>
    </trkseg>
  </trk>
</gpx>