<?xml version="1.0" encoding="UTF-8"?>
<gpx xmlns="http://www.topografix.com/GPX/1/1" xmlns:gpxtpx="http://www.garmin.com/xmlschemas/TrackPointExtension/v1" xmlns:xsi="http://www.w3.org/2001/XMLSchema-instance" xsi:schemaLocation="http://www.topografix.com/GPX/1/1 http://www.topografix.com/GPX/1/1/gpx.xsd" version="1.1" creator="gpx.py -- https://github.com/tkrajina/gpxpy">
  <trk>
    <name>gpx from keep</name>
    <type>Run</type>
    <trkseg>
      <trkpt lat="31.204819177068433" lon="121.61086288492152">
        <ele>8.575158890453174</ele>
        <time>2020-05-28T23:05:32Z</time>
      </trkpt>
      <trkpt lat="31.20473732678278" lon="121.61081788885518">
        <ele>8.664886309814957</ele>
        <time>2020-05-28T23:05:36Z</time>
      </trkpt>
      <trkpt lat="31.204757164305708" lon="121.61075607595045">
        <ele>8.67579761147499</ele>
        <time>2020-05-28T23:05:40Z</time>
      </trkpt>
      <trkpt lat="31.204828767284578" lon="121.61072380882189">
        <ele>8.571967578493059</ele>
        <time>2020-05-28T23:05:44Z</time>
      </trkpt>
      <trkpt lat="31.20500899683026" lon="121.6104499784566">
        <ele>8.02551391813904</ele>
        <time>2020-05-28T23:05:55Z</time>
      </trkpt>
      <trkpt lat="31.205110745856285" lon="121.61034640729594">
        <ele>5.769797240383923</ele>
        <time>2020-05-28T23:05:59Z</time>
      </trkpt>
      <trkpt lat="31.205159875363275" lon="121.61026967974094">
        <ele>5.797165638767183</ele>
        <time>2020-05-28T23:06:02Z</time>
      </trkpt>
      <trkpt lat="31.205238283861846" lon="121.61019782946953">
        <ele>7.457557122223079</ele>
        <time>2020-05-28T23:06:06Z</time>
      </trkpt>
      <trkpt lat="31.205350299927723" lon="121.61014468276943">
        <ele>7.664819935336709</ele>
        <time>2020-05-28T23:06:14Z</time>
      </trkpt>
      <trkpt lat="31.20544999185555" lon="121.61026748689193">
        <ele>5.723182127811015</ele>
        <time>2020-05-28T23:06:22Z</time>
      </trkpt>
      <trkpt lat="31.20563752460811" lon="121.61039950071483">
        <ele>6.01906843483448</ele>
        <time>2020-05-28T23:06:29Z</time>
      </trkpt>
      <trkpt lat="31.205686559817156" lon="121.61045642898746">
        <ele>5.925688859075308</ele>
        <time>2020-05-28T23:06:32Z</time>
      </trkpt>
      <trkpt lat="31.2057982181531" lon="121.61052609388551">
        <ele>6.7251557763665915</ele>
        <time>2020-05-28T23:06:36Z</time>
      </trkpt>
      <trkpt lat="31.205838571133178" lon="121.6105908845865">
        <ele>5.687595546245575</ele>
        <time>2020-05-28T23:06:39Z</time>
      </trkpt>
      <trkpt lat="31.20598947007397" lon="121.61076302273543">
        <ele>6.105782954022288</ele>
        <time>2020-05-28T23:06:47Z</time>
      </trkpt>
      <trkpt lat="31.206137102022733" lon="121.61095196806369">
        <ele>7.534514817409217</ele>
        <time>2020-05-28T23:06:55Z</time>
      </trkpt>
      <trkpt lat="31.206217048875267" lon="121.61100428370818">
        <ele>7.051545981317759</ele>
        <time>2020-05-28T23:06:58Z</time>
      </trkpt>
      <trkpt lat="31.20638680662209" lon="121.611335821899">
        <ele>6.436303647235036</ele>
        <time>2020-05-28T23:07:13Z</time>
      </trkpt>
      <trkpt lat="31.20643851373027" lon="121.61144290010579">
        <ele>5.5476003075018525</ele>
        <time>2020-05-28T23:07:17Z</time>
      </trkpt>
      <trkpt lat="31.206518451895686" lon="121.61150551618475">
        <ele>7.792293474078178</ele>
        <time>2020-05-28T23:07:24Z</time>
      </trkpt>
      <trkpt lat="31.206498874726567" lon="121.61157925512224">
        <ele>7.786830289289355</ele>
        <time>2020-05-28T23:07:27Z</time>
      </trkpt>
      <trkpt lat="31.206389196285805" lon="121.61176387754419">
        <ele>7.981234726496041</ele>
        <time>2020-05-28T23:07:35Z</time>
      </trkpt>
      <trkpt lat="31.206159595812423" lon="121.61205097955542">
        <ele>8.056373173370957</ele>
        <time>2020-05-28T23:07:47Z</time>
      </trkpt>
      <trkpt lat="31.205948219451198" lon="121.61225973316178">
        <ele>6.925567298196256</ele>
        <time>2020-05-28T23:07:57Z</time>
      </trkpt>
      <trkpt lat="31.20568394272736" lon="121.61250318776176">
        <ele>8.292625134810805</ele>
        <time>2020-05-28T23:08:11Z</time>
      </trkpt>
      <trkpt lat="31.205589276648286" lon="121.61255361675285">
        <ele>7.662521432153881</ele>
        <time>2020-05-28T23:08:19Z</time>
      </trkpt>
      <trkpt lat="31.205552883578303" lon="121.61263060670417">
        <ele>7.254935494624078</ele>
        <time>2020-05-28T23:08:41Z</time>
      </trkpt>
      <trkpt lat="31.205546367513957" lon="121.612641721534">
        <ele>7.573873518966138</ele>
        <time>2020-05-28T23:08:45Z</time>
      </trkpt>
      <trkpt lat="31.2053677483437" lon="121.61290739339054">
        <ele>8.241359499283135</ele>
        <time>2020-05-28T23:09:18Z</time>
      </trkpt>
      <trkpt lat="31.205197328577512" lon="121.6130892995208">
        <ele>8.184753793291748</ele>
        <time>2020-05-28T23:09:29Z</time>
      </trkpt>
      <trkpt lat="31.20514927822796" lon="121.61316249363237">
        <ele>8.42510739248246</ele>
        <time>2020-05-28T23:09:33Z</time>
      </trkpt>
      <trkpt lat="31.20498027008889" lon="121.61327391882406">
        <ele>8.599110730923712</ele>
        <time>2020-05-28T23:09:40Z</time>
      </trkpt>
      <trkpt lat="31.204777012796324" lon="121.61348943757946">
        <ele>8.91647866833955</ele>
        <time>2020-05-28T23:09:50Z</time>
      </trkpt>
      <trkpt lat="31.20456071875324" lon="121.61372962260725">
        <ele>6.8674505008384585</ele>
        <time>2020-05-28T23:10:00Z</time>
      </trkpt>
      <trkpt lat="31.20433819927948" lon="121.61395462606916">
        <ele>7.8687215354293585</ele>
        <time>2020-05-28T23:10:10Z</time>
      </trkpt>
      <trkpt lat="31.204118669444934" lon="121.6141690557074">
        <ele>7.928184578195214</ele>
        <time>2020-05-28T23:10:20Z</time>
      </trkpt>
      <trkpt lat="31.203918102752635" lon="121.61440055862515">
        <ele>8.39170625898987</ele>
        <time>2020-05-28T23:10:30Z</time>
      </trkpt>
      <trkpt lat="31.203750435277897" lon="121.61452363339468">
        <ele>7.651754260994494</ele>
        <time>2020-05-28T23:10:37Z</time>
      </trkpt>
      <trkpt lat="31.203666818210348" lon="121.61464778480729">
        <ele>7.689192968420684</ele>
        <time>2020-05-28T23:10:41Z</time>
      </trkpt>
      <trkpt lat="31.203611191950298" lon="121.61469793492773">
        <ele>7.272655245848</ele>
        <time>2020-05-28T23:10:45Z</time>
      </trkpt>
      <trkpt lat="31.203563467693993" lon="121.614703088949">
        <ele>6.038971524685621</ele>
        <time>2020-05-28T23:10:48Z</time>
      </trkpt>
      <trkpt lat="31.203501892425546" lon="121.61473480763343">
        <ele>6.603582322597504</ele>
        <time>2020-05-28T23:10:55Z</time>
      </trkpt>
      <trkpt lat="31.203456555418466" lon="121.61480067793997">
        <ele>7.9325229562819</ele>
        <time>2020-05-28T23:10:59Z</time>
      </trkpt>
      <trkpt lat="31.203369994327407" lon="121.61487956209533">
        <ele>5.5871941316872835</ele>
        <time>2020-05-28T23:11:03Z</time>
      </trkpt>
      <trkpt lat="31.20331976320214" lon="121.61496061141558">
        <ele>7.531477518379688</ele>
        <time>2020-05-28T23:11:07Z</time>
      </trkpt>
      <trkpt lat="31.20330365847143" lon="121.61508285761393">
        <ele>4.958776382729411</ele>
        <time>2020-05-28T23:11:21Z</time>
      </trkpt>
      <trkpt lat="31.203304741574215" lon="121.61508448383766">
        <ele>5.154273125343025</ele>
        <time>2020-05-28T23:12:05Z</time>
      </trkpt>
      <trkpt lat="31.203304741334648" lon="121.61508475488989">
        <ele>5.512909344397485</ele>
        <time>2020-05-28T23:12:06Z</time>
      </trkpt>
      <trkpt lat="31.20345041101539" lon="121.61531107037094">
        <ele>5.005543948151171</ele>
        <time>2020-05-28T23:12:32Z</time>
      </trkpt>
      <trkpt lat="31.203374126583483" lon="121.61541787000881">
        <ele>5.778012092225254</ele>
        <time>2020-05-28T23:12:38Z</time>
      </trkpt>
      <trkpt lat="31.20329624418178" lon="121.6154921436134">
        <ele>6.063451248221099</ele>
        <time>2020-05-28T23:12:42Z</time>
      </trkpt>
      <trkpt lat="31.203095390351944" lon="121.61572905468924">
        <ele>6.973847704008222</ele>
        <time>2020-05-28T23:12:53Z</time>
      </trkpt>
      <trkpt lat="31.20284302012409" lon="121.61596461249981">
        <ele>5.827175177633762</ele>
        <time>2020-05-28T23:13:05Z</time>
      </trkpt>
      <trkpt lat="31.202678010431086" lon="121.61613836366939">
        <ele>5.760066129267216</ele>
        <time>2020-05-28T23:13:13Z</time>
      </trkpt>
      <trkpt lat="31.202626969491924" lon="121.61621154869165">
        <ele>5.4432702995836735</ele>
        <time>2020-05-28T23:13:17Z</time>
      </trkpt>
      <trkpt lat="31.2023675424673" lon="121.61645062590348">
        <ele>5.369852919131517</ele>
        <time>2020-05-28T23:13:29Z</time>
      </trkpt>
      <trkpt lat="31.202124333999475" lon="121.6167401117697">
        <ele>4.541232232935727</ele>
        <time>2020-05-28T23:13:43Z</time>
      </trkpt>
      <trkpt lat="31.201978572192218" lon="121.61691168759127">
        <ele>4.753729207441211</ele>
        <time>2020-05-28T23:13:51Z</time>
      </trkpt>
      <trkpt lat="31.20195194273596" lon="121.61697294291821">
        <ele>5.08790831360966</ele>
        <time>2020-05-28T23:13:54Z</time>
      </trkpt>
      <trkpt lat="31.201820333269136" lon="121.61708732870036">
        <ele>5.4492124347016215</ele>
        <time>2020-05-28T23:14:01Z</time>
      </trkpt>
      <trkpt lat="31.201746303130097" lon="121.6170981760188">
        <ele>4.222121853381395</ele>
        <time>2020-05-28T23:14:04Z</time>
      </trkpt>
      <trkpt lat="31.201569080776178" lon="121.61727679868007">
        <ele>4.981997098773718</ele>
        <time>2020-05-28T23:14:12Z</time>
      </trkpt>
      <trkpt lat="31.201497402134105" lon="121.61737952395418">
        <ele>6.990802091546357</ele>
        <time>2020-05-28T23:14:16Z</time>
      </trkpt>
      <trkpt lat="31.20133783814596" lon="121.61752074168042">
        <ele>5.903956291265786</ele>
        <time>2020-05-28T23:14:24Z</time>
      </trkpt>
      <trkpt lat="31.20121919122604" lon="121.61768607631426">
        <ele>6.549758764915168</ele>
        <time>2020-05-28T23:14:31Z</time>
      </trkpt>
      <trkpt lat="31.200996061795987" lon="121.61794763097778">
        <ele>6.224568833597004</ele>
        <time>2020-05-28T23:14:42Z</time>
      </trkpt>
      <trkpt lat="31.200790285847077" lon="121.61820592926036">
        <ele>6.3310811668634415</ele>
        <time>2020-05-28T23:14:53Z</time>
      </trkpt>
      <trkpt lat="31.200536743247483" lon="121.61850867525848">
        <ele>6.130233708769083</ele>
        <time>2020-05-28T23:15:07Z</time>
      </trkpt>
      <trkpt lat="31.200309524257996" lon="121.61878512734266">
        <ele>4.415037835016847</ele>
        <time>2020-05-28T23:15:19Z</time>
      </trkpt>
      <trkpt lat="31.20009480816926" lon="121.61902905432612">
        <ele>5.373029321432114</ele>
        <time>2020-05-28T23:15:30Z</time>
      </trkpt>
      <trkpt lat="31.19996395943259" lon="121.6191867918684">
        <ele>5.258151285350323</ele>
        <time>2020-05-28T23:15:37Z</time>
      </trkpt>
      <trkpt lat="31.19990475348127" lon="121.61928246215227">
        <ele>6.037958695553243</ele>
        <time>2020-05-28T23:15:41Z</time>
      </trkpt>
      <trkpt lat="31.199815491174956" lon="121.61933965179223">
        <ele>6.140186032280326</ele>
        <time>2020-05-28T23:15:45Z</time>
      </trkpt>
      <trkpt lat="31.199540540231837" lon="121.6196204348488">
        <ele>6.624643689021468</ele>
        <time>2020-05-28T23:15:59Z</time>
      </trkpt>
      <trkpt lat="31.199321521329825" lon="121.61982424617418">
        <ele>5.5358232306316495</ele>
        <time>2020-05-28T23:16:10Z</time>
      </trkpt>
      <trkpt lat="31.19916111819009" lon="121.61997872928458">
        <ele>5.183520647697151</ele>
        <time>2020-05-28T23:16:20Z</time>
      </trkpt>
      <trkpt lat="31.199065101467266" lon="121.62001207007303">
        <ele>6.390849472023547</ele>
        <time>2020-05-28T23:16:23Z</time>
      </trkpt>
      <trkpt lat="31.19891395855479" lon="121.6201264437169">
        <ele>5.577180868946016</ele>
        <time>2020-05-28T23:16:30Z</time>
      </trkpt>
      <trkpt lat="31.198851776340696" lon="121.62021343886813">
        <ele>4.350143861956894</ele>
        <time>2020-05-28T23:16:34Z</time>
      </trkpt>
      <trkpt lat="31.198767666729253" lon="121.62026791605669">
        <ele>5.8838879922404885</ele>
        <time>2020-05-28T23:16:37Z</time>
      </trkpt>
      <trkpt lat="31.198631894116357" lon="121.62046006265966">
        <ele>5.518624372780323</ele>
        <time>2020-05-28T23:16:45Z</time>
      </trkpt>
      <trkpt lat="31.198458708758793" lon="121.62064760407837">
        <ele>6.770531374029815</ele>
        <time>2020-05-28T23:16:53Z</time>
      </trkpt>
      <trkpt lat="31.19821283862935" lon="121.62085330648821">
        <ele>6.13893963675946</ele>
        <time>2020-05-28T23:17:05Z</time>
      </trkpt>
      <trkpt lat="31.197986235999174" lon="121.62104220444877">
        <ele>5.7228340823203325</ele>
        <time>2020-05-28T23:17:17Z</time>
      </trkpt>
      <trkpt lat="31.197925455783235" lon="121.62108448354869">
        <ele>6.061602251604199</ele>
        <time>2020-05-28T23:17:20Z</time>
      </trkpt>
      <trkpt lat="31.197697996558606" lon="121.62131131785925">
        <ele>5.028301609680057</ele>
        <time>2020-05-28T23:17:32Z</time>
      </trkpt>
      <trkpt lat="31.197435279554984" lon="121.62154601163896">
        <ele>5.046623161062598</ele>
        <time>2020-05-28T23:17:45Z</time>
      </trkpt>
      <trkpt lat="31.19718369088435" lon="121.6217685083059">
        <ele>5.434538928791881</ele>
        <time>2020-05-28T23:17:58Z</time>
      </trkpt>
      <trkpt lat="31.196922094577168" lon="121.62196797078963">
        <ele>5.0415594801306725</ele>
        <time>2020-05-28T23:18:11Z</time>
      </trkpt>
      <trkpt lat="31.196703604186105" lon="121.62217013798085">
        <ele>5.641188370063901</ele>
        <time>2020-05-28T23:18:24Z</time>
      </trkpt>
      <trkpt lat="31.19666208182765" lon="121.62220455538973">
        <ele>5.891427282243967</ele>
        <time>2020-05-28T23:18:28Z</time>
      </trkpt>
      <trkpt lat="31.196641148695555" lon="121.62225387470654">
        <ele>6.234726600348949</ele>
        <time>2020-05-28T23:18:32Z</time>
      </trkpt>
      <trkpt lat="31.196679280672182" lon="121.6225779562826">
        <ele>6.118109495379031</ele>
        <time>2020-05-28T23:18:52Z</time>
      </trkpt>
      <trkpt lat="31.196730119014635" lon="121.62293102658069">
        <ele>4.718434897251427</ele>
        <time>2020-05-28T23:19:17Z</time>
      </trkpt>
      <trkpt lat="31.19675838655981" lon="121.6231049855848">
        <ele>4.679384368471801</ele>
        <time>2020-05-28T23:19:27Z</time>
      </trkpt>
      <trkpt lat="31.196753897775245" lon="121.62323450785526">
        <ele>3.7016149228438735</ele>
        <time>2020-05-28T23:19:34Z</time>
      </trkpt>
      <trkpt lat="31.19677145162388" lon="121.62329438975028">
        <ele>4.891918741166592</ele>
        <time>2020-05-28T23:19:37Z</time>
      </trkpt>
      <trkpt lat="31.196820190470905" lon="121.62335020446518">
        <ele>6.2206414537504315</ele>
        <time>2020-05-28T23:19:41Z</time>
      </trkpt>
      <trkpt lat="31.196811417163268" lon="121.62343312021072">
        <ele>6.022264241240919</ele>
        <time>2020-05-28T23:19:45Z</time>
      </trkpt>
      <trkpt lat="31.19684793153434" lon="121.62350871595775">
        <ele>3.525269391015172</ele>
        <time>2020-05-28T23:19:52Z</time>
      </trkpt>
      <trkpt lat="31.196829421857313" lon="121.62357049697496">
        <ele>3.2594457967206836</ele>
        <time>2020-05-28T23:19:55Z</time>
      </trkpt>
      <trkpt lat="31.196850829932757" lon="121.62381002487672">
        <ele>4.401525393128395</ele>
        <time>2020-05-28T23:20:12Z</time>
      </trkpt>
      <trkpt lat="31.196918868896823" lon="121.62405144354277">
        <ele>5.514556235549865</ele>
        <time>2020-05-28T23:20:23Z</time>
      </trkpt>
      <trkpt lat="31.196969603798557" lon="121.624023801651">
        <ele>5.683372640013424</ele>
        <time>2020-05-28T23:20:30Z</time>
      </trkpt>
      <trkpt lat="31.196956659974006" lon="121.62396446287954">
        <ele>5.771136464814248</ele>
        <time>2020-05-28T23:20:34Z</time>
      </trkpt>
      <trkpt lat="31.196969593188463" lon="121.62380432488499">
        <ele>6.052633640356362</ele>
        <time>2020-05-28T23:20:44Z</time>
      </trkpt>
      <trkpt lat="31.196924544797426" lon="121.6236086947655">
        <ele>7.363303028978407</ele>
        <time>2020-05-28T23:20:55Z</time>
      </trkpt>
      <trkpt lat="31.196954757221185" lon="121.6235095200039">
        <ele>6.469645308330655</ele>
        <time>2020-05-28T23:21:02Z</time>
      </trkpt>
      <trkpt lat="31.19693099279502" lon="121.62342823296561">
        <ele>6.289207932539284</ele>
        <time>2020-05-28T23:21:09Z</time>
      </trkpt>
      <trkpt lat="31.196891468189094" lon="121.62337621114727">
        <ele>5.661142603494227</ele>
        <time>2020-05-28T23:21:13Z</time>
      </trkpt>
      <trkpt lat="31.19686016572001" lon="121.62324858927043">
        <ele>5.288511218503118</ele>
        <time>2020-05-28T23:21:21Z</time>
      </trkpt>
      <trkpt lat="31.196860308872413" lon="121.62312557062963">
        <ele>5.509394218213856</ele>
        <time>2020-05-28T23:21:29Z</time>
      </trkpt>
      <trkpt lat="31.1968351686115" lon="121.62306081157931">
        <ele>5.306464995257556</ele>
        <time>2020-05-28T23:21:33Z</time>
      </trkpt>
      <trkpt lat="31.196830096491666" lon="121.62299225716096">
        <ele>5.498501376248896</ele>
        <time>2020-05-28T23:21:37Z</time>
      </trkpt>
      <trkpt lat="31.19679304328745" lon="121.6229125954952">
        <ele>4.8331529619172215</ele>
        <time>2020-05-28T23:21:41Z</time>
      </trkpt>
      <trkpt lat="31.196785541877382" lon="121.62283428599797">
        <ele>4.2514298455789685</ele>
        <time>2020-05-28T23:21:45Z</time>
      </trkpt>
      <trkpt lat="31.196882408939874" lon="121.62277141294697">
        <ele>5.123640330508351</ele>
        <time>2020-05-28T23:21:53Z</time>
      </trkpt>
      <trkpt lat="31.197033329664638" lon="121.62262290833156">
        <ele>4.667359543964267</ele>
        <time>2020-05-28T23:22:08Z</time>
      </trkpt>
      <trkpt lat="31.19715734219524" lon="121.62253158042554">
        <ele>5.620098867453635</ele>
        <time>2020-05-28T23:22:18Z</time>
      </trkpt>
      <trkpt lat="31.197281574316424" lon="121.62248523377369">
        <ele>5.713134564459324</ele>
        <time>2020-05-28T23:22:25Z</time>
      </trkpt>
      <trkpt lat="31.197332386217223" lon="121.62238876295224">
        <ele>4.808747233822942</ele>
        <time>2020-05-28T23:22:31Z</time>
      </trkpt>
      <trkpt lat="31.197483523133958" lon="121.62228713495438">
        <ele>4.695648297667503</ele>
        <time>2020-05-28T23:22:39Z</time>
      </trkpt>
      <trkpt lat="31.197589437048016" lon="121.62213537967557">
        <ele>5.819159290753305</ele>
        <time>2020-05-28T23:22:45Z</time>
      </trkpt>
      <trkpt lat="31.197874145115602" lon="121.62187873996308">
        <ele>6.817642303183675</ele>
        <time>2020-05-28T23:22:57Z</time>
      </trkpt>
      <trkpt lat="31.197975031495858" lon="121.62185678228269">
        <ele>7.395879998803139</ele>
        <time>2020-05-28T23:23:01Z</time>
      </trkpt>
      <trkpt lat="31.198039371176367" lon="121.62178442533126">
        <ele>5.710043026134372</ele>
        <time>2020-05-28T23:23:05Z</time>
      </trkpt>
      <trkpt lat="31.198217099316427" lon="121.6216630111968">
        <ele>5.270193608477712</ele>
        <time>2020-05-28T23:23:13Z</time>
      </trkpt>
      <trkpt lat="31.19839053603155" lon="121.62149905254198">
        <ele>6.125135388225317</ele>
        <time>2020-05-28T23:23:20Z</time>
      </trkpt>
      <trkpt lat="31.19843317366964" lon="121.62143618084698">
        <ele>6.433409351855516</ele>
        <time>2020-05-28T23:23:23Z</time>
      </trkpt>
      <trkpt lat="31.198514842498227" lon="121.62138414514811">
        <ele>6.492078425362706</ele>
        <time>2020-05-28T23:23:27Z</time>
      </trkpt>
      <trkpt lat="31.198558108395826" lon="121.62124295835407">
        <ele>5.940745418891311</ele>
        <time>2020-05-28T23:23:31Z</time>
      </trkpt>
      <trkpt lat="31.19862707374561" lon="121.62115434014811">
        <ele>3.8725384660065174</ele>
        <time>2020-05-28T23:23:35Z</time>
      </trkpt>
      <trkpt lat="31.19878058044323" lon="121.62111340842294">
        <ele>4.855438222177327</ele>
        <time>2020-05-28T23:23:41Z</time>
      </trkpt>
      <trkpt lat="31.199063011016325" lon="121.62094862437144">
        <ele>5.797298679128289</ele>
        <time>2020-05-28T23:23:52Z</time>
      </trkpt>
      <trkpt lat="31.19912463751846" lon="121.62087599417028">
        <ele>6.015876320190728</ele>
        <time>2020-05-28T23:23:55Z</time>
      </trkpt>
      <trkpt lat="31.199188118832016" lon="121.62084292816999">
        <ele>5.768075632862747</ele>
        <time>2020-05-28T23:23:58Z</time>
      </trkpt>
      <trkpt lat="31.19926492800629" lon="121.620770838401">
        <ele>5.910726401023567</ele>
        <time>2020-05-28T23:24:02Z</time>
      </trkpt>
      <trkpt lat="31.19953121111081" lon="121.6207437172872">
        <ele>5.754222583025694</ele>
        <time>2020-05-28T23:24:13Z</time>
      </trkpt>
      <trkpt lat="31.19965972725572" lon="121.62074506160698">
        <ele>5.950132640078664</ele>
        <time>2020-05-28T23:24:20Z</time>
      </trkpt>
      <trkpt lat="31.199842802393654" lon="121.62069003524418">
        <ele>5.571654979139566</ele>
        <time>2020-05-28T23:24:31Z</time>
      </trkpt>
      <trkpt lat="31.200099270222893" lon="121.62071331927815">
        <ele>3.326334343291819</ele>
        <time>2020-05-28T23:24:42Z</time>
      </trkpt>
      <trkpt lat="31.200200446400395" lon="121.620673475163">
        <ele>3.5768001722171903</ele>
        <time>2020-05-28T23:24:46Z</time>
      </trkpt>
      <trkpt lat="31.200535164739044" lon="121.6207959354039">
        <ele>4.657976542599499</ele>
        <time>2020-05-28T23:24:58Z</time>
      </trkpt>
      <trkpt lat="31.200616735022187" lon="121.62083386727961">
        <ele>4.55491257365793</ele>
        <time>2020-05-28T23:25:01Z</time>
      </trkpt>
      <trkpt lat="31.20087641761859" lon="121.6208929215404">
        <ele>2.937017733231187</ele>
        <time>2020-05-28T23:25:11Z</time>
      </trkpt>
      <trkpt lat="31.200956684926688" lon="121.6208823463099">
        <ele>3.5327665051445365</ele>
        <time>2020-05-28T23:25:15Z</time>
      </trkpt>
      <trkpt lat="31.201029552846013" lon="121.62094412580971">
        <ele>3.217397284694016</ele>
        <time>2020-05-28T23:25:19Z</time>
      </trkpt>
      <trkpt lat="31.20124395347106" lon="121.62100535147444">
        <ele>5.746464271098375</ele>
        <time>2020-05-28T23:25:35Z</time>
      </trkpt>
      <trkpt lat="31.20128923472035" lon="121.62100372179766">
        <ele>5.092290939763188</ele>
        <time>2020-05-28T23:25:38Z</time>
      </trkpt>
      <trkpt lat="31.20154322537115" lon="121.62106087923208">
        <ele>5.444735151715577</ele>
        <time>2020-05-28T23:25:57Z</time>
      </trkpt>
      <trkpt lat="31.2016034302999" lon="121.62104895079057">
        <ele>5.763165128417313</ele>
        <time>2020-05-28T23:26:01Z</time>
      </trkpt>
      <trkpt lat="31.201700998464666" lon="121.6210857970258">
        <ele>5.89962940569967</ele>
        <time>2020-05-28T23:26:08Z</time>
      </trkpt>
      <trkpt lat="31.202007041862725" lon="121.6211475567479">
        <ele>4.152082795277238</ele>
        <time>2020-05-28T23:26:30Z</time>
      </trkpt>
      <trkpt lat="31.20222584494462" lon="121.62114997751966">
        <ele>4.014613699167967</ele>
        <time>2020-05-28T23:26:45Z</time>
      </trkpt>
      <trkpt lat="31.202365158572942" lon="121.62119522073297">
        <ele>3.674746041186154</ele>
        <time>2020-05-28T23:26:56Z</time>
      </trkpt>
      <trkpt lat="31.202459264671702" lon="121.62117488896739">
        <ele>4.660304832272232</ele>
        <time>2020-05-28T23:27:03Z</time>
      </trkpt>
      <trkpt lat="31.202467681317287" lon="121.62091636591413">
        <ele>5.570379633456469</ele>
        <time>2020-05-28T23:27:14Z</time>
      </trkpt>
      <trkpt lat="31.202435502615664" lon="121.62083696864224">
        <ele>4.024061627686024</ele>
        <time>2020-05-28T23:27:18Z</time>
      </trkpt>
      <trkpt lat="31.202445865143766" lon="121.62078222775752">
        <ele>4.588774266652763</ele>
        <time>2020-05-28T23:27:25Z</time>
      </trkpt>
      <trkpt lat="31.202445865143766" lon="121.62078222775752">
        <ele>4.588774266652763</ele>
        <time>2020-05-28T23:27:33Z</time>
      </trkpt>
      <trkpt lat="31.20243829216838" lon="121.62076488498545">
        <ele>4.511456162668765</ele>
        <time>2020-05-28T23:27:36Z</time>
      </trkpt>
      <trkpt lat="31.202447539227546" lon="121.62073859810941">
        <ele>3.661126750521362</ele>
        <time>2020-05-28T23:28:07Z</time>
      </trkpt>
      <trkpt lat="31.202447539227546" lon="121.62073859810941">
        <ele>3.661126750521362</ele>
        <time>2020-05-28T23:28:14Z</time>
      </trkpt>
      <trkpt lat="31.202406091378073" lon="121.62070554062052">
        <ele>4.024605575948954</ele>
        <time>2020-05-28T23:28:21Z</time>
      </trkpt>
      <trkpt lat="31.202424058897513" lon="121.62063833320188">
        <ele>4.437517903745174</ele>
        <time>2020-05-28T23:28:31Z</time>
      </trkpt>
      <trkpt lat="31.202403821931036" lon="121.62054728140286">
        <ele>3.721042361110449</ele>
        <time>2020-05-28T23:28:35Z</time>
      </trkpt>
      <trkpt lat="31.20242140044986" lon="121.62033671757099">
        <ele>3.966590085066855</ele>
        <time>2020-05-28T23:28:57Z</time>
      </trkpt>
      <trkpt lat="31.20242951971422" lon="121.62035053764792">
        <ele>4.375481835566461</ele>
        <time>2020-05-28T23:29:00Z</time>
      </trkpt>
      <trkpt lat="31.202435280441982" lon="121.62028793725003">
        <ele>3.648801289498806</ele>
        <time>2020-05-28T23:29:07Z</time>
      </trkpt>
      <trkpt lat="31.202426122268147" lon="121.62023129985387">
        <ele>5.8945412542670965</ele>
        <time>2020-05-28T23:29:25Z</time>
      </trkpt>
      <trkpt lat="31.202426122268147" lon="121.62023129985387">
        <ele>5.8945412542670965</ele>
        <time>2020-05-28T23:29:32Z</time>
      </trkpt>
      <trkpt lat="31.202423405143584" lon="121.6202367200031">
        <ele>4.044835208915174</ele>
        <time>2020-05-28T23:29:37Z</time>
      </trkpt>
      <trkpt lat="31.202436621647745" lon="121.62030148691832">
        <ele>4.960483340546489</ele>
        <time>2020-05-28T23:29:44Z</time>
      </trkpt>
      <trkpt lat="31.202405394511146" lon="121.62034511974377">
        <ele>4.758828601799905</ele>
        <time>2020-05-28T23:29:59Z</time>
      </trkpt>
      <trkpt lat="31.202405394511146" lon="121.62034511974377">
        <ele>4.758828601799905</ele>
        <time>2020-05-28T23:29:59Z</time>
      </trkpt>
      <trkpt lat="31.202388584151734" lon="121.62034512113492">
        <ele>4.3986551547423005</ele>
        <time>2020-05-28T23:30:04Z</time>
      </trkpt>
      <trkpt lat="31.202388584151734" lon="121.62034512113492">
        <ele>4.3986551547423005</ele>
        <time>2020-05-28T23:30:07Z</time>
      </trkpt>
      <trkpt lat="31.202379908996598" lon="121.62034403787254">
        <ele>4.379869983531535</ele>
        <time>2020-05-28T23:30:12Z</time>
      </trkpt>
      <trkpt lat="31.202379908996598" lon="121.62034403787254">
        <ele>4.379869983531535</ele>
        <time>2020-05-28T23:30:20Z</time>
      </trkpt>
      <trkpt lat="31.20240133212567" lon="121.62034078415863">
        <ele>4.736225024797022</ele>
        <time>2020-05-28T23:30:23Z</time>
      </trkpt>
      <trkpt lat="31.2024558081964" lon="121.6203613752703">
        <ele>5.307009864598513</ele>
        <time>2020-05-28T23:30:26Z</time>
      </trkpt>
      <trkpt lat="31.202643173114605" lon="121.62035133295204">
        <ele>5.0159340389072895</ele>
        <time>2020-05-28T23:30:34Z</time>
      </trkpt>
      <trkpt lat="31.20278745309843" lon="121.62031744661579">
        <ele>4.143570088781416</ele>
        <time>2020-05-28T23:30:41Z</time>
      </trkpt>
      <trkpt lat="31.20286397274761" lon="121.6202616151819">
        <ele>4.079799863509834</ele>
        <time>2020-05-28T23:30:45Z</time>
      </trkpt>
      <trkpt lat="31.202815695014458" lon="121.6200212446724">
        <ele>3.0080144247040153</ele>
        <time>2020-05-28T23:30:55Z</time>
      </trkpt>
      <trkpt lat="31.202810911398394" lon="121.61992964743125">
        <ele>3.708620710298419</ele>
        <time>2020-05-28T23:30:59Z</time>
      </trkpt>
      <trkpt lat="31.20272823453483" lon="121.61965323339498">
        <ele>4.677674274891615</ele>
        <time>2020-05-28T23:31:09Z</time>
      </trkpt>
      <trkpt lat="31.20272046530478" lon="121.61956353211446">
        <ele>5.856771705672145</ele>
        <time>2020-05-28T23:31:12Z</time>
      </trkpt>
      <trkpt lat="31.20267231444624" lon="121.61945676059064">
        <ele>4.953724944032729</ele>
        <time>2020-05-28T23:31:16Z</time>
      </trkpt>
      <trkpt lat="31.202626411871716" lon="121.61927302275096">
        <ele>4.211308913305402</ele>
        <time>2020-05-28T23:31:22Z</time>
      </trkpt>
      <trkpt lat="31.20254488617089" lon="121.61892532599113">
        <ele>5.552868126891553</ele>
        <time>2020-05-28T23:31:33Z</time>
      </trkpt>
      <trkpt lat="31.20252463062561" lon="121.61884727665556">
        <ele>5.072029667906463</ele>
        <time>2020-05-28T23:31:36Z</time>
      </trkpt>
      <trkpt lat="31.202531218320868" lon="121.61876814081201">
        <ele>5.1064077112823725</ele>
        <time>2020-05-28T23:31:40Z</time>
      </trkpt>
      <trkpt lat="31.202584673136297" lon="121.61872748459884">
        <ele>6.334364791400731</ele>
        <time>2020-05-28T23:31:43Z</time>
      </trkpt>
      <trkpt lat="31.20269682773118" lon="121.61855348491848">
        <ele>6.12810495775193</ele>
        <time>2020-05-28T23:31:53Z</time>
      </trkpt>
      <trkpt lat="31.20272183626103" lon="121.61848979447474">
        <ele>4.998761774972081</ele>
        <time>2020-05-28T23:31:56Z</time>
      </trkpt>
      <trkpt lat="31.20267099152832" lon="121.61836160840124">
        <ele>4.976805181242526</ele>
        <time>2020-05-28T23:32:03Z</time>
      </trkpt>
      <trkpt lat="31.20266455204423" lon="121.6182938548226">
        <ele>5.61151201557368</ele>
        <time>2020-05-28T23:32:07Z</time>
      </trkpt>
      <trkpt lat="31.202699386946662" lon="121.61816376353504">
        <ele>5.836863910779357</ele>
        <time>2020-05-28T23:32:14Z</time>
      </trkpt>
      <trkpt lat="31.202675894780345" lon="121.61806646975131">
        <ele>4.657660525292158</ele>
        <time>2020-05-28T23:32:18Z</time>
      </trkpt>
      <trkpt lat="31.2026781453745" lon="121.61798407957323">
        <ele>2.327253461815417</ele>
        <time>2020-05-28T23:32:21Z</time>
      </trkpt>
      <trkpt lat="31.20257569542895" lon="121.61766834757276">
        <ele>4.940101969987154</ele>
        <time>2020-05-28T23:32:32Z</time>
      </trkpt>
      <trkpt lat="31.20253136873033" lon="121.61752525037706">
        <ele>4.3361169481649995</ele>
        <time>2020-05-28T23:32:38Z</time>
      </trkpt>
      <trkpt lat="31.202486175453927" lon="121.61743635771056">
        <ele>4.468942525796592</ele>
        <time>2020-05-28T23:32:42Z</time>
      </trkpt>
      <trkpt lat="31.202552702014852" lon="121.61733444618079">
        <ele>4.075153718702495</ele>
        <time>2020-05-28T23:32:48Z</time>
      </trkpt>
      <trkpt lat="31.20261429196498" lon="121.617290534637">
        <ele>2.7356341714039445</ele>
        <time>2020-05-28T23:32:52Z</time>
      </trkpt>
      <trkpt lat="31.20274570417041" lon="121.61709999055844">
        <ele>3.1186864459887147</ele>
        <time>2020-05-28T23:32:59Z</time>
      </trkpt>
      <trkpt lat="31.202926711674206" lon="121.6169316655131">
        <ele>5.426562268286943</ele>
        <time>2020-05-28T23:33:14Z</time>
      </trkpt>
      <trkpt lat="31.2030021982534" lon="121.61681457332374">
        <ele>5.880512558855116</ele>
        <time>2020-05-28T23:33:24Z</time>
      </trkpt>
      <trkpt lat="31.2030784601825" lon="121.61673732251069">
        <ele>6.018011016771197</ele>
        <time>2020-05-28T23:33:31Z</time>
      </trkpt>
      <trkpt lat="31.203166613560146" lon="121.61670072563192">
        <ele>5.5469290325418115</ele>
        <time>2020-05-28T23:33:38Z</time>
      </trkpt>
      <trkpt lat="31.2033980752107" lon="121.61650529006546">
        <ele>5.704048279672861</ele>
        <time>2020-05-28T23:34:00Z</time>
      </trkpt>
      <trkpt lat="31.20364631746281" lon="121.61634047888465">
        <ele>6.055962371639907</ele>
        <time>2020-05-28T23:34:19Z</time>
      </trkpt>
      <trkpt lat="31.20385603806463" lon="121.61619681088993">
        <ele>6.601580608636141</ele>
        <time>2020-05-28T23:34:38Z</time>
      </trkpt>
      <trkpt lat="31.20393503415025" lon="121.61609299590869">
        <ele>7.398509887047112</ele>
        <time>2020-05-28T23:34:46Z</time>
      </trkpt>
      <trkpt lat="31.204008552418014" lon="121.61604881011952">
        <ele>7.49002158921212</ele>
        <time>2020-05-28T23:34:52Z</time>
      </trkpt>
      <trkpt lat="31.204168532401372" lon="121.61603768418708">
        <ele>6.50112696737051</ele>
        <time>2020-05-28T23:35:03Z</time>
      </trkpt>
      <trkpt lat="31.204218726999052" lon="121.61600000523433">
        <ele>6.439527312293649</ele>
        <time>2020-05-28T23:35:07Z</time>
      </trkpt>
      <trkpt lat="31.20427998192746" lon="121.61602358080538">
        <ele>6.868766620755196</ele>
        <time>2020-05-28T23:35:14Z</time>
      </trkpt>
      <trkpt lat="31.204459010969757" lon="121.61623118303942">
        <ele>7.427914190106094</ele>
        <time>2020-05-28T23:35:32Z</time>
      </trkpt>
      <trkpt lat="31.20450074045645" lon="121.61625855454885">
        <ele>7.144190473482013</ele>
        <time>2020-05-28T23:35:36Z</time>
      </trkpt>
      <trkpt lat="31.204580092277627" lon="121.61635639289234">
        <ele>6.943250007927418</ele>
        <time>2020-05-28T23:35:44Z</time>
      </trkpt>
      <trkpt lat="31.20457961495324" lon="121.61628646503254">
        <ele>7.472030900418758</ele>
        <time>2020-05-28T23:35:50Z</time>
      </trkpt>
      <trkpt lat="31.204557438101855" lon="121.61622575410986">
        <ele>8.216073273681104</ele>
        <time>2020-05-28T23:35:54Z</time>
      </trkpt>
      <trkpt lat="31.20447240097315" lon="121.61611815825222">
        <ele>6.0478155901655555</ele>
        <time>2020-05-28T23:36:02Z</time>
      </trkpt>
      <trkpt lat="31.204257338067794" lon="121.61587993016332">
        <ele>8.465301336720586</ele>
        <time>2020-05-28T23:36:22Z</time>
      </trkpt>
      <trkpt lat="31.204183121115953" lon="121.61579862318109">
        <ele>8.35876371897757</ele>
        <time>2020-05-28T23:36:29Z</time>
      </trkpt>
      <trkpt lat="31.20411942898634" lon="121.61577152401497">
        <ele>8.250279885716736</ele>
        <time>2020-05-28T23:36:33Z</time>
      </trkpt>
      <trkpt lat="31.2038786116555" lon="121.61552624742419">
        <ele>7.482505423948169</ele>
        <time>2020-05-28T23:36:56Z</time>
      </trkpt>
      <trkpt lat="31.203708495566577" lon="121.61535143539122">
        <ele>5.32250777259469</ele>
        <time>2020-05-28T23:37:12Z</time>
      </trkpt>
      <trkpt lat="31.203555101533837" lon="121.61527474103106">
        <ele>5.002400103025138</ele>
        <time>2020-05-28T23:37:23Z</time>
      </trkpt>
      <trkpt lat="31.203578471724242" lon="121.61521565011131">
        <ele>5.976604167371988</ele>
        <time>2020-05-28T23:37:26Z</time>
      </trkpt>
      <trkpt lat="31.203637646513613" lon="121.61513975089287">
        <ele>5.816030557267368</ele>
        <time>2020-05-28T23:37:30Z</time>
      </trkpt>
      <trkpt lat="31.203846057386514" lon="121.61493671516091">
        <ele>4.99672691244632</ele>
        <time>2020-05-28T23:37:42Z</time>
      </trkpt>
      <trkpt lat="31.20407188614092" lon="121.6146569672497">
        <ele>6.042782595381141</ele>
        <time>2020-05-28T23:37:57Z</time>
      </trkpt>
      <trkpt lat="31.204292504839447" lon="121.61444199980045">
        <ele>6.138456684537232</ele>
        <time>2020-05-28T23:38:08Z</time>
      </trkpt>
      <trkpt lat="31.204513391161477" lon="121.61422919888571">
        <ele>6.708044519647956</ele>
        <time>2020-05-28T23:38:19Z</time>
      </trkpt>
      <trkpt lat="31.204656875505588" lon="121.61416602951086">
        <ele>6.223888248205185</ele>
        <time>2020-05-28T23:38:25Z</time>
      </trkpt>
      <trkpt lat="31.204867725658495" lon="121.61395566654">
        <ele>5.710232826881111</ele>
        <time>2020-05-28T23:38:36Z</time>
      </trkpt>
      <trkpt lat="31.20508538106872" lon="121.61371114661497">
        <ele>7.683592005632818</ele>
        <time>2020-05-28T23:38:53Z</time>
      </trkpt>
      <trkpt lat="31.20530056098647" lon="121.61350674278447">
        <ele>5.216968085616827</ele>
        <time>2020-05-28T23:39:10Z</time>
      </trkpt>
      <trkpt lat="31.205500032357275" lon="121.61327929730115">
        <ele>8.262636435218155</ele>
        <time>2020-05-28T23:39:31Z</time>
      </trkpt>
      <trkpt lat="31.205578978582583" lon="121.61322317863382">
        <ele>7.304512788541615</ele>
        <time>2020-05-28T23:39:37Z</time>
      </trkpt>
      <trkpt lat="31.20561237370076" lon="121.6131673346731">
        <ele>7.116004390642047</ele>
        <time>2020-05-28T23:39:41Z</time>
      </trkpt>
      <trkpt lat="31.205789822379547" lon="121.61301172294647">
        <ele>7.88872283603996</ele>
        <time>2020-05-28T23:39:54Z</time>
      </trkpt>
      <trkpt lat="31.20597004612223" lon="121.6127753286582">
        <ele>6.645665702410042</ele>
        <time>2020-05-28T23:40:06Z</time>
      </trkpt>
      <trkpt lat="31.206067241771006" lon="121.61261294394491">
        <ele>7.148642431944609</ele>
        <time>2020-05-28T23:40:16Z</time>
      </trkpt>
      <trkpt lat="31.206128820879957" lon="121.61257336106088">
        <ele>6.434307606890798</ele>
        <time>2020-05-28T23:40:19Z</time>
      </trkpt>
      <trkpt lat="31.20630874334135" lon="121.61237057671241">
        <ele>6.023323273286223</ele>
        <time>2020-05-28T23:40:29Z</time>
      </trkpt>
      <trkpt lat="31.20635000956612" lon="121.61230198910789">
        <ele>6.778881197795272</ele>
        <time>2020-05-28T23:40:32Z</time>
      </trkpt>
      <trkpt lat="31.20659713496092" lon="121.61214663692718">
        <ele>9.265746673569083</ele>
        <time>2020-05-28T23:40:49Z</time>
      </trkpt>
      <trkpt lat="31.206754993818855" lon="121.61207180402263">
        <ele>8.004462552256882</ele>
        <time>2020-05-28T23:40:59Z</time>
      </trkpt>
      <trkpt lat="31.20689904974705" lon="121.6119641703782">
        <ele>8.117663861252367</ele>
        <time>2020-05-28T23:41:09Z</time>
      </trkpt>
      <trkpt lat="31.206874430167147" lon="121.61189396048404">
        <ele>9.992050248198211</ele>
        <time>2020-05-28T23:41:13Z</time>
      </trkpt>
      <trkpt lat="31.20684849494813" lon="121.61177088791933">
        <ele>8.373932431451976</ele>
        <time>2020-05-28T23:41:31Z</time>
      </trkpt>
      <trkpt lat="31.206726831409515" lon="121.6116700521325">
        <ele>8.628026182763278</ele>
        <time>2020-05-28T23:41:38Z</time>
      </trkpt>
      <trkpt lat="31.206698122956567" lon="121.61162776418107">
        <ele>6.8170785419642925</ele>
        <time>2020-05-28T23:41:41Z</time>
      </trkpt>
      <trkpt lat="31.206619256151765" lon="121.61158304046572">
        <ele>6.688651850447059</ele>
        <time>2020-05-28T23:41:45Z</time>
      </trkpt>
      <trkpt lat="31.20654529027028" lon="121.61151093583545">
        <ele>7.1081278417259455</ele>
        <time>2020-05-28T23:41:49Z</time>
      </trkpt>
      <trkpt lat="31.206462607684152" lon="121.61149250830937">
        <ele>6.913349781185389</ele>
        <time>2020-05-28T23:41:53Z</time>
      </trkpt>
      <trkpt lat="31.206387291752364" lon="121.61141254176378">
        <ele>7.6235636081546545</ele>
        <time>2020-05-28T23:41:57Z</time>
      </trkpt>
      <trkpt lat="31.206278524396033" lon="121.61110295861293">
        <ele>7.659628175199032</ele>
        <time>2020-05-28T23:42:15Z</time>
      </trkpt>
      <trkpt lat="31.20621161684922" lon="121.61101702582795">
        <ele>6.572696456685662</ele>
        <time>2020-05-28T23:42:27Z</time>
      </trkpt>
      <trkpt lat="31.206111900816744" lon="121.6109321798333">
        <ele>9.292767033912241</ele>
        <time>2020-05-28T23:42:34Z</time>
      </trkpt>
      <trkpt lat="31.206111900816744" lon="121.6109321798333">
        <ele>9.292767033912241</ele>
        <time>2020-05-28T23:42:40Z</time>
      </trkpt>
    </trkseg>
  </trk>
</gpx>