<?xml version="1.0" encoding="UTF-8"?>
<gpx xmlns="http://www.topografix.com/GPX/1/1" xmlns:gpxtpx="http://www.garmin.com/xmlschemas/TrackPointExtension/v1" xmlns:xsi="http://www.w3.org/2001/XMLSchema-instance" xsi:schemaLocation="http://www.topografix.com/GPX/1/1 http://www.topografix.com/GPX/1/1/gpx.xsd" version="1.1" creator="gpx.py -- https://github.com/tkrajina/gpxpy">
  <trk>
    <name>gpx from keep</name>
    <type>Run</type>
    <trkseg>
      <trkpt lat="31.20452481265638" lon="121.61074037121377">
        <ele>8.906278865736258</ele>
        <time>2020-09-09T22:43:13Z</time>
      </trkpt>
      <trkpt lat="31.20458525217852" lon="121.61077316960751">
        <ele>8.798122986219823</ele>
        <time>2020-09-09T22:43:20Z</time>
      </trkpt>
      <trkpt lat="31.20463866896829" lon="121.61076882755593">
        <ele>8.910812017507851</ele>
        <time>2020-09-09T22:43:33Z</time>
      </trkpt>
      <trkpt lat="31.204745803764123" lon="121.61071839362398">
        <ele>7.693458155728877</ele>
        <time>2020-09-09T22:43:36Z</time>
      </trkpt>
      <trkpt lat="31.204914838222372" lon="121.61055490404149">
        <ele>6.86732146050781</ele>
        <time>2020-09-09T22:43:51Z</time>
      </trkpt>
      <trkpt lat="31.20497944922123" lon="121.61044130550383">
        <ele>6.367794829420745</ele>
        <time>2020-09-09T22:43:57Z</time>
      </trkpt>
      <trkpt lat="31.205052388300068" lon="121.6104361484565">
        <ele>6.981696832925081</ele>
        <time>2020-09-09T22:44:00Z</time>
      </trkpt>
      <trkpt lat="31.205092540337574" lon="121.61040225683442">
        <ele>6.769769309088588</ele>
        <time>2020-09-09T22:44:03Z</time>
      </trkpt>
      <trkpt lat="31.20515254823157" lon="121.61027889802392">
        <ele>6.755068989470601</ele>
        <time>2020-09-09T22:44:09Z</time>
      </trkpt>
      <trkpt lat="31.205200854076743" lon="121.61021653908185">
        <ele>6.999233273789287</ele>
        <time>2020-09-09T22:44:12Z</time>
      </trkpt>
      <trkpt lat="31.205297690375136" lon="121.61015797149021">
        <ele>6.719496458768845</ele>
        <time>2020-09-09T22:44:18Z</time>
      </trkpt>
      <trkpt lat="31.205340575486243" lon="121.61009235933943">
        <ele>7.815740428864956</ele>
        <time>2020-09-09T22:44:21Z</time>
      </trkpt>
      <trkpt lat="31.205481187089497" lon="121.61024660896932">
        <ele>5.763451826758683</ele>
        <time>2020-09-09T22:44:30Z</time>
      </trkpt>
      <trkpt lat="31.20550875993468" lon="121.61036453857409">
        <ele>6.895380200818181</ele>
        <time>2020-09-09T22:44:36Z</time>
      </trkpt>
      <trkpt lat="31.20561358987636" lon="121.61050496293775">
        <ele>6.925698433071375</ele>
        <time>2020-09-09T22:44:42Z</time>
      </trkpt>
      <trkpt lat="31.205668058392042" lon="121.61054670862752">
        <ele>6.005326378159225</ele>
        <time>2020-09-09T22:44:45Z</time>
      </trkpt>
      <trkpt lat="31.205740167305304" lon="121.61056513779184">
        <ele>6.1379691530019045</ele>
        <time>2020-09-09T22:44:48Z</time>
      </trkpt>
      <trkpt lat="31.205841504126973" lon="121.61066001585353">
        <ele>6.724185593426228</ele>
        <time>2020-09-09T22:44:54Z</time>
      </trkpt>
      <trkpt lat="31.20593818725326" lon="121.61081589186618">
        <ele>7.492458374239504</ele>
        <time>2020-09-09T22:45:00Z</time>
      </trkpt>
      <trkpt lat="31.20605361730026" lon="121.61091754523054">
        <ele>7.782424949109554</ele>
        <time>2020-09-09T22:45:09Z</time>
      </trkpt>
      <trkpt lat="31.206135197158073" lon="121.61096145672177">
        <ele>7.142899276688695</ele>
        <time>2020-09-09T22:45:12Z</time>
      </trkpt>
      <trkpt lat="31.206165219707064" lon="121.61106203210346">
        <ele>6.292968764901161</ele>
        <time>2020-09-09T22:45:16Z</time>
      </trkpt>
      <trkpt lat="31.206240246997663" lon="121.61116721197996">
        <ele>7.194955921731889</ele>
        <time>2020-09-09T22:45:20Z</time>
      </trkpt>
      <trkpt lat="31.20642963921526" lon="121.6113450356036">
        <ele>7.849259172566235</ele>
        <time>2020-09-09T22:45:28Z</time>
      </trkpt>
      <trkpt lat="31.206467784431073" lon="121.61145889224136">
        <ele>8.020440571010113</ele>
        <time>2020-09-09T22:45:32Z</time>
      </trkpt>
      <trkpt lat="31.206556635822988" lon="121.61156705117405">
        <ele>6.122500734403729</ele>
        <time>2020-09-09T22:45:38Z</time>
      </trkpt>
      <trkpt lat="31.20641654408562" lon="121.61181240042697">
        <ele>7.876275091432035</ele>
        <time>2020-09-09T22:45:50Z</time>
      </trkpt>
      <trkpt lat="31.206207315066205" lon="121.6120517888711">
        <ele>8.62751199491322</ele>
        <time>2020-09-09T22:46:02Z</time>
      </trkpt>
      <trkpt lat="31.205982634459406" lon="121.61228439900714">
        <ele>8.411051193252206</ele>
        <time>2020-09-09T22:46:14Z</time>
      </trkpt>
      <trkpt lat="31.205844209253616" lon="121.61247091575123">
        <ele>9.287642465904355</ele>
        <time>2020-09-09T22:46:23Z</time>
      </trkpt>
      <trkpt lat="31.205784513728684" lon="121.61252893220436">
        <ele>7.021656393073499</ele>
        <time>2020-09-09T22:46:26Z</time>
      </trkpt>
      <trkpt lat="31.205653770050322" lon="121.61260023734502">
        <ele>7.5902601554989815</ele>
        <time>2020-09-09T22:46:32Z</time>
      </trkpt>
      <trkpt lat="31.20559302602815" lon="121.61261244099548">
        <ele>7.730044934898615</ele>
        <time>2020-09-09T22:46:38Z</time>
      </trkpt>
      <trkpt lat="31.205545594686814" lon="121.61259048738289">
        <ele>7.448948419652879</ele>
        <time>2020-09-09T22:47:08Z</time>
      </trkpt>
      <trkpt lat="31.20559707394491" lon="121.6126365668168">
        <ele>7.714140565134585</ele>
        <time>2020-09-09T22:47:14Z</time>
      </trkpt>
      <trkpt lat="31.205541971202926" lon="121.61271491343776">
        <ele>8.822407653555274</ele>
        <time>2020-09-09T22:47:32Z</time>
      </trkpt>
      <trkpt lat="31.205456782795103" lon="121.61277997943571">
        <ele>6.7464215364307165</ele>
        <time>2020-09-09T22:47:36Z</time>
      </trkpt>
      <trkpt lat="31.205350395236493" lon="121.61290793697967">
        <ele>7.606530570425093</ele>
        <time>2020-09-09T22:47:43Z</time>
      </trkpt>
      <trkpt lat="31.205332180109306" lon="121.61296893075628">
        <ele>7.679831240326166</ele>
        <time>2020-09-09T22:47:46Z</time>
      </trkpt>
      <trkpt lat="31.205107779740207" lon="121.61318065902577">
        <ele>7.821905259042978</ele>
        <time>2020-09-09T22:47:58Z</time>
      </trkpt>
      <trkpt lat="31.204858658944485" lon="121.61344768595086">
        <ele>8.106529688462615</ele>
        <time>2020-09-09T22:48:10Z</time>
      </trkpt>
      <trkpt lat="31.2046852699517" lon="121.61360925797366">
        <ele>10.461808418855071</ele>
        <time>2020-09-09T22:48:19Z</time>
      </trkpt>
      <trkpt lat="31.204628787953272" lon="121.6137125397116">
        <ele>8.76041657011956</ele>
        <time>2020-09-09T22:48:22Z</time>
      </trkpt>
      <trkpt lat="31.204439103560713" lon="121.61390474170332">
        <ele>8.005501439794898</ele>
        <time>2020-09-09T22:48:31Z</time>
      </trkpt>
      <trkpt lat="31.204367752567308" lon="121.61395516575536">
        <ele>7.981668190099299</ele>
        <time>2020-09-09T22:48:34Z</time>
      </trkpt>
      <trkpt lat="31.20418592180811" lon="121.61415631020039">
        <ele>7.478682183660567</ele>
        <time>2020-09-09T22:48:43Z</time>
      </trkpt>
      <trkpt lat="31.204054882260973" lon="121.61425173493093">
        <ele>8.091405756771564</ele>
        <time>2020-09-09T22:48:49Z</time>
      </trkpt>
      <trkpt lat="31.203800852135643" lon="121.61454016379173">
        <ele>7.422126054763794</ele>
        <time>2020-09-09T22:49:01Z</time>
      </trkpt>
      <trkpt lat="31.20373817326915" lon="121.61459410953024">
        <ele>7.319256337359548</ele>
        <time>2020-09-09T22:49:04Z</time>
      </trkpt>
      <trkpt lat="31.203702576501666" lon="121.61468410348066">
        <ele>6.80868630297482</ele>
        <time>2020-09-09T22:49:07Z</time>
      </trkpt>
      <trkpt lat="31.203760999851657" lon="121.61484673213899">
        <ele>5.995655078440905</ele>
        <time>2020-09-09T22:49:13Z</time>
      </trkpt>
      <trkpt lat="31.20382920076488" lon="121.6149893009496">
        <ele>6.433862670324743</ele>
        <time>2020-09-09T22:49:19Z</time>
      </trkpt>
      <trkpt lat="31.203819652969923" lon="121.61505516759671">
        <ele>6.35478028934449</ele>
        <time>2020-09-09T22:49:26Z</time>
      </trkpt>
      <trkpt lat="31.20377273366519" lon="121.61506980830977">
        <ele>6.141777654178441</ele>
        <time>2020-09-09T22:49:49Z</time>
      </trkpt>
      <trkpt lat="31.2037822334484" lon="121.61505842332168">
        <ele>6.546700165607035</ele>
        <time>2020-09-09T22:49:55Z</time>
      </trkpt>
      <trkpt lat="31.203758368051442" lon="121.61506465950218">
        <ele>7.524423915892839</ele>
        <time>2020-09-09T22:50:01Z</time>
      </trkpt>
      <trkpt lat="31.203586284725336" lon="121.61527175690115">
        <ele>5.816499203443527</ele>
        <time>2020-09-09T22:50:10Z</time>
      </trkpt>
      <trkpt lat="31.203532311694676" lon="121.61529100591436">
        <ele>5.664207263849676</ele>
        <time>2020-09-09T22:50:13Z</time>
      </trkpt>
      <trkpt lat="31.203291046284548" lon="121.61554364303709">
        <ele>6.642728954553604</ele>
        <time>2020-09-09T22:50:25Z</time>
      </trkpt>
      <trkpt lat="31.20325356315577" lon="121.61561737082162">
        <ele>6.358539813198149</ele>
        <time>2020-09-09T22:50:28Z</time>
      </trkpt>
      <trkpt lat="31.203030240604026" lon="121.6158141680494">
        <ele>7.954857911914587</ele>
        <time>2020-09-09T22:50:37Z</time>
      </trkpt>
      <trkpt lat="31.202896464467745" lon="121.61593099880578">
        <ele>5.9129355903714895</ele>
        <time>2020-09-09T22:50:43Z</time>
      </trkpt>
      <trkpt lat="31.20284677402255" lon="121.61601041830212">
        <ele>6.609408797696233</ele>
        <time>2020-09-09T22:50:46Z</time>
      </trkpt>
      <trkpt lat="31.202776776654744" lon="121.61605894053123">
        <ele>5.47457077819854</ele>
        <time>2020-09-09T22:50:49Z</time>
      </trkpt>
      <trkpt lat="31.202561536586416" lon="121.61630804400917">
        <ele>4.919662663713098</ele>
        <time>2020-09-09T22:51:01Z</time>
      </trkpt>
      <trkpt lat="31.202312406028557" lon="121.61655335325106">
        <ele>5.8597229132428765</ele>
        <time>2020-09-09T22:51:13Z</time>
      </trkpt>
      <trkpt lat="31.202122976790804" lon="121.6167417380844">
        <ele>5.467808686196804</ele>
        <time>2020-09-09T22:51:22Z</time>
      </trkpt>
      <trkpt lat="31.202084677623894" lon="121.61681492025073">
        <ele>5.24483944196254</ele>
        <time>2020-09-09T22:51:25Z</time>
      </trkpt>
      <trkpt lat="31.201886265608415" lon="121.61703853781083">
        <ele>4.88911919016391</ele>
        <time>2020-09-09T22:51:35Z</time>
      </trkpt>
      <trkpt lat="31.20165122204592" lon="121.61728980121917">
        <ele>4.472423922270536</ele>
        <time>2020-09-09T22:51:46Z</time>
      </trkpt>
      <trkpt lat="31.201431953958835" lon="121.61748766879951">
        <ele>3.894797859713435</ele>
        <time>2020-09-09T22:51:56Z</time>
      </trkpt>
      <trkpt lat="31.201321194985724" lon="121.61762752675442">
        <ele>5.104677927680314</ele>
        <time>2020-09-09T22:52:02Z</time>
      </trkpt>
      <trkpt lat="31.20124495112916" lon="121.61768390599612">
        <ele>4.0174435107037425</ele>
        <time>2020-09-09T22:52:05Z</time>
      </trkpt>
      <trkpt lat="31.201063077710874" lon="121.61790128087584">
        <ele>5.3462602803483605</ele>
        <time>2020-09-09T22:52:14Z</time>
      </trkpt>
      <trkpt lat="31.200937958406595" lon="121.61802921283908">
        <ele>3.7220468623563647</ele>
        <time>2020-09-09T22:52:20Z</time>
      </trkpt>
      <trkpt lat="31.20089395835171" lon="121.61810618594824">
        <ele>5.193783177062869</ele>
        <time>2020-09-09T22:52:23Z</time>
      </trkpt>
      <trkpt lat="31.2006626718158" lon="121.6183869790332">
        <ele>5.679363725706935</ele>
        <time>2020-09-09T22:52:35Z</time>
      </trkpt>
      <trkpt lat="31.200425968382827" lon="121.6186593680397">
        <ele>4.127492492087185</ele>
        <time>2020-09-09T22:52:47Z</time>
      </trkpt>
      <trkpt lat="31.20020821496692" lon="121.61895804050141">
        <ele>7.280852032825351</ele>
        <time>2020-09-09T22:52:59Z</time>
      </trkpt>
      <trkpt lat="31.199972322423122" lon="121.61922771324079">
        <ele>5.6346811866387725</ele>
        <time>2020-09-09T22:53:11Z</time>
      </trkpt>
      <trkpt lat="31.199868344115913" lon="121.61935726278018">
        <ele>5.7959149377420545</ele>
        <time>2020-09-09T22:53:17Z</time>
      </trkpt>
      <trkpt lat="31.19962358223986" lon="121.61954861216881">
        <ele>6.129683775827289</ele>
        <time>2020-09-09T22:53:29Z</time>
      </trkpt>
      <trkpt lat="31.199408622304468" lon="121.61976055376462">
        <ele>4.7103513572365046</ele>
        <time>2020-09-09T22:53:39Z</time>
      </trkpt>
      <trkpt lat="31.199151576033323" lon="121.62002832282631">
        <ele>6.736509226262569</ele>
        <time>2020-09-09T22:53:53Z</time>
      </trkpt>
      <trkpt lat="31.19905281946711" lon="121.6200884925693">
        <ele>5.792698998935521</ele>
        <time>2020-09-09T22:53:57Z</time>
      </trkpt>
      <trkpt lat="31.198919581202983" lon="121.62019337951281">
        <ele>4.18753229919821</ele>
        <time>2020-09-09T22:54:03Z</time>
      </trkpt>
      <trkpt lat="31.19886607536939" lon="121.62028010272579">
        <ele>4.3894543424248695</ele>
        <time>2020-09-09T22:54:06Z</time>
      </trkpt>
      <trkpt lat="31.198746990504286" lon="121.62033349868769">
        <ele>4.940129077062011</ele>
        <time>2020-09-09T22:54:09Z</time>
      </trkpt>
      <trkpt lat="31.198487229575086" lon="121.620599636103">
        <ele>6.360715165734291</ele>
        <time>2020-09-09T22:54:21Z</time>
      </trkpt>
      <trkpt lat="31.19824945819263" lon="121.62083812802493">
        <ele>5.056886686943471</ele>
        <time>2020-09-09T22:54:33Z</time>
      </trkpt>
      <trkpt lat="31.198061678974188" lon="121.62098014191538">
        <ele>5.971869244240224</ele>
        <time>2020-09-09T22:54:42Z</time>
      </trkpt>
      <trkpt lat="31.198011992233862" lon="121.62104355725666">
        <ele>5.813112352974713</ele>
        <time>2020-09-09T22:54:45Z</time>
      </trkpt>
      <trkpt lat="31.197769630189267" lon="121.62126199260061">
        <ele>4.94545531552285</ele>
        <time>2020-09-09T22:54:57Z</time>
      </trkpt>
      <trkpt lat="31.197525092127016" lon="121.62148530401721">
        <ele>4.61068450473249</ele>
        <time>2020-09-09T22:55:09Z</time>
      </trkpt>
      <trkpt lat="31.197250442711944" lon="121.62172108116796">
        <ele>4.422408079728484</ele>
        <time>2020-09-09T22:55:21Z</time>
      </trkpt>
      <trkpt lat="31.196990417812874" lon="121.62197013296233">
        <ele>5.647017100825906</ele>
        <time>2020-09-09T22:55:33Z</time>
      </trkpt>
      <trkpt lat="31.19671413793796" lon="121.62220590596145">
        <ele>5.3516609743237495</ele>
        <time>2020-09-09T22:55:46Z</time>
      </trkpt>
      <trkpt lat="31.19666443976329" lon="121.62227717666092">
        <ele>6.017265157774091</ele>
        <time>2020-09-09T22:55:49Z</time>
      </trkpt>
      <trkpt lat="31.196676808221937" lon="121.62260613758404">
        <ele>5.196187922731042</ele>
        <time>2020-09-09T22:56:06Z</time>
      </trkpt>
      <trkpt lat="31.196739036043674" lon="121.62295730979307">
        <ele>4.4702033288776875</ele>
        <time>2020-09-09T22:56:27Z</time>
      </trkpt>
      <trkpt lat="31.196836560985687" lon="121.62326241046294">
        <ele>5.446159342303872</ele>
        <time>2020-09-09T22:56:52Z</time>
      </trkpt>
      <trkpt lat="31.196878849671045" lon="121.62350112643458">
        <ele>5.875773586332798</ele>
        <time>2020-09-09T22:57:07Z</time>
      </trkpt>
      <trkpt lat="31.196865977067567" lon="121.62361113827126">
        <ele>7.477814577519894</ele>
        <time>2020-09-09T22:57:13Z</time>
      </trkpt>
      <trkpt lat="31.19689555735382" lon="121.6238181499727">
        <ele>5.891722672618926</ele>
        <time>2020-09-09T22:57:22Z</time>
      </trkpt>
      <trkpt lat="31.196942544919487" lon="121.62397801196859">
        <ele>6.713870796374977</ele>
        <time>2020-09-09T22:57:28Z</time>
      </trkpt>
      <trkpt lat="31.19693807275953" lon="121.62363308021231">
        <ele>6.463358487933874</ele>
        <time>2020-09-09T22:57:43Z</time>
      </trkpt>
      <trkpt lat="31.196909336056496" lon="121.62339924162133">
        <ele>5.946375176310539</ele>
        <time>2020-09-09T22:57:50Z</time>
      </trkpt>
      <trkpt lat="31.19684298967509" lon="121.6230968495721">
        <ele>6.552244787104428</ele>
        <time>2020-09-09T22:58:00Z</time>
      </trkpt>
      <trkpt lat="31.19684723932908" lon="121.62293914594626">
        <ele>6.51122170407325</ele>
        <time>2020-09-09T22:58:04Z</time>
      </trkpt>
      <trkpt lat="31.19686875896587" lon="121.62285243407122">
        <ele>4.39708811044693</ele>
        <time>2020-09-09T22:58:07Z</time>
      </trkpt>
      <trkpt lat="31.196983059305907" lon="121.6227193782715">
        <ele>5.229706450365484</ele>
        <time>2020-09-09T22:58:13Z</time>
      </trkpt>
      <trkpt lat="31.197024644076667" lon="121.62263103820241">
        <ele>4.593301829881966</ele>
        <time>2020-09-09T22:58:16Z</time>
      </trkpt>
      <trkpt lat="31.197303892200363" lon="121.62241071420578">
        <ele>4.354586620815098</ele>
        <time>2020-09-09T22:58:28Z</time>
      </trkpt>
      <trkpt lat="31.1975942978651" lon="121.62215272177538">
        <ele>4.875584200024605</ele>
        <time>2020-09-09T22:58:40Z</time>
      </trkpt>
      <trkpt lat="31.197824733706586" lon="121.62193673355624">
        <ele>5.800183495506644</ele>
        <time>2020-09-09T22:58:49Z</time>
      </trkpt>
      <trkpt lat="31.197895814250348" lon="121.62189797769203">
        <ele>6.364607819356024</ele>
        <time>2020-09-09T22:58:52Z</time>
      </trkpt>
      <trkpt lat="31.197962255105328" lon="121.62188632009001">
        <ele>4.487620897591114</ele>
        <time>2020-09-09T22:58:55Z</time>
      </trkpt>
      <trkpt lat="31.198031712734114" lon="121.62184404155188">
        <ele>8.086030051112175</ele>
        <time>2020-09-09T22:58:58Z</time>
      </trkpt>
      <trkpt lat="31.19828847899149" lon="121.62159878260118">
        <ele>5.159424114972353</ele>
        <time>2020-09-09T22:59:10Z</time>
      </trkpt>
      <trkpt lat="31.19852388407327" lon="121.6212987841978">
        <ele>6.406602173112333</ele>
        <time>2020-09-09T22:59:28Z</time>
      </trkpt>
      <trkpt lat="31.198648975214763" lon="121.62120934857643">
        <ele>5.321618529967964</ele>
        <time>2020-09-09T22:59:37Z</time>
      </trkpt>
      <trkpt lat="31.198687260439574" lon="121.6211589419408">
        <ele>6.658169770613313</ele>
        <time>2020-09-09T22:59:40Z</time>
      </trkpt>
      <trkpt lat="31.19880366599662" lon="121.62107763618954">
        <ele>6.010369423776865</ele>
        <time>2020-09-09T22:59:49Z</time>
      </trkpt>
      <trkpt lat="31.198972271949838" lon="121.620865167194">
        <ele>6.033052604645491</ele>
        <time>2020-09-09T22:59:59Z</time>
      </trkpt>
      <trkpt lat="31.199123986697757" lon="121.62072613656878">
        <ele>5.413035067729652</ele>
        <time>2020-09-09T23:00:06Z</time>
      </trkpt>
      <trkpt lat="31.19922598295103" lon="121.6206800595992">
        <ele>5.156914957799017</ele>
        <time>2020-09-09T23:00:10Z</time>
      </trkpt>
      <trkpt lat="31.199319809123896" lon="121.6206673152274">
        <ele>5.050820245407522</ele>
        <time>2020-09-09T23:00:13Z</time>
      </trkpt>
      <trkpt lat="31.199484888814165" lon="121.62070524038039">
        <ele>5.345347281545401</ele>
        <time>2020-09-09T23:00:19Z</time>
      </trkpt>
      <trkpt lat="31.199760871180455" lon="121.62073502657151">
        <ele>5.093521303497255</ele>
        <time>2020-09-09T23:00:28Z</time>
      </trkpt>
      <trkpt lat="31.199932507380638" lon="121.62072742461879">
        <ele>6.154121596366167</ele>
        <time>2020-09-09T23:00:34Z</time>
      </trkpt>
      <trkpt lat="31.200109226464708" lon="121.62078323410073">
        <ele>5.540894121862948</ele>
        <time>2020-09-09T23:00:40Z</time>
      </trkpt>
      <trkpt lat="31.200284365433347" lon="121.62079595615853">
        <ele>4.380832178518176</ele>
        <time>2020-09-09T23:00:46Z</time>
      </trkpt>
      <trkpt lat="31.200352353956614" lon="121.62085692329741">
        <ele>5.323418137617409</ele>
        <time>2020-09-09T23:00:49Z</time>
      </trkpt>
      <trkpt lat="31.20062812737681" lon="121.62082953049666">
        <ele>6.265495139174163</ele>
        <time>2020-09-09T23:01:07Z</time>
      </trkpt>
      <trkpt lat="31.200963771247288" lon="121.62084847201574">
        <ele>4.106405153870583</ele>
        <time>2020-09-09T23:01:32Z</time>
      </trkpt>
      <trkpt lat="31.201233197030636" lon="121.62092378478515">
        <ele>4.427399752661586</ele>
        <time>2020-09-09T23:01:50Z</time>
      </trkpt>
      <trkpt lat="31.201523783606167" lon="121.62098771407607">
        <ele>5.266684586182237</ele>
        <time>2020-09-09T23:02:09Z</time>
      </trkpt>
      <trkpt lat="31.20173088077144" lon="121.6210332229477">
        <ele>4.639191623777151</ele>
        <time>2020-09-09T23:02:23Z</time>
      </trkpt>
      <trkpt lat="31.20191334376302" lon="121.62104296341037">
        <ele>4.657004751265049</ele>
        <time>2020-09-09T23:02:35Z</time>
      </trkpt>
      <trkpt lat="31.202124732171004" lon="121.6211312877977">
        <ele>3.9133415278047323</ele>
        <time>2020-09-09T23:02:47Z</time>
      </trkpt>
      <trkpt lat="31.202339178400955" lon="121.62115078109991">
        <ele>5.012249115854502</ele>
        <time>2020-09-09T23:02:56Z</time>
      </trkpt>
      <trkpt lat="31.202403482200396" lon="121.62110985675258">
        <ele>3.327055461704731</ele>
        <time>2020-09-09T23:02:59Z</time>
      </trkpt>
      <trkpt lat="31.20239511353128" lon="121.62082775832492">
        <ele>5.522951660677791</ele>
        <time>2020-09-09T23:03:08Z</time>
      </trkpt>
      <trkpt lat="31.202447451086456" lon="121.62081989528096">
        <ele>4.551301601342857</ele>
        <time>2020-09-09T23:03:26Z</time>
      </trkpt>
      <trkpt lat="31.202439323218382" lon="121.62081420516034">
        <ele>5.1141056679189205</ele>
        <time>2020-09-09T23:03:28Z</time>
      </trkpt>
      <trkpt lat="31.202441731357933" lon="121.62084374287461">
        <ele>6.023115370422602</ele>
        <time>2020-09-09T23:03:43Z</time>
      </trkpt>
      <trkpt lat="31.20246017353144" lon="121.62083913451997">
        <ele>4.545585996471345</ele>
        <time>2020-09-09T23:03:53Z</time>
      </trkpt>
      <trkpt lat="31.202453127263226" lon="121.62083615421375">
        <ele>5.076794496737421</ele>
        <time>2020-09-09T23:04:02Z</time>
      </trkpt>
      <trkpt lat="31.20245040914475" lon="121.62084238720699">
        <ele>4.949474775232375</ele>
        <time>2020-09-09T23:04:05Z</time>
      </trkpt>
      <trkpt lat="31.202451825408655" lon="121.62078656311215">
        <ele>3.447313569486141</ele>
        <time>2020-09-09T23:04:12Z</time>
      </trkpt>
      <trkpt lat="31.202421292219157" lon="121.62068955087025">
        <ele>5.038082837127149</ele>
        <time>2020-09-09T23:04:15Z</time>
      </trkpt>
      <trkpt lat="31.20244471805025" lon="121.62058928189253">
        <ele>5.710002161562443</ele>
        <time>2020-09-09T23:04:18Z</time>
      </trkpt>
      <trkpt lat="31.202405079583382" lon="121.62038603999166">
        <ele>4.8088759910315275</ele>
        <time>2020-09-09T23:04:24Z</time>
      </trkpt>
      <trkpt lat="31.20243712134419" lon="121.62034132318712">
        <ele>5.490213960409164</ele>
        <time>2020-09-09T23:04:33Z</time>
      </trkpt>
      <trkpt lat="31.20242765219419" lon="121.62032208331155">
        <ele>3.6868710424751043</ele>
        <time>2020-09-09T23:05:13Z</time>
      </trkpt>
      <trkpt lat="31.202436558492675" lon="121.62036056387862">
        <ele>4.3827331475913525</ele>
        <time>2020-09-09T23:05:25Z</time>
      </trkpt>
      <trkpt lat="31.202440621165373" lon="121.62036462846558">
        <ele>4.684631038457155</ele>
        <time>2020-09-09T23:05:32Z</time>
      </trkpt>
      <trkpt lat="31.202439255629375" lon="121.62037384240207">
        <ele>4.947223882190883</ele>
        <time>2020-09-09T23:05:38Z</time>
      </trkpt>
      <trkpt lat="31.20243572072162" lon="121.62038332750947">
        <ele>5.261219755746424</ele>
        <time>2020-09-09T23:05:42Z</time>
      </trkpt>
      <trkpt lat="31.202434883223415" lon="121.62040582012594">
        <ele>5.554428605362773</ele>
        <time>2020-09-09T23:05:48Z</time>
      </trkpt>
      <trkpt lat="31.202440307372093" lon="121.62040446470489">
        <ele>5.5022037187591195</ele>
        <time>2020-09-09T23:05:54Z</time>
      </trkpt>
      <trkpt lat="31.20245252498731" lon="121.6203890170061">
        <ele>5.296033010818064</ele>
        <time>2020-09-09T23:06:00Z</time>
      </trkpt>
      <trkpt lat="31.20245143841624" lon="121.62039091405815">
        <ele>4.837235600687563</ele>
        <time>2020-09-09T23:06:07Z</time>
      </trkpt>
      <trkpt lat="31.202590005738784" lon="121.62037464291097">
        <ele>4.922186003066599</ele>
        <time>2020-09-09T23:06:18Z</time>
      </trkpt>
      <trkpt lat="31.202662927964553" lon="121.62038683163718">
        <ele>4.958436570130289</ele>
        <time>2020-09-09T23:06:21Z</time>
      </trkpt>
      <trkpt lat="31.20284736435913" lon="121.6203263845027">
        <ele>5.30293167475611</ele>
        <time>2020-09-09T23:06:27Z</time>
      </trkpt>
      <trkpt lat="31.20285367395585" lon="121.62025755109491">
        <ele>5.903851330280304</ele>
        <time>2020-09-09T23:06:30Z</time>
      </trkpt>
      <trkpt lat="31.20278030316925" lon="121.6199011950107">
        <ele>3.2492953231558204</ele>
        <time>2020-09-09T23:06:42Z</time>
      </trkpt>
      <trkpt lat="31.202773104594257" lon="121.61978520747137">
        <ele>3.2690324857831</ele>
        <time>2020-09-09T23:06:45Z</time>
      </trkpt>
      <trkpt lat="31.20267234906609" lon="121.61942342702581">
        <ele>4.928339992649853</ele>
        <time>2020-09-09T23:06:57Z</time>
      </trkpt>
      <trkpt lat="31.20261733654337" lon="121.61913399687091">
        <ele>4.464181286282837</ele>
        <time>2020-09-09T23:07:06Z</time>
      </trkpt>
      <trkpt lat="31.202506248036723" lon="121.6187936179668">
        <ele>4.162963051348925</ele>
        <time>2020-09-09T23:07:18Z</time>
      </trkpt>
      <trkpt lat="31.202722016222623" lon="121.61858031320808">
        <ele>3.336741141974926</ele>
        <time>2020-09-09T23:07:30Z</time>
      </trkpt>
      <trkpt lat="31.202787926601395" lon="121.61855591650743">
        <ele>2.7678695442155004</ele>
        <time>2020-09-09T23:07:33Z</time>
      </trkpt>
      <trkpt lat="31.202804017108708" lon="121.61846295720576">
        <ele>2.8434949461370707</ele>
        <time>2020-09-09T23:07:36Z</time>
      </trkpt>
      <trkpt lat="31.20278268119481" lon="121.61837948621574">
        <ele>3.9814231796190143</ele>
        <time>2020-09-09T23:07:39Z</time>
      </trkpt>
      <trkpt lat="31.202806970052666" lon="121.6182214814476">
        <ele>4.255077526904643</ele>
        <time>2020-09-09T23:07:45Z</time>
      </trkpt>
      <trkpt lat="31.20277139944352" lon="121.61800060408244">
        <ele>5.82300422154367</ele>
        <time>2020-09-09T23:07:54Z</time>
      </trkpt>
      <trkpt lat="31.20278261385604" lon="121.61790140964666">
        <ele>4.735623372718692</ele>
        <time>2020-09-09T23:07:57Z</time>
      </trkpt>
      <trkpt lat="31.20269135036412" lon="121.61779056934095">
        <ele>5.200106472708285</ele>
        <time>2020-09-09T23:08:00Z</time>
      </trkpt>
      <trkpt lat="31.202640217321484" lon="121.61767674396478">
        <ele>4.420589169487357</ele>
        <time>2020-09-09T23:08:03Z</time>
      </trkpt>
      <trkpt lat="31.20258524781907" lon="121.61760411411073">
        <ele>5.057413849979639</ele>
        <time>2020-09-09T23:08:06Z</time>
      </trkpt>
      <trkpt lat="31.202500084847124" lon="121.61735206729661">
        <ele>2.2179678194224834</ele>
        <time>2020-09-09T23:08:15Z</time>
      </trkpt>
      <trkpt lat="31.202620102774034" lon="121.61716884241883">
        <ele>5.677229820750654</ele>
        <time>2020-09-09T23:08:28Z</time>
      </trkpt>
      <trkpt lat="31.20285946866299" lon="121.61693329726512">
        <ele>5.86063311714679</ele>
        <time>2020-09-09T23:08:49Z</time>
      </trkpt>
      <trkpt lat="31.202997850087705" lon="121.6168251439652">
        <ele>5.149636548012495</ele>
        <time>2020-09-09T23:09:01Z</time>
      </trkpt>
      <trkpt lat="31.20307577592968" lon="121.61670859313568">
        <ele>4.432571511715651</ele>
        <time>2020-09-09T23:09:10Z</time>
      </trkpt>
      <trkpt lat="31.203200288899822" lon="121.61664272146359">
        <ele>4.763790760189295</ele>
        <time>2020-09-09T23:09:22Z</time>
      </trkpt>
      <trkpt lat="31.203354977917265" lon="121.6164911997367">
        <ele>6.721874859184027</ele>
        <time>2020-09-09T23:09:37Z</time>
      </trkpt>
      <trkpt lat="31.203499858620056" lon="121.61638981989465">
        <ele>2.0433061057701707</ele>
        <time>2020-09-09T23:09:49Z</time>
      </trkpt>
      <trkpt lat="31.20358257323924" lon="121.61637002729901">
        <ele>4.87771309632808</ele>
        <time>2020-09-09T23:09:55Z</time>
      </trkpt>
      <trkpt lat="31.2036674962123" lon="121.61630795253186">
        <ele>6.549742557108402</ele>
        <time>2020-09-09T23:10:04Z</time>
      </trkpt>
      <trkpt lat="31.203743157248507" lon="121.61629249707292">
        <ele>6.299785907380283</ele>
        <time>2020-09-09T23:10:10Z</time>
      </trkpt>
      <trkpt lat="31.20385032217095" lon="121.61622066284953">
        <ele>6.729488720186055</ele>
        <time>2020-09-09T23:10:19Z</time>
      </trkpt>
      <trkpt lat="31.203990355455705" lon="121.61608242073513">
        <ele>6.664930261671543</ele>
        <time>2020-09-09T23:10:32Z</time>
      </trkpt>
      <trkpt lat="31.204072518147612" lon="121.6160729275014">
        <ele>6.868534962646663</ele>
        <time>2020-09-09T23:10:38Z</time>
      </trkpt>
      <trkpt lat="31.204199459238282" lon="121.61601870871495">
        <ele>7.0852478332817554</ele>
        <time>2020-09-09T23:10:47Z</time>
      </trkpt>
      <trkpt lat="31.204261486434007" lon="121.61608700600586">
        <ele>7.46926632989198</ele>
        <time>2020-09-09T23:10:53Z</time>
      </trkpt>
      <trkpt lat="31.2043452340299" lon="121.61612304750165">
        <ele>6.349725833162665</ele>
        <time>2020-09-09T23:10:59Z</time>
      </trkpt>
      <trkpt lat="31.204388286515098" lon="121.61618592527246">
        <ele>6.2896032854914665</ele>
        <time>2020-09-09T23:11:05Z</time>
      </trkpt>
      <trkpt lat="31.204580654957315" lon="121.61633443875944">
        <ele>8.589810270816088</ele>
        <time>2020-09-09T23:11:23Z</time>
      </trkpt>
      <trkpt lat="31.204575566518958" lon="121.61626640849116">
        <ele>7.503658448345959</ele>
        <time>2020-09-09T23:11:26Z</time>
      </trkpt>
      <trkpt lat="31.204545282113145" lon="121.61617696796895">
        <ele>6.87504527438432</ele>
        <time>2020-09-09T23:11:32Z</time>
      </trkpt>
      <trkpt lat="31.204330491084068" lon="121.61593846939103">
        <ele>5.531157362274826</ele>
        <time>2020-09-09T23:11:53Z</time>
      </trkpt>
      <trkpt lat="31.204261128517572" lon="121.61588589280129">
        <ele>6.136184525676072</ele>
        <time>2020-09-09T23:11:59Z</time>
      </trkpt>
      <trkpt lat="31.2042069696695" lon="121.6158110892381">
        <ele>7.834079471416771</ele>
        <time>2020-09-09T23:12:05Z</time>
      </trkpt>
      <trkpt lat="31.20408205785569" lon="121.61572138382283">
        <ele>7.512829467654228</ele>
        <time>2020-09-09T23:12:14Z</time>
      </trkpt>
      <trkpt lat="31.203877005325534" lon="121.61550347957815">
        <ele>6.522467008791864</ele>
        <time>2020-09-09T23:12:33Z</time>
      </trkpt>
      <trkpt lat="31.203691441890157" lon="121.61532026612313">
        <ele>6.326937877573073</ele>
        <time>2020-09-09T23:12:50Z</time>
      </trkpt>
      <trkpt lat="31.203616106206184" lon="121.61527554913587">
        <ele>6.367817081511021</ele>
        <time>2020-09-09T23:12:56Z</time>
      </trkpt>
      <trkpt lat="31.203739396011294" lon="121.61505625844433">
        <ele>6.597167349420488</ele>
        <time>2020-09-09T23:13:08Z</time>
      </trkpt>
      <trkpt lat="31.203984474914805" lon="121.61477840772633">
        <ele>6.237480238080025</ele>
        <time>2020-09-09T23:13:20Z</time>
      </trkpt>
      <trkpt lat="31.204047994450644" lon="121.61469356189859">
        <ele>6.026350609958172</ele>
        <time>2020-09-09T23:13:23Z</time>
      </trkpt>
      <trkpt lat="31.20412559678143" lon="121.61462714651431">
        <ele>6.830237176269293</ele>
        <time>2020-09-09T23:13:26Z</time>
      </trkpt>
      <trkpt lat="31.204165512329514" lon="121.61455937877138">
        <ele>5.222391285002232</ele>
        <time>2020-09-09T23:13:29Z</time>
      </trkpt>
      <trkpt lat="31.20431718234464" lon="121.61443711868839">
        <ele>6.437957977876067</ele>
        <time>2020-09-09T23:13:35Z</time>
      </trkpt>
      <trkpt lat="31.204542430806285" lon="121.61419612690811">
        <ele>6.762711247429252</ele>
        <time>2020-09-09T23:13:44Z</time>
      </trkpt>
      <trkpt lat="31.20467836718169" lon="121.61408118497839">
        <ele>6.54184961784631</ele>
        <time>2020-09-09T23:13:50Z</time>
      </trkpt>
      <trkpt lat="31.2048237596745" lon="121.61400554608986">
        <ele>5.5804521180689335</ele>
        <time>2020-09-09T23:13:56Z</time>
      </trkpt>
      <trkpt lat="31.204945918059945" lon="121.61383015662946">
        <ele>6.491599962115288</ele>
        <time>2020-09-09T23:14:02Z</time>
      </trkpt>
      <trkpt lat="31.205076976547726" lon="121.61371033410644">
        <ele>6.238326728343964</ele>
        <time>2020-09-09T23:14:08Z</time>
      </trkpt>
      <trkpt lat="31.20512884003811" lon="121.6136181665691">
        <ele>6.679541406221688</ele>
        <time>2020-09-09T23:14:11Z</time>
      </trkpt>
      <trkpt lat="31.20526018349236" lon="121.61348045230035">
        <ele>5.73139722365886</ele>
        <time>2020-09-09T23:14:17Z</time>
      </trkpt>
      <trkpt lat="31.20533557189183" lon="121.61346499504313">
        <ele>4.760611747391522</ele>
        <time>2020-09-09T23:14:20Z</time>
      </trkpt>
      <trkpt lat="31.20539422538825" lon="121.61335764596252">
        <ele>6.667299292981625</ele>
        <time>2020-09-09T23:14:23Z</time>
      </trkpt>
      <trkpt lat="31.205464496986085" lon="121.61329963069174">
        <ele>3.5480665042996407</ele>
        <time>2020-09-09T23:14:26Z</time>
      </trkpt>
      <trkpt lat="31.205567910334562" lon="121.6131638143862">
        <ele>1.890412681736052</ele>
        <time>2020-09-09T23:14:32Z</time>
      </trkpt>
      <trkpt lat="31.205720124776953" lon="121.61303124616693">
        <ele>6.970593510195613</ele>
        <time>2020-09-09T23:14:43Z</time>
      </trkpt>
      <trkpt lat="31.205932913515674" lon="121.61275906700403">
        <ele>6.986858027987182</ele>
        <time>2020-09-09T23:14:54Z</time>
      </trkpt>
      <trkpt lat="31.206046087177874" lon="121.61262053594795">
        <ele>8.097781420685351</ele>
        <time>2020-09-09T23:15:01Z</time>
      </trkpt>
      <trkpt lat="31.206170870676743" lon="121.61254326757356">
        <ele>7.598564049229026</ele>
        <time>2020-09-09T23:15:07Z</time>
      </trkpt>
      <trkpt lat="31.20636980183956" lon="121.61230280072381">
        <ele>6.165569386444986</ele>
        <time>2020-09-09T23:15:16Z</time>
      </trkpt>
      <trkpt lat="31.20661476151505" lon="121.61214311135168">
        <ele>7.831334684044123</ele>
        <time>2020-09-09T23:15:34Z</time>
      </trkpt>
      <trkpt lat="31.206805491649654" lon="121.61198532297776">
        <ele>11.038528916426003</ele>
        <time>2020-09-09T23:15:49Z</time>
      </trkpt>
      <trkpt lat="31.20687963947333" lon="121.61181832611383">
        <ele>8.43653642758727</ele>
        <time>2020-09-09T23:15:58Z</time>
      </trkpt>
      <trkpt lat="31.206866958738416" lon="121.61173591570568">
        <ele>7.145401807501912</ele>
        <time>2020-09-09T23:16:13Z</time>
      </trkpt>
      <trkpt lat="31.206843374649946" lon="121.61172968256638">
        <ele>7.111504609696567</ele>
        <time>2020-09-09T23:16:23Z</time>
      </trkpt>
      <trkpt lat="31.206843374649946" lon="121.61172968256638">
        <ele>7.111504609696567</ele>
        <time>2020-09-09T23:16:27Z</time>
      </trkpt>
      <trkpt lat="31.20679706029973" lon="121.61166381121866">
        <ele>7.813229652121663</ele>
        <time>2020-09-09T23:16:36Z</time>
      </trkpt>
      <trkpt lat="31.206522569055156" lon="121.61143855564757">
        <ele>6.5814263839274645</ele>
        <time>2020-09-09T23:16:50Z</time>
      </trkpt>
      <trkpt lat="31.20644182257109" lon="121.61136889098037">
        <ele>5.61400637216866</ele>
        <time>2020-09-09T23:16:54Z</time>
      </trkpt>
      <trkpt lat="31.206360232499264" lon="121.61133961943312">
        <ele>7.13062799256295</ele>
        <time>2020-09-09T23:16:58Z</time>
      </trkpt>
      <trkpt lat="31.20632420969276" lon="121.61128811421258">
        <ele>6.944959036074579</ele>
        <time>2020-09-09T23:17:02Z</time>
      </trkpt>
      <trkpt lat="31.206311510069295" lon="121.61122901623912">
        <ele>7.8853006940335035</ele>
        <time>2020-09-09T23:17:06Z</time>
      </trkpt>
      <trkpt lat="31.206164663124344" lon="121.61108155125234">
        <ele>7.685240332968533</ele>
        <time>2020-09-09T23:17:19Z</time>
      </trkpt>
      <trkpt lat="31.2060991834612" lon="121.61089639561595">
        <ele>7.316753262653947</ele>
        <time>2020-09-09T23:17:31Z</time>
      </trkpt>
      <trkpt lat="31.20599109356309" lon="121.61076763134018">
        <ele>7.04570325370878</ele>
        <time>2020-09-09T23:17:40Z</time>
      </trkpt>
      <trkpt lat="31.20594695875837" lon="121.61068386423497">
        <ele>6.892522371374071</ele>
        <time>2020-09-09T23:17:46Z</time>
      </trkpt>
      <trkpt lat="31.20590387698139" lon="121.61064374447841">
        <ele>8.077564892359078</ele>
        <time>2020-09-09T23:17:52Z</time>
      </trkpt>
      <trkpt lat="31.205808282950926" lon="121.61048000513222">
        <ele>7.800960651598871</ele>
        <time>2020-09-09T23:18:04Z</time>
      </trkpt>
      <trkpt lat="31.205709684769747" lon="121.61034554446067">
        <ele>7.603127370588481</ele>
        <time>2020-09-09T23:18:19Z</time>
      </trkpt>
      <trkpt lat="31.205641739386618" lon="121.61018939173417">
        <ele>8.3513153353706</ele>
        <time>2020-09-09T23:18:31Z</time>
      </trkpt>
      <trkpt lat="31.205606245054852" lon="121.61015442155845">
        <ele>8.588411232456565</ele>
        <time>2020-09-09T23:18:34Z</time>
      </trkpt>
      <trkpt lat="31.20549565179559" lon="121.61011132423518">
        <ele>7.513294881209731</ele>
        <time>2020-09-09T23:18:40Z</time>
      </trkpt>
      <trkpt lat="31.20544145353089" lon="121.61006984883132">
        <ele>7.018422430381179</ele>
        <time>2020-09-09T23:18:43Z</time>
      </trkpt>
      <trkpt lat="31.205216879992136" lon="121.60978275944126">
        <ele>6.28832886647433</ele>
        <time>2020-09-09T23:19:06Z</time>
      </trkpt>
      <trkpt lat="31.204993630684104" lon="121.6095376894577">
        <ele>7.267512739636004</ele>
        <time>2020-09-09T23:19:29Z</time>
      </trkpt>
      <trkpt lat="31.204915574879674" lon="121.60949133485403">
        <ele>8.03624223638326</ele>
        <time>2020-09-09T23:19:35Z</time>
      </trkpt>
      <trkpt lat="31.204777937862897" lon="121.60934223107483">
        <ele>8.32334095891565</ele>
        <time>2020-09-09T23:19:50Z</time>
      </trkpt>
      <trkpt lat="31.204737339024476" lon="121.60923459978362">
        <ele>8.03575444035232</ele>
        <time>2020-09-09T23:19:56Z</time>
      </trkpt>
      <trkpt lat="31.204762866765243" lon="121.60917251095427">
        <ele>8.512963337823749</ele>
        <time>2020-09-09T23:19:59Z</time>
      </trkpt>
      <trkpt lat="31.204960694939935" lon="121.60891194539963">
        <ele>7.873651280999184</ele>
        <time>2020-09-09T23:20:23Z</time>
      </trkpt>
      <trkpt lat="31.20506736112416" lon="121.60874166969705">
        <ele>6.6172594064846635</ele>
        <time>2020-09-09T23:20:38Z</time>
      </trkpt>
      <trkpt lat="31.205147087304194" lon="121.60872241310676">
        <ele>7.11159576755017</ele>
        <time>2020-09-09T23:20:44Z</time>
      </trkpt>
      <trkpt lat="31.205220059562883" lon="121.60866492810169">
        <ele>7.609458409249783</ele>
        <time>2020-09-09T23:20:50Z</time>
      </trkpt>
      <trkpt lat="31.205261900922352" lon="121.60852908930967">
        <ele>8.45612788386643</ele>
        <time>2020-09-09T23:20:57Z</time>
      </trkpt>
    </trkseg>
  </trk>
</gpx>