<?xml version="1.0" encoding="UTF-8"?>
<gpx xmlns="http://www.topografix.com/GPX/1/1" xmlns:gpxtpx="http://www.garmin.com/xmlschemas/TrackPointExtension/v1" xmlns:xsi="http://www.w3.org/2001/XMLSchema-instance" xsi:schemaLocation="http://www.topografix.com/GPX/1/1 http://www.topografix.com/GPX/1/1/gpx.xsd" version="1.1" creator="gpx.py -- https://github.com/tkrajina/gpxpy">
  <trk>
    <name>gpx from keep</name>
    <type>Run</type>
    <trkseg>
      <trkpt lat="31.149845851411904" lon="121.346234820224">
        <ele>15.888117305418957</ele>
        <time>2020-08-01T13:15:11Z</time>
      </trkpt>
      <trkpt lat="31.14981800970564" lon="121.34618582252565">
        <ele>14.763332115486264</ele>
        <time>2020-08-01T13:15:18Z</time>
      </trkpt>
      <trkpt lat="31.149808080843286" lon="121.34612599459962">
        <ele>14.59437464363873</ele>
        <time>2020-08-01T13:15:30Z</time>
      </trkpt>
      <trkpt lat="31.14975321243265" lon="121.346027187259">
        <ele>8.80550967156887</ele>
        <time>2020-08-01T13:15:36Z</time>
      </trkpt>
      <trkpt lat="31.149744898373946" lon="121.3459743980488">
        <ele>9.61540334764868</ele>
        <time>2020-08-01T13:15:39Z</time>
      </trkpt>
      <trkpt lat="31.149636381664855" lon="121.34585583332982">
        <ele>9.132173356600106</ele>
        <time>2020-08-01T13:15:45Z</time>
      </trkpt>
      <trkpt lat="31.149695072779952" lon="121.34578138121903">
        <ele>6.432799740694463</ele>
        <time>2020-08-01T13:15:54Z</time>
      </trkpt>
      <trkpt lat="31.14990189080264" lon="121.34565304401144">
        <ele>7.930412697605789</ele>
        <time>2020-08-01T13:16:09Z</time>
      </trkpt>
      <trkpt lat="31.149952724261404" lon="121.34557588574553">
        <ele>8.233639249578118</ele>
        <time>2020-08-01T13:16:15Z</time>
      </trkpt>
      <trkpt lat="31.149994514348126" lon="121.3455544956477">
        <ele>9.106000801548362</ele>
        <time>2020-08-01T13:16:18Z</time>
      </trkpt>
      <trkpt lat="31.150054277257684" lon="121.34548762392613">
        <ele>8.864792061969638</ele>
        <time>2020-08-01T13:16:21Z</time>
      </trkpt>
      <trkpt lat="31.1501272761707" lon="121.34544917616276">
        <ele>8.047785052098334</ele>
        <time>2020-08-01T13:16:24Z</time>
      </trkpt>
      <trkpt lat="31.15020375617557" lon="121.34543590455841">
        <ele>9.26699310168624</ele>
        <time>2020-08-01T13:16:27Z</time>
      </trkpt>
      <trkpt lat="31.150277295504935" lon="121.34539853964654">
        <ele>10.637779202312231</ele>
        <time>2020-08-01T13:16:30Z</time>
      </trkpt>
      <trkpt lat="31.15036418604143" lon="121.34532300296203">
        <ele>9.182240485213697</ele>
        <time>2020-08-01T13:16:36Z</time>
      </trkpt>
      <trkpt lat="31.1504379679713" lon="121.34530215164396">
        <ele>8.893252216279507</ele>
        <time>2020-08-01T13:16:39Z</time>
      </trkpt>
      <trkpt lat="31.150653314582236" lon="121.34510315897398">
        <ele>11.620394244790077</ele>
        <time>2020-08-01T13:16:54Z</time>
      </trkpt>
      <trkpt lat="31.150858649116373" lon="121.3448933395272">
        <ele>11.342934579588473</ele>
        <time>2020-08-01T13:17:09Z</time>
      </trkpt>
      <trkpt lat="31.15103777542437" lon="121.3447874760566">
        <ele>9.839637354016304</ele>
        <time>2020-08-01T13:17:19Z</time>
      </trkpt>
      <trkpt lat="31.151115331168146" lon="121.34477934804384">
        <ele>10.653962668031454</ele>
        <time>2020-08-01T13:17:22Z</time>
      </trkpt>
      <trkpt lat="31.151230741636926" lon="121.34483023172557">
        <ele>9.336628098972142</ele>
        <time>2020-08-01T13:17:28Z</time>
      </trkpt>
      <trkpt lat="31.151425715377005" lon="121.34512204220923">
        <ele>8.79702694248408</ele>
        <time>2020-08-01T13:17:46Z</time>
      </trkpt>
      <trkpt lat="31.151598715438986" lon="121.345421977762">
        <ele>8.041069560684264</ele>
        <time>2020-08-01T13:18:01Z</time>
      </trkpt>
      <trkpt lat="31.15164441658268" lon="121.34549073529215">
        <ele>7.36557980440557</ele>
        <time>2020-08-01T13:18:04Z</time>
      </trkpt>
      <trkpt lat="31.151692717314862" lon="121.34562419363613">
        <ele>7.653651274740696</ele>
        <time>2020-08-01T13:18:10Z</time>
      </trkpt>
      <trkpt lat="31.151738681885732" lon="121.34569755360283">
        <ele>6.546627621166408</ele>
        <time>2020-08-01T13:18:16Z</time>
      </trkpt>
      <trkpt lat="31.15174561020574" lon="121.34576766845645">
        <ele>4.145785365253687</ele>
        <time>2020-08-01T13:18:19Z</time>
      </trkpt>
      <trkpt lat="31.151797531308464" lon="121.3458459010305">
        <ele>5.040872722864151</ele>
        <time>2020-08-01T13:18:22Z</time>
      </trkpt>
      <trkpt lat="31.15181596259393" lon="121.3460064347021">
        <ele>5.133943744935095</ele>
        <time>2020-08-01T13:18:29Z</time>
      </trkpt>
      <trkpt lat="31.151806098780302" lon="121.34606653489882">
        <ele>3.199763893149793</ele>
        <time>2020-08-01T13:18:32Z</time>
      </trkpt>
      <trkpt lat="31.151835016083435" lon="121.34612067602363">
        <ele>4.469284011051059</ele>
        <time>2020-08-01T13:18:35Z</time>
      </trkpt>
      <trkpt lat="31.151824789735986" lon="121.34623410799472">
        <ele>6.698905005119741</ele>
        <time>2020-08-01T13:18:41Z</time>
      </trkpt>
      <trkpt lat="31.151873678531235" lon="121.34634185002946">
        <ele>5.72111651673913</ele>
        <time>2020-08-01T13:18:50Z</time>
      </trkpt>
      <trkpt lat="31.15195460798692" lon="121.34642170537936">
        <ele>6.393058189190924</ele>
        <time>2020-08-01T13:19:00Z</time>
      </trkpt>
      <trkpt lat="31.15199052669699" lon="121.34650400123658">
        <ele>8.129561346024275</ele>
        <time>2020-08-01T13:19:06Z</time>
      </trkpt>
      <trkpt lat="31.15208137327016" lon="121.34665099485997">
        <ele>8.692708312533796</ele>
        <time>2020-08-01T13:19:18Z</time>
      </trkpt>
      <trkpt lat="31.152083119984976" lon="121.34673952068093">
        <ele>10.042824405245483</ele>
        <time>2020-08-01T13:19:25Z</time>
      </trkpt>
      <trkpt lat="31.152139146258094" lon="121.34679609675457">
        <ele>11.812685850076377</ele>
        <time>2020-08-01T13:19:31Z</time>
      </trkpt>
      <trkpt lat="31.152169954763846" lon="121.3468545701333">
        <ele>9.230636786669493</ele>
        <time>2020-08-01T13:19:38Z</time>
      </trkpt>
      <trkpt lat="31.152166882429942" lon="121.34690736133103">
        <ele>8.644135584123433</ele>
        <time>2020-08-01T13:19:47Z</time>
      </trkpt>
      <trkpt lat="31.1522863386957" lon="121.3469717831123">
        <ele>8.65011653676629</ele>
        <time>2020-08-01T13:20:02Z</time>
      </trkpt>
      <trkpt lat="31.15230382037074" lon="121.34705489372472">
        <ele>7.565287314355373</ele>
        <time>2020-08-01T13:20:08Z</time>
      </trkpt>
      <trkpt lat="31.15229611840105" lon="121.34711986814197">
        <ele>7.275008277967572</ele>
        <time>2020-08-01T13:20:11Z</time>
      </trkpt>
      <trkpt lat="31.15206399877695" lon="121.34730127373851">
        <ele>10.273086030967534</ele>
        <time>2020-08-01T13:20:26Z</time>
      </trkpt>
      <trkpt lat="31.151841351286798" lon="121.34749323758656">
        <ele>11.166514758951962</ele>
        <time>2020-08-01T13:20:41Z</time>
      </trkpt>
      <trkpt lat="31.151792496158482" lon="121.3475243753554">
        <ele>9.80159502942115</ele>
        <time>2020-08-01T13:20:44Z</time>
      </trkpt>
      <trkpt lat="31.15155593897544" lon="121.34776561386293">
        <ele>9.763322605751455</ele>
        <time>2020-08-01T13:20:59Z</time>
      </trkpt>
      <trkpt lat="31.151362036083775" lon="121.34795541142292">
        <ele>8.538813606835902</ele>
        <time>2020-08-01T13:21:11Z</time>
      </trkpt>
      <trkpt lat="31.15126428769935" lon="121.34804069967277">
        <ele>9.465064441785216</ele>
        <time>2020-08-01T13:21:17Z</time>
      </trkpt>
      <trkpt lat="31.151148276314146" lon="121.34818419673324">
        <ele>11.116652105003595</ele>
        <time>2020-08-01T13:21:23Z</time>
      </trkpt>
      <trkpt lat="31.15086668703304" lon="121.34844249893257">
        <ele>10.441857961006463</ele>
        <time>2020-08-01T13:21:42Z</time>
      </trkpt>
      <trkpt lat="31.150708693246383" lon="121.34856163497709">
        <ele>9.210432742722332</ele>
        <time>2020-08-01T13:21:51Z</time>
      </trkpt>
      <trkpt lat="31.150515823665717" lon="121.34878392409806">
        <ele>7.247496587224305</ele>
        <time>2020-08-01T13:22:03Z</time>
      </trkpt>
      <trkpt lat="31.150350491413647" lon="121.34891443262245">
        <ele>3.113484346307814</ele>
        <time>2020-08-01T13:22:21Z</time>
      </trkpt>
      <trkpt lat="31.150281572178713" lon="121.34894665609602">
        <ele>3.6048597022891045</ele>
        <time>2020-08-01T13:22:27Z</time>
      </trkpt>
      <trkpt lat="31.150224932883926" lon="121.34893122906232">
        <ele>4.132640562020242</ele>
        <time>2020-08-01T13:22:33Z</time>
      </trkpt>
      <trkpt lat="31.15006501116672" lon="121.34874362360361">
        <ele>0.43722688872367144</ele>
        <time>2020-08-01T13:22:54Z</time>
      </trkpt>
      <trkpt lat="31.150005713128255" lon="121.34869679172081">
        <ele>1.8073033364489675</ele>
        <time>2020-08-01T13:23:00Z</time>
      </trkpt>
      <trkpt lat="31.14995869173646" lon="121.34860447559637">
        <ele>0.4937612134963274</ele>
        <time>2020-08-01T13:23:06Z</time>
      </trkpt>
      <trkpt lat="31.149899150781298" lon="121.34854085843988">
        <ele>2.266901704482734</ele>
        <time>2020-08-01T13:23:12Z</time>
      </trkpt>
      <trkpt lat="31.14987239736386" lon="121.34848833858418">
        <ele>3.88325385004282</ele>
        <time>2020-08-01T13:23:15Z</time>
      </trkpt>
      <trkpt lat="31.14985653477579" lon="121.34840847389766">
        <ele>0.30091691482812166</ele>
        <time>2020-08-01T13:23:18Z</time>
      </trkpt>
      <trkpt lat="31.14974733615377" lon="121.34820841274102">
        <ele>0.16653761453926563</ele>
        <time>2020-08-01T13:23:30Z</time>
      </trkpt>
      <trkpt lat="31.149664513929757" lon="121.34796286768146">
        <ele>1.602505574002862</ele>
        <time>2020-08-01T13:23:40Z</time>
      </trkpt>
      <trkpt lat="31.14958257177548" lon="121.34783915162144">
        <ele>3.2910735113546252</ele>
        <time>2020-08-01T13:23:47Z</time>
      </trkpt>
      <trkpt lat="31.149558015017224" lon="121.34777065946541">
        <ele>4.799864334054291</ele>
        <time>2020-08-01T13:23:50Z</time>
      </trkpt>
      <trkpt lat="31.149520679850077" lon="121.34772328528763">
        <ele>4.149177369661629</ele>
        <time>2020-08-01T13:23:53Z</time>
      </trkpt>
      <trkpt lat="31.14950292788334" lon="121.34763909053643">
        <ele>4.372180529870093</ele>
        <time>2020-08-01T13:23:56Z</time>
      </trkpt>
      <trkpt lat="31.149450121360125" lon="121.34760200546509">
        <ele>1.7077679419890046</ele>
        <time>2020-08-01T13:23:59Z</time>
      </trkpt>
      <trkpt lat="31.149298490590954" lon="121.3473245241334">
        <ele>5.654648645780981</ele>
        <time>2020-08-01T13:24:11Z</time>
      </trkpt>
      <trkpt lat="31.149243000313586" lon="121.34711173925064">
        <ele>4.862548837438226</ele>
        <time>2020-08-01T13:24:20Z</time>
      </trkpt>
      <trkpt lat="31.149252206257103" lon="121.34695959175124">
        <ele>0.5630710516124964</ele>
        <time>2020-08-01T13:24:26Z</time>
      </trkpt>
      <trkpt lat="31.149168782199606" lon="121.34659358263711">
        <ele>2.1408863812685013</ele>
        <time>2020-08-01T13:24:44Z</time>
      </trkpt>
      <trkpt lat="31.149116411022646" lon="121.34646093403877">
        <ele>3.7217405093833804</ele>
        <time>2020-08-01T13:24:50Z</time>
      </trkpt>
      <trkpt lat="31.149102723233774" lon="121.34637944849396">
        <ele>4.272141421213746</ele>
        <time>2020-08-01T13:24:53Z</time>
      </trkpt>
      <trkpt lat="31.149110703215186" lon="121.34631095575124">
        <ele>9.074459673836827</ele>
        <time>2020-08-01T13:24:59Z</time>
      </trkpt>
      <trkpt lat="31.149250422683018" lon="121.34625815344418">
        <ele>12.356257502920926</ele>
        <time>2020-08-01T13:25:11Z</time>
      </trkpt>
      <trkpt lat="31.149377220274406" lon="121.34615175002806">
        <ele>8.823019028641284</ele>
        <time>2020-08-01T13:25:23Z</time>
      </trkpt>
      <trkpt lat="31.149374091885505" lon="121.34607892709096">
        <ele>7.556690962053835</ele>
        <time>2020-08-01T13:25:29Z</time>
      </trkpt>
      <trkpt lat="31.149431152229813" lon="121.34600664050839">
        <ele>8.547303734347224</ele>
        <time>2020-08-01T13:25:35Z</time>
      </trkpt>
      <trkpt lat="31.149512851428234" lon="121.34595384355332">
        <ele>7.709882763214409</ele>
        <time>2020-08-01T13:25:42Z</time>
      </trkpt>
      <trkpt lat="31.14958338006408" lon="121.34593272152179">
        <ele>8.45319835562259</ele>
        <time>2020-08-01T13:25:48Z</time>
      </trkpt>
      <trkpt lat="31.149834338343155" lon="121.3456776849652">
        <ele>8.117837153375149</ele>
        <time>2020-08-01T13:26:08Z</time>
      </trkpt>
      <trkpt lat="31.149938578108834" lon="121.34560349991926">
        <ele>9.890924052335322</ele>
        <time>2020-08-01T13:26:14Z</time>
      </trkpt>
      <trkpt lat="31.149967167746738" lon="121.34553311152499">
        <ele>8.078756055794656</ele>
        <time>2020-08-01T13:26:17Z</time>
      </trkpt>
      <trkpt lat="31.150143775898634" lon="121.34547164404212">
        <ele>5.574163845740259</ele>
        <time>2020-08-01T13:26:26Z</time>
      </trkpt>
      <trkpt lat="31.15018694084762" lon="121.34543915458171">
        <ele>5.532040800899267</ele>
        <time>2020-08-01T13:26:29Z</time>
      </trkpt>
      <trkpt lat="31.150316054577484" lon="121.34540530415634">
        <ele>4.112854068167508</ele>
        <time>2020-08-01T13:26:35Z</time>
      </trkpt>
      <trkpt lat="31.150418100418584" lon="121.34534573826802">
        <ele>-0.13826222252100706</ele>
        <time>2020-08-01T13:26:41Z</time>
      </trkpt>
      <trkpt lat="31.15050583630097" lon="121.34525179308415">
        <ele>2.624252248555422</ele>
        <time>2020-08-01T13:26:47Z</time>
      </trkpt>
      <trkpt lat="31.150608445213575" lon="121.34518031596684">
        <ele>2.458966194652021</ele>
        <time>2020-08-01T13:26:53Z</time>
      </trkpt>
      <trkpt lat="31.150654899522358" lon="121.34512725225504">
        <ele>3.1005502436310053</ele>
        <time>2020-08-01T13:26:56Z</time>
      </trkpt>
      <trkpt lat="31.15074855584932" lon="121.34505902464045">
        <ele>6.658090407960117</ele>
        <time>2020-08-01T13:27:02Z</time>
      </trkpt>
      <trkpt lat="31.150829143269842" lon="121.34502247154786">
        <ele>6.498209211975336</ele>
        <time>2020-08-01T13:27:05Z</time>
      </trkpt>
      <trkpt lat="31.150931868257242" lon="121.34488439973714">
        <ele>5.367592707276344</ele>
        <time>2020-08-01T13:27:11Z</time>
      </trkpt>
      <trkpt lat="31.15109987707141" lon="121.34477934937712">
        <ele>3.02926167845726</ele>
        <time>2020-08-01T13:27:20Z</time>
      </trkpt>
      <trkpt lat="31.151158435252633" lon="121.34478205143225">
        <ele>4.0005646869540215</ele>
        <time>2020-08-01T13:27:23Z</time>
      </trkpt>
      <trkpt lat="31.15120498951747" lon="121.34482752683756">
        <ele>4.004916685633361</ele>
        <time>2020-08-01T13:27:26Z</time>
      </trkpt>
      <trkpt lat="31.15138508098485" lon="121.34510228369992">
        <ele>3.460316135548055</ele>
        <time>2020-08-01T13:27:41Z</time>
      </trkpt>
      <trkpt lat="31.151499791329694" lon="121.3452443980637">
        <ele>5.9439085107296705</ele>
        <time>2020-08-01T13:27:48Z</time>
      </trkpt>
      <trkpt lat="31.151560287883658" lon="121.34538029109834">
        <ele>4.920334237627685</ele>
        <time>2020-08-01T13:27:54Z</time>
      </trkpt>
      <trkpt lat="31.151667934704754" lon="121.34553106976362">
        <ele>11.639791294001043</ele>
        <time>2020-08-01T13:28:02Z</time>
      </trkpt>
      <trkpt lat="31.151805109741133" lon="121.34585348044403">
        <ele>10.350828039459884</ele>
        <time>2020-08-01T13:28:20Z</time>
      </trkpt>
      <trkpt lat="31.151839571389644" lon="121.34599425037425">
        <ele>7.912812070921063</ele>
        <time>2020-08-01T13:28:26Z</time>
      </trkpt>
      <trkpt lat="31.151829981479757" lon="121.34605272622446">
        <ele>5.1279191905632615</ele>
        <time>2020-08-01T13:28:29Z</time>
      </trkpt>
      <trkpt lat="31.151847214136122" lon="121.34628012829815">
        <ele>6.234555854462087</ele>
        <time>2020-08-01T13:28:38Z</time>
      </trkpt>
      <trkpt lat="31.15182270617096" lon="121.34634239586799">
        <ele>4.701564831659198</ele>
        <time>2020-08-01T13:28:41Z</time>
      </trkpt>
      <trkpt lat="31.15186625055917" lon="121.34640465764795">
        <ele>4.549198436550796</ele>
        <time>2020-08-01T13:28:44Z</time>
      </trkpt>
      <trkpt lat="31.15192955653809" lon="121.3464847853479">
        <ele>9.053501679562032</ele>
        <time>2020-08-01T13:28:50Z</time>
      </trkpt>
      <trkpt lat="31.152007575131055" lon="121.34652295020373">
        <ele>9.27899141702801</ele>
        <time>2020-08-01T13:28:56Z</time>
      </trkpt>
      <trkpt lat="31.15219054312881" lon="121.34670567118472">
        <ele>3.5393516467884183</ele>
        <time>2020-08-01T13:29:23Z</time>
      </trkpt>
      <trkpt lat="31.152209392030663" lon="121.34678174241523">
        <ele>3.6970968693494797</ele>
        <time>2020-08-01T13:29:29Z</time>
      </trkpt>
      <trkpt lat="31.15226054133796" lon="121.34683642390488">
        <ele>3.5695738922804594</ele>
        <time>2020-08-01T13:29:35Z</time>
      </trkpt>
      <trkpt lat="31.152297286958873" lon="121.34691114019458">
        <ele>4.952634633518755</ele>
        <time>2020-08-01T13:29:41Z</time>
      </trkpt>
      <trkpt lat="31.152335464821803" lon="121.34694091642882">
        <ele>5.354719776660204</ele>
        <time>2020-08-01T13:29:47Z</time>
      </trkpt>
      <trkpt lat="31.152347783104464" lon="121.34703106624386">
        <ele>5.558037000708282</ele>
        <time>2020-08-01T13:29:54Z</time>
      </trkpt>
      <trkpt lat="31.152278207144445" lon="121.34712988648343">
        <ele>7.62763406522572</ele>
        <time>2020-08-01T13:30:02Z</time>
      </trkpt>
      <trkpt lat="31.152041453642138" lon="121.34732591169062">
        <ele>9.838950009085238</ele>
        <time>2020-08-01T13:30:28Z</time>
      </trkpt>
      <trkpt lat="31.151913241944598" lon="121.34746805382866">
        <ele>8.810065320692956</ele>
        <time>2020-08-01T13:30:40Z</time>
      </trkpt>
      <trkpt lat="31.151802217250996" lon="121.34754765701199">
        <ele>9.554392600432038</ele>
        <time>2020-08-01T13:30:46Z</time>
      </trkpt>
      <trkpt lat="31.151752219978285" lon="121.34761290652786">
        <ele>7.624674609862268</ele>
        <time>2020-08-01T13:30:49Z</time>
      </trkpt>
      <trkpt lat="31.151697156510483" lon="121.3476278012787">
        <ele>7.4556690929457545</ele>
        <time>2020-08-01T13:30:52Z</time>
      </trkpt>
      <trkpt lat="31.151597174588048" lon="121.34775099098711">
        <ele>8.951894973404706</ele>
        <time>2020-08-01T13:30:58Z</time>
      </trkpt>
      <trkpt lat="31.151548046666576" lon="121.34778321187508">
        <ele>9.166853168047965</ele>
        <time>2020-08-01T13:31:01Z</time>
      </trkpt>
      <trkpt lat="31.151510247558743" lon="121.34785008506003">
        <ele>10.264806529507041</ele>
        <time>2020-08-01T13:31:04Z</time>
      </trkpt>
      <trkpt lat="31.151400045506666" lon="121.34792454501307">
        <ele>8.752032059244812</ele>
        <time>2020-08-01T13:31:10Z</time>
      </trkpt>
      <trkpt lat="31.151229247513925" lon="121.34807941708007">
        <ele>6.411056561395526</ele>
        <time>2020-08-01T13:31:19Z</time>
      </trkpt>
      <trkpt lat="31.151135488903485" lon="121.34821072945616">
        <ele>5.226157502271235</ele>
        <time>2020-08-01T13:31:25Z</time>
      </trkpt>
      <trkpt lat="31.150987539326874" lon="121.34832201277023">
        <ele>6.8507733307778835</ele>
        <time>2020-08-01T13:31:34Z</time>
      </trkpt>
      <trkpt lat="31.150806133815237" lon="121.34849773359697">
        <ele>3.969410843215883</ele>
        <time>2020-08-01T13:31:46Z</time>
      </trkpt>
      <trkpt lat="31.150645158246714" lon="121.3486165993204">
        <ele>3.2844151947647333</ele>
        <time>2020-08-01T13:31:55Z</time>
      </trkpt>
      <trkpt lat="31.150557125827017" lon="121.34872923219149">
        <ele>4.694273103028536</ele>
        <time>2020-08-01T13:32:02Z</time>
      </trkpt>
      <trkpt lat="31.15045641039771" lon="121.34880612946635">
        <ele>4.053390331566334</ele>
        <time>2020-08-01T13:32:08Z</time>
      </trkpt>
      <trkpt lat="31.15034778287544" lon="121.34891280844417">
        <ele>5.233826359733939</ele>
        <time>2020-08-01T13:32:15Z</time>
      </trkpt>
      <trkpt lat="31.1502886290746" lon="121.34894205298197">
        <ele>4.426688523031771</ele>
        <time>2020-08-01T13:32:18Z</time>
      </trkpt>
      <trkpt lat="31.15023525409366" lon="121.34892012801775">
        <ele>5.005034703761339</ele>
        <time>2020-08-01T13:32:21Z</time>
      </trkpt>
      <trkpt lat="31.150180186152475" lon="121.3487752895793">
        <ele>4.98454416077584</ele>
        <time>2020-08-01T13:32:27Z</time>
      </trkpt>
      <trkpt lat="31.150142325431034" lon="121.3487173557105">
        <ele>3.3108203522861004</ele>
        <time>2020-08-01T13:32:30Z</time>
      </trkpt>
      <trkpt lat="31.150103061223177" lon="121.34868811982788">
        <ele>2.572141400538385</ele>
        <time>2020-08-01T13:32:33Z</time>
      </trkpt>
      <trkpt lat="31.150066552152392" lon="121.34863262256357">
        <ele>4.093167081475258</ele>
        <time>2020-08-01T13:32:36Z</time>
      </trkpt>
      <trkpt lat="31.150000203625584" lon="121.34858660361198">
        <ele>2.8361850399523973</ele>
        <time>2020-08-01T13:32:39Z</time>
      </trkpt>
      <trkpt lat="31.149894420980424" lon="121.34845097559345">
        <ele>3.542273109778762</ele>
        <time>2020-08-01T13:32:45Z</time>
      </trkpt>
      <trkpt lat="31.14974470858575" lon="121.34815859851479">
        <ele>5.1980609484016895</ele>
        <time>2020-08-01T13:33:00Z</time>
      </trkpt>
      <trkpt lat="31.149669971066537" lon="121.34794229178499">
        <ele>4.086320371367037</ele>
        <time>2020-08-01T13:33:12Z</time>
      </trkpt>
      <trkpt lat="31.149491234772448" lon="121.34765966682868">
        <ele>6.370565482415259</ele>
        <time>2020-08-01T13:33:25Z</time>
      </trkpt>
      <trkpt lat="31.149434497350125" lon="121.34754217616235">
        <ele>4.913280102424324</ele>
        <time>2020-08-01T13:33:31Z</time>
      </trkpt>
      <trkpt lat="31.149382250558716" lon="121.34749480351742">
        <ele>5.401076317764819</ele>
        <time>2020-08-01T13:33:34Z</time>
      </trkpt>
      <trkpt lat="31.149366387190575" lon="121.34741629428389">
        <ele>4.428419097326696</ele>
        <time>2020-08-01T13:33:37Z</time>
      </trkpt>
      <trkpt lat="31.149270934212144" lon="121.34726659131007">
        <ele>6.426052230410278</ele>
        <time>2020-08-01T13:33:43Z</time>
      </trkpt>
      <trkpt lat="31.1492334723156" lon="121.3471344809059">
        <ele>5.127295149490237</ele>
        <time>2020-08-01T13:33:49Z</time>
      </trkpt>
      <trkpt lat="31.149180093382913" lon="121.34679689361424">
        <ele>3.875399907119572</ele>
        <time>2020-08-01T13:34:01Z</time>
      </trkpt>
      <trkpt lat="31.14915792659059" lon="121.34659981015838">
        <ele>4.0661535719409585</ele>
        <time>2020-08-01T13:34:08Z</time>
      </trkpt>
      <trkpt lat="31.149108936364726" lon="121.34639271322895">
        <ele>5.55310586374253</ele>
        <time>2020-08-01T13:34:16Z</time>
      </trkpt>
      <trkpt lat="31.149052153397843" lon="121.34630338066206">
        <ele>6.913281809538603</ele>
        <time>2020-08-01T13:34:20Z</time>
      </trkpt>
      <trkpt lat="31.1491331665109" lon="121.34649260687394">
        <ele>9.08939387369901</ele>
        <time>2020-08-01T13:34:32Z</time>
      </trkpt>
      <trkpt lat="31.149137136583597" lon="121.3465491871392">
        <ele>7.613416592590511</ele>
        <time>2020-08-01T13:34:38Z</time>
      </trkpt>
      <trkpt lat="31.14911967007323" lon="121.34645768511452">
        <ele>6.027958313003182</ele>
        <time>2020-08-01T13:34:47Z</time>
      </trkpt>
      <trkpt lat="31.149151342020435" lon="121.34648664945588">
        <ele>4.71076971385628</ele>
        <time>2020-08-01T13:34:56Z</time>
      </trkpt>
    </trkseg>
  </trk>
</gpx>