<?xml version="1.0" encoding="UTF-8"?>
<gpx xmlns="http://www.topografix.com/GPX/1/1" xmlns:gpxtpx="http://www.garmin.com/xmlschemas/TrackPointExtension/v1" xmlns:xsi="http://www.w3.org/2001/XMLSchema-instance" xsi:schemaLocation="http://www.topografix.com/GPX/1/1 http://www.topografix.com/GPX/1/1/gpx.xsd" version="1.1" creator="gpx.py -- https://github.com/tkrajina/gpxpy">
  <trk>
    <name>gpx from keep</name>
    <type>Run</type>
    <trkseg>
      <trkpt lat="31.20491029571017" lon="121.60611810542594">
        <ele>5.835945167985717</ele>
        <time>2020-05-19T22:26:32Z</time>
      </trkpt>
      <trkpt lat="31.20491029571017" lon="121.60611810542594">
        <ele>5.835945167985717</ele>
        <time>2020-05-19T22:26:34Z</time>
      </trkpt>
      <trkpt lat="31.204902421400842" lon="121.60613925646766">
        <ele>5.792125415056944</ele>
        <time>2020-05-19T22:26:44Z</time>
      </trkpt>
      <trkpt lat="31.204623562642308" lon="121.60638142290767">
        <ele>4.5433817859739065</ele>
        <time>2020-05-19T22:27:00Z</time>
      </trkpt>
      <trkpt lat="31.20450828329484" lon="121.60646657516052">
        <ele>4.773380117490888</ele>
        <time>2020-05-19T22:27:07Z</time>
      </trkpt>
      <trkpt lat="31.20432298620936" lon="121.60666751514287">
        <ele>6.248852482065558</ele>
        <time>2020-05-19T22:27:18Z</time>
      </trkpt>
      <trkpt lat="31.204078884078516" lon="121.6068104320323">
        <ele>5.8009097361937165</ele>
        <time>2020-05-19T22:27:26Z</time>
      </trkpt>
      <trkpt lat="31.203984488436042" lon="121.60688202341603">
        <ele>6.011999708600342</ele>
        <time>2020-05-19T22:27:30Z</time>
      </trkpt>
      <trkpt lat="31.20378699762371" lon="121.6070645225839">
        <ele>7.23398763500154</ele>
        <time>2020-05-19T22:27:40Z</time>
      </trkpt>
      <trkpt lat="31.203756041872776" lon="121.60714478457572">
        <ele>5.784264819696546</ele>
        <time>2020-05-19T22:27:43Z</time>
      </trkpt>
      <trkpt lat="31.203593269244326" lon="121.60730206228281">
        <ele>6.033974958583713</ele>
        <time>2020-05-19T22:27:51Z</time>
      </trkpt>
      <trkpt lat="31.203340463881823" lon="121.6074845625296">
        <ele>7.3330261735245585</ele>
        <time>2020-05-19T22:28:01Z</time>
      </trkpt>
      <trkpt lat="31.203293765441693" lon="121.60759085381453">
        <ele>8.161836699582636</ele>
        <time>2020-05-19T22:28:05Z</time>
      </trkpt>
      <trkpt lat="31.203459519809623" lon="121.60788990632093">
        <ele>7.322557671926916</ele>
        <time>2020-05-19T22:28:18Z</time>
      </trkpt>
      <trkpt lat="31.203619594295912" lon="121.60816075735676">
        <ele>7.832396309822798</ele>
        <time>2020-05-19T22:28:30Z</time>
      </trkpt>
      <trkpt lat="31.203706049373032" lon="121.60822039955427">
        <ele>7.482668854296207</ele>
        <time>2020-05-19T22:28:34Z</time>
      </trkpt>
      <trkpt lat="31.20378489660894" lon="121.60830552863987">
        <ele>7.997274413704872</ele>
        <time>2020-05-19T22:28:38Z</time>
      </trkpt>
      <trkpt lat="31.203862616322322" lon="121.60845844012115">
        <ele>8.632533778436482</ele>
        <time>2020-05-19T22:28:45Z</time>
      </trkpt>
      <trkpt lat="31.20393244468525" lon="121.60865446055047">
        <ele>8.833073097281158</ele>
        <time>2020-05-19T22:28:53Z</time>
      </trkpt>
      <trkpt lat="31.204002346150183" lon="121.60873470843165">
        <ele>8.63682184740901</ele>
        <time>2020-05-19T22:28:57Z</time>
      </trkpt>
      <trkpt lat="31.204099644437658" lon="121.60879570382195">
        <ele>9.262457083910704</ele>
        <time>2020-05-19T22:29:00Z</time>
      </trkpt>
      <trkpt lat="31.204241613209156" lon="121.60895945158748">
        <ele>8.449522400274873</ele>
        <time>2020-05-19T22:29:07Z</time>
      </trkpt>
      <trkpt lat="31.204504997558615" lon="121.60920208448462">
        <ele>8.850247769616544</ele>
        <time>2020-05-19T22:29:19Z</time>
      </trkpt>
      <trkpt lat="31.204693059667495" lon="121.60936148755762">
        <ele>7.679466049186885</ele>
        <time>2020-05-19T22:29:27Z</time>
      </trkpt>
      <trkpt lat="31.20473639912164" lon="121.60942465464458">
        <ele>6.16048617567867</ele>
        <time>2020-05-19T22:29:30Z</time>
      </trkpt>
      <trkpt lat="31.20482094188766" lon="121.60950137402416">
        <ele>6.700551090762019</ele>
        <time>2020-05-19T22:29:34Z</time>
      </trkpt>
      <trkpt lat="31.204954025902257" lon="121.60956588888243">
        <ele>7.307461788877845</ele>
        <time>2020-05-19T22:29:38Z</time>
      </trkpt>
      <trkpt lat="31.205093289002768" lon="121.60971417769791">
        <ele>8.015032574534416</ele>
        <time>2020-05-19T22:29:45Z</time>
      </trkpt>
      <trkpt lat="31.205176485438816" lon="121.60977598492809">
        <ele>8.112532757222652</ele>
        <time>2020-05-19T22:29:49Z</time>
      </trkpt>
      <trkpt lat="31.205397258442545" lon="121.61006985248477">
        <ele>7.820385265164077</ele>
        <time>2020-05-19T22:30:03Z</time>
      </trkpt>
      <trkpt lat="31.205513475582663" lon="121.61021325993187">
        <ele>7.43777631688863</ele>
        <time>2020-05-19T22:30:10Z</time>
      </trkpt>
      <trkpt lat="31.20561699687121" lon="121.6102880773024">
        <ele>7.394493264146149</ele>
        <time>2020-05-19T22:30:14Z</time>
      </trkpt>
      <trkpt lat="31.20567821620874" lon="121.61036940449209">
        <ele>8.870717853307724</ele>
        <time>2020-05-19T22:30:17Z</time>
      </trkpt>
      <trkpt lat="31.205969512383504" lon="121.61061500203755">
        <ele>7.626438000239432</ele>
        <time>2020-05-19T22:30:33Z</time>
      </trkpt>
      <trkpt lat="31.20605805311049" lon="121.61078280752618">
        <ele>7.632067048922181</ele>
        <time>2020-05-19T22:30:40Z</time>
      </trkpt>
      <trkpt lat="31.206108686004704" lon="121.61087877327587">
        <ele>7.838960114866495</ele>
        <time>2020-05-19T22:30:44Z</time>
      </trkpt>
      <trkpt lat="31.20626503097798" lon="121.61101647921329">
        <ele>7.917117605917156</ele>
        <time>2020-05-19T22:30:52Z</time>
      </trkpt>
      <trkpt lat="31.206349248546303" lon="121.61116042552904">
        <ele>5.92006860114634</ele>
        <time>2020-05-19T22:30:58Z</time>
      </trkpt>
      <trkpt lat="31.206389825543095" lon="121.6112867533071">
        <ele>6.805940626189113</ele>
        <time>2020-05-19T22:31:02Z</time>
      </trkpt>
      <trkpt lat="31.206446413093825" lon="121.61139410243432">
        <ele>5.350918580777943</ele>
        <time>2020-05-19T22:31:06Z</time>
      </trkpt>
      <trkpt lat="31.206505207044852" lon="121.61145102741789">
        <ele>5.528178331442177</ele>
        <time>2020-05-19T22:31:09Z</time>
      </trkpt>
      <trkpt lat="31.206610103102495" lon="121.61149574923822">
        <ele>7.228556607849896</ele>
        <time>2020-05-19T22:31:13Z</time>
      </trkpt>
      <trkpt lat="31.206683328040068" lon="121.61147134474393">
        <ele>7.475284833461046</ele>
        <time>2020-05-19T22:31:16Z</time>
      </trkpt>
      <trkpt lat="31.206813017954705" lon="121.61135476333885">
        <ele>8.44301772210747</ele>
        <time>2020-05-19T22:31:23Z</time>
      </trkpt>
      <trkpt lat="31.20702386732578" lon="121.61111563860523">
        <ele>5.958465177565813</ele>
        <time>2020-05-19T22:31:37Z</time>
      </trkpt>
      <trkpt lat="31.20707407360848" lon="121.61105273960193">
        <ele>6.458211500197649</ele>
        <time>2020-05-19T22:31:40Z</time>
      </trkpt>
      <trkpt lat="31.20712208648734" lon="121.6110229147367">
        <ele>7.268013061024249</ele>
        <time>2020-05-19T22:31:43Z</time>
      </trkpt>
      <trkpt lat="31.20721409915659" lon="121.61088898371803">
        <ele>5.432592457160354</ele>
        <time>2020-05-19T22:31:51Z</time>
      </trkpt>
      <trkpt lat="31.207290057318012" lon="121.61083367280405">
        <ele>5.989274960942566</ele>
        <time>2020-05-19T22:31:55Z</time>
      </trkpt>
      <trkpt lat="31.207531278706224" lon="121.61058125598868">
        <ele>5.06790990754962</ele>
        <time>2020-05-19T22:32:09Z</time>
      </trkpt>
      <trkpt lat="31.207742337628932" lon="121.61041938858774">
        <ele>6.498671310022473</ele>
        <time>2020-05-19T22:32:16Z</time>
      </trkpt>
      <trkpt lat="31.207981945843944" lon="121.61014175411215">
        <ele>7.281438061967492</ele>
        <time>2020-05-19T22:32:30Z</time>
      </trkpt>
      <trkpt lat="31.20821772035781" lon="121.60991481463356">
        <ele>6.364098500460386</ele>
        <time>2020-05-19T22:32:41Z</time>
      </trkpt>
      <trkpt lat="31.20835420721738" lon="121.60976108206317">
        <ele>6.885651039890945</ele>
        <time>2020-05-19T22:32:52Z</time>
      </trkpt>
      <trkpt lat="31.208428322304343" lon="121.60962145163616">
        <ele>4.794105829671025</ele>
        <time>2020-05-19T22:32:59Z</time>
      </trkpt>
      <trkpt lat="31.208571058471044" lon="121.6094454848724">
        <ele>5.143409269861877</ele>
        <time>2020-05-19T22:33:06Z</time>
      </trkpt>
      <trkpt lat="31.20868714160603" lon="121.60939043823213">
        <ele>5.680645728483796</ele>
        <time>2020-05-19T22:33:10Z</time>
      </trkpt>
      <trkpt lat="31.208831737005568" lon="121.6092705914604">
        <ele>6.910673666745424</ele>
        <time>2020-05-19T22:33:17Z</time>
      </trkpt>
      <trkpt lat="31.208962187325323" lon="121.60921961001627">
        <ele>4.995245605707169</ele>
        <time>2020-05-19T22:33:24Z</time>
      </trkpt>
      <trkpt lat="31.209200642211158" lon="121.60902790704955">
        <ele>4.766556367278099</ele>
        <time>2020-05-19T22:33:35Z</time>
      </trkpt>
      <trkpt lat="31.209370700949844" lon="121.60894167565931">
        <ele>4.942415972240269</ele>
        <time>2020-05-19T22:33:42Z</time>
      </trkpt>
      <trkpt lat="31.20944746952341" lon="121.60888473315683">
        <ele>6.113051707856357</ele>
        <time>2020-05-19T22:33:45Z</time>
      </trkpt>
      <trkpt lat="31.209550260942997" lon="121.60883727775145">
        <ele>5.792168556712568</ele>
        <time>2020-05-19T22:33:49Z</time>
      </trkpt>
      <trkpt lat="31.20972985408328" lon="121.60868055182961">
        <ele>5.494220327585936</ele>
        <time>2020-05-19T22:33:57Z</time>
      </trkpt>
      <trkpt lat="31.209768649485785" lon="121.60864475977944">
        <ele>4.997839135117829</ele>
        <time>2020-05-19T22:34:14Z</time>
      </trkpt>
      <trkpt lat="31.209811772132326" lon="121.60862604838735">
        <ele>5.551868129521608</ele>
        <time>2020-05-19T22:34:45Z</time>
      </trkpt>
      <trkpt lat="31.209994084447697" lon="121.60845495086227">
        <ele>4.456975596025586</ele>
        <time>2020-05-19T22:34:54Z</time>
      </trkpt>
      <trkpt lat="31.21022724289616" lon="121.60848502701113">
        <ele>4.979908540844917</ele>
        <time>2020-05-19T22:35:05Z</time>
      </trkpt>
      <trkpt lat="31.210505797316966" lon="121.60833073061308">
        <ele>5.313793030567467</ele>
        <time>2020-05-19T22:35:19Z</time>
      </trkpt>
      <trkpt lat="31.210776167875153" lon="121.60825506240379">
        <ele>5.089203672483563</ele>
        <time>2020-05-19T22:35:29Z</time>
      </trkpt>
      <trkpt lat="31.21109048527719" lon="121.60814251611754">
        <ele>5.634275182150304</ele>
        <time>2020-05-19T22:35:41Z</time>
      </trkpt>
      <trkpt lat="31.21143299949854" lon="121.60803159374062">
        <ele>5.451273553073406</ele>
        <time>2020-05-19T22:35:54Z</time>
      </trkpt>
      <trkpt lat="31.21172698262732" lon="121.60791606549635">
        <ele>5.770160745829344</ele>
        <time>2020-05-19T22:36:05Z</time>
      </trkpt>
      <trkpt lat="31.211820827711737" lon="121.60786399942683">
        <ele>6.123310097493231</ele>
        <time>2020-05-19T22:36:09Z</time>
      </trkpt>
      <trkpt lat="31.212067884142435" lon="121.60778046853855">
        <ele>5.9669013591483235</ele>
        <time>2020-05-19T22:36:20Z</time>
      </trkpt>
      <trkpt lat="31.21226371513875" lon="121.60766413367632">
        <ele>4.952049296349287</ele>
        <time>2020-05-19T22:36:28Z</time>
      </trkpt>
      <trkpt lat="31.21247713688443" lon="121.60760256720926">
        <ele>4.304557291790843</ele>
        <time>2020-05-19T22:36:36Z</time>
      </trkpt>
      <trkpt lat="31.212577757387464" lon="121.60755456695784">
        <ele>4.441601909697056</ele>
        <time>2020-05-19T22:36:40Z</time>
      </trkpt>
      <trkpt lat="31.21288445124945" lon="121.60749109448025">
        <ele>6.9704023245722055</ele>
        <time>2020-05-19T22:36:51Z</time>
      </trkpt>
      <trkpt lat="31.213102766273828" lon="121.60740729341255">
        <ele>7.228717123158276</ele>
        <time>2020-05-19T22:36:59Z</time>
      </trkpt>
      <trkpt lat="31.213430895178167" lon="121.60731751777816">
        <ele>6.4482240956276655</ele>
        <time>2020-05-19T22:37:13Z</time>
      </trkpt>
      <trkpt lat="31.213740059695198" lon="121.60720117110046">
        <ele>6.195491439662874</ele>
        <time>2020-05-19T22:37:27Z</time>
      </trkpt>
      <trkpt lat="31.214040810042942" lon="121.6070994664325">
        <ele>6.3545200088992715</ele>
        <time>2020-05-19T22:37:41Z</time>
      </trkpt>
      <trkpt lat="31.214357842750445" lon="121.60697254316551">
        <ele>4.923835698515177</ele>
        <time>2020-05-19T22:37:55Z</time>
      </trkpt>
      <trkpt lat="31.214687084699865" lon="121.60683043375332">
        <ele>4.855411546304822</ele>
        <time>2020-05-19T22:38:09Z</time>
      </trkpt>
      <trkpt lat="31.21497996209197" lon="121.60674418363735">
        <ele>5.889450640417635</ele>
        <time>2020-05-19T22:38:19Z</time>
      </trkpt>
      <trkpt lat="31.215055096346784" lon="121.6066923874904">
        <ele>6.171700588427484</ele>
        <time>2020-05-19T22:38:22Z</time>
      </trkpt>
      <trkpt lat="31.215385948049992" lon="121.60657847607825">
        <ele>4.3098277766257524</ele>
        <time>2020-05-19T22:38:37Z</time>
      </trkpt>
      <trkpt lat="31.215515049979288" lon="121.60650579621827">
        <ele>4.374078149907291</ele>
        <time>2020-05-19T22:38:44Z</time>
      </trkpt>
      <trkpt lat="31.215609730326186" lon="121.60640925730547">
        <ele>4.143461222760379</ele>
        <time>2020-05-19T22:38:50Z</time>
      </trkpt>
      <trkpt lat="31.215664517441468" lon="121.6063777987345">
        <ele>4.373112003318965</ele>
        <time>2020-05-19T22:38:57Z</time>
      </trkpt>
      <trkpt lat="31.215717658235864" lon="121.60638186167665">
        <ele>4.738172950223088</ele>
        <time>2020-05-19T22:39:00Z</time>
      </trkpt>
      <trkpt lat="31.21581149362974" lon="121.60634226515434">
        <ele>3.237565904855728</ele>
        <time>2020-05-19T22:39:04Z</time>
      </trkpt>
      <trkpt lat="31.21597636799546" lon="121.60630103574691">
        <ele>5.559339782223105</ele>
        <time>2020-05-19T22:39:11Z</time>
      </trkpt>
      <trkpt lat="31.21604794575463" lon="121.606305910649">
        <ele>4.5371675388887525</ele>
        <time>2020-05-19T22:39:14Z</time>
      </trkpt>
      <trkpt lat="31.216322392950445" lon="121.60620366167299">
        <ele>4.419248691760004</ele>
        <time>2020-05-19T22:39:28Z</time>
      </trkpt>
      <trkpt lat="31.216692284188937" lon="121.60609435418587">
        <ele>5.7281144466251135</ele>
        <time>2020-05-19T22:39:43Z</time>
      </trkpt>
      <trkpt lat="31.21696129691476" lon="121.60601271285496">
        <ele>6.533885301090777</ele>
        <time>2020-05-19T22:39:54Z</time>
      </trkpt>
      <trkpt lat="31.217262601291242" lon="121.6058811748111">
        <ele>5.853223924525082</ele>
        <time>2020-05-19T22:40:07Z</time>
      </trkpt>
      <trkpt lat="31.217358599831126" lon="121.60585161020471">
        <ele>5.728087579831481</ele>
        <time>2020-05-19T22:40:11Z</time>
      </trkpt>
      <trkpt lat="31.217608924210335" lon="121.60573010846161">
        <ele>6.877098375931382</ele>
        <time>2020-05-19T22:40:22Z</time>
      </trkpt>
      <trkpt lat="31.217950359098545" lon="121.60559205741228">
        <ele>6.722214906476438</ele>
        <time>2020-05-19T22:40:37Z</time>
      </trkpt>
      <trkpt lat="31.218187663102416" lon="121.60547950379969">
        <ele>6.37419506534934</ele>
        <time>2020-05-19T22:40:47Z</time>
      </trkpt>
      <trkpt lat="31.218482154682288" lon="121.60541060293573">
        <ele>7.353034126572311</ele>
        <time>2020-05-19T22:40:58Z</time>
      </trkpt>
      <trkpt lat="31.21881327602807" lon="121.6052899055424">
        <ele>7.767466616816819</ele>
        <time>2020-05-19T22:41:12Z</time>
      </trkpt>
      <trkpt lat="31.219079035369294" lon="121.60520338037821">
        <ele>6.830845940858126</ele>
        <time>2020-05-19T22:41:22Z</time>
      </trkpt>
      <trkpt lat="31.2193900959031" lon="121.60507400597938">
        <ele>6.077531478367746</ele>
        <time>2020-05-19T22:41:36Z</time>
      </trkpt>
      <trkpt lat="31.219666971042653" lon="121.60498802137512">
        <ele>4.978433126583695</ele>
        <time>2020-05-19T22:41:48Z</time>
      </trkpt>
      <trkpt lat="31.219943564601838" lon="121.60492291685533">
        <ele>5.6240902645513415</ele>
        <time>2020-05-19T22:41:59Z</time>
      </trkpt>
      <trkpt lat="31.220024645603786" lon="121.60490148739827">
        <ele>5.116879638284445</ele>
        <time>2020-05-19T22:42:03Z</time>
      </trkpt>
      <trkpt lat="31.22019740398406" lon="121.60481334130978">
        <ele>3.3164683943614364</ele>
        <time>2020-05-19T22:42:10Z</time>
      </trkpt>
      <trkpt lat="31.220513612195134" lon="121.60468857414656">
        <ele>4.534981549717486</ele>
        <time>2020-05-19T22:42:24Z</time>
      </trkpt>
      <trkpt lat="31.220581402543317" lon="121.60467690793108">
        <ele>3.8226298484951258</ele>
        <time>2020-05-19T22:42:27Z</time>
      </trkpt>
      <trkpt lat="31.22078508795308" lon="121.60455106456313">
        <ele>4.492630200460553</ele>
        <time>2020-05-19T22:42:38Z</time>
      </trkpt>
      <trkpt lat="31.22111592364429" lon="121.60445368385062">
        <ele>4.517278372310102</ele>
        <time>2020-05-19T22:42:53Z</time>
      </trkpt>
      <trkpt lat="31.22138684724773" lon="121.60433488432929">
        <ele>5.781612739898264</ele>
        <time>2020-05-19T22:43:06Z</time>
      </trkpt>
      <trkpt lat="31.221486664074163" lon="121.60425379268544">
        <ele>4.300340394489467</ele>
        <time>2020-05-19T22:43:10Z</time>
      </trkpt>
      <trkpt lat="31.221454911516144" lon="121.60431698072212">
        <ele>6.472213604487479</ele>
        <time>2020-05-19T22:43:17Z</time>
      </trkpt>
      <trkpt lat="31.22132176436431" lon="121.60435522830532">
        <ele>4.803088559769094</ele>
        <time>2020-05-19T22:43:24Z</time>
      </trkpt>
      <trkpt lat="31.22127158880354" lon="121.60438696062339">
        <ele>4.501215700991452</ele>
        <time>2020-05-19T22:43:27Z</time>
      </trkpt>
      <trkpt lat="31.221140623377675" lon="121.60439808985889">
        <ele>5.655074840411544</ele>
        <time>2020-05-19T22:43:34Z</time>
      </trkpt>
      <trkpt lat="31.220844218982755" lon="121.60450306099817">
        <ele>4.06333090364933</ele>
        <time>2020-05-19T22:43:49Z</time>
      </trkpt>
      <trkpt lat="31.22074685271256" lon="121.60456083015383">
        <ele>4.010355554521084</ele>
        <time>2020-05-19T22:43:53Z</time>
      </trkpt>
      <trkpt lat="31.2206890732632" lon="121.60461723999165">
        <ele>5.671611489728093</ele>
        <time>2020-05-19T22:43:57Z</time>
      </trkpt>
      <trkpt lat="31.220448794600205" lon="121.60472057835801">
        <ele>6.693873832933605</ele>
        <time>2020-05-19T22:44:07Z</time>
      </trkpt>
      <trkpt lat="31.22034303759545" lon="121.60474716238375">
        <ele>5.1791250156238675</ele>
        <time>2020-05-19T22:44:11Z</time>
      </trkpt>
      <trkpt lat="31.220024655660566" lon="121.6048808781462">
        <ele>4.930742056109011</ele>
        <time>2020-05-19T22:44:25Z</time>
      </trkpt>
      <trkpt lat="31.219764327332594" lon="121.60495248961553">
        <ele>5.624153088778257</ele>
        <time>2020-05-19T22:44:36Z</time>
      </trkpt>
      <trkpt lat="31.219502895270526" lon="121.60506260742409">
        <ele>5.727949217893183</ele>
        <time>2020-05-19T22:44:47Z</time>
      </trkpt>
      <trkpt lat="31.219151713694277" lon="121.60517707082207">
        <ele>5.226459005847573</ele>
        <time>2020-05-19T22:45:01Z</time>
      </trkpt>
      <trkpt lat="31.218984662389143" lon="121.60523674211717">
        <ele>5.993405767716467</ele>
        <time>2020-05-19T22:45:08Z</time>
      </trkpt>
      <trkpt lat="31.21889705964128" lon="121.60528637341373">
        <ele>5.946935276500881</ele>
        <time>2020-05-19T22:45:12Z</time>
      </trkpt>
      <trkpt lat="31.218549414964755" lon="121.60537534552952">
        <ele>6.404438064433634</ele>
        <time>2020-05-19T22:45:27Z</time>
      </trkpt>
      <trkpt lat="31.21825193471046" lon="121.60545644928247">
        <ele>6.984019633382559</ele>
        <time>2020-05-19T22:45:41Z</time>
      </trkpt>
      <trkpt lat="31.21792487824765" lon="121.6055801282318">
        <ele>7.468522588722408</ele>
        <time>2020-05-19T22:45:55Z</time>
      </trkpt>
      <trkpt lat="31.217668308035705" lon="121.60572142630826">
        <ele>7.273478585295379</ele>
        <time>2020-05-19T22:46:06Z</time>
      </trkpt>
      <trkpt lat="31.217583141815858" lon="121.60577647955549">
        <ele>8.40632388368249</ele>
        <time>2020-05-19T22:46:10Z</time>
      </trkpt>
      <trkpt lat="31.217297589861452" lon="121.60585893662939">
        <ele>7.038689688779414</ele>
        <time>2020-05-19T22:46:21Z</time>
      </trkpt>
      <trkpt lat="31.217033451430037" lon="121.60595305154644">
        <ele>7.295094597153366</ele>
        <time>2020-05-19T22:46:31Z</time>
      </trkpt>
      <trkpt lat="31.21696401798328" lon="121.60599454488379">
        <ele>6.320045194588602</ele>
        <time>2020-05-19T22:46:34Z</time>
      </trkpt>
      <trkpt lat="31.216693383574253" lon="121.606066695833">
        <ele>6.166319442912936</ele>
        <time>2020-05-19T22:46:45Z</time>
      </trkpt>
      <trkpt lat="31.216467468224934" lon="121.60617327997348">
        <ele>5.839716542512178</ele>
        <time>2020-05-19T22:46:55Z</time>
      </trkpt>
      <trkpt lat="31.21614233025718" lon="121.60625356955507">
        <ele>5.382874004542828</ele>
        <time>2020-05-19T22:47:09Z</time>
      </trkpt>
      <trkpt lat="31.216014348271194" lon="121.60626252832405">
        <ele>4.832225481048226</ele>
        <time>2020-05-19T22:47:16Z</time>
      </trkpt>
      <trkpt lat="31.215971222433083" lon="121.60628991874552">
        <ele>5.432789858430624</ele>
        <time>2020-05-19T22:48:01Z</time>
      </trkpt>
      <trkpt lat="31.21572580485417" lon="121.6063590839145">
        <ele>5.84400222171098</ele>
        <time>2020-05-19T22:48:19Z</time>
      </trkpt>
      <trkpt lat="31.215447807646775" lon="121.60650607293158">
        <ele>2.1312039978802204</ele>
        <time>2020-05-19T22:48:33Z</time>
      </trkpt>
      <trkpt lat="31.215182577039375" lon="121.60661021779651">
        <ele>5.908831202425063</ele>
        <time>2020-05-19T22:48:44Z</time>
      </trkpt>
      <trkpt lat="31.214838139805643" lon="121.60677483542331">
        <ele>6.2770201824605465</ele>
        <time>2020-05-19T22:48:58Z</time>
      </trkpt>
      <trkpt lat="31.214704186315345" lon="121.60679518279765">
        <ele>4.941430117934942</ele>
        <time>2020-05-19T22:49:04Z</time>
      </trkpt>
      <trkpt lat="31.214616311783505" lon="121.60684101445581">
        <ele>5.246071218512952</ele>
        <time>2020-05-19T22:49:08Z</time>
      </trkpt>
      <trkpt lat="31.214268106916684" lon="121.60695384134057">
        <ele>5.667679304257035</ele>
        <time>2020-05-19T22:49:22Z</time>
      </trkpt>
      <trkpt lat="31.213927738666186" lon="121.6071116773818">
        <ele>7.238619023002684</ele>
        <time>2020-05-19T22:49:37Z</time>
      </trkpt>
      <trkpt lat="31.2137772200125" lon="121.60717622262665">
        <ele>5.396443882957101</ele>
        <time>2020-05-19T22:49:44Z</time>
      </trkpt>
      <trkpt lat="31.213503059718946" lon="121.60724565851342">
        <ele>6.885218642652035</ele>
        <time>2020-05-19T22:49:55Z</time>
      </trkpt>
      <trkpt lat="31.213264125037455" lon="121.60735278026755">
        <ele>7.9747445890679955</ele>
        <time>2020-05-19T22:50:06Z</time>
      </trkpt>
      <trkpt lat="31.21316866924361" lon="121.60737908907693">
        <ele>7.586919228546321</ele>
        <time>2020-05-19T22:50:10Z</time>
      </trkpt>
      <trkpt lat="31.21307807245593" lon="121.60744173058468">
        <ele>7.118449866771698</ele>
        <time>2020-05-19T22:50:14Z</time>
      </trkpt>
      <trkpt lat="31.21299535939267" lon="121.60746912280311">
        <ele>6.598811720497906</ele>
        <time>2020-05-19T22:50:17Z</time>
      </trkpt>
      <trkpt lat="31.21291428710949" lon="121.60747292549614">
        <ele>6.890776190906763</ele>
        <time>2020-05-19T22:50:21Z</time>
      </trkpt>
      <trkpt lat="31.212730157925648" lon="121.60751849255492">
        <ele>7.689439682289958</ele>
        <time>2020-05-19T22:50:28Z</time>
      </trkpt>
      <trkpt lat="31.212570986866265" lon="121.60754128159672">
        <ele>6.018348764628172</ele>
        <time>2020-05-19T22:50:35Z</time>
      </trkpt>
      <trkpt lat="31.21227562286194" lon="121.60770127881487">
        <ele>6.0942423259839416</ele>
        <time>2020-05-19T22:50:49Z</time>
      </trkpt>
      <trkpt lat="31.21196536463526" lon="121.60782955300662">
        <ele>5.794517590664327</ele>
        <time>2020-05-19T22:51:04Z</time>
      </trkpt>
      <trkpt lat="31.21167814053237" lon="121.60797734634764">
        <ele>5.77010590210557</ele>
        <time>2020-05-19T22:51:19Z</time>
      </trkpt>
      <trkpt lat="31.211533052013174" lon="121.60802670503321">
        <ele>6.8574301321059465</ele>
        <time>2020-05-19T22:51:26Z</time>
      </trkpt>
      <trkpt lat="31.21132153638544" lon="121.60807362888737">
        <ele>4.621290411800146</ele>
        <time>2020-05-19T22:51:34Z</time>
      </trkpt>
      <trkpt lat="31.21106769164766" lon="121.60817180044859">
        <ele>4.195028654299676</ele>
        <time>2020-05-19T22:51:44Z</time>
      </trkpt>
      <trkpt lat="31.21097519796104" lon="121.60822983060667">
        <ele>5.200512298382819</ele>
        <time>2020-05-19T22:51:48Z</time>
      </trkpt>
      <trkpt lat="31.210695612343564" lon="121.60829980589206">
        <ele>5.490865220315754</ele>
        <time>2020-05-19T22:52:00Z</time>
      </trkpt>
      <trkpt lat="31.210414631517043" lon="121.60843241228369">
        <ele>4.282766585238278</ele>
        <time>2020-05-19T22:52:13Z</time>
      </trkpt>
      <trkpt lat="31.210212610944964" lon="121.60847011607885">
        <ele>4.481612352654338</ele>
        <time>2020-05-19T22:52:25Z</time>
      </trkpt>
      <trkpt lat="31.210089008737388" lon="121.6084129178052">
        <ele>4.321118202060461</ele>
        <time>2020-05-19T22:52:36Z</time>
      </trkpt>
      <trkpt lat="31.209840237314783" lon="121.60863255310623">
        <ele>4.909492023289204</ele>
        <time>2020-05-19T22:53:21Z</time>
      </trkpt>
      <trkpt lat="31.20977486239542" lon="121.60868109036355">
        <ele>4.976788899861276</ele>
        <time>2020-05-19T22:53:25Z</time>
      </trkpt>
      <trkpt lat="31.20974418397695" lon="121.60874345210838">
        <ele>6.166726219467819</ele>
        <time>2020-05-19T22:53:28Z</time>
      </trkpt>
      <trkpt lat="31.20949544695737" lon="121.60890587692255">
        <ele>5.854473405517638</ele>
        <time>2020-05-19T22:53:40Z</time>
      </trkpt>
      <trkpt lat="31.209386686354154" lon="121.60895956852828">
        <ele>5.69528126064688</ele>
        <time>2020-05-19T22:53:44Z</time>
      </trkpt>
      <trkpt lat="31.209303948896007" lon="121.60902220492203">
        <ele>6.481061464175582</ele>
        <time>2020-05-19T22:53:47Z</time>
      </trkpt>
      <trkpt lat="31.209247508138947" lon="121.60908999029272">
        <ele>6.2447376027703285</ele>
        <time>2020-05-19T22:53:51Z</time>
      </trkpt>
      <trkpt lat="31.20910726658027" lon="121.60918733461939">
        <ele>5.868544295430183</ele>
        <time>2020-05-19T22:53:58Z</time>
      </trkpt>
      <trkpt lat="31.20881839399603" lon="121.60935680862825">
        <ele>5.1288661900907755</ele>
        <time>2020-05-19T22:54:10Z</time>
      </trkpt>
      <trkpt lat="31.20871475813784" lon="121.60944926864569">
        <ele>7.296492661349475</ele>
        <time>2020-05-19T22:54:17Z</time>
      </trkpt>
      <trkpt lat="31.208631759691684" lon="121.60949509441316">
        <ele>5.654760378412902</ele>
        <time>2020-05-19T22:54:21Z</time>
      </trkpt>
      <trkpt lat="31.208567999228613" lon="121.609559625559">
        <ele>7.504889959469438</ele>
        <time>2020-05-19T22:54:25Z</time>
      </trkpt>
      <trkpt lat="31.20842181154769" lon="121.60962660337756">
        <ele>6.10280342772603</ele>
        <time>2020-05-19T22:54:32Z</time>
      </trkpt>
      <trkpt lat="31.208305641790083" lon="121.6098079888041">
        <ele>7.458948451094329</ele>
        <time>2020-05-19T22:54:38Z</time>
      </trkpt>
      <trkpt lat="31.208079351762386" lon="121.61004387523349">
        <ele>7.180523905903101</ele>
        <time>2020-05-19T22:54:49Z</time>
      </trkpt>
      <trkpt lat="31.20781481170463" lon="121.6103049754014">
        <ele>6.5634085815399885</ele>
        <time>2020-05-19T22:55:03Z</time>
      </trkpt>
      <trkpt lat="31.20757360300473" lon="121.61054329783047">
        <ele>6.235963844694197</ele>
        <time>2020-05-19T22:55:17Z</time>
      </trkpt>
      <trkpt lat="31.207351077030747" lon="121.6108141484445">
        <ele>6.701617011800408</ele>
        <time>2020-05-19T22:55:31Z</time>
      </trkpt>
      <trkpt lat="31.207164122065638" lon="121.61100989849463">
        <ele>6.626857627183199</ele>
        <time>2020-05-19T22:55:41Z</time>
      </trkpt>
      <trkpt lat="31.207106037030176" lon="121.61109448614772">
        <ele>6.6942690666764975</ele>
        <time>2020-05-19T22:55:44Z</time>
      </trkpt>
      <trkpt lat="31.206857196949606" lon="121.61137644729973">
        <ele>6.486475624144077</ele>
        <time>2020-05-19T22:55:59Z</time>
      </trkpt>
      <trkpt lat="31.20678530024522" lon="121.6114377206419">
        <ele>7.238882445730269</ele>
        <time>2020-05-19T22:56:03Z</time>
      </trkpt>
      <trkpt lat="31.206696934056737" lon="121.6114054677015">
        <ele>6.567093153484166</ele>
        <time>2020-05-19T22:56:07Z</time>
      </trkpt>
      <trkpt lat="31.206667417822196" lon="121.61135504647235">
        <ele>6.321533598005772</ele>
        <time>2020-05-19T22:56:10Z</time>
      </trkpt>
      <trkpt lat="31.206497220802593" lon="121.61125231519675">
        <ele>6.637604106217623</ele>
        <time>2020-05-19T22:56:17Z</time>
      </trkpt>
      <trkpt lat="31.206248733671025" lon="121.61105633212404">
        <ele>6.726561764255166</ele>
        <time>2020-05-19T22:56:28Z</time>
      </trkpt>
      <trkpt lat="31.206054492476422" lon="121.61083241944793">
        <ele>6.846249776892364</ele>
        <time>2020-05-19T22:56:38Z</time>
      </trkpt>
      <trkpt lat="31.205924170507846" lon="121.61070175892722">
        <ele>6.444001019001007</ele>
        <time>2020-05-19T22:56:48Z</time>
      </trkpt>
      <trkpt lat="31.2058117629573" lon="121.61054290127845">
        <ele>8.077263941057026</ele>
        <time>2020-05-19T22:56:56Z</time>
      </trkpt>
      <trkpt lat="31.20572242852429" lon="121.61034500119254">
        <ele>8.060488146729767</ele>
        <time>2020-05-19T22:57:03Z</time>
      </trkpt>
      <trkpt lat="31.205651461732543" lon="121.61024442602505">
        <ele>7.541431506164372</ele>
        <time>2020-05-19T22:57:07Z</time>
      </trkpt>
      <trkpt lat="31.205555789416625" lon="121.61018939883948">
        <ele>7.910067060030997</ele>
        <time>2020-05-19T22:57:11Z</time>
      </trkpt>
      <trkpt lat="31.205505409654876" lon="121.6101156611898">
        <ele>6.730553204193711</ele>
        <time>2020-05-19T22:57:15Z</time>
      </trkpt>
      <trkpt lat="31.20543792085903" lon="121.61008123576582">
        <ele>6.918269590474665</ele>
        <time>2020-05-19T22:57:18Z</time>
      </trkpt>
      <trkpt lat="31.205349581822592" lon="121.61000750090118">
        <ele>7.022071061655879</ele>
        <time>2020-05-19T22:57:25Z</time>
      </trkpt>
      <trkpt lat="31.20515375073055" lon="121.60971634161888">
        <ele>6.769400489516556</ele>
        <time>2020-05-19T22:57:36Z</time>
      </trkpt>
      <trkpt lat="31.205061910322936" lon="121.60960654742757">
        <ele>7.529967429116368</ele>
        <time>2020-05-19T22:57:42Z</time>
      </trkpt>
      <trkpt lat="31.204844317347774" lon="121.60941515657906">
        <ele>8.192924359813333</ele>
        <time>2020-05-19T22:57:56Z</time>
      </trkpt>
      <trkpt lat="31.204743241381802" lon="121.60932894908991">
        <ele>7.4829351138323545</ele>
        <time>2020-05-19T22:58:03Z</time>
      </trkpt>
      <trkpt lat="31.20469612016867" lon="121.6092440924121">
        <ele>8.474297876469791</ele>
        <time>2020-05-19T22:58:07Z</time>
      </trkpt>
      <trkpt lat="31.204632450841697" lon="121.6091722506128">
        <ele>9.14393113180995</ele>
        <time>2020-05-19T22:58:11Z</time>
      </trkpt>
      <trkpt lat="31.204573966125462" lon="121.6090497082277">
        <ele>8.601420348510146</ele>
        <time>2020-05-19T22:58:18Z</time>
      </trkpt>
      <trkpt lat="31.204485905736533" lon="121.6089599736433">
        <ele>7.754576405510306</ele>
        <time>2020-05-19T22:58:22Z</time>
      </trkpt>
      <trkpt lat="31.204404424894864" lon="121.60875772095899">
        <ele>6.638031273148954</ele>
        <time>2020-05-19T22:58:28Z</time>
      </trkpt>
      <trkpt lat="31.204315311322972" lon="121.60861728437764">
        <ele>6.537951730191708</ele>
        <time>2020-05-19T22:58:32Z</time>
      </trkpt>
      <trkpt lat="31.20403643500324" lon="121.60842507672709">
        <ele>8.821270833723247</ele>
        <time>2020-05-19T22:58:45Z</time>
      </trkpt>
      <trkpt lat="31.203965443765476" lon="121.60835160610476">
        <ele>9.288354233838618</ele>
        <time>2020-05-19T22:58:49Z</time>
      </trkpt>
      <trkpt lat="31.20384024033655" lon="121.60825400893144">
        <ele>8.544426009990275</ele>
        <time>2020-05-19T22:58:56Z</time>
      </trkpt>
      <trkpt lat="31.203700477680176" lon="121.6080227431673">
        <ele>7.798506462946534</ele>
        <time>2020-05-19T22:59:06Z</time>
      </trkpt>
      <trkpt lat="31.20351974310486" lon="121.60783838524195">
        <ele>6.070362590253353</ele>
        <time>2020-05-19T22:59:16Z</time>
      </trkpt>
      <trkpt lat="31.203305158775446" lon="121.60758136294508">
        <ele>6.8020653473213315</ele>
        <time>2020-05-19T22:59:28Z</time>
      </trkpt>
      <trkpt lat="31.203302495169325" lon="121.60750110532608">
        <ele>5.918868453241885</ele>
        <time>2020-05-19T22:59:31Z</time>
      </trkpt>
      <trkpt lat="31.203344030796274" lon="121.60741325176106">
        <ele>8.254431739449501</ele>
        <time>2020-05-19T22:59:35Z</time>
      </trkpt>
      <trkpt lat="31.20356890556578" lon="121.60723617613344">
        <ele>6.757912331260741</ele>
        <time>2020-05-19T22:59:50Z</time>
      </trkpt>
      <trkpt lat="31.203613414431224" lon="121.60716269200731">
        <ele>6.865310722962022</ele>
        <time>2020-05-19T22:59:54Z</time>
      </trkpt>
      <trkpt lat="31.203752285765695" lon="121.60707591363332">
        <ele>6.254183162935078</ele>
        <time>2020-05-19T23:00:01Z</time>
      </trkpt>
      <trkpt lat="31.203884667567905" lon="121.60695768224261">
        <ele>5.960269846022129</ele>
        <time>2020-05-19T23:00:08Z</time>
      </trkpt>
      <trkpt lat="31.203965757261308" lon="121.60692215505186">
        <ele>6.423285851255059</ele>
        <time>2020-05-19T23:00:12Z</time>
      </trkpt>
      <trkpt lat="31.204159706416757" lon="121.6067678547022">
        <ele>6.637887744233012</ele>
        <time>2020-05-19T23:00:23Z</time>
      </trkpt>
      <trkpt lat="31.204214519193638" lon="121.60669057202747">
        <ele>6.631345528177917</ele>
        <time>2020-05-19T23:00:27Z</time>
      </trkpt>
      <trkpt lat="31.204281794270095" lon="121.60663064182333">
        <ele>4.791897278279066</ele>
        <time>2020-05-19T23:00:31Z</time>
      </trkpt>
    </trkseg>
  </trk>
</gpx>