<?xml version="1.0" encoding="UTF-8"?>
<gpx xmlns="http://www.topografix.com/GPX/1/1" xmlns:gpxtpx="http://www.garmin.com/xmlschemas/TrackPointExtension/v1" xmlns:xsi="http://www.w3.org/2001/XMLSchema-instance" xsi:schemaLocation="http://www.topografix.com/GPX/1/1 http://www.topografix.com/GPX/1/1/gpx.xsd" version="1.1" creator="gpx.py -- https://github.com/tkrajina/gpxpy">
  <trk>
    <name>gpx from keep</name>
    <type>Run</type>
    <trkseg>
      <trkpt lat="31.204597539275326" lon="121.61065361220626">
        <ele>11.37142562866211</ele>
        <time>2019-04-01T23:06:31Z</time>
      </trkpt>
      <trkpt lat="31.204609962225724" lon="121.61072220029352">
        <ele>13.72445297241211</ele>
        <time>2019-04-01T23:06:38Z</time>
      </trkpt>
      <trkpt lat="31.204415423101555" lon="121.61090900544644">
        <ele>10.61446762084961</ele>
        <time>2019-04-01T23:06:48Z</time>
      </trkpt>
      <trkpt lat="31.204306575727227" lon="121.6110762828954">
        <ele>7.797512054443359</ele>
        <time>2019-04-01T23:06:56Z</time>
      </trkpt>
      <trkpt lat="31.204218135445313" lon="121.61114460695282">
        <ele>7.332180023193359</ele>
        <time>2019-04-01T23:07:03Z</time>
      </trkpt>
      <trkpt lat="31.204187173255658" lon="121.61121617921812">
        <ele>7.614589691162109</ele>
        <time>2019-04-01T23:07:10Z</time>
      </trkpt>
      <trkpt lat="31.204148372050117" lon="121.61125522035283">
        <ele>7.504665374755859</ele>
        <time>2019-04-01T23:07:13Z</time>
      </trkpt>
      <trkpt lat="31.20412416354703" lon="121.61135959426288">
        <ele>7.938178712111053</ele>
        <time>2019-04-01T23:07:17Z</time>
      </trkpt>
      <trkpt lat="31.20422892751416" lon="121.61158052716674">
        <ele>8.622738803709112</ele>
        <time>2019-04-01T23:07:27Z</time>
      </trkpt>
      <trkpt lat="31.204444792235737" lon="121.61188385998659">
        <ele>8.822685372170014</ele>
        <time>2019-04-01T23:07:45Z</time>
      </trkpt>
      <trkpt lat="31.20464363619174" lon="121.61210423790925">
        <ele>8.84343115675614</ele>
        <time>2019-04-01T23:07:59Z</time>
      </trkpt>
      <trkpt lat="31.204776113350313" lon="121.61224356498964">
        <ele>9.362040241682806</ele>
        <time>2019-04-01T23:08:07Z</time>
      </trkpt>
      <trkpt lat="31.20482540315853" lon="121.61231648262506">
        <ele>9.375967568775238</ele>
        <time>2019-04-01T23:08:11Z</time>
      </trkpt>
      <trkpt lat="31.20495710411735" lon="121.61240701361513">
        <ele>9.205552149102232</ele>
        <time>2019-04-01T23:08:18Z</time>
      </trkpt>
      <trkpt lat="31.2051025391268" lon="121.6126160055987">
        <ele>9.4328149814975</ele>
        <time>2019-04-01T23:08:28Z</time>
      </trkpt>
      <trkpt lat="31.205343182210083" lon="121.61277348294183">
        <ele>9.705896146158821</ele>
        <time>2019-04-01T23:08:40Z</time>
      </trkpt>
      <trkpt lat="31.205366439620594" lon="121.612848840768">
        <ele>9.76451441897649</ele>
        <time>2019-04-01T23:08:46Z</time>
      </trkpt>
      <trkpt lat="31.205303974376104" lon="121.6129784207608">
        <ele>9.867804936171126</ele>
        <time>2019-04-01T23:08:50Z</time>
      </trkpt>
      <trkpt lat="31.205153109113237" lon="121.61311939248405">
        <ele>9.71983615047779</ele>
        <time>2019-04-01T23:08:57Z</time>
      </trkpt>
      <trkpt lat="31.20498673633153" lon="121.6133240667178">
        <ele>9.44345741519217</ele>
        <time>2019-04-01T23:09:05Z</time>
      </trkpt>
      <trkpt lat="31.204787596687463" lon="121.61347778067459">
        <ele>9.135330423665195</ele>
        <time>2019-04-01T23:09:14Z</time>
      </trkpt>
      <trkpt lat="31.20466790874532" lon="121.61361956002949">
        <ele>8.646726807627715</ele>
        <time>2019-04-01T23:09:21Z</time>
      </trkpt>
      <trkpt lat="31.204450555595653" lon="121.61382802906131">
        <ele>8.399134505518347</ele>
        <time>2019-04-01T23:09:32Z</time>
      </trkpt>
      <trkpt lat="31.204231513479876" lon="121.61410805721275">
        <ele>7.3279229941828845</ele>
        <time>2019-04-01T23:09:46Z</time>
      </trkpt>
      <trkpt lat="31.203999513243495" lon="121.61431896270514">
        <ele>7.112279028202806</ele>
        <time>2019-04-01T23:09:58Z</time>
      </trkpt>
      <trkpt lat="31.203763708728594" lon="121.61453772733796">
        <ele>6.337698893975215</ele>
        <time>2019-04-01T23:10:11Z</time>
      </trkpt>
      <trkpt lat="31.203611495354306" lon="121.61466080012211">
        <ele>5.961129393016677</ele>
        <time>2019-04-01T23:10:19Z</time>
      </trkpt>
      <trkpt lat="31.20340505797832" lon="121.6147798109225">
        <ele>5.391002676752748</ele>
        <time>2019-04-01T23:10:27Z</time>
      </trkpt>
      <trkpt lat="31.20332554954733" lon="121.61485517085117">
        <ele>5.339623133994678</ele>
        <time>2019-04-01T23:10:31Z</time>
      </trkpt>
      <trkpt lat="31.203297036424043" lon="121.61490531829503">
        <ele>5.311215154198798</ele>
        <time>2019-04-01T23:10:34Z</time>
      </trkpt>
      <trkpt lat="31.203286655869633" lon="121.61499341161789">
        <ele>4.961135778124216</ele>
        <time>2019-04-01T23:10:38Z</time>
      </trkpt>
      <trkpt lat="31.203302597394305" lon="121.61505629456853">
        <ele>4.267628965609887</ele>
        <time>2019-04-01T23:10:45Z</time>
      </trkpt>
      <trkpt lat="31.2034098702213" lon="121.61516551961762">
        <ele>4.232363090684316</ele>
        <time>2019-04-01T23:10:52Z</time>
      </trkpt>
      <trkpt lat="31.203448851083394" lon="121.6152359896277">
        <ele>3.5832830027532054</ele>
        <time>2019-04-01T23:10:55Z</time>
      </trkpt>
      <trkpt lat="31.203454725950404" lon="121.6153370907672">
        <ele>3.6833767106101334</ele>
        <time>2019-04-01T23:10:59Z</time>
      </trkpt>
      <trkpt lat="31.203214611337085" lon="121.61551573149673">
        <ele>3.6724595706207737</ele>
        <time>2019-04-01T23:11:10Z</time>
      </trkpt>
      <trkpt lat="31.203040924905977" lon="121.61569301018586">
        <ele>3.9016580214289007</ele>
        <time>2019-04-01T23:11:20Z</time>
      </trkpt>
      <trkpt lat="31.203040924905977" lon="121.61569301018586">
        <ele>3.9016580214289007</ele>
        <time>2019-04-01T23:11:28Z</time>
      </trkpt>
      <trkpt lat="31.20297036193476" lon="121.61576782443">
        <ele>3.686408329887257</ele>
        <time>2019-04-01T23:11:30Z</time>
      </trkpt>
      <trkpt lat="31.20269383153888" lon="121.61603482470458">
        <ele>3.900250906236934</ele>
        <time>2019-04-01T23:11:46Z</time>
      </trkpt>
      <trkpt lat="31.202494621061714" lon="121.6162489630739">
        <ele>4.399812907722186</ele>
        <time>2019-04-01T23:11:57Z</time>
      </trkpt>
      <trkpt lat="31.202279354489786" lon="121.6165246261722">
        <ele>4.617478519824559</ele>
        <time>2019-04-01T23:12:10Z</time>
      </trkpt>
      <trkpt lat="31.202062203946653" lon="121.61678266917048">
        <ele>4.460589442461028</ele>
        <time>2019-04-01T23:12:23Z</time>
      </trkpt>
      <trkpt lat="31.201866241187698" lon="121.61699707177097">
        <ele>5.108107965115536</ele>
        <time>2019-04-01T23:12:34Z</time>
      </trkpt>
      <trkpt lat="31.201801678563953" lon="121.61703122698391">
        <ele>5.215054589350267</ele>
        <time>2019-04-01T23:12:38Z</time>
      </trkpt>
      <trkpt lat="31.201789681309595" lon="121.617101695818">
        <ele>4.4659980767795275</ele>
        <time>2019-04-01T23:12:42Z</time>
      </trkpt>
      <trkpt lat="31.20156580157197" lon="121.61730335966705">
        <ele>4.364230195084772</ele>
        <time>2019-04-01T23:12:53Z</time>
      </trkpt>
      <trkpt lat="31.201309332123685" lon="121.61755868753667">
        <ele>4.474485868807847</ele>
        <time>2019-04-01T23:13:06Z</time>
      </trkpt>
      <trkpt lat="31.201112029160313" lon="121.61775140173147">
        <ele>5.5277884488125295</ele>
        <time>2019-04-01T23:13:16Z</time>
      </trkpt>
      <trkpt lat="31.20093690897768" lon="121.61799370932341">
        <ele>6.057615463549681</ele>
        <time>2019-04-01T23:13:27Z</time>
      </trkpt>
      <trkpt lat="31.20070561975229" lon="121.61827829790371">
        <ele>6.404563453464149</ele>
        <time>2019-04-01T23:13:41Z</time>
      </trkpt>
      <trkpt lat="31.200478388469325" lon="121.618569116249">
        <ele>6.716083506711996</ele>
        <time>2019-04-01T23:13:55Z</time>
      </trkpt>
      <trkpt lat="31.200233519783968" lon="121.61887050212395">
        <ele>6.9501261798016145</ele>
        <time>2019-04-01T23:14:10Z</time>
      </trkpt>
      <trkpt lat="31.200034266829114" lon="121.61910548374225">
        <ele>7.023805074068164</ele>
        <time>2019-04-01T23:14:22Z</time>
      </trkpt>
      <trkpt lat="31.19978808107772" lon="121.61936431556173">
        <ele>7.144834152124687</ele>
        <time>2019-04-01T23:14:36Z</time>
      </trkpt>
      <trkpt lat="31.19971047176444" lon="121.61942692414961">
        <ele>7.071300746932096</ele>
        <time>2019-04-01T23:14:40Z</time>
      </trkpt>
      <trkpt lat="31.199512570344677" lon="121.61966162953657">
        <ele>7.930292770736969</ele>
        <time>2019-04-01T23:14:51Z</time>
      </trkpt>
      <trkpt lat="31.199247662352445" lon="121.61992912927647">
        <ele>7.843395512219516</ele>
        <time>2019-04-01T23:15:06Z</time>
      </trkpt>
      <trkpt lat="31.199127719675126" lon="121.62002507281939">
        <ele>7.708794509872263</ele>
        <time>2019-04-01T23:15:14Z</time>
      </trkpt>
      <trkpt lat="31.1990904944542" lon="121.62010041335049">
        <ele>7.418477117012813</ele>
        <time>2019-04-01T23:15:18Z</time>
      </trkpt>
      <trkpt lat="31.198964524496013" lon="121.62025434997052">
        <ele>7.243457125347447</ele>
        <time>2019-04-01T23:15:29Z</time>
      </trkpt>
      <trkpt lat="31.198862766472377" lon="121.62033186313673">
        <ele>7.282262322586618</ele>
        <time>2019-04-01T23:15:32Z</time>
      </trkpt>
      <trkpt lat="31.19876429321248" lon="121.62038010838783">
        <ele>7.137311193151518</ele>
        <time>2019-04-01T23:15:36Z</time>
      </trkpt>
      <trkpt lat="31.198450340161784" lon="121.62061373075781">
        <ele>7.175186815370168</ele>
        <time>2019-04-01T23:15:48Z</time>
      </trkpt>
      <trkpt lat="31.198194121260737" lon="121.62086170871945">
        <ele>7.182007808474509</ele>
        <time>2019-04-01T23:16:01Z</time>
      </trkpt>
      <trkpt lat="31.19795611080755" lon="121.62106903472491">
        <ele>7.598412265321116</ele>
        <time>2019-04-01T23:16:14Z</time>
      </trkpt>
      <trkpt lat="31.19769122149883" lon="121.62130833758383">
        <ele>7.75906738518961</ele>
        <time>2019-04-01T23:16:29Z</time>
      </trkpt>
      <trkpt lat="31.197462157265058" lon="121.62151403343941">
        <ele>8.123327836413637</ele>
        <time>2019-04-01T23:16:41Z</time>
      </trkpt>
      <trkpt lat="31.197180164027383" lon="121.62177040546057">
        <ele>8.924512537353081</ele>
        <time>2019-04-01T23:16:55Z</time>
      </trkpt>
      <trkpt lat="31.19690358647035" lon="121.62203111020982">
        <ele>9.44072866733081</ele>
        <time>2019-04-01T23:17:09Z</time>
      </trkpt>
      <trkpt lat="31.196634624904558" lon="121.62226850791889">
        <ele>10.462700530478656</ele>
        <time>2019-04-01T23:17:24Z</time>
      </trkpt>
      <trkpt lat="31.196615308624704" lon="121.62232649817803">
        <ele>11.09940191133056</ele>
        <time>2019-04-01T23:17:28Z</time>
      </trkpt>
      <trkpt lat="31.196696846971015" lon="121.62262808464399">
        <ele>10.507765093630795</ele>
        <time>2019-04-01T23:17:49Z</time>
      </trkpt>
      <trkpt lat="31.196732039484335" lon="121.62291151666889">
        <ele>8.916414140199478</ele>
        <time>2019-04-01T23:18:06Z</time>
      </trkpt>
      <trkpt lat="31.19679348169911" lon="121.6232358594071">
        <ele>7.607901915674752</ele>
        <time>2019-04-01T23:18:27Z</time>
      </trkpt>
      <trkpt lat="31.196847563264456" lon="121.62359135956619">
        <ele>6.662225589887669</ele>
        <time>2019-04-01T23:18:46Z</time>
      </trkpt>
      <trkpt lat="31.196907614732222" lon="121.62393926778975">
        <ele>5.77332539824566</ele>
        <time>2019-04-01T23:19:00Z</time>
      </trkpt>
      <trkpt lat="31.196930584099782" lon="121.62400402494765">
        <ele>5.5116461076727745</ele>
        <time>2019-04-01T23:19:04Z</time>
      </trkpt>
      <trkpt lat="31.196934472084216" lon="121.62392653050344">
        <ele>5.646484973073555</ele>
        <time>2019-04-01T23:19:07Z</time>
      </trkpt>
      <trkpt lat="31.196897119772256" lon="121.6236431091846">
        <ele>5.732774414966244</ele>
        <time>2019-04-01T23:19:21Z</time>
      </trkpt>
      <trkpt lat="31.196907041204437" lon="121.62350654336109">
        <ele>5.6565924161726855</ele>
        <time>2019-04-01T23:19:29Z</time>
      </trkpt>
      <trkpt lat="31.196862866631594" lon="121.62325753090799">
        <ele>6.199594505583661</ele>
        <time>2019-04-01T23:19:46Z</time>
      </trkpt>
      <trkpt lat="31.19682123351549" lon="121.62315321245889">
        <ele>6.2004909781541215</ele>
        <time>2019-04-01T23:19:53Z</time>
      </trkpt>
      <trkpt lat="31.19682943928376" lon="121.62285704380636">
        <ele>5.889355456872295</ele>
        <time>2019-04-01T23:20:11Z</time>
      </trkpt>
      <trkpt lat="31.196847682328762" lon="121.62279011276452">
        <ele>5.611801825550501</ele>
        <time>2019-04-01T23:20:15Z</time>
      </trkpt>
      <trkpt lat="31.196922052063286" lon="121.62272128011645">
        <ele>5.901670340991174</ele>
        <time>2019-04-01T23:20:23Z</time>
      </trkpt>
      <trkpt lat="31.197122405864423" lon="121.62249662781738">
        <ele>5.9993144563890155</ele>
        <time>2019-04-01T23:20:43Z</time>
      </trkpt>
      <trkpt lat="31.197393216233888" lon="121.62230421385752">
        <ele>6.118827016429606</ele>
        <time>2019-04-01T23:21:05Z</time>
      </trkpt>
      <trkpt lat="31.197442053809898" lon="121.62227467352672">
        <ele>6.468188564245722</ele>
        <time>2019-04-01T23:21:09Z</time>
      </trkpt>
      <trkpt lat="31.1976442919663" lon="121.62205923057944">
        <ele>6.728494530418857</ele>
        <time>2019-04-01T23:21:26Z</time>
      </trkpt>
      <trkpt lat="31.197733008245578" lon="121.62200990529513">
        <ele>6.9829397344047806</ele>
        <time>2019-04-01T23:21:30Z</time>
      </trkpt>
      <trkpt lat="31.19786412682978" lon="121.62186654672158">
        <ele>8.042936731082406</ele>
        <time>2019-04-01T23:21:38Z</time>
      </trkpt>
      <trkpt lat="31.198101500489013" lon="121.62174892175398">
        <ele>8.12984110484335</ele>
        <time>2019-04-01T23:21:50Z</time>
      </trkpt>
      <trkpt lat="31.19832734500415" lon="121.62151423282374">
        <ele>7.329562850254391</ele>
        <time>2019-04-01T23:22:02Z</time>
      </trkpt>
      <trkpt lat="31.19853723942345" lon="121.62123537247813">
        <ele>8.369965351689999</ele>
        <time>2019-04-01T23:22:16Z</time>
      </trkpt>
      <trkpt lat="31.198608906579672" lon="121.62115542559823">
        <ele>8.230370879154009</ele>
        <time>2019-04-01T23:22:20Z</time>
      </trkpt>
      <trkpt lat="31.198841425903243" lon="121.6210115120366">
        <ele>8.275801509277144</ele>
        <time>2019-04-01T23:22:31Z</time>
      </trkpt>
      <trkpt lat="31.199062629637655" lon="121.62080066409548">
        <ele>8.157280183212436</ele>
        <time>2019-04-01T23:22:46Z</time>
      </trkpt>
      <trkpt lat="31.199199680012484" lon="121.62068277169148">
        <ele>8.31957030570139</ele>
        <time>2019-04-01T23:22:54Z</time>
      </trkpt>
      <trkpt lat="31.199351267418038" lon="121.62066107981394">
        <ele>8.636976217739473</ele>
        <time>2019-04-01T23:23:01Z</time>
      </trkpt>
      <trkpt lat="31.199575977001665" lon="121.62071715645844">
        <ele>8.790029543328089</ele>
        <time>2019-04-01T23:23:11Z</time>
      </trkpt>
      <trkpt lat="31.19985660034333" lon="121.62071767521898">
        <ele>8.637073509265619</ele>
        <time>2019-04-01T23:23:22Z</time>
      </trkpt>
      <trkpt lat="31.200132284633455" lon="121.62077239256972">
        <ele>8.377567384569616</ele>
        <time>2019-04-01T23:23:33Z</time>
      </trkpt>
      <trkpt lat="31.200403099939695" lon="121.62081654159381">
        <ele>8.291635057471353</ele>
        <time>2019-04-01T23:23:44Z</time>
      </trkpt>
      <trkpt lat="31.200751441722176" lon="121.6208772144943">
        <ele>7.876909226382338</ele>
        <time>2019-04-01T23:23:58Z</time>
      </trkpt>
      <trkpt lat="31.20103933435409" lon="121.620925155774">
        <ele>8.056522256260791</ele>
        <time>2019-04-01T23:24:09Z</time>
      </trkpt>
      <trkpt lat="31.201327499885043" lon="121.6209714710115">
        <ele>8.063446864792525</ele>
        <time>2019-04-01T23:24:20Z</time>
      </trkpt>
      <trkpt lat="31.20168803823539" lon="121.62103620736039">
        <ele>8.427342003569734</ele>
        <time>2019-04-01T23:24:34Z</time>
      </trkpt>
      <trkpt lat="31.202025812507625" lon="121.62109064791609">
        <ele>8.478085874772205</ele>
        <time>2019-04-01T23:24:48Z</time>
      </trkpt>
      <trkpt lat="31.20209195484936" lon="121.62110392081792">
        <ele>8.594658076099932</ele>
        <time>2019-04-01T23:24:54Z</time>
      </trkpt>
      <trkpt lat="31.20209195484936" lon="121.62110392081792">
        <ele>8.594658076099932</ele>
        <time>2019-04-01T23:24:55Z</time>
      </trkpt>
      <trkpt lat="31.202252714321812" lon="121.62112531549272">
        <ele>8.75831872486701</ele>
        <time>2019-04-01T23:24:58Z</time>
      </trkpt>
      <trkpt lat="31.202471201741737" lon="121.62116838430349">
        <ele>9.119586457343743</ele>
        <time>2019-04-01T23:25:11Z</time>
      </trkpt>
      <trkpt lat="31.202428669828933" lon="121.62113532744615">
        <ele>8.003297258102776</ele>
        <time>2019-04-01T23:25:46Z</time>
      </trkpt>
      <trkpt lat="31.20244288449948" lon="121.62102964117781">
        <ele>7.838729252276892</ele>
        <time>2019-04-01T23:26:07Z</time>
      </trkpt>
      <trkpt lat="31.202379650900607" lon="121.62083507633483">
        <ele>7.809989043995358</ele>
        <time>2019-04-01T23:26:14Z</time>
      </trkpt>
      <trkpt lat="31.202386897875034" lon="121.62040067520236">
        <ele>7.301117963048725</ele>
        <time>2019-04-01T23:26:28Z</time>
      </trkpt>
      <trkpt lat="31.2024035298815" lon="121.6203139554475">
        <ele>7.522384785635694</ele>
        <time>2019-04-01T23:26:31Z</time>
      </trkpt>
      <trkpt lat="31.20244774541115" lon="121.62029471110903">
        <ele>7.439418189985602</ele>
        <time>2019-04-01T23:26:35Z</time>
      </trkpt>
      <trkpt lat="31.202494608595917" lon="121.62033508554175">
        <ele>6.061816388790973</ele>
        <time>2019-04-01T23:27:25Z</time>
      </trkpt>
      <trkpt lat="31.202684950780988" lon="121.62032992088136">
        <ele>6.330219537223613</ele>
        <time>2019-04-01T23:27:32Z</time>
      </trkpt>
      <trkpt lat="31.20289325965654" lon="121.620257547819">
        <ele>6.161371560757075</ele>
        <time>2019-04-01T23:27:40Z</time>
      </trkpt>
      <trkpt lat="31.20289121203661" lon="121.62014345843319">
        <ele>6.126359636970776</ele>
        <time>2019-04-01T23:27:44Z</time>
      </trkpt>
      <trkpt lat="31.202751405829673" lon="121.61979279729172">
        <ele>5.786743236660911</ele>
        <time>2019-04-01T23:27:58Z</time>
      </trkpt>
      <trkpt lat="31.20264497175554" lon="121.6194163831668">
        <ele>6.091206808081765</ele>
        <time>2019-04-01T23:28:12Z</time>
      </trkpt>
      <trkpt lat="31.20254693605585" lon="121.61904185987152">
        <ele>5.347360499012467</ele>
        <time>2019-04-01T23:28:25Z</time>
      </trkpt>
      <trkpt lat="31.202464539777992" lon="121.61874782044168">
        <ele>5.533292543804677</ele>
        <time>2019-04-01T23:28:36Z</time>
      </trkpt>
      <trkpt lat="31.20246545502438" lon="121.6186472747377">
        <ele>5.654253386425495</ele>
        <time>2019-04-01T23:28:40Z</time>
      </trkpt>
      <trkpt lat="31.20261053162477" lon="121.61862802080341">
        <ele>5.886626174558799</ele>
        <time>2019-04-01T23:28:46Z</time>
      </trkpt>
      <trkpt lat="31.202715783673888" lon="121.61857679054499">
        <ele>5.67522501107058</ele>
        <time>2019-04-01T23:28:50Z</time>
      </trkpt>
      <trkpt lat="31.202813417654266" lon="121.61855157817418">
        <ele>5.274474236729844</ele>
        <time>2019-04-01T23:28:54Z</time>
      </trkpt>
      <trkpt lat="31.20285578345047" lon="121.61848327903895">
        <ele>5.092736693754304</ele>
        <time>2019-04-01T23:28:57Z</time>
      </trkpt>
      <trkpt lat="31.20284220165811" lon="121.61823746856554">
        <ele>5.036367944290262</ele>
        <time>2019-04-01T23:29:05Z</time>
      </trkpt>
      <trkpt lat="31.20269252971097" lon="121.61796971431085">
        <ele>5.551861169417975</ele>
        <time>2019-04-01T23:29:16Z</time>
      </trkpt>
      <trkpt lat="31.202546920960618" lon="121.61770331197071">
        <ele>5.382097220370596</ele>
        <time>2019-04-01T23:29:27Z</time>
      </trkpt>
      <trkpt lat="31.202474963724978" lon="121.61753446989614">
        <ele>5.684307554036607</ele>
        <time>2019-04-01T23:29:34Z</time>
      </trkpt>
      <trkpt lat="31.202369647521767" lon="121.61737430229317">
        <ele>5.6926843172863215</ele>
        <time>2019-04-01T23:29:45Z</time>
      </trkpt>
      <trkpt lat="31.20240255391541" lon="121.61727158020575">
        <ele>5.179840219817066</ele>
        <time>2019-04-01T23:29:52Z</time>
      </trkpt>
      <trkpt lat="31.202555851866297" lon="121.61716044583217">
        <ele>5.349093461093631</ele>
        <time>2019-04-01T23:30:04Z</time>
      </trkpt>
      <trkpt lat="31.20259711109895" lon="121.61711165712823">
        <ele>5.3266514360355615</ele>
        <time>2019-04-01T23:30:08Z</time>
      </trkpt>
      <trkpt lat="31.20269830296656" lon="121.61705039597825">
        <ele>5.2371623667323774</ele>
        <time>2019-04-01T23:30:16Z</time>
      </trkpt>
      <trkpt lat="31.202808786264264" lon="121.61691243201399">
        <ele>4.685440102833965</ele>
        <time>2019-04-01T23:30:27Z</time>
      </trkpt>
      <trkpt lat="31.202987036233846" lon="121.61679180780168">
        <ele>4.892243769263047</ele>
        <time>2019-04-01T23:30:42Z</time>
      </trkpt>
      <trkpt lat="31.20304516015033" lon="121.61668474465638">
        <ele>5.212676214304594</ele>
        <time>2019-04-01T23:30:55Z</time>
      </trkpt>
      <trkpt lat="31.20304516015033" lon="121.61668474465638">
        <ele>5.212676214304594</ele>
        <time>2019-04-01T23:31:02Z</time>
      </trkpt>
      <trkpt lat="31.20310434403637" lon="121.61660342931955">
        <ele>5.032872807961155</ele>
        <time>2019-04-01T23:31:09Z</time>
      </trkpt>
      <trkpt lat="31.203363981053933" lon="121.61643157089092">
        <ele>5.7228665782078565</ele>
        <time>2019-04-01T23:31:30Z</time>
      </trkpt>
      <trkpt lat="31.203598668619154" lon="121.61626404994483">
        <ele>5.457237372805935</ele>
        <time>2019-04-01T23:31:50Z</time>
      </trkpt>
      <trkpt lat="31.203839859219634" lon="121.61610005084354">
        <ele>5.052510234185291</ele>
        <time>2019-04-01T23:32:11Z</time>
      </trkpt>
      <trkpt lat="31.203935630250385" lon="121.61603445095264">
        <ele>5.695026046618025</ele>
        <time>2019-04-01T23:32:21Z</time>
      </trkpt>
      <trkpt lat="31.204132488090774" lon="121.61601952737955">
        <ele>6.485609231223009</ele>
        <time>2019-04-01T23:32:36Z</time>
      </trkpt>
      <trkpt lat="31.204212520203527" lon="121.61596802277735">
        <ele>6.2675504688015025</ele>
        <time>2019-04-01T23:32:43Z</time>
      </trkpt>
      <trkpt lat="31.2042713699546" lon="121.61595338162113">
        <ele>6.414344715790918</ele>
        <time>2019-04-01T23:32:47Z</time>
      </trkpt>
      <trkpt lat="31.204472850155344" lon="121.61621898511993">
        <ele>7.039799412508074</ele>
        <time>2019-04-01T23:33:08Z</time>
      </trkpt>
      <trkpt lat="31.204599892213164" lon="121.61634880218988">
        <ele>7.526059522512924</ele>
        <time>2019-04-01T23:33:23Z</time>
      </trkpt>
      <trkpt lat="31.204364788219998" lon="121.61608781058422">
        <ele>9.383759120058627</ele>
        <time>2019-04-01T23:33:48Z</time>
      </trkpt>
      <trkpt lat="31.20416002302114" lon="121.61585527326123">
        <ele>10.021766633475302</ele>
        <time>2019-04-01T23:34:09Z</time>
      </trkpt>
      <trkpt lat="31.203932489603325" lon="121.61561270688297">
        <ele>9.933152072420611</ele>
        <time>2019-04-01T23:34:31Z</time>
      </trkpt>
      <trkpt lat="31.20382604434182" lon="121.61548966036678">
        <ele>9.267116304612195</ele>
        <time>2019-04-01T23:34:41Z</time>
      </trkpt>
      <trkpt lat="31.203806294789622" lon="121.61544141547023">
        <ele>9.004907304649592</ele>
        <time>2019-04-01T23:34:44Z</time>
      </trkpt>
      <trkpt lat="31.203721491152194" lon="121.61537257614499">
        <ele>8.22951402392735</ele>
        <time>2019-04-01T23:34:51Z</time>
      </trkpt>
      <trkpt lat="31.203682226924304" lon="121.61531620114161">
        <ele>7.971281553699399</ele>
        <time>2019-04-01T23:34:55Z</time>
      </trkpt>
      <trkpt lat="31.203602565140226" lon="121.61525793199563">
        <ele>7.243123403014039</ele>
        <time>2019-04-01T23:35:02Z</time>
      </trkpt>
      <trkpt lat="31.203572780777456" lon="121.61521239797297">
        <ele>6.898412016921114</ele>
        <time>2019-04-01T23:35:09Z</time>
      </trkpt>
      <trkpt lat="31.203853287363273" lon="121.61503971481532">
        <ele>6.999896432516337</ele>
        <time>2019-04-01T23:35:26Z</time>
      </trkpt>
      <trkpt lat="31.203882892683524" lon="121.61498116490925">
        <ele>7.041821957717588</ele>
        <time>2019-04-01T23:35:30Z</time>
      </trkpt>
      <trkpt lat="31.203892162979322" lon="121.61492234548807">
        <ele>6.840881188819097</ele>
        <time>2019-04-01T23:35:34Z</time>
      </trkpt>
      <trkpt lat="31.203951074371822" lon="121.61483668738637">
        <ele>6.892587806493836</ele>
        <time>2019-04-01T23:35:41Z</time>
      </trkpt>
      <trkpt lat="31.204082935037288" lon="121.61473475958121">
        <ele>6.629271855421678</ele>
        <time>2019-04-01T23:35:52Z</time>
      </trkpt>
      <trkpt lat="31.204129016924355" lon="121.61474749540645">
        <ele>6.757246784605329</ele>
        <time>2019-04-01T23:35:56Z</time>
      </trkpt>
      <trkpt lat="31.204155821955105" lon="121.61479032000216">
        <ele>6.725622100653581</ele>
        <time>2019-04-01T23:36:00Z</time>
      </trkpt>
      <trkpt lat="31.204271221895212" lon="121.61490876143314">
        <ele>6.775858435976872</ele>
        <time>2019-04-01T23:36:18Z</time>
      </trkpt>
      <trkpt lat="31.20432588511939" lon="121.61502937572443">
        <ele>6.687287009518613</ele>
        <time>2019-04-01T23:36:25Z</time>
      </trkpt>
      <trkpt lat="31.20441554875274" lon="121.61512233924924">
        <ele>5.679929763387875</ele>
        <time>2019-04-01T23:36:40Z</time>
      </trkpt>
      <trkpt lat="31.20442256152749" lon="121.6151638095558">
        <ele>4.417570420721489</ele>
        <time>2019-04-01T23:36:54Z</time>
      </trkpt>
      <trkpt lat="31.204410361641443" lon="121.6151624553082">
        <ele>4.375055480979242</ele>
        <time>2019-04-01T23:37:15Z</time>
      </trkpt>
      <trkpt lat="31.204434539736912" lon="121.61510932718961">
        <ele>5.187114314943983</ele>
        <time>2019-04-01T23:37:22Z</time>
      </trkpt>
      <trkpt lat="31.204621446481735" lon="121.61500224598196">
        <ele>5.147845805429611</ele>
        <time>2019-04-01T23:37:39Z</time>
      </trkpt>
      <trkpt lat="31.204642194584984" lon="121.61484069605382">
        <ele>6.073006179776357</ele>
        <time>2019-04-01T23:37:46Z</time>
      </trkpt>
      <trkpt lat="31.204672063771522" lon="121.6147900062522">
        <ele>6.012204844761172</ele>
        <time>2019-04-01T23:37:50Z</time>
      </trkpt>
      <trkpt lat="31.204791927121917" lon="121.61476533027277">
        <ele>5.347336980992026</ele>
        <time>2019-04-01T23:37:57Z</time>
      </trkpt>
      <trkpt lat="31.204850182185435" lon="121.61481004962235">
        <ele>3.9038114615155735</ele>
        <time>2019-04-01T23:38:04Z</time>
      </trkpt>
      <trkpt lat="31.20485580414155" lon="121.6148921787746">
        <ele>3.226876673400625</ele>
        <time>2019-04-01T23:38:15Z</time>
      </trkpt>
      <trkpt lat="31.20486911542686" lon="121.61486290378302">
        <ele>2.7459830090652133</ele>
        <time>2019-04-01T23:38:21Z</time>
      </trkpt>
      <trkpt lat="31.205006660679103" lon="121.61477181785219">
        <ele>2.7981960040935263</ele>
        <time>2019-04-01T23:38:53Z</time>
      </trkpt>
      <trkpt lat="31.205006660679103" lon="121.61477181785219">
        <ele>2.7229811943619353</ele>
        <time>2019-04-01T23:38:58Z</time>
      </trkpt>
      <trkpt lat="31.205002332914137" lon="121.6147598917546">
        <ele>2.8273737753711004</ele>
        <time>2019-04-01T23:39:04Z</time>
      </trkpt>
      <trkpt lat="31.205026478614542" lon="121.61474308428753">
        <ele>2.3445904875470944</ele>
        <time>2019-04-01T23:39:07Z</time>
      </trkpt>
      <trkpt lat="31.205254138329703" lon="121.61453895937093">
        <ele>2.922637764602783</ele>
        <time>2019-04-01T23:39:25Z</time>
      </trkpt>
      <trkpt lat="31.20535911406938" lon="121.61448528106943">
        <ele>3.2178729576148584</ele>
        <time>2019-04-01T23:39:41Z</time>
      </trkpt>
      <trkpt lat="31.2054001254896" lon="121.6144039598418">
        <ele>4.179942946086058</ele>
        <time>2019-04-01T23:39:48Z</time>
      </trkpt>
      <trkpt lat="31.20546335098065" lon="121.61434459241742">
        <ele>4.412664252188051</ele>
        <time>2019-04-01T23:39:54Z</time>
      </trkpt>
      <trkpt lat="31.20546335098065" lon="121.61434459241742">
        <ele>4.412664252188051</ele>
        <time>2019-04-01T23:39:59Z</time>
      </trkpt>
      <trkpt lat="31.205457097208836" lon="121.61436519353066">
        <ele>5.16626691504969</ele>
        <time>2019-04-01T23:40:06Z</time>
      </trkpt>
      <trkpt lat="31.205453560823514" lon="121.6143787468371">
        <ele>4.694621536480582</ele>
        <time>2019-04-01T23:40:10Z</time>
      </trkpt>
      <trkpt lat="31.205463858158947" lon="121.6143855224896">
        <ele>4.370313937053382</ele>
        <time>2019-04-01T23:40:12Z</time>
      </trkpt>
      <trkpt lat="31.205463858158947" lon="121.6143855224896">
        <ele>4.370313937053382</ele>
        <time>2019-04-01T23:40:24Z</time>
      </trkpt>
      <trkpt lat="31.205487174883555" lon="121.61438660480174">
        <ele>4.338090218666366</ele>
        <time>2019-04-01T23:40:50Z</time>
      </trkpt>
      <trkpt lat="31.205570474577804" lon="121.61431530899627">
        <ele>4.202422679754733</ele>
        <time>2019-04-01T23:41:00Z</time>
      </trkpt>
      <trkpt lat="31.205619526444178" lon="121.61434295313785">
        <ele>3.8910784601512916</ele>
        <time>2019-04-01T23:41:10Z</time>
      </trkpt>
      <trkpt lat="31.20586915697822" lon="121.61412499876408">
        <ele>4.352700279594828</ele>
        <time>2019-04-01T23:41:30Z</time>
      </trkpt>
      <trkpt lat="31.205931159481082" lon="121.613907600037">
        <ele>5.391053745364886</ele>
        <time>2019-04-01T23:41:46Z</time>
      </trkpt>
      <trkpt lat="31.206033256468157" lon="121.61372841656468">
        <ele>5.875327681127459</ele>
        <time>2019-04-01T23:42:00Z</time>
      </trkpt>
      <trkpt lat="31.206073142992754" lon="121.61369290337892">
        <ele>6.097834862832769</ele>
        <time>2019-04-01T23:42:04Z</time>
      </trkpt>
      <trkpt lat="31.206106758624408" lon="121.61369913516322">
        <ele>6.328770845817417</ele>
        <time>2019-04-01T23:42:31Z</time>
      </trkpt>
      <trkpt lat="31.206098350258536" lon="121.6137029308099">
        <ele>7.014534726370982</ele>
        <time>2019-04-01T23:42:53Z</time>
      </trkpt>
      <trkpt lat="31.206111897783888" lon="121.61371404347207">
        <ele>7.098034538015568</ele>
        <time>2019-04-01T23:42:58Z</time>
      </trkpt>
      <trkpt lat="31.206111897783888" lon="121.61371404347207">
        <ele>7.098034538015568</ele>
        <time>2019-04-01T23:43:02Z</time>
      </trkpt>
      <trkpt lat="31.20609401660233" lon="121.61369750980906">
        <ele>6.506999547932878</ele>
        <time>2019-04-01T23:43:05Z</time>
      </trkpt>
      <trkpt lat="31.20625648973849" lon="121.61362186828185">
        <ele>6.790404811840233</ele>
        <time>2019-04-01T23:43:20Z</time>
      </trkpt>
      <trkpt lat="31.20622407384734" lon="121.61347630653422">
        <ele>6.813863606518751</ele>
        <time>2019-04-01T23:43:37Z</time>
      </trkpt>
      <trkpt lat="31.20614933400868" lon="121.61336246281374">
        <ele>7.63839344174751</ele>
        <time>2019-04-01T23:43:48Z</time>
      </trkpt>
      <trkpt lat="31.205903030390097" lon="121.61316812386046">
        <ele>6.364418747978135</ele>
        <time>2019-04-01T23:44:05Z</time>
      </trkpt>
      <trkpt lat="31.205797900578315" lon="121.6130808465325">
        <ele>6.4470047195435995</ele>
        <time>2019-04-01T23:44:15Z</time>
      </trkpt>
      <trkpt lat="31.205821594828148" lon="121.6129501860075">
        <ele>6.604884072711201</ele>
        <time>2019-04-01T23:44:22Z</time>
      </trkpt>
      <trkpt lat="31.205934500291104" lon="121.61280921640399">
        <ele>6.377212606979228</ele>
        <time>2019-04-01T23:44:28Z</time>
      </trkpt>
      <trkpt lat="31.205966272707048" lon="121.61274713677368">
        <ele>6.930197249188538</ele>
        <time>2019-04-01T23:44:31Z</time>
      </trkpt>
      <trkpt lat="31.205964410367454" lon="121.61270240885358">
        <ele>7.869878768868816</ele>
        <time>2019-04-01T23:44:45Z</time>
      </trkpt>
      <trkpt lat="31.205964410367454" lon="121.61270240885358">
        <ele>8.050476826912288</ele>
        <time>2019-04-01T23:44:47Z</time>
      </trkpt>
      <trkpt lat="31.205964410367454" lon="121.61270240885358">
        <ele>8.050476826912288</ele>
        <time>2019-04-01T23:44:53Z</time>
      </trkpt>
      <trkpt lat="31.20595979588674" lon="121.61270891514216">
        <ele>7.607675011463499</ele>
        <time>2019-04-01T23:45:08Z</time>
      </trkpt>
      <trkpt lat="31.20595979588674" lon="121.61270891514216">
        <ele>7.607675011463499</ele>
        <time>2019-04-01T23:45:18Z</time>
      </trkpt>
      <trkpt lat="31.20593813864475" lon="121.61266662850487">
        <ele>7.475590316501481</ele>
        <time>2019-04-01T23:45:37Z</time>
      </trkpt>
      <trkpt lat="31.20588066434824" lon="121.61265850085849">
        <ele>7.5898844910204275</ele>
        <time>2019-04-01T23:45:41Z</time>
      </trkpt>
      <trkpt lat="31.205842202200987" lon="121.61260916742508">
        <ele>8.13487066460084</ele>
        <time>2019-04-01T23:45:45Z</time>
      </trkpt>
      <trkpt lat="31.205758722672943" lon="121.61257095193422">
        <ele>7.755327115792994</ele>
        <time>2019-04-01T23:45:52Z</time>
      </trkpt>
      <trkpt lat="31.205507105016714" lon="121.6125758521976">
        <ele>7.463394875999697</ele>
        <time>2019-04-01T23:46:12Z</time>
      </trkpt>
      <trkpt lat="31.2053179938981" lon="121.61239614045525">
        <ele>6.910953695663849</ele>
        <time>2019-04-01T23:46:26Z</time>
      </trkpt>
      <trkpt lat="31.20525465787327" lon="121.6122557242378">
        <ele>6.794767803706833</ele>
        <time>2019-04-01T23:46:37Z</time>
      </trkpt>
      <trkpt lat="31.20503841223736" lon="121.61210041005796">
        <ele>6.626892925092818</ele>
        <time>2019-04-01T23:46:52Z</time>
      </trkpt>
      <trkpt lat="31.204848422361934" lon="121.61200175005952">
        <ele>7.030164116164343</ele>
        <time>2019-04-01T23:46:59Z</time>
      </trkpt>
      <trkpt lat="31.204649029676034" lon="121.6117886906408">
        <ele>6.772873614081689</ele>
        <time>2019-04-01T23:47:10Z</time>
      </trkpt>
      <trkpt lat="31.204534186401556" lon="121.61163282274966">
        <ele>6.869139817655338</ele>
        <time>2019-04-01T23:47:17Z</time>
      </trkpt>
      <trkpt lat="31.20430441451081" lon="121.61143196167842">
        <ele>6.990578168934647</ele>
        <time>2019-04-01T23:47:28Z</time>
      </trkpt>
      <trkpt lat="31.20422043631214" lon="121.61133301895393">
        <ele>7.132235165062838</ele>
        <time>2019-04-01T23:47:32Z</time>
      </trkpt>
      <trkpt lat="31.204180634533145" lon="121.61125874193966">
        <ele>7.166595552326044</ele>
        <time>2019-04-01T23:47:35Z</time>
      </trkpt>
      <trkpt lat="31.20416931073704" lon="121.61117226294745">
        <ele>7.417545400237188</ele>
        <time>2019-04-01T23:47:38Z</time>
      </trkpt>
      <trkpt lat="31.204202967426347" lon="121.6111234625691">
        <ele>7.112626931565359</ele>
        <time>2019-04-01T23:47:42Z</time>
      </trkpt>
      <trkpt lat="31.204310915283013" lon="121.61107438484633">
        <ele>7.263285124967879</ele>
        <time>2019-04-01T23:47:49Z</time>
      </trkpt>
      <trkpt lat="31.204371690276282" lon="121.61101880453619">
        <ele>7.513301978946572</ele>
        <time>2019-04-01T23:47:55Z</time>
      </trkpt>
      <trkpt lat="31.204465799766304" lon="121.61098382492159">
        <ele>7.611538546730671</ele>
        <time>2019-04-01T23:48:02Z</time>
      </trkpt>
      <trkpt lat="31.20456731766779" lon="121.61082793366941">
        <ele>7.348961132830908</ele>
        <time>2019-04-01T23:48:15Z</time>
      </trkpt>
      <trkpt lat="31.204522354849253" lon="121.61076477063733">
        <ele>7.310776718368459</ele>
        <time>2019-04-01T23:48:22Z</time>
      </trkpt>
      <trkpt lat="31.20436248070879" lon="121.61063167223368">
        <ele>7.8186883945907795</ele>
        <time>2019-04-01T23:48:42Z</time>
      </trkpt>
      <trkpt lat="31.204374713602288" lon="121.61058721014115">
        <ele>7.758539213264001</ele>
        <time>2019-04-01T23:48:44Z</time>
      </trkpt>
      <trkpt lat="31.204343289002068" lon="121.61054925808854">
        <ele>8.03567291944789</ele>
        <time>2019-04-01T23:48:52Z</time>
      </trkpt>
      <trkpt lat="31.2043767030476" lon="121.61045870611866">
        <ele>9.850613109853143</ele>
        <time>2019-04-01T23:48:59Z</time>
      </trkpt>
      <trkpt lat="31.204327350848857" lon="121.61046657226967">
        <ele>10.333178698873965</ele>
        <time>2019-04-01T23:49:03Z</time>
      </trkpt>
      <trkpt lat="31.204339860735434" lon="121.61041343442501">
        <ele>12.948041518560032</ele>
        <time>2019-04-01T23:49:13Z</time>
      </trkpt>
      <trkpt lat="31.204380753523157" lon="121.61048202088378">
        <ele>15.337841520265364</ele>
        <time>2019-04-01T23:49:23Z</time>
      </trkpt>
      <trkpt lat="31.204427937416572" lon="121.61047307049424">
        <ele>16.94013106929132</ele>
        <time>2019-04-01T23:49:31Z</time>
      </trkpt>
      <trkpt lat="31.20442789634708" lon="121.61053081595557">
        <ele>17.539370518454795</ele>
        <time>2019-04-01T23:49:34Z</time>
      </trkpt>
      <trkpt lat="31.20438961615972" lon="121.61060103523036">
        <ele>19.11024570237157</ele>
        <time>2019-04-01T23:49:41Z</time>
      </trkpt>
      <trkpt lat="31.20433293550537" lon="121.61061974610185">
        <ele>20.813576569378256</ele>
        <time>2019-04-01T23:49:49Z</time>
      </trkpt>
      <trkpt lat="31.204310395914835" lon="121.61066908884533">
        <ele>21.99931827590236</ele>
        <time>2019-04-01T23:50:36Z</time>
      </trkpt>
      <trkpt lat="31.20431715813776" lon="121.61069158986099">
        <ele>22.38806009520939</ele>
        <time>2019-04-01T23:50:40Z</time>
      </trkpt>
      <trkpt lat="31.20431850329076" lon="121.61070622931655">
        <ele>22.0472411741409</ele>
        <time>2019-04-01T23:50:45Z</time>
      </trkpt>
      <trkpt lat="31.20431850329076" lon="121.61070622931655">
        <ele>22.0472411741409</ele>
        <time>2019-04-01T23:50:48Z</time>
      </trkpt>
    </trkseg>
  </trk>
</gpx>