<?xml version="1.0" encoding="UTF-8"?>
<gpx xmlns="http://www.topografix.com/GPX/1/1" xmlns:gpxtpx="http://www.garmin.com/xmlschemas/TrackPointExtension/v1" xmlns:xsi="http://www.w3.org/2001/XMLSchema-instance" xsi:schemaLocation="http://www.topografix.com/GPX/1/1 http://www.topografix.com/GPX/1/1/gpx.xsd" version="1.1" creator="gpx.py -- https://github.com/tkrajina/gpxpy">
  <trk>
    <name>gpx from keep</name>
    <type>Run</type>
    <trkseg>
      <trkpt lat="31.20454829759662" lon="121.6105066776364">
        <ele>8.745257086784068</ele>
        <time>2020-06-21T22:31:10Z</time>
      </trkpt>
      <trkpt lat="31.20458731791831" lon="121.6105392070329">
        <ele>8.570400721985159</ele>
        <time>2020-06-21T22:31:14Z</time>
      </trkpt>
      <trkpt lat="31.204613840984162" lon="121.61060670988283">
        <ele>8.318181749433279</ele>
        <time>2020-06-21T22:31:18Z</time>
      </trkpt>
      <trkpt lat="31.20470515100676" lon="121.61069399771469">
        <ele>8.076131987385452</ele>
        <time>2020-06-21T22:31:26Z</time>
      </trkpt>
      <trkpt lat="31.20486819403699" lon="121.61056737871499">
        <ele>10.155203374102712</ele>
        <time>2020-06-21T22:31:36Z</time>
      </trkpt>
      <trkpt lat="31.204954502649475" lon="121.61044428973366">
        <ele>7.827248893678188</ele>
        <time>2020-06-21T22:31:43Z</time>
      </trkpt>
      <trkpt lat="31.205115897620864" lon="121.61034613576274">
        <ele>7.538402286358178</ele>
        <time>2020-06-21T22:31:50Z</time>
      </trkpt>
      <trkpt lat="31.205234229717593" lon="121.61017939438041">
        <ele>6.079020289704204</ele>
        <time>2020-06-21T22:31:57Z</time>
      </trkpt>
      <trkpt lat="31.205319921971284" lon="121.61016013852867">
        <ele>7.359147110953927</ele>
        <time>2020-06-21T22:32:01Z</time>
      </trkpt>
      <trkpt lat="31.205444059193457" lon="121.61022139893544">
        <ele>8.533478303812444</ele>
        <time>2020-06-21T22:32:08Z</time>
      </trkpt>
      <trkpt lat="31.205515630804967" lon="121.61023305069361">
        <ele>6.544822348281741</ele>
        <time>2020-06-21T22:32:11Z</time>
      </trkpt>
      <trkpt lat="31.205689534035255" lon="121.61046808629555">
        <ele>7.315717039629817</ele>
        <time>2020-06-21T22:32:21Z</time>
      </trkpt>
      <trkpt lat="31.205759437265527" lon="121.61053802571476">
        <ele>6.719244251027703</ele>
        <time>2020-06-21T22:32:25Z</time>
      </trkpt>
      <trkpt lat="31.20583723152642" lon="121.6105683830233">
        <ele>7.494980877265334</ele>
        <time>2020-06-21T22:32:29Z</time>
      </trkpt>
      <trkpt lat="31.206060697353344" lon="121.61087552403175">
        <ele>7.07999056763947</ele>
        <time>2020-06-21T22:32:43Z</time>
      </trkpt>
      <trkpt lat="31.206195340182713" lon="121.6110286844406">
        <ele>6.0469292206689715</ele>
        <time>2020-06-21T22:32:50Z</time>
      </trkpt>
      <trkpt lat="31.206330273438407" lon="121.61115446294987">
        <ele>7.153699777089059</ele>
        <time>2020-06-21T22:32:57Z</time>
      </trkpt>
      <trkpt lat="31.206354894389335" lon="121.6112254883937">
        <ele>6.27773214597255</ele>
        <time>2020-06-21T22:33:00Z</time>
      </trkpt>
      <trkpt lat="31.20640690689331" lon="121.61128702299094">
        <ele>6.7220826875418425</ele>
        <time>2020-06-21T22:33:03Z</time>
      </trkpt>
      <trkpt lat="31.206513944882925" lon="121.61136861392221">
        <ele>7.193499499000609</ele>
        <time>2020-06-21T22:33:07Z</time>
      </trkpt>
      <trkpt lat="31.206631230548467" lon="121.611523941212">
        <ele>6.034476645290852</ele>
        <time>2020-06-21T22:33:15Z</time>
      </trkpt>
      <trkpt lat="31.20660785272662" lon="121.61160391552963">
        <ele>6.402040530927479</ele>
        <time>2020-06-21T22:33:18Z</time>
      </trkpt>
      <trkpt lat="31.20638777973093" lon="121.61184384921278">
        <ele>7.5011032382026315</ele>
        <time>2020-06-21T22:33:29Z</time>
      </trkpt>
      <trkpt lat="31.206118605993392" lon="121.61211360398087">
        <ele>7.4515058901160955</ele>
        <time>2020-06-21T22:33:43Z</time>
      </trkpt>
      <trkpt lat="31.205893655206165" lon="121.61234431593319">
        <ele>6.319474681280553</ele>
        <time>2020-06-21T22:33:53Z</time>
      </trkpt>
      <trkpt lat="31.205703951785598" lon="121.61257285403016">
        <ele>4.765250506810844</ele>
        <time>2020-06-21T22:34:04Z</time>
      </trkpt>
      <trkpt lat="31.205640459072242" lon="121.6126322259448">
        <ele>6.944708618335426</ele>
        <time>2020-06-21T22:34:07Z</time>
      </trkpt>
      <trkpt lat="31.205560989044407" lon="121.61266665969046">
        <ele>6.048440226353705</ele>
        <time>2020-06-21T22:34:11Z</time>
      </trkpt>
      <trkpt lat="31.20544616496153" lon="121.612834467048">
        <ele>3.9850704316049814</ele>
        <time>2020-06-21T22:34:17Z</time>
      </trkpt>
      <trkpt lat="31.205209787631926" lon="121.61310556298551">
        <ele>8.281375567428768</ele>
        <time>2020-06-21T22:34:32Z</time>
      </trkpt>
      <trkpt lat="31.205069742785312" lon="121.61327635108127">
        <ele>6.5692721251398325</ele>
        <time>2020-06-21T22:34:40Z</time>
      </trkpt>
      <trkpt lat="31.204998956721397" lon="121.61330048240563">
        <ele>8.65942363254726</ele>
        <time>2020-06-21T22:34:43Z</time>
      </trkpt>
      <trkpt lat="31.204946310950543" lon="121.61335605656983">
        <ele>6.765750982798636</ele>
        <time>2020-06-21T22:34:46Z</time>
      </trkpt>
      <trkpt lat="31.204792223634456" lon="121.61345636571077">
        <ele>8.190601342357695</ele>
        <time>2020-06-21T22:34:54Z</time>
      </trkpt>
      <trkpt lat="31.204742798915174" lon="121.61355097330689">
        <ele>6.907200200483203</ele>
        <time>2020-06-21T22:34:57Z</time>
      </trkpt>
      <trkpt lat="31.204652741127706" lon="121.61360031538446">
        <ele>7.785783090628684</ele>
        <time>2020-06-21T22:35:01Z</time>
      </trkpt>
      <trkpt lat="31.204567774372943" lon="121.61372230319668">
        <ele>7.257779706269503</ele>
        <time>2020-06-21T22:35:05Z</time>
      </trkpt>
      <trkpt lat="31.204342261970616" lon="121.61395977596858">
        <ele>7.495555573143065</ele>
        <time>2020-06-21T22:35:17Z</time>
      </trkpt>
      <trkpt lat="31.204076054843906" lon="121.6142235427512">
        <ele>8.13045701943338</ele>
        <time>2020-06-21T22:35:31Z</time>
      </trkpt>
      <trkpt lat="31.203820404049196" lon="121.6145051956192">
        <ele>6.169632310979068</ele>
        <time>2020-06-21T22:35:45Z</time>
      </trkpt>
      <trkpt lat="31.203623386900208" lon="121.61470498138931">
        <ele>4.463664363138378</ele>
        <time>2020-06-21T22:35:56Z</time>
      </trkpt>
      <trkpt lat="31.20367100954001" lon="121.61481638141368">
        <ele>5.667498545721173</ele>
        <time>2020-06-21T22:36:00Z</time>
      </trkpt>
      <trkpt lat="31.203747418648426" lon="121.61487465190014">
        <ele>6.613974615000188</ele>
        <time>2020-06-21T22:36:04Z</time>
      </trkpt>
      <trkpt lat="31.2037931662608" lon="121.6149592169964">
        <ele>6.478539448231459</ele>
        <time>2020-06-21T22:36:08Z</time>
      </trkpt>
      <trkpt lat="31.2037795455363" lon="121.61503186038398">
        <ele>4.837373220361769</ele>
        <time>2020-06-21T22:36:12Z</time>
      </trkpt>
      <trkpt lat="31.203579218065205" lon="121.615291002035">
        <ele>6.422956847585738</ele>
        <time>2020-06-21T22:36:48Z</time>
      </trkpt>
      <trkpt lat="31.203520340396334" lon="121.61533735638993">
        <ele>3.8259813897311687</ele>
        <time>2020-06-21T22:36:52Z</time>
      </trkpt>
      <trkpt lat="31.20340207412763" lon="121.61539482856749">
        <ele>6.176024114713073</ele>
        <time>2020-06-21T22:36:58Z</time>
      </trkpt>
      <trkpt lat="31.20330711611927" lon="121.61546259850509">
        <ele>5.783269709907472</ele>
        <time>2020-06-21T22:37:02Z</time>
      </trkpt>
      <trkpt lat="31.203199614631384" lon="121.6156092438955">
        <ele>5.671398826874793</ele>
        <time>2020-06-21T22:37:09Z</time>
      </trkpt>
      <trkpt lat="31.203002564593575" lon="121.61583639593795">
        <ele>5.331152141094208</ele>
        <time>2020-06-21T22:37:19Z</time>
      </trkpt>
      <trkpt lat="31.202745036422197" lon="121.61607791603952">
        <ele>4.026330453343689</ele>
        <time>2020-06-21T22:37:32Z</time>
      </trkpt>
      <trkpt lat="31.202495080350612" lon="121.61633840580184">
        <ele>5.932173454202712</ele>
        <time>2020-06-21T22:37:46Z</time>
      </trkpt>
      <trkpt lat="31.20234876018038" lon="121.61652977011732">
        <ele>3.291782363317907</ele>
        <time>2020-06-21T22:37:53Z</time>
      </trkpt>
      <trkpt lat="31.202279295559165" lon="121.61658750647797">
        <ele>4.320170515216887</ele>
        <time>2020-06-21T22:37:57Z</time>
      </trkpt>
      <trkpt lat="31.202237462090753" lon="121.61667125974385">
        <ele>4.631635112687945</ele>
        <time>2020-06-21T22:38:00Z</time>
      </trkpt>
      <trkpt lat="31.20194842907823" lon="121.61696128886507">
        <ele>4.605764737352729</ele>
        <time>2020-06-21T22:38:14Z</time>
      </trkpt>
      <trkpt lat="31.20189306233625" lon="121.617019294078">
        <ele>3.056833216920495</ele>
        <time>2020-06-21T22:38:17Z</time>
      </trkpt>
      <trkpt lat="31.20182769197351" lon="121.61704748665963">
        <ele>6.6030528312548995</ele>
        <time>2020-06-21T22:38:20Z</time>
      </trkpt>
      <trkpt lat="31.20178531980756" lon="121.61712608884639">
        <ele>8.347854375839233</ele>
        <time>2020-06-21T22:38:24Z</time>
      </trkpt>
      <trkpt lat="31.201713114538553" lon="121.61721309513763">
        <ele>5.967057998292148</ele>
        <time>2020-06-21T22:38:28Z</time>
      </trkpt>
      <trkpt lat="31.201601318904483" lon="121.6173047118669">
        <ele>4.944808346219361</ele>
        <time>2020-06-21T22:38:32Z</time>
      </trkpt>
      <trkpt lat="31.201539697564872" lon="121.61738114661588">
        <ele>4.106814883649349</ele>
        <time>2020-06-21T22:38:36Z</time>
      </trkpt>
      <trkpt lat="31.201474862046375" lon="121.6174166564535">
        <ele>2.949444606900215</ele>
        <time>2020-06-21T22:38:39Z</time>
      </trkpt>
      <trkpt lat="31.201259055953745" lon="121.61767794231343">
        <ele>2.4309170842170715</ele>
        <time>2020-06-21T22:38:51Z</time>
      </trkpt>
      <trkpt lat="31.201145352409313" lon="121.61777823020627">
        <ele>3.080459383316338</ele>
        <time>2020-06-21T22:38:55Z</time>
      </trkpt>
      <trkpt lat="31.200960202697164" lon="121.61801782817003">
        <ele>3.4304017052054405</ele>
        <time>2020-06-21T22:39:05Z</time>
      </trkpt>
      <trkpt lat="31.20074873554102" lon="121.6182728739966">
        <ele>2.7974428413435817</ele>
        <time>2020-06-21T22:39:16Z</time>
      </trkpt>
      <trkpt lat="31.200678435608424" lon="121.61834903548636">
        <ele>2.580053513869643</ele>
        <time>2020-06-21T22:39:19Z</time>
      </trkpt>
      <trkpt lat="31.200619777120828" lon="121.61844226974748">
        <ele>2.408798852004111</ele>
        <time>2020-06-21T22:39:23Z</time>
      </trkpt>
      <trkpt lat="31.2003990772405" lon="121.61870761051317">
        <ele>1.9600813630968332</ele>
        <time>2020-06-21T22:39:35Z</time>
      </trkpt>
      <trkpt lat="31.200335034006923" lon="121.61876236025212">
        <ele>1.2215751679614186</ele>
        <time>2020-06-21T22:39:38Z</time>
      </trkpt>
      <trkpt lat="31.20028153181858" lon="121.61884963032446">
        <ele>3.367233820259571</ele>
        <time>2020-06-21T22:39:41Z</time>
      </trkpt>
      <trkpt lat="31.200059753453658" lon="121.61910548163365">
        <ele>2.875372763723135</ele>
        <time>2020-06-21T22:39:53Z</time>
      </trkpt>
      <trkpt lat="31.199794837527453" lon="121.61938545341383">
        <ele>2.147170739248395</ele>
        <time>2020-06-21T22:40:08Z</time>
      </trkpt>
      <trkpt lat="31.199662112943567" lon="121.61952015360463">
        <ele>4.150356273166835</ele>
        <time>2020-06-21T22:40:15Z</time>
      </trkpt>
      <trkpt lat="31.199531249955324" lon="121.61968899920275">
        <ele>4.168899472802877</ele>
        <time>2020-06-21T22:40:22Z</time>
      </trkpt>
      <trkpt lat="31.199295999072845" lon="121.61985812332969">
        <ele>5.884093729779124</ele>
        <time>2020-06-21T22:40:33Z</time>
      </trkpt>
      <trkpt lat="31.199170869850146" lon="121.61998740044126">
        <ele>7.014598350040615</ele>
        <time>2020-06-21T22:40:41Z</time>
      </trkpt>
      <trkpt lat="31.199072284153743" lon="121.62014214845874">
        <ele>6.315744958817959</ele>
        <time>2020-06-21T22:40:47Z</time>
      </trkpt>
      <trkpt lat="31.198875094445423" lon="121.62021289494584">
        <ele>5.482707938179374</ele>
        <time>2020-06-21T22:40:54Z</time>
      </trkpt>
      <trkpt lat="31.198707370444307" lon="121.62036575037428">
        <ele>7.768596675246954</ele>
        <time>2020-06-21T22:41:01Z</time>
      </trkpt>
      <trkpt lat="31.198631347484863" lon="121.62046412761273">
        <ele>5.758932100608945</ele>
        <time>2020-06-21T22:41:05Z</time>
      </trkpt>
      <trkpt lat="31.19856669198028" lon="121.62058093104369">
        <ele>6.4079258274286985</ele>
        <time>2020-06-21T22:41:08Z</time>
      </trkpt>
      <trkpt lat="31.198349842435686" lon="121.62077850186043">
        <ele>6.981561029329896</ele>
        <time>2020-06-21T22:41:18Z</time>
      </trkpt>
      <trkpt lat="31.198283881895723" lon="121.62084760982314">
        <ele>6.121205811388791</ele>
        <time>2020-06-21T22:41:21Z</time>
      </trkpt>
      <trkpt lat="31.198190269377047" lon="121.62091319703276">
        <ele>5.8875254560261965</ele>
        <time>2020-06-21T22:41:25Z</time>
      </trkpt>
      <trkpt lat="31.19796502144742" lon="121.62110263642501">
        <ele>5.883753864094615</ele>
        <time>2020-06-21T22:41:36Z</time>
      </trkpt>
      <trkpt lat="31.197690650853" lon="121.62133408120413">
        <ele>6.793727023527026</ele>
        <time>2020-06-21T22:41:50Z</time>
      </trkpt>
      <trkpt lat="31.197473799486655" lon="121.62152893653706">
        <ele>5.025277465581894</ele>
        <time>2020-06-21T22:42:00Z</time>
      </trkpt>
      <trkpt lat="31.197320756924448" lon="121.62163978095721">
        <ele>6.917370061390102</ele>
        <time>2020-06-21T22:42:07Z</time>
      </trkpt>
      <trkpt lat="31.197075392729285" lon="121.6218720315834">
        <ele>5.1655322620645165</ele>
        <time>2020-06-21T22:42:18Z</time>
      </trkpt>
      <trkpt lat="31.196856096880115" lon="121.62206769611015">
        <ele>6.767332714051008</ele>
        <time>2020-06-21T22:42:29Z</time>
      </trkpt>
      <trkpt lat="31.19672555712023" lon="121.6221779944766">
        <ele>5.956435321830213</ele>
        <time>2020-06-21T22:42:36Z</time>
      </trkpt>
      <trkpt lat="31.196654423183137" lon="121.62226362872377">
        <ele>6.233683293685317</ele>
        <time>2020-06-21T22:42:40Z</time>
      </trkpt>
      <trkpt lat="31.196639417347903" lon="121.62234600635813">
        <ele>6.578225145116448</ele>
        <time>2020-06-21T22:42:43Z</time>
      </trkpt>
      <trkpt lat="31.1966479588402" lon="121.6224644212732">
        <ele>5.8823654325678945</ele>
        <time>2020-06-21T22:42:47Z</time>
      </trkpt>
      <trkpt lat="31.196690112994357" lon="121.62258933621716">
        <ele>6.709392044693232</ele>
        <time>2020-06-21T22:42:55Z</time>
      </trkpt>
      <trkpt lat="31.196732216955443" lon="121.62299253623056">
        <ele>4.565547927282751</ele>
        <time>2020-06-21T22:43:13Z</time>
      </trkpt>
      <trkpt lat="31.196792309297443" lon="121.62331118785352">
        <ele>8.131278611719608</ele>
        <time>2020-06-21T22:43:25Z</time>
      </trkpt>
      <trkpt lat="31.196850512562044" lon="121.6236195393705">
        <ele>5.360798758454621</ele>
        <time>2020-06-21T22:43:35Z</time>
      </trkpt>
      <trkpt lat="31.196884105855805" lon="121.62387207189053">
        <ele>6.1542707327753305</ele>
        <time>2020-06-21T22:43:43Z</time>
      </trkpt>
      <trkpt lat="31.196910585291796" lon="121.62394929301482">
        <ele>5.10680444072932</ele>
        <time>2020-06-21T22:43:46Z</time>
      </trkpt>
      <trkpt lat="31.196946527906263" lon="121.62382031343253">
        <ele>6.759267183020711</ele>
        <time>2020-06-21T22:43:54Z</time>
      </trkpt>
      <trkpt lat="31.19695558041972" lon="121.62373143769588">
        <ele>5.057753257453442</ele>
        <time>2020-06-21T22:43:57Z</time>
      </trkpt>
      <trkpt lat="31.19690611352421" lon="121.62337268739928">
        <ele>4.3480503391474485</ele>
        <time>2020-06-21T22:44:09Z</time>
      </trkpt>
      <trkpt lat="31.196869075525655" lon="121.62328083341228">
        <ele>5.3162745125591755</ele>
        <time>2020-06-21T22:44:12Z</time>
      </trkpt>
      <trkpt lat="31.196852660748913" lon="121.62317407426852">
        <ele>4.921333881095052</ele>
        <time>2020-06-21T22:44:16Z</time>
      </trkpt>
      <trkpt lat="31.196836762702407" lon="121.62285460447522">
        <ele>4.703087309375405</ele>
        <time>2020-06-21T22:44:27Z</time>
      </trkpt>
      <trkpt lat="31.196981980372694" lon="121.62271450088582">
        <ele>3.936239356175065</ele>
        <time>2020-06-21T22:44:35Z</time>
      </trkpt>
      <trkpt lat="31.197090614517823" lon="121.62255678639669">
        <ele>4.967060799710453</ele>
        <time>2020-06-21T22:44:42Z</time>
      </trkpt>
      <trkpt lat="31.197329115962244" lon="121.62240339582172">
        <ele>5.383456406183541</ele>
        <time>2020-06-21T22:44:53Z</time>
      </trkpt>
      <trkpt lat="31.19760215615119" lon="121.62215678577232">
        <ele>6.420140282250941</ele>
        <time>2020-06-21T22:45:06Z</time>
      </trkpt>
      <trkpt lat="31.197704456479507" lon="121.62208334258267">
        <ele>6.4244810324162245</ele>
        <time>2020-06-21T22:45:10Z</time>
      </trkpt>
      <trkpt lat="31.197831777100156" lon="121.6219421525467">
        <ele>7.23828349635005</ele>
        <time>2020-06-21T22:45:17Z</time>
      </trkpt>
      <trkpt lat="31.198079164800816" lon="121.62184078586894">
        <ele>5.413246028125286</ele>
        <time>2020-06-21T22:45:28Z</time>
      </trkpt>
      <trkpt lat="31.19829440144113" lon="121.62163699056464">
        <ele>6.3548224857077</ele>
        <time>2020-06-21T22:45:39Z</time>
      </trkpt>
      <trkpt lat="31.198440224950737" lon="121.62143455436062">
        <ele>7.057451382279396</ele>
        <time>2020-06-21T22:45:49Z</time>
      </trkpt>
      <trkpt lat="31.19854583069713" lon="121.62131260262353">
        <ele>5.409721189178526</ele>
        <time>2020-06-21T22:45:56Z</time>
      </trkpt>
      <trkpt lat="31.19859310553366" lon="121.62122398644652">
        <ele>5.175314951688051</ele>
        <time>2020-06-21T22:45:59Z</time>
      </trkpt>
      <trkpt lat="31.198849298258292" lon="121.62100283976255">
        <ele>5.239019160158932</ele>
        <time>2020-06-21T22:46:11Z</time>
      </trkpt>
      <trkpt lat="31.19899887930354" lon="121.62083183324133">
        <ele>5.181208102963865</ele>
        <time>2020-06-21T22:46:19Z</time>
      </trkpt>
      <trkpt lat="31.19905500611737" lon="121.62082993166663">
        <ele>5.434351669624448</ele>
        <time>2020-06-21T22:46:22Z</time>
      </trkpt>
      <trkpt lat="31.199115804244023" lon="121.620770850741">
        <ele>6.54322861880064</ele>
        <time>2020-06-21T22:46:25Z</time>
      </trkpt>
      <trkpt lat="31.199284810854685" lon="121.62068764249462">
        <ele>7.841440808959305</ele>
        <time>2020-06-21T22:46:32Z</time>
      </trkpt>
      <trkpt lat="31.199624544901628" lon="121.62068490446644">
        <ele>5.823596856556833</ele>
        <time>2020-06-21T22:46:44Z</time>
      </trkpt>
      <trkpt lat="31.19991704832667" lon="121.62073149076416">
        <ele>5.421867601573467</ele>
        <time>2020-06-21T22:46:55Z</time>
      </trkpt>
      <trkpt lat="31.20018976305499" lon="121.62077428474755">
        <ele>6.7844745414331555</ele>
        <time>2020-06-21T22:47:05Z</time>
      </trkpt>
      <trkpt lat="31.200488509626407" lon="121.62081436660434">
        <ele>4.165700729936361</ele>
        <time>2020-06-21T22:47:16Z</time>
      </trkpt>
      <trkpt lat="31.20079210747128" lon="121.62088127597175">
        <ele>3.3639858355745673</ele>
        <time>2020-06-21T22:47:27Z</time>
      </trkpt>
      <trkpt lat="31.201062096961493" lon="121.62093680641654">
        <ele>4.31598929874599</ele>
        <time>2020-06-21T22:47:38Z</time>
      </trkpt>
      <trkpt lat="31.201186271858557" lon="121.62094113196251">
        <ele>5.207417824305594</ele>
        <time>2020-06-21T22:47:42Z</time>
      </trkpt>
      <trkpt lat="31.201303892551294" lon="121.62098854523923">
        <ele>3.7364064157009125</ele>
        <time>2020-06-21T22:47:46Z</time>
      </trkpt>
      <trkpt lat="31.20157199970877" lon="121.62102971325348">
        <ele>5.1917254300788045</ele>
        <time>2020-06-21T22:47:56Z</time>
      </trkpt>
      <trkpt lat="31.20184390127231" lon="121.62107223582629">
        <ele>5.359666757285595</ele>
        <time>2020-06-21T22:48:06Z</time>
      </trkpt>
      <trkpt lat="31.20209682637129" lon="121.62111205002935">
        <ele>3.616057502105832</ele>
        <time>2020-06-21T22:48:16Z</time>
      </trkpt>
      <trkpt lat="31.20231178754349" lon="121.62115647408723">
        <ele>4.579288368113339</ele>
        <time>2020-06-21T22:48:24Z</time>
      </trkpt>
      <trkpt lat="31.202381218262982" lon="121.62113804124199">
        <ele>5.087539156898856</ele>
        <time>2020-06-21T22:48:27Z</time>
      </trkpt>
      <trkpt lat="31.20244311000853" lon="121.62107137327182">
        <ele>5.448773251846433</ele>
        <time>2020-06-21T22:48:31Z</time>
      </trkpt>
      <trkpt lat="31.202402935517338" lon="121.6208654252668">
        <ele>4.7315392177551985</ele>
        <time>2020-06-21T22:48:38Z</time>
      </trkpt>
      <trkpt lat="31.20242307159515" lon="121.62079903105054">
        <ele>7.233124907128513</ele>
        <time>2020-06-21T22:48:42Z</time>
      </trkpt>
      <trkpt lat="31.202434246870823" lon="121.62074483200102">
        <ele>4.8284523896873</ele>
        <time>2020-06-21T22:49:33Z</time>
      </trkpt>
      <trkpt lat="31.202393936009095" lon="121.6206632669477">
        <ele>4.389342228882015</ele>
        <time>2020-06-21T22:50:21Z</time>
      </trkpt>
      <trkpt lat="31.202395178269615" lon="121.62051693088961">
        <ele>4.052788087166846</ele>
        <time>2020-06-21T22:50:28Z</time>
      </trkpt>
      <trkpt lat="31.202359811383648" lon="121.62037547494498">
        <ele>5.617962485179305</ele>
        <time>2020-06-21T22:50:35Z</time>
      </trkpt>
      <trkpt lat="31.202397832285772" lon="121.62031747885877">
        <ele>4.882725704461336</ele>
        <time>2020-06-21T22:50:42Z</time>
      </trkpt>
      <trkpt lat="31.20242028315239" lon="121.62036734009708">
        <ele>5.706481829285622</ele>
        <time>2020-06-21T22:51:27Z</time>
      </trkpt>
      <trkpt lat="31.201760008955418" lon="121.62092618008829">
        <ele>6.111924648284912</ele>
        <time>2020-06-21T22:51:54Z</time>
      </trkpt>
      <trkpt lat="31.2023743963359" lon="121.62042804666507">
        <ele>6.163473232601708</ele>
        <time>2020-06-21T22:52:04Z</time>
      </trkpt>
      <trkpt lat="31.202414555950348" lon="121.62039850495758">
        <ele>9.220443668791429</ele>
        <time>2020-06-21T22:52:08Z</time>
      </trkpt>
      <trkpt lat="31.202502192837702" lon="121.62034213078744">
        <ele>8.471577144227922</ele>
        <time>2020-06-21T22:52:25Z</time>
      </trkpt>
      <trkpt lat="31.202699046898505" lon="121.62033262966688">
        <ele>7.8018589448183775</ele>
        <time>2020-06-21T22:52:33Z</time>
      </trkpt>
      <trkpt lat="31.202829505931252" lon="121.6202922405562">
        <ele>10.935191418044269</ele>
        <time>2020-06-21T22:52:37Z</time>
      </trkpt>
      <trkpt lat="31.202895439717313" lon="121.6202472497896">
        <ele>12.511804624460638</ele>
        <time>2020-06-21T22:52:40Z</time>
      </trkpt>
      <trkpt lat="31.20281377325279" lon="121.62004373769263">
        <ele>12.497261648997664</ele>
        <time>2020-06-21T22:52:47Z</time>
      </trkpt>
      <trkpt lat="31.202794350997063" lon="121.61994970274995">
        <ele>10.759505483321846</ele>
        <time>2020-06-21T22:52:50Z</time>
      </trkpt>
      <trkpt lat="31.2027286242327" lon="121.61979876119479">
        <ele>10.750743318349123</ele>
        <time>2020-06-21T22:52:54Z</time>
      </trkpt>
      <trkpt lat="31.202647113823822" lon="121.61944239943902">
        <ele>10.02836862206459</ele>
        <time>2020-06-21T22:53:05Z</time>
      </trkpt>
      <trkpt lat="31.202591232838262" lon="121.61920662902219">
        <ele>8.785133082419634</ele>
        <time>2020-06-21T22:53:12Z</time>
      </trkpt>
      <trkpt lat="31.202535513932187" lon="121.6190754658853">
        <ele>7.678776635788381</ele>
        <time>2020-06-21T22:53:16Z</time>
      </trkpt>
      <trkpt lat="31.202503204349334" lon="121.61885378268845">
        <ele>7.7768109533935785</ele>
        <time>2020-06-21T22:53:23Z</time>
      </trkpt>
      <trkpt lat="31.202464293380995" lon="121.618723429376">
        <ele>6.815564731135964</ele>
        <time>2020-06-21T22:53:27Z</time>
      </trkpt>
      <trkpt lat="31.202793330991543" lon="121.61857407399123">
        <ele>1.1114437449723482</ele>
        <time>2020-06-21T22:53:42Z</time>
      </trkpt>
      <trkpt lat="31.202848972633337" lon="121.61851553033968">
        <ele>1.737074514850974</ele>
        <time>2020-06-21T22:53:45Z</time>
      </trkpt>
      <trkpt lat="31.20280355016567" lon="121.61838788598031">
        <ele>5.164601193740964</ele>
        <time>2020-06-21T22:53:49Z</time>
      </trkpt>
      <trkpt lat="31.202762309638718" lon="121.61814424501044">
        <ele>7.605439253151417</ele>
        <time>2020-06-21T22:53:57Z</time>
      </trkpt>
      <trkpt lat="31.202704613588296" lon="121.61808814890719">
        <ele>3.1199195412918925</ele>
        <time>2020-06-21T22:54:00Z</time>
      </trkpt>
      <trkpt lat="31.20266438274909" lon="121.61791795170639">
        <ele>1.3382665552198887</ele>
        <time>2020-06-21T22:54:07Z</time>
      </trkpt>
      <trkpt lat="31.202536211206173" lon="121.61756427756605">
        <ele>6.246196682564914</ele>
        <time>2020-06-21T22:54:18Z</time>
      </trkpt>
      <trkpt lat="31.202482628903326" lon="121.61745885316088">
        <ele>7.333173687569797</ele>
        <time>2020-06-21T22:54:22Z</time>
      </trkpt>
      <trkpt lat="31.202457510656192" lon="121.61735830443935">
        <ele>8.275805057026446</ele>
        <time>2020-06-21T22:54:26Z</time>
      </trkpt>
      <trkpt lat="31.202504500615916" lon="121.61727157177263">
        <ele>8.226299103349447</ele>
        <time>2020-06-21T22:54:30Z</time>
      </trkpt>
      <trkpt lat="31.202583190191483" lon="121.61720868670831">
        <ele>6.677664372138679</ele>
        <time>2020-06-21T22:54:34Z</time>
      </trkpt>
      <trkpt lat="31.202811727778126" lon="121.61695552579695">
        <ele>6.10108427144587</ele>
        <time>2020-06-21T22:54:45Z</time>
      </trkpt>
      <trkpt lat="31.20292215514379" lon="121.61687610434184">
        <ele>8.697629214264452</ele>
        <time>2020-06-21T22:54:51Z</time>
      </trkpt>
      <trkpt lat="31.202989198136134" lon="121.61679939655059">
        <ele>2.332910588942468</ele>
        <time>2020-06-21T22:54:55Z</time>
      </trkpt>
      <trkpt lat="31.203061355136658" lon="121.6167622590203">
        <ele>1.1408748906105757</ele>
        <time>2020-06-21T22:54:58Z</time>
      </trkpt>
      <trkpt lat="31.203135717448415" lon="121.6166866344062">
        <ele>1.8536396231502295</ele>
        <time>2020-06-21T22:55:02Z</time>
      </trkpt>
      <trkpt lat="31.203230395842557" lon="121.61663106447327">
        <ele>1.7379636317491531</ele>
        <time>2020-06-21T22:55:06Z</time>
      </trkpt>
      <trkpt lat="31.20349197701838" lon="121.61640987732189">
        <ele>2.8253529677167535</ele>
        <time>2020-06-21T22:55:17Z</time>
      </trkpt>
      <trkpt lat="31.203765435547105" lon="121.61624370821667">
        <ele>8.185664342716336</ele>
        <time>2020-06-21T22:55:29Z</time>
      </trkpt>
      <trkpt lat="31.203841397016724" lon="121.6161965410612">
        <ele>4.338722296059132</ele>
        <time>2020-06-21T22:55:33Z</time>
      </trkpt>
      <trkpt lat="31.203915794029548" lon="121.61608161377927">
        <ele>5.570699720643461</ele>
        <time>2020-06-21T22:55:37Z</time>
      </trkpt>
      <trkpt lat="31.203974666247323" lon="121.61604257896933">
        <ele>8.116948666982353</ele>
        <time>2020-06-21T22:55:40Z</time>
      </trkpt>
      <trkpt lat="31.204064686617677" lon="121.61603877694259">
        <ele>5.255129089578986</ele>
        <time>2020-06-21T22:55:44Z</time>
      </trkpt>
      <trkpt lat="31.20413683595469" lon="121.6160089563903">
        <ele>5.028063842095435</ele>
        <time>2020-06-21T22:55:47Z</time>
      </trkpt>
      <trkpt lat="31.204226042678233" lon="121.61600542546749">
        <ele>5.716178978793323</ele>
        <time>2020-06-21T22:55:51Z</time>
      </trkpt>
      <trkpt lat="31.20444357681885" lon="121.61620895907751">
        <ele>6.7768517872318625</ele>
        <time>2020-06-21T22:56:02Z</time>
      </trkpt>
      <trkpt lat="31.204584714430254" lon="121.61634256956906">
        <ele>10.780574071221054</ele>
        <time>2020-06-21T22:56:09Z</time>
      </trkpt>
      <trkpt lat="31.20454383740628" lon="121.61627318708925">
        <ele>10.904544867575169</ele>
        <time>2020-06-21T22:56:13Z</time>
      </trkpt>
      <trkpt lat="31.20445769238998" lon="121.61619106928858">
        <ele>10.881318501196802</ele>
        <time>2020-06-21T22:56:17Z</time>
      </trkpt>
      <trkpt lat="31.204414380768092" lon="121.61611518160427">
        <ele>17.763099061325192</ele>
        <time>2020-06-21T22:56:20Z</time>
      </trkpt>
      <trkpt lat="31.20420092585014" lon="121.61589755263626">
        <ele>18.430872451514006</ele>
        <time>2020-06-21T22:56:32Z</time>
      </trkpt>
      <trkpt lat="31.204112621518405" lon="121.61580350780713">
        <ele>19.651531954295933</ele>
        <time>2020-06-21T22:56:36Z</time>
      </trkpt>
      <trkpt lat="31.204037832803422" lon="121.61575445495474">
        <ele>16.95558982063085</ele>
        <time>2020-06-21T22:56:39Z</time>
      </trkpt>
      <trkpt lat="31.20380867804802" lon="121.61550484046676">
        <ele>11.694590562954545</ele>
        <time>2020-06-21T22:56:51Z</time>
      </trkpt>
      <trkpt lat="31.203754785189528" lon="121.61543464352464">
        <ele>10.373014185577631</ele>
        <time>2020-06-21T22:56:54Z</time>
      </trkpt>
      <trkpt lat="31.203606833700842" lon="121.61533599398965">
        <ele>8.826246403157711</ele>
        <time>2020-06-21T22:57:01Z</time>
      </trkpt>
      <trkpt lat="31.203572176765988" lon="121.61528178691955">
        <ele>8.943668593652546</ele>
        <time>2020-06-21T22:57:05Z</time>
      </trkpt>
      <trkpt lat="31.203701122843242" lon="121.61510505101509">
        <ele>7.619104910641909</ele>
        <time>2020-06-21T22:57:12Z</time>
      </trkpt>
      <trkpt lat="31.203787679590537" lon="121.61503185971127">
        <ele>6.582100883126259</ele>
        <time>2020-06-21T22:57:16Z</time>
      </trkpt>
      <trkpt lat="31.20388461160859" lon="121.61487626688151">
        <ele>6.088183260522783</ele>
        <time>2020-06-21T22:57:23Z</time>
      </trkpt>
      <trkpt lat="31.20400508260826" lon="121.614776779688">
        <ele>5.029109477996826</ele>
        <time>2020-06-21T22:57:29Z</time>
      </trkpt>
      <trkpt lat="31.20406888529074" lon="121.61467810993801">
        <ele>8.827780856750906</ele>
        <time>2020-06-21T22:57:33Z</time>
      </trkpt>
      <trkpt lat="31.204280001348536" lon="121.61447832277798">
        <ele>6.192118989303708</ele>
        <time>2020-06-21T22:57:44Z</time>
      </trkpt>
      <trkpt lat="31.20449278741968" lon="121.61422621890839">
        <ele>3.8423140747472644</ele>
        <time>2020-06-21T22:57:54Z</time>
      </trkpt>
      <trkpt lat="31.204584746594296" lon="121.61417416735326">
        <ele>3.226147485896945</ele>
        <time>2020-06-21T22:57:58Z</time>
      </trkpt>
      <trkpt lat="31.204807291668192" lon="121.61392097518761">
        <ele>4.2572819432243705</ele>
        <time>2020-06-21T22:58:09Z</time>
      </trkpt>
      <trkpt lat="31.205044754063135" lon="121.61365910489205">
        <ele>4.893413797952235</ele>
        <time>2020-06-21T22:58:21Z</time>
      </trkpt>
      <trkpt lat="31.205097679691477" lon="121.61359377293154">
        <ele>3.101543067023158</ele>
        <time>2020-06-21T22:58:24Z</time>
      </trkpt>
      <trkpt lat="31.20525991727321" lon="121.61347448877078">
        <ele>2.4904434392228723</ele>
        <time>2020-06-21T22:58:31Z</time>
      </trkpt>
      <trkpt lat="31.205345948594374" lon="121.61337554069375">
        <ele>4.353979802690446</ele>
        <time>2020-06-21T22:58:35Z</time>
      </trkpt>
      <trkpt lat="31.205436890084645" lon="121.61323972585859">
        <ele>1.0954374363645911</ele>
        <time>2020-06-21T22:58:41Z</time>
      </trkpt>
      <trkpt lat="31.205672916069563" lon="121.61306974278561">
        <ele>-2.3199361758306623</ele>
        <time>2020-06-21T22:58:54Z</time>
      </trkpt>
      <trkpt lat="31.20572749877721" lon="121.61296510299765">
        <ele>-0.4704727726057172</ele>
        <time>2020-06-21T22:58:58Z</time>
      </trkpt>
      <trkpt lat="31.205882444851586" lon="121.61280596776912">
        <ele>2.820472435094416</ele>
        <time>2020-06-21T22:59:05Z</time>
      </trkpt>
      <trkpt lat="31.205948410777832" lon="121.6127056631303">
        <ele>2.5231720376759768</ele>
        <time>2020-06-21T22:59:09Z</time>
      </trkpt>
      <trkpt lat="31.20608706705846" lon="121.61257200910839">
        <ele>5.09715754725039</ele>
        <time>2020-06-21T22:59:16Z</time>
      </trkpt>
      <trkpt lat="31.206174411693688" lon="121.61252266508909">
        <ele>4.754471423104405</ele>
        <time>2020-06-21T22:59:20Z</time>
      </trkpt>
      <trkpt lat="31.20638310672496" lon="121.61227813095242">
        <ele>6.133316777646542</ele>
        <time>2020-06-21T22:59:31Z</time>
      </trkpt>
      <trkpt lat="31.20642923820022" lon="121.61222878971672">
        <ele>7.4922386556863785</ele>
        <time>2020-06-21T22:59:34Z</time>
      </trkpt>
      <trkpt lat="31.206464010868682" lon="121.61214203947247">
        <ele>6.4571854546666145</ele>
        <time>2020-06-21T22:59:41Z</time>
      </trkpt>
      <trkpt lat="31.206592621282333" lon="121.61202275067505">
        <ele>6.636821212247014</ele>
        <time>2020-06-21T22:59:56Z</time>
      </trkpt>
      <trkpt lat="31.206672682921642" lon="121.61192298366426">
        <ele>2.1308725364506245</ele>
        <time>2020-06-21T23:00:04Z</time>
      </trkpt>
      <trkpt lat="31.206719612233236" lon="121.61189316001823">
        <ele>-7.693711911328137</ele>
        <time>2020-06-21T23:00:11Z</time>
      </trkpt>
      <trkpt lat="31.20674569052488" lon="121.61182863860063">
        <ele>-9.572850964963436</ele>
        <time>2020-06-21T23:00:18Z</time>
      </trkpt>
      <trkpt lat="31.206799122039843" lon="121.61180532045564">
        <ele>6.035346957854927</ele>
        <time>2020-06-21T23:00:29Z</time>
      </trkpt>
      <trkpt lat="31.20673982397973" lon="121.61169905783888">
        <ele>7.786856256425381</ele>
        <time>2020-06-21T23:00:49Z</time>
      </trkpt>
      <trkpt lat="31.206591908126335" lon="121.61153424600636">
        <ele>6.130932477302849</ele>
        <time>2020-06-21T23:00:59Z</time>
      </trkpt>
      <trkpt lat="31.206530443534785" lon="121.61142310261566">
        <ele>8.934904543682933</ele>
        <time>2020-06-21T23:01:03Z</time>
      </trkpt>
      <trkpt lat="31.2064591625362" lon="121.61138596853371">
        <ele>8.68376041483134</ele>
        <time>2020-06-21T23:01:06Z</time>
      </trkpt>
      <trkpt lat="31.206175474902203" lon="121.611127365965">
        <ele>7.713252071291208</ele>
        <time>2020-06-21T23:01:18Z</time>
      </trkpt>
      <trkpt lat="31.205963358869568" lon="121.61087661648304">
        <ele>9.073780864477158</ele>
        <time>2020-06-21T23:01:29Z</time>
      </trkpt>
      <trkpt lat="31.205811910810127" lon="121.61071505225355">
        <ele>7.07838312163949</ele>
        <time>2020-06-21T23:01:36Z</time>
      </trkpt>
      <trkpt lat="31.205662980636017" lon="121.61044287563391">
        <ele>7.080753272399306</ele>
        <time>2020-06-21T23:01:46Z</time>
      </trkpt>
      <trkpt lat="31.205612341364954" lon="121.61035368572556">
        <ele>9.914398442022502</ele>
        <time>2020-06-21T23:01:50Z</time>
      </trkpt>
      <trkpt lat="31.205543510749827" lon="121.61030001212576">
        <ele>8.281888557597995</ele>
        <time>2020-06-21T23:01:53Z</time>
      </trkpt>
      <trkpt lat="31.2054776818966" lon="121.61021868506789">
        <ele>8.60432012937963</ele>
        <time>2020-06-21T23:01:57Z</time>
      </trkpt>
      <trkpt lat="31.20518311532966" lon="121.60999206130988">
        <ele>7.078753408044577</ele>
        <time>2020-06-21T23:02:11Z</time>
      </trkpt>
      <trkpt lat="31.20508315823307" lon="121.60985868230222">
        <ele>8.594751342199743</ele>
        <time>2020-06-21T23:02:18Z</time>
      </trkpt>
      <trkpt lat="31.205079129838243" lon="121.60980229103157">
        <ele>8.355606134049594</ele>
        <time>2020-06-21T23:02:22Z</time>
      </trkpt>
    </trkseg>
  </trk>
</gpx>