<?xml version="1.0" encoding="UTF-8"?>
<gpx xmlns="http://www.topografix.com/GPX/1/1" xmlns:gpxtpx="http://www.garmin.com/xmlschemas/TrackPointExtension/v1" xmlns:xsi="http://www.w3.org/2001/XMLSchema-instance" xsi:schemaLocation="http://www.topografix.com/GPX/1/1 http://www.topografix.com/GPX/1/1/gpx.xsd" version="1.1" creator="gpx.py -- https://github.com/tkrajina/gpxpy">
  <trk>
    <name>gpx from keep</name>
    <type>Run</type>
    <trkseg>
      <trkpt lat="31.20478882307194" lon="121.61084472364757">
        <ele>8.794797222605187</ele>
        <time>2020-09-23T23:07:38Z</time>
      </trkpt>
      <trkpt lat="31.204768847148188" lon="121.61072272936426">
        <ele>8.803496636897627</ele>
        <time>2020-09-23T23:07:42Z</time>
      </trkpt>
      <trkpt lat="31.204778073358337" lon="121.61071215558975">
        <ele>8.825603337905022</ele>
        <time>2020-09-23T23:07:43Z</time>
      </trkpt>
      <trkpt lat="31.204825861265338" lon="121.61061726541624">
        <ele>8.785750461742282</ele>
        <time>2020-09-23T23:07:50Z</time>
      </trkpt>
      <trkpt lat="31.20489014148297" lon="121.61058770974061">
        <ele>8.696547123603523</ele>
        <time>2020-09-23T23:07:53Z</time>
      </trkpt>
      <trkpt lat="31.205024424025464" lon="121.61048874531403">
        <ele>8.763566262088716</ele>
        <time>2020-09-23T23:08:00Z</time>
      </trkpt>
      <trkpt lat="31.205157174475254" lon="121.61025476900775">
        <ele>8.42218444030732</ele>
        <time>2020-09-23T23:08:03Z</time>
      </trkpt>
      <trkpt lat="31.20525021211587" lon="121.61020026846496">
        <ele>6.577045571990311</ele>
        <time>2020-09-23T23:08:11Z</time>
      </trkpt>
      <trkpt lat="31.205379368581703" lon="121.61006253397618">
        <ele>7.395804636180401</ele>
        <time>2020-09-23T23:08:20Z</time>
      </trkpt>
      <trkpt lat="31.205439537683077" lon="121.61009560448234">
        <ele>7.363838572055101</ele>
        <time>2020-09-23T23:08:23Z</time>
      </trkpt>
      <trkpt lat="31.205494254531907" lon="121.61017096849534">
        <ele>7.858898340724409</ele>
        <time>2020-09-23T23:08:26Z</time>
      </trkpt>
      <trkpt lat="31.205528902378816" lon="121.6102531116275">
        <ele>7.3526060320436954</ele>
        <time>2020-09-23T23:08:29Z</time>
      </trkpt>
      <trkpt lat="31.20569796941939" lon="121.61042552194193">
        <ele>6.843324183486402</ele>
        <time>2020-09-23T23:08:38Z</time>
      </trkpt>
      <trkpt lat="31.205744557032045" lon="121.61049275236452">
        <ele>7.951817598193884</ele>
        <time>2020-09-23T23:08:41Z</time>
      </trkpt>
      <trkpt lat="31.205782967393862" lon="121.61062016843655">
        <ele>6.1352898152545094</ele>
        <time>2020-09-23T23:08:47Z</time>
      </trkpt>
      <trkpt lat="31.20584528971453" lon="121.61067438402402">
        <ele>6.770407994277775</ele>
        <time>2020-09-23T23:08:50Z</time>
      </trkpt>
      <trkpt lat="31.20587344102734" lon="121.61073944641385">
        <ele>6.81458018347621</ele>
        <time>2020-09-23T23:08:53Z</time>
      </trkpt>
      <trkpt lat="31.20608883809589" lon="121.61095441195444">
        <ele>6.833420874550939</ele>
        <time>2020-09-23T23:09:05Z</time>
      </trkpt>
      <trkpt lat="31.206116181053133" lon="121.61101161173153">
        <ele>8.536453381180763</ele>
        <time>2020-09-23T23:09:08Z</time>
      </trkpt>
      <trkpt lat="31.20618445722236" lon="121.61107992302458">
        <ele>7.965429998934269</ele>
        <time>2020-09-23T23:09:11Z</time>
      </trkpt>
      <trkpt lat="31.206245172315285" lon="121.61110621454951">
        <ele>7.001847941428423</ele>
        <time>2020-09-23T23:09:14Z</time>
      </trkpt>
      <trkpt lat="31.20630966253178" lon="121.6111606998995">
        <ele>7.266680671833456</ele>
        <time>2020-09-23T23:09:17Z</time>
      </trkpt>
      <trkpt lat="31.20637492252205" lon="121.61127401301881">
        <ele>7.996918490156531</ele>
        <time>2020-09-23T23:09:23Z</time>
      </trkpt>
      <trkpt lat="31.20647299510546" lon="121.61137973220579">
        <ele>7.536647961474955</ele>
        <time>2020-09-23T23:09:29Z</time>
      </trkpt>
      <trkpt lat="31.206498153257645" lon="121.6114567209778">
        <ele>6.555158170871437</ele>
        <time>2020-09-23T23:09:32Z</time>
      </trkpt>
      <trkpt lat="31.20666968536774" lon="121.61158574722205">
        <ele>5.48733673710376</ele>
        <time>2020-09-23T23:09:41Z</time>
      </trkpt>
      <trkpt lat="31.20680894841544" lon="121.61171911286625">
        <ele>4.919962675310671</ele>
        <time>2020-09-23T23:09:48Z</time>
      </trkpt>
      <trkpt lat="31.206876928527908" lon="121.6118177841583">
        <ele>6.197602888569236</ele>
        <time>2020-09-23T23:09:52Z</time>
      </trkpt>
      <trkpt lat="31.206827260406573" lon="121.61188366300206">
        <ele>6.304877116344869</ele>
        <time>2020-09-23T23:09:56Z</time>
      </trkpt>
      <trkpt lat="31.206748587032212" lon="121.6119411403175">
        <ele>8.255925719626248</ele>
        <time>2020-09-23T23:10:00Z</time>
      </trkpt>
      <trkpt lat="31.20648863609443" lon="121.61220411605534">
        <ele>6.646765422075987</ele>
        <time>2020-09-23T23:10:12Z</time>
      </trkpt>
      <trkpt lat="31.20639368883259" lon="121.61226809995084">
        <ele>5.113063752651215</ele>
        <time>2020-09-23T23:10:16Z</time>
      </trkpt>
      <trkpt lat="31.20615866165264" lon="121.61255329859087">
        <ele>8.975685303099453</ele>
        <time>2020-09-23T23:10:28Z</time>
      </trkpt>
      <trkpt lat="31.206097592426975" lon="121.61263381462733">
        <ele>6.215282172895968</ele>
        <time>2020-09-23T23:10:32Z</time>
      </trkpt>
      <trkpt lat="31.20601267121787" lon="121.61270403133989">
        <ele>7.890901674516499</ele>
        <time>2020-09-23T23:10:36Z</time>
      </trkpt>
      <trkpt lat="31.20599250922694" lon="121.61282683168722">
        <ele>7.836948488838971</ele>
        <time>2020-09-23T23:10:40Z</time>
      </trkpt>
      <trkpt lat="31.20588969996003" lon="121.61288783267024">
        <ele>5.193235170096159</ele>
        <time>2020-09-23T23:10:44Z</time>
      </trkpt>
      <trkpt lat="31.20582915933893" lon="121.6129840699349">
        <ele>7.1569911586120725</ele>
        <time>2020-09-23T23:10:48Z</time>
      </trkpt>
      <trkpt lat="31.205650413572144" lon="121.61306757604437">
        <ele>8.233120921067894</ele>
        <time>2020-09-23T23:10:56Z</time>
      </trkpt>
      <trkpt lat="31.20557224497831" lon="121.6131681512137">
        <ele>7.276364148594439</ele>
        <time>2020-09-23T23:11:00Z</time>
      </trkpt>
      <trkpt lat="31.20542409491216" lon="121.6133031579759">
        <ele>4.196698606014252</ele>
        <time>2020-09-23T23:11:08Z</time>
      </trkpt>
      <trkpt lat="31.20534814235194" lon="121.61334545153422">
        <ele>6.485820558853447</ele>
        <time>2020-09-23T23:11:12Z</time>
      </trkpt>
      <trkpt lat="31.205266189773287" lon="121.61343030370915">
        <ele>6.768046825192869</ele>
        <time>2020-09-23T23:11:16Z</time>
      </trkpt>
      <trkpt lat="31.20515350819065" lon="121.61362439911325">
        <ele>4.9283551052212715</ele>
        <time>2020-09-23T23:11:24Z</time>
      </trkpt>
      <trkpt lat="31.20507589494145" lon="121.61370681031359">
        <ele>5.740489320829511</ele>
        <time>2020-09-23T23:11:28Z</time>
      </trkpt>
      <trkpt lat="31.204990440486547" lon="121.61376292836658">
        <ele>5.705993008799851</ele>
        <time>2020-09-23T23:11:32Z</time>
      </trkpt>
      <trkpt lat="31.2048489862438" lon="121.61399253290583">
        <ele>7.787825436331332</ele>
        <time>2020-09-23T23:11:46Z</time>
      </trkpt>
      <trkpt lat="31.204797435046576" lon="121.61403455214682">
        <ele>8.004963310435414</ele>
        <time>2020-09-23T23:11:49Z</time>
      </trkpt>
      <trkpt lat="31.204765391756645" lon="121.61409283351368">
        <ele>6.941403145901859</ele>
        <time>2020-09-23T23:11:52Z</time>
      </trkpt>
      <trkpt lat="31.20467148545343" lon="121.61420289279182">
        <ele>5.492322945035994</ele>
        <time>2020-09-23T23:11:59Z</time>
      </trkpt>
      <trkpt lat="31.204527163534195" lon="121.6142942525162">
        <ele>7.680265162140131</ele>
        <time>2020-09-23T23:12:05Z</time>
      </trkpt>
      <trkpt lat="31.204455023695783" lon="121.61431513018285">
        <ele>7.954141908325255</ele>
        <time>2020-09-23T23:12:08Z</time>
      </trkpt>
      <trkpt lat="31.204219212332323" lon="121.61454175554401">
        <ele>5.4546293234452605</ele>
        <time>2020-09-23T23:12:20Z</time>
      </trkpt>
      <trkpt lat="31.20401811033784" lon="121.61476159948732">
        <ele>5.961956234648824</ele>
        <time>2020-09-23T23:12:29Z</time>
      </trkpt>
      <trkpt lat="31.20389193225804" lon="121.61487626627608">
        <ele>6.381296519190073</ele>
        <time>2020-09-23T23:12:35Z</time>
      </trkpt>
      <trkpt lat="31.203650067042027" lon="121.61519802588612">
        <ele>4.19365019723773</ele>
        <time>2020-09-23T23:12:48Z</time>
      </trkpt>
      <trkpt lat="31.203463679216476" lon="121.61533058484108">
        <ele>7.004788829945028</ele>
        <time>2020-09-23T23:12:57Z</time>
      </trkpt>
      <trkpt lat="31.203237332971273" lon="121.61557535996322">
        <ele>7.039985539391637</ele>
        <time>2020-09-23T23:13:09Z</time>
      </trkpt>
      <trkpt lat="31.20318439383803" lon="121.61565044415876">
        <ele>6.622453183867037</ele>
        <time>2020-09-23T23:13:12Z</time>
      </trkpt>
      <trkpt lat="31.203110586941758" lon="121.61571468804462">
        <ele>6.490488830953836</ele>
        <time>2020-09-23T23:13:15Z</time>
      </trkpt>
      <trkpt lat="31.203066596614445" lon="121.61578787375822">
        <ele>6.173512111417949</ele>
        <time>2020-09-23T23:13:18Z</time>
      </trkpt>
      <trkpt lat="31.20299145299919" lon="121.61583097598091">
        <ele>5.855217290110886</ele>
        <time>2020-09-23T23:13:21Z</time>
      </trkpt>
      <trkpt lat="31.202746388854965" lon="121.61608143946145">
        <ele>6.460507711395621</ele>
        <time>2020-09-23T23:13:33Z</time>
      </trkpt>
      <trkpt lat="31.202581385723228" lon="121.61624732966237">
        <ele>5.694640269502997</ele>
        <time>2020-09-23T23:13:42Z</time>
      </trkpt>
      <trkpt lat="31.20253060455764" lon="121.61633244002269">
        <ele>4.388841384090483</ele>
        <time>2020-09-23T23:13:45Z</time>
      </trkpt>
      <trkpt lat="31.202448387909346" lon="121.61639993525526">
        <ele>6.060837395489216</ele>
        <time>2020-09-23T23:13:48Z</time>
      </trkpt>
      <trkpt lat="31.202396529341605" lon="121.61647691407553">
        <ele>5.73467973433435</ele>
        <time>2020-09-23T23:13:51Z</time>
      </trkpt>
      <trkpt lat="31.202146005844895" lon="121.61676016646634">
        <ele>5.275085102766752</ele>
        <time>2020-09-23T23:14:04Z</time>
      </trkpt>
      <trkpt lat="31.201907988184082" lon="121.61700519924412">
        <ele>4.623445577919483</ele>
        <time>2020-09-23T23:14:16Z</time>
      </trkpt>
      <trkpt lat="31.201876211885356" lon="121.61706130519113">
        <ele>5.905470574274659</ele>
        <time>2020-09-23T23:14:19Z</time>
      </trkpt>
      <trkpt lat="31.201801334137013" lon="121.61710792853813">
        <ele>4.79700736887753</ele>
        <time>2020-09-23T23:14:22Z</time>
      </trkpt>
      <trkpt lat="31.201654241577756" lon="121.61725131500407">
        <ele>6.002747947350144</ele>
        <time>2020-09-23T23:14:28Z</time>
      </trkpt>
      <trkpt lat="31.201460165368747" lon="121.61747384415877">
        <ele>5.818313790485263</ele>
        <time>2020-09-23T23:14:37Z</time>
      </trkpt>
      <trkpt lat="31.20119231020072" lon="121.6177256479221">
        <ele>5.550420681014657</ele>
        <time>2020-09-23T23:14:49Z</time>
      </trkpt>
      <trkpt lat="31.200968075782658" lon="121.61800752876434">
        <ele>3.286525891162455</ele>
        <time>2020-09-23T23:15:01Z</time>
      </trkpt>
      <trkpt lat="31.200755499021632" lon="121.61828777937008">
        <ele>5.0683624455705285</ele>
        <time>2020-09-23T23:15:13Z</time>
      </trkpt>
      <trkpt lat="31.200533706992896" lon="121.61856206531125">
        <ele>2.3120317300781608</ele>
        <time>2020-09-23T23:15:25Z</time>
      </trkpt>
      <trkpt lat="31.200421848409537" lon="121.6187116738146">
        <ele>3.9436724428087473</ele>
        <time>2020-09-23T23:15:31Z</time>
      </trkpt>
      <trkpt lat="31.200292656604134" lon="121.61884149907706">
        <ele>3.7715829014778137</ele>
        <time>2020-09-23T23:15:37Z</time>
      </trkpt>
      <trkpt lat="31.20013246945425" lon="121.6190547970469">
        <ele>2.838153491728008</ele>
        <time>2020-09-23T23:15:46Z</time>
      </trkpt>
      <trkpt lat="31.200006540630802" lon="121.6191740510008">
        <ele>4.308768198825419</ele>
        <time>2020-09-23T23:15:52Z</time>
      </trkpt>
      <trkpt lat="31.199965258115775" lon="121.61924207718324">
        <ele>4.039359622634947</ele>
        <time>2020-09-23T23:15:55Z</time>
      </trkpt>
      <trkpt lat="31.199902035418077" lon="121.61928896652633">
        <ele>4.271595858037472</ele>
        <time>2020-09-23T23:15:58Z</time>
      </trkpt>
      <trkpt lat="31.199643912785906" lon="121.61955294654128">
        <ele>4.7064887853339314</ele>
        <time>2020-09-23T23:16:11Z</time>
      </trkpt>
      <trkpt lat="31.199589610141345" lon="121.61962557983917">
        <ele>4.981914793141186</ele>
        <time>2020-09-23T23:16:14Z</time>
      </trkpt>
      <trkpt lat="31.19936733216793" lon="121.61983454040184">
        <ele>5.526955710723996</ele>
        <time>2020-09-23T23:16:25Z</time>
      </trkpt>
      <trkpt lat="31.199280806143715" lon="121.61986706759087">
        <ele>5.3876972403377295</ele>
        <time>2020-09-23T23:16:29Z</time>
      </trkpt>
      <trkpt lat="31.198959850363376" lon="121.62006031647972">
        <ele>5.786110361106694</ele>
        <time>2020-09-23T23:16:41Z</time>
      </trkpt>
      <trkpt lat="31.198763099924474" lon="121.62022808000957">
        <ele>4.702556355856359</ele>
        <time>2020-09-23T23:16:50Z</time>
      </trkpt>
      <trkpt lat="31.1985979482211" lon="121.62051047028089">
        <ele>6.579704089090228</ele>
        <time>2020-09-23T23:16:59Z</time>
      </trkpt>
      <trkpt lat="31.19841688412936" lon="121.62071237452984">
        <ele>6.397437832318246</ele>
        <time>2020-09-23T23:17:08Z</time>
      </trkpt>
      <trkpt lat="31.19834444736278" lon="121.62075302918069">
        <ele>7.495299422182143</ele>
        <time>2020-09-23T23:17:11Z</time>
      </trkpt>
      <trkpt lat="31.198087150773098" lon="121.62099368922853">
        <ele>5.6807815339416265</ele>
        <time>2020-09-23T23:17:23Z</time>
      </trkpt>
      <trkpt lat="31.197852660889506" lon="121.62120399475029">
        <ele>6.026207369752228</ele>
        <time>2020-09-23T23:17:35Z</time>
      </trkpt>
      <trkpt lat="31.197795118853822" lon="121.62126009359221">
        <ele>7.278915781527758</ele>
        <time>2020-09-23T23:17:38Z</time>
      </trkpt>
      <trkpt lat="31.19772784605285" lon="121.62128882361785">
        <ele>3.183424078859389</ele>
        <time>2020-09-23T23:17:41Z</time>
      </trkpt>
      <trkpt lat="31.197599191707624" lon="121.62141294524562">
        <ele>5.788332596421242</ele>
        <time>2020-09-23T23:17:47Z</time>
      </trkpt>
      <trkpt lat="31.197452119607924" lon="121.62151918294667">
        <ele>5.72905042860657</ele>
        <time>2020-09-23T23:17:53Z</time>
      </trkpt>
      <trkpt lat="31.19718611019219" lon="121.62178720574735">
        <ele>7.0607242761179805</ele>
        <time>2020-09-23T23:18:05Z</time>
      </trkpt>
      <trkpt lat="31.196949198497016" lon="121.62197636887511">
        <ele>4.3649941701442</ele>
        <time>2020-09-23T23:18:16Z</time>
      </trkpt>
      <trkpt lat="31.196871823239682" lon="121.62206715285392">
        <ele>6.588474841788411</ele>
        <time>2020-09-23T23:18:20Z</time>
      </trkpt>
      <trkpt lat="31.196717678310485" lon="121.62219208589025">
        <ele>5.650549630634487</ele>
        <time>2020-09-23T23:18:28Z</time>
      </trkpt>
      <trkpt lat="31.196708114691933" lon="121.62225739184552">
        <ele>5.631836924701929</ele>
        <time>2020-09-23T23:18:32Z</time>
      </trkpt>
      <trkpt lat="31.196679577429958" lon="121.6223175506906">
        <ele>5.154002661816776</ele>
        <time>2020-09-23T23:18:36Z</time>
      </trkpt>
      <trkpt lat="31.19671645416614" lon="121.62255329472212">
        <ele>3.1480454513803124</ele>
        <time>2020-09-23T23:18:50Z</time>
      </trkpt>
      <trkpt lat="31.1967158233782" lon="121.62286653713858">
        <ele>3.511261912062764</ele>
        <time>2020-09-23T23:19:15Z</time>
      </trkpt>
      <trkpt lat="31.196737421145883" lon="121.62294701312443">
        <ele>4.00289960205555</ele>
        <time>2020-09-23T23:19:21Z</time>
      </trkpt>
      <trkpt lat="31.196722412532438" lon="121.62303020157894">
        <ele>4.280730010941625</ele>
        <time>2020-09-23T23:19:27Z</time>
      </trkpt>
      <trkpt lat="31.19673859380895" lon="121.62310498722307">
        <ele>5.116845916025341</ele>
        <time>2020-09-23T23:19:33Z</time>
      </trkpt>
      <trkpt lat="31.19671248058975" lon="121.62317760843288">
        <ele>5.463524146005511</ele>
        <time>2020-09-23T23:19:39Z</time>
      </trkpt>
      <trkpt lat="31.196785839079386" lon="121.62351115976409">
        <ele>7.13740596268326</ele>
        <time>2020-09-23T23:20:00Z</time>
      </trkpt>
      <trkpt lat="31.196858412691977" lon="121.62381761112775">
        <ele>5.505232666619122</ele>
        <time>2020-09-23T23:20:15Z</time>
      </trkpt>
      <trkpt lat="31.19691971360015" lon="121.62402516057057">
        <ele>6.145775280892849</ele>
        <time>2020-09-23T23:20:26Z</time>
      </trkpt>
      <trkpt lat="31.19696564022239" lon="121.62393682435761">
        <ele>7.7282437570393085</ele>
        <time>2020-09-23T23:20:33Z</time>
      </trkpt>
      <trkpt lat="31.196968965390415" lon="121.62364716766149">
        <ele>4.926961778663099</ele>
        <time>2020-09-23T23:20:42Z</time>
      </trkpt>
      <trkpt lat="31.196936954877668" lon="121.62343067114575">
        <ele>5.9745605969801545</ele>
        <time>2020-09-23T23:20:48Z</time>
      </trkpt>
      <trkpt lat="31.196885583999283" lon="121.62330711565879">
        <ele>4.935278809629381</ele>
        <time>2020-09-23T23:20:51Z</time>
      </trkpt>
      <trkpt lat="31.196854766512555" lon="121.62299496479969">
        <ele>5.071610800921917</ele>
        <time>2020-09-23T23:21:00Z</time>
      </trkpt>
      <trkpt lat="31.19686329910418" lon="121.62288467987165">
        <ele>3.8067945148795843</ele>
        <time>2020-09-23T23:21:03Z</time>
      </trkpt>
      <trkpt lat="31.19688697892265" lon="121.62280555480328">
        <ele>6.378810529597104</ele>
        <time>2020-09-23T23:21:06Z</time>
      </trkpt>
      <trkpt lat="31.197119402670086" lon="121.6225147832536">
        <ele>5.194798039272428</ele>
        <time>2020-09-23T23:21:18Z</time>
      </trkpt>
      <trkpt lat="31.19742279624774" lon="121.62228090755114">
        <ele>5.403178391978145</ele>
        <time>2020-09-23T23:21:30Z</time>
      </trkpt>
      <trkpt lat="31.197478470749815" lon="121.62219961025633">
        <ele>5.264256645925343</ele>
        <time>2020-09-23T23:21:33Z</time>
      </trkpt>
      <trkpt lat="31.197653756601778" lon="121.62208144993814">
        <ele>5.668602414429188</ele>
        <time>2020-09-23T23:21:39Z</time>
      </trkpt>
      <trkpt lat="31.19780467953958" lon="121.62192806389625">
        <ele>6.481906225904822</ele>
        <time>2020-09-23T23:21:45Z</time>
      </trkpt>
      <trkpt lat="31.19794957768261" lon="121.62182751858634">
        <ele>4.970890867523849</ele>
        <time>2020-09-23T23:21:51Z</time>
      </trkpt>
      <trkpt lat="31.198035559851885" lon="121.62179824563552">
        <ele>6.990438043139875</ele>
        <time>2020-09-23T23:21:54Z</time>
      </trkpt>
      <trkpt lat="31.19825051994299" lon="121.62159905672469">
        <ele>5.193617138080299</ele>
        <time>2020-09-23T23:22:03Z</time>
      </trkpt>
      <trkpt lat="31.19840331624797" lon="121.62146572053537">
        <ele>7.6118025947362185</ele>
        <time>2020-09-23T23:22:09Z</time>
      </trkpt>
      <trkpt lat="31.19850981464829" lon="121.62127195781305">
        <ele>4.331046364270151</ele>
        <time>2020-09-23T23:22:18Z</time>
      </trkpt>
      <trkpt lat="31.19875567379211" lon="121.62107899509836">
        <ele>7.429739447310567</ele>
        <time>2020-09-23T23:22:38Z</time>
      </trkpt>
      <trkpt lat="31.198886200876778" lon="121.62097682182386">
        <ele>4.366454620845616</ele>
        <time>2020-09-23T23:22:48Z</time>
      </trkpt>
      <trkpt lat="31.19897417136118" lon="121.62086381208842">
        <ele>5.10166897252202</ele>
        <time>2020-09-23T23:22:57Z</time>
      </trkpt>
      <trkpt lat="31.199053773819273" lon="121.62071611570579">
        <ele>5.150356858968735</ele>
        <time>2020-09-23T23:23:06Z</time>
      </trkpt>
      <trkpt lat="31.199124883302048" lon="121.62064917490567">
        <ele>5.025738622993231</ele>
        <time>2020-09-23T23:23:12Z</time>
      </trkpt>
      <trkpt lat="31.199222251742803" lon="121.6206201706982">
        <ele>6.022677908651531</ele>
        <time>2020-09-23T23:23:18Z</time>
      </trkpt>
      <trkpt lat="31.199521550504482" lon="121.62065103902515">
        <ele>6.787472289986908</ele>
        <time>2020-09-23T23:23:36Z</time>
      </trkpt>
      <trkpt lat="31.199708568669045" lon="121.62071064169673">
        <ele>4.959657507017255</ele>
        <time>2020-09-23T23:23:45Z</time>
      </trkpt>
      <trkpt lat="31.199956896850505" lon="121.62073907521498">
        <ele>4.113743665628135</ele>
        <time>2020-09-23T23:23:54Z</time>
      </trkpt>
      <trkpt lat="31.200225264023633" lon="121.62079054124115">
        <ele>4.104083567857742</ele>
        <time>2020-09-23T23:24:03Z</time>
      </trkpt>
      <trkpt lat="31.200539715183883" lon="121.62085013304771">
        <ele>4.226608835160732</ele>
        <time>2020-09-23T23:24:12Z</time>
      </trkpt>
      <trkpt lat="31.20066495808275" lon="121.62086963394307">
        <ele>3.5199608523398638</ele>
        <time>2020-09-23T23:24:15Z</time>
      </trkpt>
      <trkpt lat="31.20085392966858" lon="121.62087801898141">
        <ele>3.0030544344335794</ele>
        <time>2020-09-23T23:24:21Z</time>
      </trkpt>
      <trkpt lat="31.200944718441555" lon="121.62091594997503">
        <ele>3.33256758376956</ele>
        <time>2020-09-23T23:24:24Z</time>
      </trkpt>
      <trkpt lat="31.201166477559575" lon="121.62094248854501">
        <ele>3.288885049521923</ele>
        <time>2020-09-23T23:24:31Z</time>
      </trkpt>
      <trkpt lat="31.20144432666891" lon="121.62100099907993">
        <ele>2.110948611050844</ele>
        <time>2020-09-23T23:24:40Z</time>
      </trkpt>
      <trkpt lat="31.201647116144834" lon="121.62101859652803">
        <ele>5.27442997507751</ele>
        <time>2020-09-23T23:24:47Z</time>
      </trkpt>
      <trkpt lat="31.201806767971398" lon="121.6210611284087">
        <ele>4.047354745678604</ele>
        <time>2020-09-23T23:24:53Z</time>
      </trkpt>
      <trkpt lat="31.20214675521807" lon="121.6210754626116">
        <ele>4.198269565589726</ele>
        <time>2020-09-23T23:25:11Z</time>
      </trkpt>
      <trkpt lat="31.202467742937785" lon="121.62110822551128">
        <ele>3.348859812133014</ele>
        <time>2020-09-23T23:25:35Z</time>
      </trkpt>
      <trkpt lat="31.202702517232815" lon="121.62113422083385">
        <ele>4.125825651921332</ele>
        <time>2020-09-23T23:25:50Z</time>
      </trkpt>
      <trkpt lat="31.20274559291291" lon="121.62116592271468">
        <ele>4.220603900961578</ele>
        <time>2020-09-23T23:25:53Z</time>
      </trkpt>
      <trkpt lat="31.202817858160067" lon="121.621282169709">
        <ele>3.640896254219115</ele>
        <time>2020-09-23T23:26:00Z</time>
      </trkpt>
      <trkpt lat="31.202841099001628" lon="121.6213518109309">
        <ele>4.599139593541622</ele>
        <time>2020-09-23T23:26:03Z</time>
      </trkpt>
      <trkpt lat="31.20287982073118" lon="121.62139760409121">
        <ele>5.319315701723099</ele>
        <time>2020-09-23T23:26:06Z</time>
      </trkpt>
      <trkpt lat="31.2029462859012" lon="121.62136399653099">
        <ele>3.819452626630664</ele>
        <time>2020-09-23T23:26:09Z</time>
      </trkpt>
      <trkpt lat="31.203175699577947" lon="121.62133362725925">
        <ele>4.5123621532693505</ele>
        <time>2020-09-23T23:26:21Z</time>
      </trkpt>
      <trkpt lat="31.203184400095793" lon="121.62131167675881">
        <ele>4.777091320604086</ele>
        <time>2020-09-23T23:26:30Z</time>
      </trkpt>
      <trkpt lat="31.20320174198378" lon="121.62132143078361">
        <ele>5.0566188441589475</ele>
        <time>2020-09-23T23:26:38Z</time>
      </trkpt>
      <trkpt lat="31.203218010681944" lon="121.62132088746716">
        <ele>4.284255689010024</ele>
        <time>2020-09-23T23:26:47Z</time>
      </trkpt>
      <trkpt lat="31.203219906237194" lon="121.62132305518986">
        <ele>4.568422816693783</ele>
        <time>2020-09-23T23:26:49Z</time>
      </trkpt>
      <trkpt lat="31.203219906237194" lon="121.62132305518986">
        <ele>4.568422816693783</ele>
        <time>2020-09-23T23:26:53Z</time>
      </trkpt>
      <trkpt lat="31.203213676106206" lon="121.62131763600621">
        <ele>5.14172297436744</ele>
        <time>2020-09-23T23:26:55Z</time>
      </trkpt>
      <trkpt lat="31.203205032328647" lon="121.62128809934082">
        <ele>4.720449497923255</ele>
        <time>2020-09-23T23:27:01Z</time>
      </trkpt>
      <trkpt lat="31.203199354306488" lon="121.62127373758614">
        <ele>4.057624088600278</ele>
        <time>2020-09-23T23:27:07Z</time>
      </trkpt>
      <trkpt lat="31.20318502022677" lon="121.62124094951336">
        <ele>4.576508039608598</ele>
        <time>2020-09-23T23:27:19Z</time>
      </trkpt>
      <trkpt lat="31.203182039827627" lon="121.62123905285952">
        <ele>4.158864043653011</ele>
        <time>2020-09-23T23:27:20Z</time>
      </trkpt>
      <trkpt lat="31.203140497170086" lon="121.6210455717254">
        <ele>4.352288885973394</ele>
        <time>2020-09-23T23:27:29Z</time>
      </trkpt>
      <trkpt lat="31.203136258108174" lon="121.62095479100887">
        <ele>1.7226490918546915</ele>
        <time>2020-09-23T23:27:32Z</time>
      </trkpt>
      <trkpt lat="31.203107641945007" lon="121.62084070687403">
        <ele>3.785377375781536</ele>
        <time>2020-09-23T23:27:35Z</time>
      </trkpt>
      <trkpt lat="31.203085628954444" lon="121.62063746547497">
        <ele>5.87312672752887</ele>
        <time>2020-09-23T23:27:41Z</time>
      </trkpt>
      <trkpt lat="31.203089261185188" lon="121.62053773992228">
        <ele>3.5840271497145295</ele>
        <time>2020-09-23T23:27:44Z</time>
      </trkpt>
      <trkpt lat="31.20304704800563" lon="121.62045969730013">
        <ele>4.188317213207483</ele>
        <time>2020-09-23T23:27:47Z</time>
      </trkpt>
      <trkpt lat="31.202969822502062" lon="121.62041498966525">
        <ele>5.48922008369118</ele>
        <time>2020-09-23T23:27:50Z</time>
      </trkpt>
      <trkpt lat="31.202914869426678" lon="121.6203334247919">
        <ele>4.025749610736966</ele>
        <time>2020-09-23T23:27:53Z</time>
      </trkpt>
      <trkpt lat="31.20278920258156" lon="121.61994672218465">
        <ele>3.9730193372815847</ele>
        <time>2020-09-23T23:28:05Z</time>
      </trkpt>
      <trkpt lat="31.202761889131992" lon="121.61987924554896">
        <ele>5.034213933162391</ele>
        <time>2020-09-23T23:28:08Z</time>
      </trkpt>
      <trkpt lat="31.202731475679702" lon="121.61966515722594">
        <ele>6.079142039641738</ele>
        <time>2020-09-23T23:28:14Z</time>
      </trkpt>
      <trkpt lat="31.20264990051962" lon="121.61936976988748">
        <ele>5.177586012519896</ele>
        <time>2020-09-23T23:28:23Z</time>
      </trkpt>
      <trkpt lat="31.202617310622188" lon="121.61915920058755">
        <ele>4.9403439946472645</ele>
        <time>2020-09-23T23:28:29Z</time>
      </trkpt>
      <trkpt lat="31.202543229191917" lon="121.61895486620541">
        <ele>4.860912701115012</ele>
        <time>2020-09-23T23:28:35Z</time>
      </trkpt>
      <trkpt lat="31.20250822574259" lon="121.61871502436166">
        <ele>4.004836275242269</ele>
        <time>2020-09-23T23:28:42Z</time>
      </trkpt>
      <trkpt lat="31.202654154749933" lon="121.61865728660496">
        <ele>3.469348283484578</ele>
        <time>2020-09-23T23:28:48Z</time>
      </trkpt>
      <trkpt lat="31.2027336515015" lon="121.6186036194155">
        <ele>6.0477489568293095</ele>
        <time>2020-09-23T23:28:51Z</time>
      </trkpt>
      <trkpt lat="31.20278870884802" lon="121.6185868120189">
        <ele>4.28265150077641</ele>
        <time>2020-09-23T23:28:54Z</time>
      </trkpt>
      <trkpt lat="31.20282055851724" lon="121.6184607877172">
        <ele>3.597671562805772</ele>
        <time>2020-09-23T23:29:00Z</time>
      </trkpt>
      <trkpt lat="31.202814984777817" lon="121.61834099925767">
        <ele>5.314273528754711</ele>
        <time>2020-09-23T23:29:06Z</time>
      </trkpt>
      <trkpt lat="31.202771491850466" lon="121.61818083171134">
        <ele>5.734251556918025</ele>
        <time>2020-09-23T23:29:18Z</time>
      </trkpt>
      <trkpt lat="31.20272627345826" lon="121.61811931428436">
        <ele>4.553387776017189</ele>
        <time>2020-09-23T23:29:24Z</time>
      </trkpt>
      <trkpt lat="31.2027141663924" lon="121.61802445856391">
        <ele>3.325061555020511</ele>
        <time>2020-09-23T23:29:30Z</time>
      </trkpt>
      <trkpt lat="31.202675173330952" lon="121.6179735100308">
        <ele>3.1941440738737583</ele>
        <time>2020-09-23T23:29:36Z</time>
      </trkpt>
      <trkpt lat="31.202663842081986" lon="121.61791632562583">
        <ele>4.677468259818852</ele>
        <time>2020-09-23T23:29:39Z</time>
      </trkpt>
      <trkpt lat="31.20252097406139" lon="121.6176192967829">
        <ele>6.310753393918276</ele>
        <time>2020-09-23T23:29:57Z</time>
      </trkpt>
      <trkpt lat="31.202474474620043" lon="121.61747972281825">
        <ele>6.76874850038439</ele>
        <time>2020-09-23T23:30:06Z</time>
      </trkpt>
      <trkpt lat="31.2024561965695" lon="121.61731521122358">
        <ele>4.808437127619982</ele>
        <time>2020-09-23T23:30:18Z</time>
      </trkpt>
      <trkpt lat="31.202474145251948" lon="121.61725937802466">
        <ele>5.690094878897071</ele>
        <time>2020-09-23T23:30:21Z</time>
      </trkpt>
      <trkpt lat="31.202591678023797" lon="121.61712249876174">
        <ele>5.033757648430765</ele>
        <time>2020-09-23T23:30:33Z</time>
      </trkpt>
      <trkpt lat="31.202635623143745" lon="121.61710027069412">
        <ele>5.184301513247192</ele>
        <time>2020-09-23T23:30:36Z</time>
      </trkpt>
      <trkpt lat="31.202769437177253" lon="121.61694875350986">
        <ele>5.4329754114151</ele>
        <time>2020-09-23T23:30:49Z</time>
      </trkpt>
      <trkpt lat="31.202978881672685" lon="121.61681349112071">
        <ele>7.5305442633107305</ele>
        <time>2020-09-23T23:31:07Z</time>
      </trkpt>
      <trkpt lat="31.203006331628433" lon="121.61674437535413">
        <ele>5.924466601572931</ele>
        <time>2020-09-23T23:31:10Z</time>
      </trkpt>
      <trkpt lat="31.203207343761445" lon="121.61663702914818">
        <ele>5.097333984449506</ele>
        <time>2020-09-23T23:31:19Z</time>
      </trkpt>
      <trkpt lat="31.203354438940913" lon="121.61648767630662">
        <ele>6.054741836152971</ele>
        <time>2020-09-23T23:31:25Z</time>
      </trkpt>
      <trkpt lat="31.203518286717514" lon="121.61639957572258">
        <ele>3.8953187810257077</ele>
        <time>2020-09-23T23:31:31Z</time>
      </trkpt>
      <trkpt lat="31.203658584704932" lon="121.61626919472955">
        <ele>6.671179271303117</ele>
        <time>2020-09-23T23:31:37Z</time>
      </trkpt>
      <trkpt lat="31.203736426095475" lon="121.6162415423022">
        <ele>5.609374676831067</ele>
        <time>2020-09-23T23:31:40Z</time>
      </trkpt>
      <trkpt lat="31.203932098273153" lon="121.61604231144878">
        <ele>5.273236953653395</ele>
        <time>2020-09-23T23:31:49Z</time>
      </trkpt>
      <trkpt lat="31.204225256855377" lon="121.61597533986487">
        <ele>5.122249857522547</ele>
        <time>2020-09-23T23:32:01Z</time>
      </trkpt>
      <trkpt lat="31.204439510541388" lon="121.61620814629498">
        <ele>3.4741495167836547</ele>
        <time>2020-09-23T23:32:10Z</time>
      </trkpt>
      <trkpt lat="31.204566832848016" lon="121.6163282060228">
        <ele>4.538100547157228</ele>
        <time>2020-09-23T23:32:16Z</time>
      </trkpt>
      <trkpt lat="31.20461943108642" lon="121.61633036997824">
        <ele>4.774656891822815</ele>
        <time>2020-09-23T23:32:19Z</time>
      </trkpt>
      <trkpt lat="31.204467249152774" lon="121.61611842971898">
        <ele>8.391160023398697</ele>
        <time>2020-09-23T23:32:37Z</time>
      </trkpt>
      <trkpt lat="31.204317408294926" lon="121.61601300708186">
        <ele>8.603135324083269</ele>
        <time>2020-09-23T23:32:49Z</time>
      </trkpt>
      <trkpt lat="31.204104795073942" lon="121.61576339388918">
        <ele>7.8784398753196</ele>
        <time>2020-09-23T23:33:08Z</time>
      </trkpt>
      <trkpt lat="31.20387915368189" lon="121.61552651842658">
        <ele>5.990733898244798</ele>
        <time>2020-09-23T23:33:29Z</time>
      </trkpt>
      <trkpt lat="31.203830687470212" lon="121.61545198432997">
        <ele>7.168254025280476</ele>
        <time>2020-09-23T23:33:35Z</time>
      </trkpt>
      <trkpt lat="31.20369739258602" lon="121.61533625754934">
        <ele>5.610066925175488</ele>
        <time>2020-09-23T23:33:47Z</time>
      </trkpt>
      <trkpt lat="31.203556994649922" lon="121.6152801618752">
        <ele>2.813598733395338</ele>
        <time>2020-09-23T23:33:59Z</time>
      </trkpt>
      <trkpt lat="31.203556994649922" lon="121.6152801618752">
        <ele>2.813598733395338</ele>
        <time>2020-09-23T23:34:09Z</time>
      </trkpt>
      <trkpt lat="31.203542647179766" lon="121.61525468434782">
        <ele>2.713238368742168</ele>
        <time>2020-09-23T23:34:11Z</time>
      </trkpt>
      <trkpt lat="31.203781980732032" lon="121.61503755229077">
        <ele>5.551007019355893</ele>
        <time>2020-09-23T23:34:23Z</time>
      </trkpt>
      <trkpt lat="31.203864263642558" lon="121.61489090550614">
        <ele>6.71201840415597</ele>
        <time>2020-09-23T23:34:29Z</time>
      </trkpt>
      <trkpt lat="31.20405176204225" lon="121.61472608836046">
        <ele>5.981118958443403</ele>
        <time>2020-09-23T23:34:38Z</time>
      </trkpt>
      <trkpt lat="31.204160066646356" lon="121.61458594290588">
        <ele>6.479644076898694</ele>
        <time>2020-09-23T23:34:44Z</time>
      </trkpt>
      <trkpt lat="31.204231695556278" lon="121.61452901476568">
        <ele>6.992060707882047</ele>
        <time>2020-09-23T23:34:47Z</time>
      </trkpt>
      <trkpt lat="31.20428056089312" lon="121.61445826435184">
        <ele>5.5853479113429785</ele>
        <time>2020-09-23T23:34:50Z</time>
      </trkpt>
      <trkpt lat="31.204504447161714" lon="121.61422513369635">
        <ele>7.84693032130599</ele>
        <time>2020-09-23T23:35:00Z</time>
      </trkpt>
      <trkpt lat="31.20476791516663" lon="121.61399443706232">
        <ele>6.600415616296232</ele>
        <time>2020-09-23T23:35:12Z</time>
      </trkpt>
      <trkpt lat="31.204895761416427" lon="121.61382609477972">
        <ele>7.4848716566339135</ele>
        <time>2020-09-23T23:35:19Z</time>
      </trkpt>
      <trkpt lat="31.204958685473876" lon="121.61380142250998">
        <ele>7.633688159286976</ele>
        <time>2020-09-23T23:35:22Z</time>
      </trkpt>
      <trkpt lat="31.20518393868989" lon="121.61354795506112">
        <ele>8.406187653541565</ele>
        <time>2020-09-23T23:35:34Z</time>
      </trkpt>
      <trkpt lat="31.205244718933745" lon="121.61349238067781">
        <ele>7.544400354847312</ele>
        <time>2020-09-23T23:35:37Z</time>
      </trkpt>
      <trkpt lat="31.205321827987117" lon="121.61336280231492">
        <ele>7.809078738093376</ele>
        <time>2020-09-23T23:35:43Z</time>
      </trkpt>
      <trkpt lat="31.205377998993587" lon="121.61330668573038">
        <ele>6.909259846433997</ele>
        <time>2020-09-23T23:35:49Z</time>
      </trkpt>
      <trkpt lat="31.20548730448303" lon="121.61326032324915">
        <ele>11.531906523741782</ele>
        <time>2020-09-23T23:35:58Z</time>
      </trkpt>
      <trkpt lat="31.205586344687767" lon="121.61316733682547">
        <ele>6.16903823427856</ele>
        <time>2020-09-23T23:36:07Z</time>
      </trkpt>
      <trkpt lat="31.205634942608555" lon="121.61308763688432">
        <ele>6.331938082352281</ele>
        <time>2020-09-23T23:36:13Z</time>
      </trkpt>
      <trkpt lat="31.205777402561036" lon="121.61294666566545">
        <ele>6.325039396993816</ele>
        <time>2020-09-23T23:36:25Z</time>
      </trkpt>
      <trkpt lat="31.205985312370665" lon="121.6126715040421">
        <ele>6.896731772460043</ele>
        <time>2020-09-23T23:36:37Z</time>
      </trkpt>
      <trkpt lat="31.206117701746006" lon="121.61257661495206">
        <ele>7.330703576095402</ele>
        <time>2020-09-23T23:36:43Z</time>
      </trkpt>
      <trkpt lat="31.206386356128295" lon="121.61228355237198">
        <ele>9.604842816479504</ele>
        <time>2020-09-23T23:36:55Z</time>
      </trkpt>
      <trkpt lat="31.20665659388229" lon="121.61204280584685">
        <ele>7.767652370966971</ele>
        <time>2020-09-23T23:37:08Z</time>
      </trkpt>
      <trkpt lat="31.206783090936213" lon="121.61185005158555">
        <ele>6.115276501514018</ele>
        <time>2020-09-23T23:37:20Z</time>
      </trkpt>
      <trkpt lat="31.20687532028691" lon="121.61179338619282">
        <ele>6.311090121045709</ele>
        <time>2020-09-23T23:37:39Z</time>
      </trkpt>
      <trkpt lat="31.20687532028691" lon="121.61179338619282">
        <ele>6.311090121045709</ele>
        <time>2020-09-23T23:37:40Z</time>
      </trkpt>
      <trkpt lat="31.20687125304303" lon="121.61179365761923">
        <ele>5.44286996871233</ele>
        <time>2020-09-23T23:37:47Z</time>
      </trkpt>
      <trkpt lat="31.206853632513194" lon="121.61178932163378">
        <ele>7.289257220923901</ele>
        <time>2020-09-23T23:37:53Z</time>
      </trkpt>
      <trkpt lat="31.206854178908518" lon="121.61178389978447">
        <ele>7.282898151315749</ele>
        <time>2020-09-23T23:37:55Z</time>
      </trkpt>
      <trkpt lat="31.206854178908518" lon="121.61178389978447">
        <ele>7.282898151315749</ele>
        <time>2020-09-23T23:38:07Z</time>
      </trkpt>
      <trkpt lat="31.206833593186488" lon="121.61175679244681">
        <ele>7.143570119515061</ele>
        <time>2020-09-23T23:38:20Z</time>
      </trkpt>
      <trkpt lat="31.206591924809796" lon="121.61151201635347">
        <ele>7.673646871000528</ele>
        <time>2020-09-23T23:38:35Z</time>
      </trkpt>
      <trkpt lat="31.20633099170358" lon="121.61128323392177">
        <ele>7.834785936400294</ele>
        <time>2020-09-23T23:38:47Z</time>
      </trkpt>
      <trkpt lat="31.206270578393635" lon="121.61121573587683">
        <ele>6.147896940819919</ele>
        <time>2020-09-23T23:38:50Z</time>
      </trkpt>
      <trkpt lat="31.206202531742427" lon="121.61120435542821">
        <ele>6.5191470719873905</ele>
        <time>2020-09-23T23:38:53Z</time>
      </trkpt>
      <trkpt lat="31.20614033014719" lon="121.61098693967945">
        <ele>7.029435374774039</ele>
        <time>2020-09-23T23:38:59Z</time>
      </trkpt>
      <trkpt lat="31.206056584602674" lon="121.6109384197128">
        <ele>7.040820094756782</ele>
        <time>2020-09-23T23:39:02Z</time>
      </trkpt>
      <trkpt lat="31.206007036473615" lon="121.61084245412438">
        <ele>5.803657613694668</ele>
        <time>2020-09-23T23:39:05Z</time>
      </trkpt>
      <trkpt lat="31.20586998172569" lon="121.61064835604373">
        <ele>6.791410162113607</ele>
        <time>2020-09-23T23:39:12Z</time>
      </trkpt>
      <trkpt lat="31.2057139293066" lon="121.61047784408683">
        <ele>6.997394511476159</ele>
        <time>2020-09-23T23:39:18Z</time>
      </trkpt>
      <trkpt lat="31.205645905628494" lon="121.61043365943495">
        <ele>5.505136967636645</ele>
        <time>2020-09-23T23:39:22Z</time>
      </trkpt>
      <trkpt lat="31.205514270946747" lon="121.61023901519549">
        <ele>8.097827066667378</ele>
        <time>2020-09-23T23:39:42Z</time>
      </trkpt>
      <trkpt lat="31.205370344087072" lon="121.6101731476137">
        <ele>6.688662732951343</ele>
        <time>2020-09-23T23:39:51Z</time>
      </trkpt>
      <trkpt lat="31.205362525579375" lon="121.61010943746948">
        <ele>8.540224915370345</ele>
        <time>2020-09-23T23:39:57Z</time>
      </trkpt>
      <trkpt lat="31.20529481001445" lon="121.61001102987623">
        <ele>7.4375226413831115</ele>
        <time>2020-09-23T23:40:06Z</time>
      </trkpt>
    </trkseg>
  </trk>
</gpx>