<?xml version="1.0" encoding="UTF-8"?>
<gpx xmlns="http://www.topografix.com/GPX/1/1" xmlns:gpxtpx="http://www.garmin.com/xmlschemas/TrackPointExtension/v1" xmlns:xsi="http://www.w3.org/2001/XMLSchema-instance" xsi:schemaLocation="http://www.topografix.com/GPX/1/1 http://www.topografix.com/GPX/1/1/gpx.xsd" version="1.1" creator="gpx.py -- https://github.com/tkrajina/gpxpy">
  <trk>
    <name>gpx from keep</name>
    <type>Run</type>
    <trkseg>
      <trkpt lat="31.204604240061673" lon="121.61076151064007">
        <ele>10.32680892944336</ele>
        <time>2018-10-06T23:10:05Z</time>
      </trkpt>
      <trkpt lat="31.20446178625062" lon="121.61091035711652">
        <ele>11.16176986694336</ele>
        <time>2018-10-06T23:10:12Z</time>
      </trkpt>
      <trkpt lat="31.204380357880886" lon="121.61103073218504">
        <ele>10.44143295288086</ele>
        <time>2018-10-06T23:10:16Z</time>
      </trkpt>
      <trkpt lat="31.204236282938496" lon="121.61116981753347">
        <ele>11.76241683959961</ele>
        <time>2018-10-06T23:10:22Z</time>
      </trkpt>
      <trkpt lat="31.204148862654172" lon="121.61132489200274">
        <ele>12.09957504272461</ele>
        <time>2018-10-06T23:10:30Z</time>
      </trkpt>
      <trkpt lat="31.204132523271948" lon="121.61142058992182">
        <ele>10.78499984741211</ele>
        <time>2018-10-06T23:10:33Z</time>
      </trkpt>
      <trkpt lat="31.20416360798088" lon="121.61154854361305">
        <ele>10.63369369506836</ele>
        <time>2018-10-06T23:10:37Z</time>
      </trkpt>
      <trkpt lat="31.204213976460636" lon="121.61163176485493">
        <ele>10.583181665212727</ele>
        <time>2018-10-06T23:10:41Z</time>
      </trkpt>
      <trkpt lat="31.20445834734278" lon="121.61188602757835">
        <ele>9.55898812833118</ele>
        <time>2018-10-06T23:10:54Z</time>
      </trkpt>
      <trkpt lat="31.204661514568418" lon="121.61212565225344">
        <ele>9.240749842704822</ele>
        <time>2018-10-06T23:11:05Z</time>
      </trkpt>
      <trkpt lat="31.20487988570181" lon="121.61233653832768">
        <ele>8.773675741375186</ele>
        <time>2018-10-06T23:11:16Z</time>
      </trkpt>
      <trkpt lat="31.205126152154193" lon="121.612585371529">
        <ele>8.678519782012415</ele>
        <time>2018-10-06T23:11:29Z</time>
      </trkpt>
      <trkpt lat="31.205221209704085" lon="121.61272524097369">
        <ele>9.067196631076747</ele>
        <time>2018-10-06T23:11:37Z</time>
      </trkpt>
      <trkpt lat="31.205217922809187" lon="121.61276698741011">
        <ele>9.012030636763328</ele>
        <time>2018-10-06T23:12:02Z</time>
      </trkpt>
      <trkpt lat="31.205222779660154" lon="121.61279653457338">
        <ele>9.099482432923004</ele>
        <time>2018-10-06T23:12:05Z</time>
      </trkpt>
      <trkpt lat="31.205273088284564" lon="121.6129494181333">
        <ele>9.244932512024647</ele>
        <time>2018-10-06T23:12:13Z</time>
      </trkpt>
      <trkpt lat="31.205123613290482" lon="121.61304783110302">
        <ele>8.991235299368704</ele>
        <time>2018-10-06T23:12:21Z</time>
      </trkpt>
      <trkpt lat="31.20504628262971" lon="121.6131183170188">
        <ele>9.215205942233005</ele>
        <time>2018-10-06T23:12:25Z</time>
      </trkpt>
      <trkpt lat="31.204981405481263" lon="121.61321157188596">
        <ele>9.506032582671594</ele>
        <time>2018-10-06T23:12:29Z</time>
      </trkpt>
      <trkpt lat="31.2048552290047" lon="121.61333220975973">
        <ele>9.289313180523756</ele>
        <time>2018-10-06T23:12:35Z</time>
      </trkpt>
      <trkpt lat="31.204659801654053" lon="121.61358703241025">
        <ele>9.213425915470701</ele>
        <time>2018-10-06T23:12:46Z</time>
      </trkpt>
      <trkpt lat="31.204428535888983" lon="121.6138968816729">
        <ele>9.55930759260081</ele>
        <time>2018-10-06T23:13:00Z</time>
      </trkpt>
      <trkpt lat="31.2041804995641" lon="121.61415576852329">
        <ele>9.654012707741515</ele>
        <time>2018-10-06T23:13:14Z</time>
      </trkpt>
      <trkpt lat="31.20402637903962" lon="121.61429158331792">
        <ele>9.975266939973075</ele>
        <time>2018-10-06T23:13:22Z</time>
      </trkpt>
      <trkpt lat="31.203987551958658" lon="121.61435555688611">
        <ele>9.900649182186314</ele>
        <time>2018-10-06T23:13:26Z</time>
      </trkpt>
      <trkpt lat="31.203774026842392" lon="121.61452037874076">
        <ele>10.178822026811417</ele>
        <time>2018-10-06T23:13:36Z</time>
      </trkpt>
      <trkpt lat="31.20369342423554" lon="121.61460766611505">
        <ele>10.056884481723564</ele>
        <time>2018-10-06T23:13:40Z</time>
      </trkpt>
      <trkpt lat="31.20364454581094" lon="121.61469305315043">
        <ele>9.65906943254167</ele>
        <time>2018-10-06T23:13:44Z</time>
      </trkpt>
      <trkpt lat="31.203688929554446" lon="121.61478764805906">
        <ele>9.562197914497496</ele>
        <time>2018-10-06T23:13:48Z</time>
      </trkpt>
      <trkpt lat="31.20381406129561" lon="121.61493915729181">
        <ele>9.345653062683837</ele>
        <time>2018-10-06T23:13:55Z</time>
      </trkpt>
      <trkpt lat="31.203810456376907" lon="121.6150302315107">
        <ele>9.420510836063805</ele>
        <time>2018-10-06T23:13:59Z</time>
      </trkpt>
      <trkpt lat="31.20359172528509" lon="121.61525169873546">
        <ele>9.077520030775531</ele>
        <time>2018-10-06T23:14:25Z</time>
      </trkpt>
      <trkpt lat="31.203333398205896" lon="121.61548265387182">
        <ele>8.56082175177692</ele>
        <time>2018-10-06T23:14:38Z</time>
      </trkpt>
      <trkpt lat="31.203122247958348" lon="121.61571224767386">
        <ele>8.26995407533839</ele>
        <time>2018-10-06T23:14:49Z</time>
      </trkpt>
      <trkpt lat="31.20290297567259" lon="121.61592666158337">
        <ele>8.269921533999145</ele>
        <time>2018-10-06T23:15:00Z</time>
      </trkpt>
      <trkpt lat="31.202634839170226" lon="121.61620422997056">
        <ele>8.296330382695096</ele>
        <time>2018-10-06T23:15:14Z</time>
      </trkpt>
      <trkpt lat="31.202404145921875" lon="121.61645035183898">
        <ele>8.043366998454651</ele>
        <time>2018-10-06T23:15:26Z</time>
      </trkpt>
      <trkpt lat="31.202205457212557" lon="121.6166829168722">
        <ele>7.731931139980034</ele>
        <time>2018-10-06T23:15:37Z</time>
      </trkpt>
      <trkpt lat="31.201996196979948" lon="121.61691060200596">
        <ele>7.045656270856476</ele>
        <time>2018-10-06T23:15:48Z</time>
      </trkpt>
      <trkpt lat="31.20185889315781" lon="121.61702580163977">
        <ele>7.269804017160432</ele>
        <time>2018-10-06T23:15:55Z</time>
      </trkpt>
      <trkpt lat="31.201680559624762" lon="121.61723261187868">
        <ele>7.14720222527572</ele>
        <time>2018-10-06T23:16:06Z</time>
      </trkpt>
      <trkpt lat="31.201449056471613" lon="121.617465985331">
        <ele>7.194617937684299</ele>
        <time>2018-10-06T23:16:17Z</time>
      </trkpt>
      <trkpt lat="31.201249281334626" lon="121.61769203633912">
        <ele>7.177551582903341</ele>
        <time>2018-10-06T23:16:28Z</time>
      </trkpt>
      <trkpt lat="31.201004990243074" lon="121.61796687269133">
        <ele>8.124518050529836</ele>
        <time>2018-10-06T23:16:41Z</time>
      </trkpt>
      <trkpt lat="31.200741149185475" lon="121.61826745428273">
        <ele>8.4090123137399</ele>
        <time>2018-10-06T23:16:55Z</time>
      </trkpt>
      <trkpt lat="31.200555448249247" lon="121.61851192588493">
        <ele>8.901304382884852</ele>
        <time>2018-10-06T23:17:06Z</time>
      </trkpt>
      <trkpt lat="31.200306236485286" lon="121.6188187330241">
        <ele>8.934636656159185</ele>
        <time>2018-10-06T23:17:21Z</time>
      </trkpt>
      <trkpt lat="31.20007251874668" lon="121.61908407092628">
        <ele>9.054627099708839</ele>
        <time>2018-10-06T23:17:34Z</time>
      </trkpt>
      <trkpt lat="31.199872459090482" lon="121.61931092046459">
        <ele>8.995061681609855</ele>
        <time>2018-10-06T23:17:45Z</time>
      </trkpt>
      <trkpt lat="31.199618388574024" lon="121.61958899207828">
        <ele>9.345171544882575</ele>
        <time>2018-10-06T23:17:59Z</time>
      </trkpt>
      <trkpt lat="31.199351320993827" lon="121.61984809174405">
        <ele>9.105381725728343</ele>
        <time>2018-10-06T23:18:14Z</time>
      </trkpt>
      <trkpt lat="31.199202593400884" lon="121.61998658481998">
        <ele>9.517653117399007</ele>
        <time>2018-10-06T23:18:22Z</time>
      </trkpt>
      <trkpt lat="31.199118493655995" lon="121.62003211954072">
        <ele>9.509968725811788</ele>
        <time>2018-10-06T23:18:26Z</time>
      </trkpt>
      <trkpt lat="31.199052795311047" lon="121.62011125637275">
        <ele>9.372479851293136</ele>
        <time>2018-10-06T23:18:30Z</time>
      </trkpt>
      <trkpt lat="31.198866661860638" lon="121.62023864029399">
        <ele>9.349430049054796</ele>
        <time>2018-10-06T23:18:41Z</time>
      </trkpt>
      <trkpt lat="31.198625607674817" lon="121.62050694507838">
        <ele>9.246823692063963</ele>
        <time>2018-10-06T23:18:52Z</time>
      </trkpt>
      <trkpt lat="31.198359646124526" lon="121.6207389363958">
        <ele>9.035547508395858</ele>
        <time>2018-10-06T23:19:05Z</time>
      </trkpt>
      <trkpt lat="31.198080671054488" lon="121.62096848783622">
        <ele>8.986791455742527</ele>
        <time>2018-10-06T23:19:19Z</time>
      </trkpt>
      <trkpt lat="31.197903666478336" lon="121.62117445301904">
        <ele>8.816661502277775</ele>
        <time>2018-10-06T23:19:29Z</time>
      </trkpt>
      <trkpt lat="31.19760193089251" lon="121.62138774349128">
        <ele>8.716867464836277</ele>
        <time>2018-10-06T23:19:44Z</time>
      </trkpt>
      <trkpt lat="31.197328906313345" lon="121.62162596021145">
        <ele>8.89031998325062</ele>
        <time>2018-10-06T23:19:58Z</time>
      </trkpt>
      <trkpt lat="31.19706019679262" lon="121.62188314299226">
        <ele>9.012176723165709</ele>
        <time>2018-10-06T23:20:12Z</time>
      </trkpt>
      <trkpt lat="31.196838199313945" lon="121.62207013638756">
        <ele>8.841523171132742</ele>
        <time>2018-10-06T23:20:23Z</time>
      </trkpt>
      <trkpt lat="31.19665742407787" lon="121.62224736994705">
        <ele>9.327123197324077</ele>
        <time>2018-10-06T23:20:33Z</time>
      </trkpt>
      <trkpt lat="31.196632646398058" lon="121.6223395035283">
        <ele>9.835760913593198</ele>
        <time>2018-10-06T23:20:37Z</time>
      </trkpt>
      <trkpt lat="31.196709765354925" lon="121.62271181370747">
        <ele>9.301693926509621</ele>
        <time>2018-10-06T23:20:50Z</time>
      </trkpt>
      <trkpt lat="31.19677981586377" lon="121.62309658383403">
        <ele>7.705732296656272</ele>
        <time>2018-10-06T23:21:04Z</time>
      </trkpt>
      <trkpt lat="31.196835495639405" lon="121.62347782719252">
        <ele>6.8552592876883125</ele>
        <time>2018-10-06T23:21:18Z</time>
      </trkpt>
      <trkpt lat="31.19691395014573" lon="121.62385554089266">
        <ele>6.371941864747683</ele>
        <time>2018-10-06T23:21:32Z</time>
      </trkpt>
      <trkpt lat="31.196943868679675" lon="121.62400483672218">
        <ele>6.6565667428843796</ele>
        <time>2018-10-06T23:21:38Z</time>
      </trkpt>
      <trkpt lat="31.196951361498645" lon="121.62363036949485">
        <ele>7.378025554525671</ele>
        <time>2018-10-06T23:21:53Z</time>
      </trkpt>
      <trkpt lat="31.19692496380889" lon="121.62325102259655">
        <ele>7.461056478363595</ele>
        <time>2018-10-06T23:22:07Z</time>
      </trkpt>
      <trkpt lat="31.19691653633301" lon="121.62303695970292">
        <ele>7.210906821636321</ele>
        <time>2018-10-06T23:22:15Z</time>
      </trkpt>
      <trkpt lat="31.19685383162114" lon="121.62286544183847">
        <ele>6.897285673429138</ele>
        <time>2018-10-06T23:22:22Z</time>
      </trkpt>
      <trkpt lat="31.196857451244945" lon="121.62278306673247">
        <ele>6.640558699520547</ele>
        <time>2018-10-06T23:22:25Z</time>
      </trkpt>
      <trkpt lat="31.196981188125243" lon="121.62269607492694">
        <ele>6.632978768780845</ele>
        <time>2018-10-06T23:22:32Z</time>
      </trkpt>
      <trkpt lat="31.197084119389377" lon="121.62254621900715">
        <ele>7.428529343321415</ele>
        <time>2018-10-06T23:22:39Z</time>
      </trkpt>
      <trkpt lat="31.197216282381845" lon="121.62244025759622">
        <ele>7.662198627659421</ele>
        <time>2018-10-06T23:22:46Z</time>
      </trkpt>
      <trkpt lat="31.19736277692257" lon="121.62236789542119">
        <ele>7.2185714921697794</ele>
        <time>2018-10-06T23:22:53Z</time>
      </trkpt>
      <trkpt lat="31.197630670795917" lon="121.62211640788844">
        <ele>7.773192522064406</ele>
        <time>2018-10-06T23:23:07Z</time>
      </trkpt>
      <trkpt lat="31.197876589875726" lon="121.62187467507117">
        <ele>8.473814091001742</ele>
        <time>2018-10-06T23:23:20Z</time>
      </trkpt>
      <trkpt lat="31.197956360880674" lon="121.62182318234774">
        <ele>8.588525112502523</ele>
        <time>2018-10-06T23:23:24Z</time>
      </trkpt>
      <trkpt lat="31.198112342212923" lon="121.62175217262379">
        <ele>8.787467995618492</ele>
        <time>2018-10-06T23:23:31Z</time>
      </trkpt>
      <trkpt lat="31.198246136891093" lon="121.62163943339449">
        <ele>8.429738865424177</ele>
        <time>2018-10-06T23:23:38Z</time>
      </trkpt>
      <trkpt lat="31.19829556400043" lon="121.62156680610359">
        <ele>8.186053731275685</ele>
        <time>2018-10-06T23:23:41Z</time>
      </trkpt>
      <trkpt lat="31.19844675224274" lon="121.62141639789866">
        <ele>8.394405055458613</ele>
        <time>2018-10-06T23:23:49Z</time>
      </trkpt>
      <trkpt lat="31.198494036643098" lon="121.62131938153547">
        <ele>9.345397892401877</ele>
        <time>2018-10-06T23:23:53Z</time>
      </trkpt>
      <trkpt lat="31.1986815966354" lon="121.62113157274435">
        <ele>9.460013047051966</ele>
        <time>2018-10-06T23:24:04Z</time>
      </trkpt>
      <trkpt lat="31.1988403206471" lon="121.62103048129252">
        <ele>9.69161738741888</ele>
        <time>2018-10-06T23:24:11Z</time>
      </trkpt>
      <trkpt lat="31.19909329541431" lon="121.62077518845359">
        <ele>9.112159775756119</ele>
        <time>2018-10-06T23:24:25Z</time>
      </trkpt>
      <trkpt lat="31.19931464264025" lon="121.62068113622901">
        <ele>9.391747683958329</ele>
        <time>2018-10-06T23:24:35Z</time>
      </trkpt>
      <trkpt lat="31.19959685668095" lon="121.62071498680092">
        <ele>9.465412260179114</ele>
        <time>2018-10-06T23:24:46Z</time>
      </trkpt>
      <trkpt lat="31.19991028551473" lon="121.62071712879406">
        <ele>9.567914923985114</ele>
        <time>2018-10-06T23:24:59Z</time>
      </trkpt>
      <trkpt lat="31.200177832850525" lon="121.62077455672541">
        <ele>8.957526608850358</ele>
        <time>2018-10-06T23:25:10Z</time>
      </trkpt>
      <trkpt lat="31.200500153990816" lon="121.62082764415675">
        <ele>8.373762281609082</ele>
        <time>2018-10-06T23:25:23Z</time>
      </trkpt>
      <trkpt lat="31.20077177916438" lon="121.62087504489485">
        <ele>8.234720167545852</ele>
        <time>2018-10-06T23:25:33Z</time>
      </trkpt>
      <trkpt lat="31.20113366437278" lon="121.62094791103729">
        <ele>7.846191734636122</ele>
        <time>2018-10-06T23:25:48Z</time>
      </trkpt>
      <trkpt lat="31.201454887012666" lon="121.62101373465104">
        <ele>7.58391550729209</ele>
        <time>2018-10-06T23:26:02Z</time>
      </trkpt>
      <trkpt lat="31.20176636830951" lon="121.6210616737275">
        <ele>7.228707875212152</ele>
        <time>2018-10-06T23:26:16Z</time>
      </trkpt>
      <trkpt lat="31.202102525840615" lon="121.62110690080202">
        <ele>7.174687545855463</ele>
        <time>2018-10-06T23:26:30Z</time>
      </trkpt>
      <trkpt lat="31.202420249793928" lon="121.62114887748308">
        <ele>7.605450425252982</ele>
        <time>2018-10-06T23:26:44Z</time>
      </trkpt>
      <trkpt lat="31.202506755773186" lon="121.62113613394403">
        <ele>7.481554561911665</ele>
        <time>2018-10-06T23:26:48Z</time>
      </trkpt>
      <trkpt lat="31.202472405492536" lon="121.62081067954979">
        <ele>8.245437455711254</ele>
        <time>2018-10-06T23:27:00Z</time>
      </trkpt>
      <trkpt lat="31.202432095125843" lon="121.620477362787">
        <ele>7.7255758178839145</ele>
        <time>2018-10-06T23:27:11Z</time>
      </trkpt>
      <trkpt lat="31.20245095066997" lon="121.62033996706714">
        <ele>8.163341589761707</ele>
        <time>2018-10-06T23:27:32Z</time>
      </trkpt>
      <trkpt lat="31.20245041332626" lon="121.62033536019428">
        <ele>7.758667554714229</ele>
        <time>2018-10-06T23:27:33Z</time>
      </trkpt>
      <trkpt lat="31.20272127967055" lon="121.62033289882217">
        <ele>8.360539598539027</ele>
        <time>2018-10-06T23:27:50Z</time>
      </trkpt>
      <trkpt lat="31.202892163553688" lon="121.62026838774632">
        <ele>7.8319628181435235</ele>
        <time>2018-10-06T23:27:58Z</time>
      </trkpt>
      <trkpt lat="31.20288545998052" lon="121.62019820027868">
        <ele>7.388392718986694</ele>
        <time>2018-10-06T23:28:01Z</time>
      </trkpt>
      <trkpt lat="31.20282595968116" lon="121.62005755758916">
        <ele>7.16188340767733</ele>
        <time>2018-10-06T23:28:07Z</time>
      </trkpt>
      <trkpt lat="31.20274576036583" lon="121.61974672757385">
        <ele>6.412359924699793</ele>
        <time>2018-10-06T23:28:18Z</time>
      </trkpt>
      <trkpt lat="31.2026639278459" lon="121.61943887498843">
        <ele>6.299474413713931</ele>
        <time>2018-10-06T23:28:29Z</time>
      </trkpt>
      <trkpt lat="31.202568609620208" lon="121.61905866061815">
        <ele>5.316456453790579</ele>
        <time>2018-10-06T23:28:43Z</time>
      </trkpt>
      <trkpt lat="31.20249107494878" lon="121.61878332078508">
        <ele>4.80983407120425</ele>
        <time>2018-10-06T23:28:54Z</time>
      </trkpt>
      <trkpt lat="31.20247437204092" lon="121.61867735642656">
        <ele>4.681309571448907</ele>
        <time>2018-10-06T23:28:58Z</time>
      </trkpt>
      <trkpt lat="31.202742923668936" lon="121.61855049995035">
        <ele>4.926288606643894</ele>
        <time>2018-10-06T23:29:09Z</time>
      </trkpt>
      <trkpt lat="31.202880491314495" lon="121.61844885809528">
        <ele>4.419703060650136</ele>
        <time>2018-10-06T23:29:16Z</time>
      </trkpt>
      <trkpt lat="31.202891455129954" lon="121.61833069430944">
        <ele>4.589812384075984</ele>
        <time>2018-10-06T23:29:20Z</time>
      </trkpt>
      <trkpt lat="31.202860384173334" lon="121.61822093499335">
        <ele>4.604391541442979</ele>
        <time>2018-10-06T23:29:24Z</time>
      </trkpt>
      <trkpt lat="31.202743962795136" lon="121.61805318417258">
        <ele>4.5718045534305105</ele>
        <time>2018-10-06T23:29:31Z</time>
      </trkpt>
      <trkpt lat="31.20262549753863" lon="121.61775696800666">
        <ele>4.732435716591091</ele>
        <time>2018-10-06T23:29:43Z</time>
      </trkpt>
      <trkpt lat="31.20246421615635" lon="121.61743364926583">
        <ele>5.221547988445586</ele>
        <time>2018-10-06T23:29:56Z</time>
      </trkpt>
      <trkpt lat="31.202431477784824" lon="121.61736237199695">
        <ele>5.340249986552649</ele>
        <time>2018-10-06T23:29:59Z</time>
      </trkpt>
      <trkpt lat="31.202434568170418" lon="121.61725043737145">
        <ele>4.83607883067441</ele>
        <time>2018-10-06T23:30:03Z</time>
      </trkpt>
      <trkpt lat="31.202690961871085" lon="121.61707180797256">
        <ele>4.335082067283416</ele>
        <time>2018-10-06T23:30:15Z</time>
      </trkpt>
      <trkpt lat="31.20295063896487" lon="121.61686065314274">
        <ele>4.3293478809758525</ele>
        <time>2018-10-06T23:30:29Z</time>
      </trkpt>
      <trkpt lat="31.203069515029956" lon="121.6167348839465">
        <ele>4.10497430949696</ele>
        <time>2018-10-06T23:30:36Z</time>
      </trkpt>
      <trkpt lat="31.203228471645193" lon="121.61665898121616">
        <ele>4.328250550335476</ele>
        <time>2018-10-06T23:30:44Z</time>
      </trkpt>
      <trkpt lat="31.203454792077416" lon="121.61645216219443">
        <ele>4.220815893895306</ele>
        <time>2018-10-06T23:30:57Z</time>
      </trkpt>
      <trkpt lat="31.203711185420424" lon="121.61626864830082">
        <ele>4.285559783283077</ele>
        <time>2018-10-06T23:31:11Z</time>
      </trkpt>
      <trkpt lat="31.203857652597264" lon="121.61621009170078">
        <ele>4.567876700521381</ele>
        <time>2018-10-06T23:31:18Z</time>
      </trkpt>
      <trkpt lat="31.203948623819773" lon="121.61605721735836">
        <ele>4.971944419658712</ele>
        <time>2018-10-06T23:31:25Z</time>
      </trkpt>
      <trkpt lat="31.204023499448223" lon="121.61601113409935">
        <ele>5.045227928899067</ele>
        <time>2018-10-06T23:31:29Z</time>
      </trkpt>
      <trkpt lat="31.204147125660747" lon="121.61602359179437">
        <ele>5.436208965120024</ele>
        <time>2018-10-06T23:31:35Z</time>
      </trkpt>
      <trkpt lat="31.204228764222723" lon="121.61599431252264">
        <ele>5.008573847666938</ele>
        <time>2018-10-06T23:31:39Z</time>
      </trkpt>
      <trkpt lat="31.204480705555884" lon="121.61622711565403">
        <ele>5.76534205042163</ele>
        <time>2018-10-06T23:31:53Z</time>
      </trkpt>
      <trkpt lat="31.20454811468917" lon="121.6163387780623">
        <ele>5.596270317329974</ele>
        <time>2018-10-06T23:31:59Z</time>
      </trkpt>
      <trkpt lat="31.204595812075897" lon="121.61636289650274">
        <ele>6.163177030633918</ele>
        <time>2018-10-06T23:32:02Z</time>
      </trkpt>
      <trkpt lat="31.20457796600887" lon="121.61631031656793">
        <ele>6.714328511667723</ele>
        <time>2018-10-06T23:32:05Z</time>
      </trkpt>
      <trkpt lat="31.204362332531677" lon="121.61610461532139">
        <ele>7.41784340424347</ele>
        <time>2018-10-06T23:32:17Z</time>
      </trkpt>
      <trkpt lat="31.204123705973796" lon="121.61583874260242">
        <ele>8.689129289186624</ele>
        <time>2018-10-06T23:32:31Z</time>
      </trkpt>
      <trkpt lat="31.203891295408877" lon="121.61559238181123">
        <ele>9.166012037214792</ele>
        <time>2018-10-06T23:32:45Z</time>
      </trkpt>
      <trkpt lat="31.203721196004626" lon="121.61539941000207">
        <ele>7.896210103662568</ele>
        <time>2018-10-06T23:32:56Z</time>
      </trkpt>
      <trkpt lat="31.203600091601583" lon="121.6152953371064">
        <ele>7.015212933182454</ele>
        <time>2018-10-06T23:33:09Z</time>
      </trkpt>
      <trkpt lat="31.203626768428954" lon="121.61517661478001">
        <ele>6.9059246504557805</ele>
        <time>2018-10-06T23:33:16Z</time>
      </trkpt>
      <trkpt lat="31.203807772257232" lon="121.61499933169117">
        <ele>6.643776514956663</ele>
        <time>2018-10-06T23:33:26Z</time>
      </trkpt>
      <trkpt lat="31.203843641442347" lon="121.61490906784925">
        <ele>6.652627241821776</ele>
        <time>2018-10-06T23:33:30Z</time>
      </trkpt>
      <trkpt lat="31.20395924680304" lon="121.61479277575886">
        <ele>6.611957780199916</ele>
        <time>2018-10-06T23:33:37Z</time>
      </trkpt>
      <trkpt lat="31.204107118652445" lon="121.61467431198055">
        <ele>6.969796070546593</ele>
        <time>2018-10-06T23:33:45Z</time>
      </trkpt>
      <trkpt lat="31.20418120885877" lon="121.61459325971828">
        <ele>6.895507342181915</ele>
        <time>2018-10-06T23:33:49Z</time>
      </trkpt>
      <trkpt lat="31.204223312585388" lon="121.6145032648878">
        <ele>6.878111490919153</ele>
        <time>2018-10-06T23:33:53Z</time>
      </trkpt>
      <trkpt lat="31.204412426911166" lon="121.61434847417664">
        <ele>7.031976072100996</ele>
        <time>2018-10-06T23:34:04Z</time>
      </trkpt>
      <trkpt lat="31.204544050003285" lon="121.61420507182802">
        <ele>7.141553820261429</ele>
        <time>2018-10-06T23:34:11Z</time>
      </trkpt>
      <trkpt lat="31.20462895086999" lon="121.61416332119369">
        <ele>7.379873869588955</ele>
        <time>2018-10-06T23:34:15Z</time>
      </trkpt>
      <trkpt lat="31.204764893762015" lon="121.61404051824803">
        <ele>7.264504324367792</ele>
        <time>2018-10-06T23:34:23Z</time>
      </trkpt>
      <trkpt lat="31.204951376151545" lon="121.61378786977036">
        <ele>7.1698945927784195</ele>
        <time>2018-10-06T23:34:37Z</time>
      </trkpt>
      <trkpt lat="31.205099525448126" lon="121.61365666074673">
        <ele>7.257115936986047</ele>
        <time>2018-10-06T23:34:53Z</time>
      </trkpt>
      <trkpt lat="31.205230275707954" lon="121.61358075064206">
        <ele>7.184068258705366</ele>
        <time>2018-10-06T23:35:06Z</time>
      </trkpt>
      <trkpt lat="31.205479658616795" lon="121.61332646560778">
        <ele>8.055927091571391</ele>
        <time>2018-10-06T23:35:37Z</time>
      </trkpt>
      <trkpt lat="31.205589845638745" lon="121.61319661252108">
        <ele>8.978122954196635</ele>
        <time>2018-10-06T23:35:48Z</time>
      </trkpt>
      <trkpt lat="31.205596940552855" lon="121.61314077067189">
        <ele>9.179646879464315</ele>
        <time>2018-10-06T23:35:52Z</time>
      </trkpt>
      <trkpt lat="31.20555770209176" lon="121.61304671090642">
        <ele>9.395950210438585</ele>
        <time>2018-10-06T23:35:59Z</time>
      </trkpt>
      <trkpt lat="31.205408714167643" lon="121.61287702934627">
        <ele>9.226852453889357</ele>
        <time>2018-10-06T23:36:13Z</time>
      </trkpt>
      <trkpt lat="31.20536350482143" lon="121.61278920381912">
        <ele>9.382787887030524</ele>
        <time>2018-10-06T23:36:20Z</time>
      </trkpt>
      <trkpt lat="31.205272716592788" lon="121.61273635096069">
        <ele>9.84657073351542</ele>
        <time>2018-10-06T23:36:27Z</time>
      </trkpt>
      <trkpt lat="31.20509336190827" lon="121.61256368776118">
        <ele>9.748248601008477</ele>
        <time>2018-10-06T23:36:44Z</time>
      </trkpt>
      <trkpt lat="31.20487548300726" lon="121.61241894801022">
        <ele>9.56133160956744</ele>
        <time>2018-10-06T23:37:01Z</time>
      </trkpt>
      <trkpt lat="31.204683116243153" lon="121.61224059074517">
        <ele>8.640018304099037</ele>
        <time>2018-10-06T23:37:22Z</time>
      </trkpt>
      <trkpt lat="31.20450789927776" lon="121.61197195854889">
        <ele>8.184432161563777</ele>
        <time>2018-10-06T23:37:47Z</time>
      </trkpt>
      <trkpt lat="31.204318861137622" lon="121.61169085417183">
        <ele>7.785205255215189</ele>
        <time>2018-10-06T23:38:16Z</time>
      </trkpt>
      <trkpt lat="31.204253573044838" lon="121.61161739369884">
        <ele>7.647739109893394</ele>
        <time>2018-10-06T23:38:23Z</time>
      </trkpt>
      <trkpt lat="31.20422706991409" lon="121.6115268509147">
        <ele>7.590101604191105</ele>
        <time>2018-10-06T23:38:30Z</time>
      </trkpt>
      <trkpt lat="31.204230420485615" lon="121.61139726768705">
        <ele>7.973356996225988</ele>
        <time>2018-10-06T23:38:40Z</time>
      </trkpt>
    </trkseg>
  </trk>
</gpx>