<?xml version="1.0" encoding="UTF-8"?>
<gpx xmlns="http://www.topografix.com/GPX/1/1" xmlns:gpxtpx="http://www.garmin.com/xmlschemas/TrackPointExtension/v1" xmlns:xsi="http://www.w3.org/2001/XMLSchema-instance" xsi:schemaLocation="http://www.topografix.com/GPX/1/1 http://www.topografix.com/GPX/1/1/gpx.xsd" version="1.1" creator="gpx.py -- https://github.com/tkrajina/gpxpy">
  <trk>
    <name>gpx from keep</name>
    <type>Run</type>
    <trkseg>
      <trkpt lat="31.204390912579214" lon="121.61068372177043">
        <ele>8.620578431922333</ele>
        <time>2020-07-12T22:44:51Z</time>
      </trkpt>
      <trkpt lat="31.20447733934678" lon="121.61077453403954">
        <ele>8.670978549660454</ele>
        <time>2020-07-12T22:44:55Z</time>
      </trkpt>
      <trkpt lat="31.2046042201028" lon="121.61078916306383">
        <ele>8.719370828010142</ele>
        <time>2020-07-12T22:45:03Z</time>
      </trkpt>
      <trkpt lat="31.204696469219392" lon="121.61070158931922">
        <ele>8.45965171046555</ele>
        <time>2020-07-12T22:45:07Z</time>
      </trkpt>
      <trkpt lat="31.204754007287917" lon="121.61062160902085">
        <ele>8.337819445878267</ele>
        <time>2020-07-12T22:45:10Z</time>
      </trkpt>
      <trkpt lat="31.20491000835067" lon="121.61048387487139">
        <ele>8.121643054299057</ele>
        <time>2020-07-12T22:45:17Z</time>
      </trkpt>
      <trkpt lat="31.20514163329202" lon="121.61037758205973">
        <ele>7.806025275029242</ele>
        <time>2020-07-12T22:45:24Z</time>
      </trkpt>
      <trkpt lat="31.20526700125675" lon="121.61023063126926">
        <ele>8.163058088161051</ele>
        <time>2020-07-12T22:45:31Z</time>
      </trkpt>
      <trkpt lat="31.205410254670614" lon="121.61009614912366">
        <ele>6.085296712815762</ele>
        <time>2020-07-12T22:45:38Z</time>
      </trkpt>
      <trkpt lat="31.20547719380402" lon="121.61014114785303">
        <ele>5.717842616140842</ele>
        <time>2020-07-12T22:45:42Z</time>
      </trkpt>
      <trkpt lat="31.205518067414367" lon="121.61023820155589">
        <ele>6.263806550763547</ele>
        <time>2020-07-12T22:45:46Z</time>
      </trkpt>
      <trkpt lat="31.205581452360708" lon="121.61032467978974">
        <ele>6.4865895276889205</ele>
        <time>2020-07-12T22:45:50Z</time>
      </trkpt>
      <trkpt lat="31.205690944065758" lon="121.61039136309753">
        <ele>7.9208407094702125</ele>
        <time>2020-07-12T22:45:54Z</time>
      </trkpt>
      <trkpt lat="31.205888982191947" lon="121.61061907525603">
        <ele>7.713173156604171</ele>
        <time>2020-07-12T22:46:07Z</time>
      </trkpt>
      <trkpt lat="31.2060081708048" lon="121.61077359417739">
        <ele>8.209860923700035</ele>
        <time>2020-07-12T22:46:14Z</time>
      </trkpt>
      <trkpt lat="31.206055260862687" lon="121.61089450154202">
        <ele>7.35049429628998</ele>
        <time>2020-07-12T22:46:18Z</time>
      </trkpt>
      <trkpt lat="31.20616122479964" lon="121.61096335226956">
        <ele>7.0426224218681455</ele>
        <time>2020-07-12T22:46:22Z</time>
      </trkpt>
      <trkpt lat="31.206231164954563" lon="121.61098096797639">
        <ele>6.453158782795072</ele>
        <time>2020-07-12T22:46:25Z</time>
      </trkpt>
      <trkpt lat="31.206480434042557" lon="121.61122032717401">
        <ele>7.9369697738438845</ele>
        <time>2020-07-12T22:46:36Z</time>
      </trkpt>
      <trkpt lat="31.20653155739918" lon="121.61138379378859">
        <ele>6.419992795214057</ele>
        <time>2020-07-12T22:46:42Z</time>
      </trkpt>
      <trkpt lat="31.206636375819652" lon="121.61153234467739">
        <ele>6.333833300508559</ele>
        <time>2020-07-12T22:46:49Z</time>
      </trkpt>
      <trkpt lat="31.20658994386675" lon="121.61162235128332">
        <ele>6.067076542414725</ele>
        <time>2020-07-12T22:46:56Z</time>
      </trkpt>
      <trkpt lat="31.20651154775214" lon="121.61167250975669">
        <ele>7.651150822639465</ele>
        <time>2020-07-12T22:46:59Z</time>
      </trkpt>
      <trkpt lat="31.206329457403154" lon="121.6118807221823">
        <ele>7.749733318574727</ele>
        <time>2020-07-12T22:47:10Z</time>
      </trkpt>
      <trkpt lat="31.206103718448603" lon="121.61208134591129">
        <ele>8.601930697448552</ele>
        <time>2020-07-12T22:47:21Z</time>
      </trkpt>
      <trkpt lat="31.20599488240491" lon="121.61222421718577">
        <ele>7.956712239421904</ele>
        <time>2020-07-12T22:47:27Z</time>
      </trkpt>
      <trkpt lat="31.205735483879895" lon="121.6124709247413">
        <ele>7.699153209105134</ele>
        <time>2020-07-12T22:47:39Z</time>
      </trkpt>
      <trkpt lat="31.205590613477405" lon="121.61257747177837">
        <ele>7.837843964807689</ele>
        <time>2020-07-12T22:47:45Z</time>
      </trkpt>
      <trkpt lat="31.20537321713974" lon="121.61284992451873">
        <ele>8.209643367677927</ele>
        <time>2020-07-12T22:47:56Z</time>
      </trkpt>
      <trkpt lat="31.20522174547166" lon="121.61307113546908">
        <ele>7.422570959664881</ele>
        <time>2020-07-12T22:48:07Z</time>
      </trkpt>
      <trkpt lat="31.20495423068051" lon="121.61328666139899">
        <ele>9.750347146764398</ele>
        <time>2020-07-12T22:48:21Z</time>
      </trkpt>
      <trkpt lat="31.204805804721506" lon="121.6134268178551">
        <ele>8.413500688038766</ele>
        <time>2020-07-12T22:48:29Z</time>
      </trkpt>
      <trkpt lat="31.204746402204464" lon="121.61345582735827">
        <ele>7.717505533248186</ele>
        <time>2020-07-12T22:48:32Z</time>
      </trkpt>
      <trkpt lat="31.204529545197424" lon="121.6137212220871">
        <ele>8.179125284776092</ele>
        <time>2020-07-12T22:48:42Z</time>
      </trkpt>
      <trkpt lat="31.20428152082101" lon="121.61396791293986">
        <ele>7.647523619234562</ele>
        <time>2020-07-12T22:48:56Z</time>
      </trkpt>
      <trkpt lat="31.20406089435715" lon="121.61419643779182">
        <ele>7.092686079442501</ele>
        <time>2020-07-12T22:49:07Z</time>
      </trkpt>
      <trkpt lat="31.20398760369535" lon="121.61429511031986">
        <ele>6.7460479233413935</ele>
        <time>2020-07-12T22:49:11Z</time>
      </trkpt>
      <trkpt lat="31.203774041342296" lon="121.61450357310063">
        <ele>7.663528775796294</ele>
        <time>2020-07-12T22:49:21Z</time>
      </trkpt>
      <trkpt lat="31.203742208118303" lon="121.61463124408073">
        <ele>7.707562470808625</ele>
        <time>2020-07-12T22:49:25Z</time>
      </trkpt>
      <trkpt lat="31.203797978812283" lon="121.61472692251718">
        <ele>7.527041407302022</ele>
        <time>2020-07-12T22:49:28Z</time>
      </trkpt>
      <trkpt lat="31.203830944414932" lon="121.61485621327397">
        <ele>7.033321211114526</ele>
        <time>2020-07-12T22:49:32Z</time>
      </trkpt>
      <trkpt lat="31.203829770458977" lon="121.61495812975464">
        <ele>5.92860118765384</ele>
        <time>2020-07-12T22:49:36Z</time>
      </trkpt>
      <trkpt lat="31.203700832277896" lon="121.61512700623928">
        <ele>8.609731987118721</ele>
        <time>2020-07-12T22:50:01Z</time>
      </trkpt>
      <trkpt lat="31.203393685434072" lon="121.6153763979415">
        <ele>8.16090543102473</ele>
        <time>2020-07-12T22:50:17Z</time>
      </trkpt>
      <trkpt lat="31.203243031938833" lon="121.61556966751068">
        <ele>6.877363657578826</ele>
        <time>2020-07-12T22:50:27Z</time>
      </trkpt>
      <trkpt lat="31.20295702330373" lon="121.61582610003904">
        <ele>7.787479681894183</ele>
        <time>2020-07-12T22:50:39Z</time>
      </trkpt>
      <trkpt lat="31.2027070326099" lon="121.61612670652859">
        <ele>7.511423835530877</ele>
        <time>2020-07-12T22:50:53Z</time>
      </trkpt>
      <trkpt lat="31.202559692423605" lon="121.61625004184849">
        <ele>6.686554650776088</ele>
        <time>2020-07-12T22:51:01Z</time>
      </trkpt>
      <trkpt lat="31.202511094932976" lon="121.61631943179668">
        <ele>7.090656969696283</ele>
        <time>2020-07-12T22:51:04Z</time>
      </trkpt>
      <trkpt lat="31.202356957328437" lon="121.6164622813649">
        <ele>8.798099523410201</ele>
        <time>2020-07-12T22:51:11Z</time>
      </trkpt>
      <trkpt lat="31.202148501546223" lon="121.61670135191409">
        <ele>6.698318033479154</ele>
        <time>2020-07-12T22:51:22Z</time>
      </trkpt>
      <trkpt lat="31.2018993467281" lon="121.61696861076938">
        <ele>4.873871952295303</ele>
        <time>2020-07-12T22:51:35Z</time>
      </trkpt>
      <trkpt lat="31.201767471072646" lon="121.61707784702354">
        <ele>6.77220512367785</ele>
        <time>2020-07-12T22:51:42Z</time>
      </trkpt>
      <trkpt lat="31.20155195619669" lon="121.61732151965262">
        <ele>4.7262755604460835</ele>
        <time>2020-07-12T22:51:52Z</time>
      </trkpt>
      <trkpt lat="31.201269995714632" lon="121.61758118583722">
        <ele>6.431714501231909</ele>
        <time>2020-07-12T22:52:06Z</time>
      </trkpt>
      <trkpt lat="31.201137790128165" lon="121.61774814732803">
        <ele>5.729984915815294</ele>
        <time>2020-07-12T22:52:13Z</time>
      </trkpt>
      <trkpt lat="31.2010647932721" lon="121.61781103055839">
        <ele>6.51002440135926</ele>
        <time>2020-07-12T22:52:16Z</time>
      </trkpt>
      <trkpt lat="31.20101479333177" lon="121.61792405062869">
        <ele>5.922756747342646</ele>
        <time>2020-07-12T22:52:20Z</time>
      </trkpt>
      <trkpt lat="31.200821240476547" lon="121.61816039567374">
        <ele>7.245369086973369</ele>
        <time>2020-07-12T22:52:29Z</time>
      </trkpt>
      <trkpt lat="31.200690939507272" lon="121.6183173255338">
        <ele>7.468208180740476</ele>
        <time>2020-07-12T22:52:36Z</time>
      </trkpt>
      <trkpt lat="31.200555178205825" lon="121.61851084184936">
        <ele>6.818709190003574</ele>
        <time>2020-07-12T22:52:44Z</time>
      </trkpt>
      <trkpt lat="31.200300555616202" lon="121.6188059959651">
        <ele>5.875011648051441</ele>
        <time>2020-07-12T22:52:58Z</time>
      </trkpt>
      <trkpt lat="31.200098313475788" lon="121.61904802465509">
        <ele>5.6122578624635935</ele>
        <time>2020-07-12T22:53:09Z</time>
      </trkpt>
      <trkpt lat="31.19999599567193" lon="121.61914559608024">
        <ele>5.404927824623883</ele>
        <time>2020-07-12T22:53:15Z</time>
      </trkpt>
      <trkpt lat="31.199760379588607" lon="121.61940849169285">
        <ele>6.292741362936795</ele>
        <time>2020-07-12T22:53:28Z</time>
      </trkpt>
      <trkpt lat="31.199717749878026" lon="121.61946784522743">
        <ele>6.837271270342171</ele>
        <time>2020-07-12T22:53:31Z</time>
      </trkpt>
      <trkpt lat="31.199445547708848" lon="121.61971177044751">
        <ele>5.373150854371488</ele>
        <time>2020-07-12T22:53:43Z</time>
      </trkpt>
      <trkpt lat="31.199238475808073" lon="121.61989877808296">
        <ele>5.585473238490522</ele>
        <time>2020-07-12T22:53:52Z</time>
      </trkpt>
      <trkpt lat="31.199114919520813" lon="121.62007873150998">
        <ele>6.829040392301977</ele>
        <time>2020-07-12T22:54:00Z</time>
      </trkpt>
      <trkpt lat="31.199000213418845" lon="121.62009418787424">
        <ele>4.196596632711589</ele>
        <time>2020-07-12T22:54:04Z</time>
      </trkpt>
      <trkpt lat="31.19888318110071" lon="121.62025733765721">
        <ele>4.448723944835365</ele>
        <time>2020-07-12T22:54:11Z</time>
      </trkpt>
      <trkpt lat="31.19872525339603" lon="121.62037685968144">
        <ele>6.346286932006478</ele>
        <time>2020-07-12T22:54:18Z</time>
      </trkpt>
      <trkpt lat="31.198622209418676" lon="121.62038906296831">
        <ele>6.370042418129742</ele>
        <time>2020-07-12T22:54:22Z</time>
      </trkpt>
      <trkpt lat="31.198348602328597" lon="121.6206717314598">
        <ele>6.291969588026404</ele>
        <time>2020-07-12T22:54:34Z</time>
      </trkpt>
      <trkpt lat="31.198105945264548" lon="121.62091455895633">
        <ele>8.001170831732452</ele>
        <time>2020-07-12T22:54:46Z</time>
      </trkpt>
      <trkpt lat="31.197886114082742" lon="121.6211094176344">
        <ele>6.542719980701804</ele>
        <time>2020-07-12T22:54:57Z</time>
      </trkpt>
      <trkpt lat="31.19760493161782" lon="121.62137121319564">
        <ele>6.014501195400953</ele>
        <time>2020-07-12T22:55:11Z</time>
      </trkpt>
      <trkpt lat="31.19737206447475" lon="121.62158287048891">
        <ele>6.470439247786999</ele>
        <time>2020-07-12T22:55:22Z</time>
      </trkpt>
      <trkpt lat="31.197313701416007" lon="121.62164520117496">
        <ele>5.807435219176114</ele>
        <time>2020-07-12T22:55:25Z</time>
      </trkpt>
      <trkpt lat="31.197049933184125" lon="121.62184791651673">
        <ele>6.684862606227398</ele>
        <time>2020-07-12T22:55:36Z</time>
      </trkpt>
      <trkpt lat="31.19684417707948" lon="121.62205875484186">
        <ele>6.162307320162654</ele>
        <time>2020-07-12T22:55:47Z</time>
      </trkpt>
      <trkpt lat="31.196700067194477" lon="121.62218097732479">
        <ele>5.562716544605792</ele>
        <time>2020-07-12T22:55:54Z</time>
      </trkpt>
      <trkpt lat="31.196667660472453" lon="121.6223061707309">
        <ele>6.957290972582996</ele>
        <time>2020-07-12T22:55:58Z</time>
      </trkpt>
      <trkpt lat="31.19670785741505" lon="121.622483655418">
        <ele>6.569797654636204</ele>
        <time>2020-07-12T22:56:04Z</time>
      </trkpt>
      <trkpt lat="31.196734334456487" lon="121.62280231579778">
        <ele>4.607790967449546</ele>
        <time>2020-07-12T22:56:19Z</time>
      </trkpt>
      <trkpt lat="31.196732058566575" lon="121.62289498756017">
        <ele>5.128521515056491</ele>
        <time>2020-07-12T22:56:26Z</time>
      </trkpt>
      <trkpt lat="31.196756797178313" lon="121.62307274062913">
        <ele>5.598478095605969</ele>
        <time>2020-07-12T22:56:39Z</time>
      </trkpt>
      <trkpt lat="31.19675132570843" lon="121.62334750052005">
        <ele>5.318381269462407</ele>
        <time>2020-07-12T22:56:56Z</time>
      </trkpt>
      <trkpt lat="31.196795945402492" lon="121.62344775352759">
        <ele>5.673484903760254</ele>
        <time>2020-07-12T22:57:04Z</time>
      </trkpt>
      <trkpt lat="31.1968375408584" lon="121.62381300653655">
        <ele>5.953840513713658</ele>
        <time>2020-07-12T22:57:27Z</time>
      </trkpt>
      <trkpt lat="31.19688131509432" lon="121.62393899900817">
        <ele>6.5985637260600924</ele>
        <time>2020-07-12T22:57:35Z</time>
      </trkpt>
      <trkpt lat="31.196924666207337" lon="121.62396446552809">
        <ele>5.741426281630993</ele>
        <time>2020-07-12T22:57:39Z</time>
      </trkpt>
      <trkpt lat="31.196904306958945" lon="121.62352605291501">
        <ele>6.339966272003949</ele>
        <time>2020-07-12T22:58:00Z</time>
      </trkpt>
      <trkpt lat="31.19691200709335" lon="121.62343365381169">
        <ele>5.425000929273665</ele>
        <time>2020-07-12T22:58:03Z</time>
      </trkpt>
      <trkpt lat="31.19688666885006" lon="121.62330684460403">
        <ele>5.897870967164636</ele>
        <time>2020-07-12T22:58:07Z</time>
      </trkpt>
      <trkpt lat="31.196887615859623" lon="121.62319222610938">
        <ele>4.450952312909067</ele>
        <time>2020-07-12T22:58:11Z</time>
      </trkpt>
      <trkpt lat="31.19680825814716" lon="121.62311961366872">
        <ele>3.7205567564815283</ele>
        <time>2020-07-12T22:58:14Z</time>
      </trkpt>
      <trkpt lat="31.196813547619776" lon="121.62300065853995">
        <ele>8.884256028570235</ele>
        <time>2020-07-12T22:58:18Z</time>
      </trkpt>
      <trkpt lat="31.196667445189224" lon="121.62296734154866">
        <ele>4.937367192469537</ele>
        <time>2020-07-12T22:58:21Z</time>
      </trkpt>
      <trkpt lat="31.196733455809213" lon="121.62285894853669">
        <ele>5.227582370862365</ele>
        <time>2020-07-12T22:58:24Z</time>
      </trkpt>
      <trkpt lat="31.196900092419426" lon="121.62271938513842">
        <ele>5.266870982013643</ele>
        <time>2020-07-12T22:58:31Z</time>
      </trkpt>
      <trkpt lat="31.19692406064159" lon="121.62262481417767">
        <ele>4.770750306546688</ele>
        <time>2020-07-12T22:58:35Z</time>
      </trkpt>
      <trkpt lat="31.197087439208453" lon="121.62248823054581">
        <ele>5.289700765162706</ele>
        <time>2020-07-12T22:58:42Z</time>
      </trkpt>
      <trkpt lat="31.19727762460862" lon="121.62238226410473">
        <ele>4.367474539205432</ele>
        <time>2020-07-12T22:58:50Z</time>
      </trkpt>
      <trkpt lat="31.19750721552468" lon="121.62219554323653">
        <ele>5.916084855794907</ele>
        <time>2020-07-12T22:59:00Z</time>
      </trkpt>
      <trkpt lat="31.197580484125154" lon="121.62214025799636">
        <ele>5.776839421130717</ele>
        <time>2020-07-12T22:59:03Z</time>
      </trkpt>
      <trkpt lat="31.197708260296277" lon="121.62207629685949">
        <ele>5.5505909994244576</ele>
        <time>2020-07-12T22:59:07Z</time>
      </trkpt>
      <trkpt lat="31.197946260942917" lon="121.62188388260071">
        <ele>6.603697653859854</ele>
        <time>2020-07-12T22:59:17Z</time>
      </trkpt>
      <trkpt lat="31.198151382465337" lon="121.62175487919845">
        <ele>6.122331205755472</ele>
        <time>2020-07-12T22:59:27Z</time>
      </trkpt>
      <trkpt lat="31.198286594305486" lon="121.62158685954051">
        <ele>6.254423055797815</ele>
        <time>2020-07-12T22:59:34Z</time>
      </trkpt>
      <trkpt lat="31.198367709390077" lon="121.62154539250993">
        <ele>7.019086796790361</ele>
        <time>2020-07-12T22:59:37Z</time>
      </trkpt>
      <trkpt lat="31.198507533252403" lon="121.62137384834641">
        <ele>6.668595330789685</ele>
        <time>2020-07-12T22:59:45Z</time>
      </trkpt>
      <trkpt lat="31.198676118075415" lon="121.62118251869028">
        <ele>6.096665132790804</ele>
        <time>2020-07-12T22:59:55Z</time>
      </trkpt>
      <trkpt lat="31.19866724167743" lon="121.62111775359546">
        <ele>3.966392529197037</ele>
        <time>2020-07-12T22:59:59Z</time>
      </trkpt>
      <trkpt lat="31.19885036651979" lon="121.62101774402373">
        <ele>5.07245456147939</ele>
        <time>2020-07-12T23:00:09Z</time>
      </trkpt>
      <trkpt lat="31.199071549121754" lon="121.62082640742697">
        <ele>6.240466451272368</ele>
        <time>2020-07-12T23:00:27Z</time>
      </trkpt>
      <trkpt lat="31.199116662850493" lon="121.62072911807687">
        <ele>5.555535697378218</ele>
        <time>2020-07-12T23:00:34Z</time>
      </trkpt>
      <trkpt lat="31.19923906702794" lon="121.62061556243879">
        <ele>6.5683074882254004</ele>
        <time>2020-07-12T23:00:42Z</time>
      </trkpt>
      <trkpt lat="31.199353215668694" lon="121.6206144690241">
        <ele>6.402835227549076</ele>
        <time>2020-07-12T23:00:49Z</time>
      </trkpt>
      <trkpt lat="31.19945021996836" lon="121.62067164030314">
        <ele>6.670841328799725</ele>
        <time>2020-07-12T23:00:56Z</time>
      </trkpt>
      <trkpt lat="31.199622911651087" lon="121.62069086641472">
        <ele>6.657252972014248</ele>
        <time>2020-07-12T23:01:07Z</time>
      </trkpt>
      <trkpt lat="31.199727042424286" lon="121.62067676623737">
        <ele>6.244269468821585</ele>
        <time>2020-07-12T23:01:14Z</time>
      </trkpt>
      <trkpt lat="31.199966377452796" lon="121.62074747514929">
        <ele>5.790071016177535</ele>
        <time>2020-07-12T23:01:31Z</time>
      </trkpt>
      <trkpt lat="31.200016005592914" lon="121.62073771536872">
        <ele>5.554998520761728</ele>
        <time>2020-07-12T23:01:35Z</time>
      </trkpt>
      <trkpt lat="31.2000992041903" lon="121.62077429224155">
        <ele>5.292683683335781</ele>
        <time>2020-07-12T23:01:41Z</time>
      </trkpt>
      <trkpt lat="31.200171589709967" lon="121.62078106101576">
        <ele>6.389623962342739</ele>
        <time>2020-07-12T23:01:45Z</time>
      </trkpt>
      <trkpt lat="31.200254854973373" lon="121.62075612298396">
        <ele>6.1628319742158055</ele>
        <time>2020-07-12T23:01:49Z</time>
      </trkpt>
      <trkpt lat="31.20035434542639" lon="121.62077074824968">
        <ele>5.389704683795571</ele>
        <time>2020-07-12T23:01:53Z</time>
      </trkpt>
      <trkpt lat="31.200430467742603" lon="121.62083198576411">
        <ele>6.175006804987788</ele>
        <time>2020-07-12T23:01:56Z</time>
      </trkpt>
      <trkpt lat="31.20078991952765" lon="121.620898619475">
        <ele>4.902888375334442</ele>
        <time>2020-07-12T23:02:08Z</time>
      </trkpt>
      <trkpt lat="31.200961790767774" lon="121.62092434922415">
        <ele>5.686726899817586</ele>
        <time>2020-07-12T23:02:14Z</time>
      </trkpt>
      <trkpt lat="31.20104471511115" lon="121.62096363574473">
        <ele>4.234430589713156</ele>
        <time>2020-07-12T23:02:17Z</time>
      </trkpt>
      <trkpt lat="31.201158582160875" lon="121.62097229795657">
        <ele>4.979695525020361</ele>
        <time>2020-07-12T23:02:21Z</time>
      </trkpt>
      <trkpt lat="31.201266991624745" lon="121.62101293723676">
        <ele>5.302355632185936</ele>
        <time>2020-07-12T23:02:25Z</time>
      </trkpt>
      <trkpt lat="31.201357560340828" lon="121.62100398713133">
        <ele>6.075534591451287</ele>
        <time>2020-07-12T23:02:28Z</time>
      </trkpt>
      <trkpt lat="31.201468708071072" lon="121.62101996623343">
        <ele>5.649238578043878</ele>
        <time>2020-07-12T23:02:32Z</time>
      </trkpt>
      <trkpt lat="31.20157662735007" lon="121.62101291161146">
        <ele>4.285357899032533</ele>
        <time>2020-07-12T23:02:36Z</time>
      </trkpt>
      <trkpt lat="31.201782887070046" lon="121.62108037050037">
        <ele>5.741724632680416</ele>
        <time>2020-07-12T23:02:47Z</time>
      </trkpt>
      <trkpt lat="31.201987030745997" lon="121.62109932271896">
        <ele>6.3486206298694015</ele>
        <time>2020-07-12T23:03:01Z</time>
      </trkpt>
      <trkpt lat="31.202088129274863" lon="121.62113101984013">
        <ele>6.326400086283684</ele>
        <time>2020-07-12T23:03:08Z</time>
      </trkpt>
      <trkpt lat="31.20228932167699" lon="121.62112151864505">
        <ele>5.4013703763484955</ele>
        <time>2020-07-12T23:03:18Z</time>
      </trkpt>
      <trkpt lat="31.20246634004209" lon="121.62115131254892">
        <ele>5.738559709861875</ele>
        <time>2020-07-12T23:03:29Z</time>
      </trkpt>
      <trkpt lat="31.20252839364822" lon="121.62118436777045">
        <ele>5.778835266828537</ele>
        <time>2020-07-12T23:03:35Z</time>
      </trkpt>
      <trkpt lat="31.202483438473024" lon="121.62113586488701">
        <ele>4.809098579920828</ele>
        <time>2020-07-12T23:03:54Z</time>
      </trkpt>
      <trkpt lat="31.202447197777357" lon="121.62105240379958">
        <ele>4.014150684699416</ele>
        <time>2020-07-12T23:04:15Z</time>
      </trkpt>
      <trkpt lat="31.20242031288337" lon="121.62084266068767">
        <ele>5.961096384562552</ele>
        <time>2020-07-12T23:04:22Z</time>
      </trkpt>
      <trkpt lat="31.202392191610397" lon="121.62077193455787">
        <ele>4.764046683907509</ele>
        <time>2020-07-12T23:04:26Z</time>
      </trkpt>
      <trkpt lat="31.20242734204717" lon="121.62061096272296">
        <ele>5.360755071043968</ele>
        <time>2020-07-12T23:04:30Z</time>
      </trkpt>
      <trkpt lat="31.202429481138" lon="121.62038657996156">
        <ele>5.428831494413316</ele>
        <time>2020-07-12T23:04:37Z</time>
      </trkpt>
      <trkpt lat="31.202427383376232" lon="121.62031991537131">
        <ele>4.868831806816161</ele>
        <time>2020-07-12T23:05:00Z</time>
      </trkpt>
      <trkpt lat="31.202427383376232" lon="121.62031991537131">
        <ele>4.868831806816161</ele>
        <time>2020-07-12T23:05:12Z</time>
      </trkpt>
      <trkpt lat="31.202458499820377" lon="121.62037980269355">
        <ele>5.524778437800705</ele>
        <time>2020-07-12T23:05:18Z</time>
      </trkpt>
      <trkpt lat="31.202446030519038" lon="121.62037709377833">
        <ele>4.825946799479425</ele>
        <time>2020-07-12T23:05:25Z</time>
      </trkpt>
      <trkpt lat="31.202448737225126" lon="121.6203814294696">
        <ele>4.303848495706916</ele>
        <time>2020-07-12T23:05:27Z</time>
      </trkpt>
      <trkpt lat="31.202707969715192" lon="121.62035566350932">
        <ele>4.488937600515783</ele>
        <time>2020-07-12T23:05:36Z</time>
      </trkpt>
      <trkpt lat="31.202891610873618" lon="121.62027814364114">
        <ele>2.3528874590992928</ele>
        <time>2020-07-12T23:05:43Z</time>
      </trkpt>
      <trkpt lat="31.202883857394532" lon="121.62017543668755">
        <ele>4.163902347907424</ele>
        <time>2020-07-12T23:05:47Z</time>
      </trkpt>
      <trkpt lat="31.202787358962773" lon="121.61989523243261">
        <ele>4.983752895146608</ele>
        <time>2020-07-12T23:05:57Z</time>
      </trkpt>
      <trkpt lat="31.202781239211028" lon="121.61978466479637">
        <ele>5.0263728043064475</ele>
        <time>2020-07-12T23:06:00Z</time>
      </trkpt>
      <trkpt lat="31.202682042053933" lon="121.61948873828405">
        <ele>4.841924578882754</ele>
        <time>2020-07-12T23:06:11Z</time>
      </trkpt>
      <trkpt lat="31.202591533283968" lon="121.61917817324176">
        <ele>5.569997147656977</ele>
        <time>2020-07-12T23:06:21Z</time>
      </trkpt>
      <trkpt lat="31.202571013685695" lon="121.61909389151526">
        <ele>5.968342836014926</ele>
        <time>2020-07-12T23:06:24Z</time>
      </trkpt>
      <trkpt lat="31.202571965887376" lon="121.61895838695393">
        <ele>5.917222893796861</ele>
        <time>2020-07-12T23:06:28Z</time>
      </trkpt>
      <trkpt lat="31.202518658760077" lon="121.61885405242059">
        <ele>5.323416678234935</ele>
        <time>2020-07-12T23:06:32Z</time>
      </trkpt>
      <trkpt lat="31.20252797460707" lon="121.61875838465662">
        <ele>5.023900358006358</ele>
        <time>2020-07-12T23:06:35Z</time>
      </trkpt>
      <trkpt lat="31.202602619104432" lon="121.6186770748032">
        <ele>6.320804339833558</ele>
        <time>2020-07-12T23:06:39Z</time>
      </trkpt>
      <trkpt lat="31.20284083994936" lon="121.61851417594036">
        <ele>5.375020165927708</ele>
        <time>2020-07-12T23:06:50Z</time>
      </trkpt>
      <trkpt lat="31.2028615309139" lon="121.6184298885969">
        <ele>6.078140439465642</ele>
        <time>2020-07-12T23:06:53Z</time>
      </trkpt>
      <trkpt lat="31.202829945691406" lon="121.61829248605507">
        <ele>5.172864560037851</ele>
        <time>2020-07-12T23:06:59Z</time>
      </trkpt>
      <trkpt lat="31.202787157756486" lon="121.61824099634562">
        <ele>4.656705400906503</ele>
        <time>2020-07-12T23:07:03Z</time>
      </trkpt>
      <trkpt lat="31.202774741694494" lon="121.6181846256946">
        <ele>5.575827951543033</ele>
        <time>2020-07-12T23:07:07Z</time>
      </trkpt>
      <trkpt lat="31.202733018989328" lon="121.61815237798508">
        <ele>4.433609907515347</ele>
        <time>2020-07-12T23:07:10Z</time>
      </trkpt>
      <trkpt lat="31.202675901492874" lon="121.61805969426824">
        <ele>4.571818748489022</ele>
        <time>2020-07-12T23:07:14Z</time>
      </trkpt>
      <trkpt lat="31.20253938558572" lon="121.61764558458519">
        <ele>4.113649578765035</ele>
        <time>2020-07-12T23:07:25Z</time>
      </trkpt>
      <trkpt lat="31.202461667050194" lon="121.61754585404519">
        <ele>5.192496025934815</ele>
        <time>2020-07-12T23:07:29Z</time>
      </trkpt>
      <trkpt lat="31.202440322144966" lon="121.61746888461559">
        <ele>6.6043965527787805</ele>
        <time>2020-07-12T23:07:33Z</time>
      </trkpt>
      <trkpt lat="31.20243229616312" lon="121.61735722241727">
        <ele>5.7664320366457105</ele>
        <time>2020-07-12T23:07:40Z</time>
      </trkpt>
      <trkpt lat="31.202459475265165" lon="121.6172891923051">
        <ele>5.9708324912935495</ele>
        <time>2020-07-12T23:07:44Z</time>
      </trkpt>
      <trkpt lat="31.20255934333606" lon="121.6171951372473">
        <ele>5.932940332219005</ele>
        <time>2020-07-12T23:07:55Z</time>
      </trkpt>
      <trkpt lat="31.202591928390753" lon="121.61714418109496">
        <ele>4.864951846189797</ele>
        <time>2020-07-12T23:07:59Z</time>
      </trkpt>
      <trkpt lat="31.20285593463111" lon="121.61694305469382">
        <ele>6.186273113824427</ele>
        <time>2020-07-12T23:08:22Z</time>
      </trkpt>
      <trkpt lat="31.203020351723584" lon="121.61682785243184">
        <ele>5.725346983410418</ele>
        <time>2020-07-12T23:08:37Z</time>
      </trkpt>
      <trkpt lat="31.203052412290212" lon="121.61675738115653">
        <ele>5.259235294535756</ele>
        <time>2020-07-12T23:08:41Z</time>
      </trkpt>
      <trkpt lat="31.20320621382558" lon="121.61668527340323">
        <ele>6.469951919279993</ele>
        <time>2020-07-12T23:08:52Z</time>
      </trkpt>
      <trkpt lat="31.203352223707668" lon="121.61653700508904">
        <ele>6.124668976292014</ele>
        <time>2020-07-12T23:09:05Z</time>
      </trkpt>
      <trkpt lat="31.203629227132364" lon="121.61634996663209">
        <ele>6.585130193270743</ele>
        <time>2020-07-12T23:09:29Z</time>
      </trkpt>
      <trkpt lat="31.20371713431007" lon="121.6162859942959">
        <ele>6.750470994971693</ele>
        <time>2020-07-12T23:09:36Z</time>
      </trkpt>
      <trkpt lat="31.203828333629577" lon="121.61624939483737">
        <ele>6.860716152004898</ele>
        <time>2020-07-12T23:09:44Z</time>
      </trkpt>
      <trkpt lat="31.203990651018866" lon="121.6160558586756">
        <ele>7.187925633043051</ele>
        <time>2020-07-12T23:09:59Z</time>
      </trkpt>
      <trkpt lat="31.204246418314803" lon="121.61596124391511">
        <ele>6.854284022934735</ele>
        <time>2020-07-12T23:10:20Z</time>
      </trkpt>
      <trkpt lat="31.204259076130487" lon="121.61605448126654">
        <ele>5.963578389957547</ele>
        <time>2020-07-12T23:10:27Z</time>
      </trkpt>
      <trkpt lat="31.20436848061524" lon="121.61620002098012">
        <ele>4.671059164218605</ele>
        <time>2020-07-12T23:10:38Z</time>
      </trkpt>
      <trkpt lat="31.204553810294005" lon="121.61633688032386">
        <ele>5.351614971645176</ele>
        <time>2020-07-12T23:10:55Z</time>
      </trkpt>
      <trkpt lat="31.204603150372588" lon="121.6163439232347">
        <ele>5.636586653999984</ele>
        <time>2020-07-12T23:11:02Z</time>
      </trkpt>
      <trkpt lat="31.204391083102713" lon="121.61609350026885">
        <ele>6.021313518285751</ele>
        <time>2020-07-12T23:11:23Z</time>
      </trkpt>
      <trkpt lat="31.204331470240483" lon="121.61605339111317">
        <ele>7.817959813401103</ele>
        <time>2020-07-12T23:11:27Z</time>
      </trkpt>
      <trkpt lat="31.20412969193463" lon="121.61581570337827">
        <ele>7.895052069798112</ele>
        <time>2020-07-12T23:11:50Z</time>
      </trkpt>
      <trkpt lat="31.203902969869038" lon="121.61557503386354">
        <ele>6.6855064984411</ele>
        <time>2020-07-12T23:12:11Z</time>
      </trkpt>
      <trkpt lat="31.203709308729742" lon="121.61535170637318">
        <ele>8.57486700359732</ele>
        <time>2020-07-12T23:12:31Z</time>
      </trkpt>
      <trkpt lat="31.203588174461157" lon="121.61528097244648">
        <ele>6.322352716699243</ele>
        <time>2020-07-12T23:12:42Z</time>
      </trkpt>
      <trkpt lat="31.2036167227184" lon="121.61519206552262">
        <ele>8.00342140160501</ele>
        <time>2020-07-12T23:12:49Z</time>
      </trkpt>
      <trkpt lat="31.203865056124823" lon="121.61491475821555">
        <ele>6.080246055498719</ele>
        <time>2020-07-12T23:13:03Z</time>
      </trkpt>
      <trkpt lat="31.203941871892763" lon="121.61481825639974">
        <ele>5.996047536842525</ele>
        <time>2020-07-12T23:13:07Z</time>
      </trkpt>
      <trkpt lat="31.20401864929894" lon="121.61476539422446">
        <ele>6.845557460561395</ele>
        <time>2020-07-12T23:13:10Z</time>
      </trkpt>
      <trkpt lat="31.20425097609359" lon="121.61449431765831">
        <ele>8.677726817317307</ele>
        <time>2020-07-12T23:13:20Z</time>
      </trkpt>
      <trkpt lat="31.204320166930508" lon="121.61443467890555">
        <ele>6.180855101905763</ele>
        <time>2020-07-12T23:13:23Z</time>
      </trkpt>
      <trkpt lat="31.204373954014077" lon="121.61431540794808">
        <ele>7.515761484391987</ele>
        <time>2020-07-12T23:13:27Z</time>
      </trkpt>
      <trkpt lat="31.20457636443461" lon="121.61414706177713">
        <ele>8.600559584796429</ele>
        <time>2020-07-12T23:13:34Z</time>
      </trkpt>
      <trkpt lat="31.20483821727826" lon="121.61390172697662">
        <ele>8.324781606905162</ele>
        <time>2020-07-12T23:13:45Z</time>
      </trkpt>
      <trkpt lat="31.20501867565503" lon="121.61371847096166">
        <ele>7.465976465493441</ele>
        <time>2020-07-12T23:13:52Z</time>
      </trkpt>
      <trkpt lat="31.205308185643965" lon="121.61346689480239">
        <ele>7.778037594631314</ele>
        <time>2020-07-12T23:14:04Z</time>
      </trkpt>
      <trkpt lat="31.20537846304212" lon="121.61340210301678">
        <ele>7.6836661184206605</ele>
        <time>2020-07-12T23:14:07Z</time>
      </trkpt>
      <trkpt lat="31.20550551983804" lon="121.6131998723791">
        <ele>6.3853161707520485</ele>
        <time>2020-07-12T23:14:14Z</time>
      </trkpt>
      <trkpt lat="31.205560880625292" lon="121.61313941828162">
        <ele>7.896364602260292</ele>
        <time>2020-07-12T23:14:17Z</time>
      </trkpt>
      <trkpt lat="31.20543606077221" lon="121.61292446559403">
        <ele>8.125015683472157</ele>
        <time>2020-07-12T23:14:24Z</time>
      </trkpt>
      <trkpt lat="31.20537372507539" lon="121.6128927547274">
        <ele>6.867378934286535</ele>
        <time>2020-07-12T23:14:27Z</time>
      </trkpt>
      <trkpt lat="31.20536890153456" lon="121.61282173276896">
        <ele>8.78173505794257</ele>
        <time>2020-07-12T23:14:31Z</time>
      </trkpt>
      <trkpt lat="31.20558167071846" lon="121.61257150873608">
        <ele>7.621224244125187</ele>
        <time>2020-07-12T23:15:15Z</time>
      </trkpt>
      <trkpt lat="31.205651668195898" lon="121.61251511802735">
        <ele>7.83245765697211</ele>
        <time>2020-07-12T23:15:19Z</time>
      </trkpt>
      <trkpt lat="31.205897546609528" lon="121.61222178546811">
        <ele>7.559600041247904</ele>
        <time>2020-07-12T23:15:33Z</time>
      </trkpt>
      <trkpt lat="31.206110041571147" lon="121.61196830193809">
        <ele>7.548826131038368</ele>
        <time>2020-07-12T23:15:43Z</time>
      </trkpt>
      <trkpt lat="31.206349095153243" lon="121.61172836798022">
        <ele>7.676234592683613</ele>
        <time>2020-07-12T23:15:54Z</time>
      </trkpt>
      <trkpt lat="31.20642615965833" lon="121.61164649201315">
        <ele>8.162901423871517</ele>
        <time>2020-07-12T23:15:58Z</time>
      </trkpt>
      <trkpt lat="31.20648886676056" lon="121.61154726699483">
        <ele>8.68219798244536</ele>
        <time>2020-07-12T23:16:02Z</time>
      </trkpt>
      <trkpt lat="31.206429847514276" lon="121.61142934610538">
        <ele>7.353140614926815</ele>
        <time>2020-07-12T23:16:09Z</time>
      </trkpt>
      <trkpt lat="31.206336589776328" lon="121.61141200376655">
        <ele>6.183735336177051</ele>
        <time>2020-07-12T23:16:13Z</time>
      </trkpt>
      <trkpt lat="31.20617128996233" lon="121.6112870424713">
        <ele>7.539968972094357</ele>
        <time>2020-07-12T23:16:21Z</time>
      </trkpt>
      <trkpt lat="31.206113612043413" lon="121.61118701256015">
        <ele>7.508912522345781</ele>
        <time>2020-07-12T23:16:25Z</time>
      </trkpt>
      <trkpt lat="31.20605344609801" lon="121.61115150376249">
        <ele>6.808780420571566</ele>
        <time>2020-07-12T23:16:28Z</time>
      </trkpt>
      <trkpt lat="31.205989261401914" lon="121.61105011830209">
        <ele>7.197397504001856</ele>
        <time>2020-07-12T23:16:32Z</time>
      </trkpt>
      <trkpt lat="31.205844034582356" lon="121.61091051394399">
        <ele>7.869001321494579</ele>
        <time>2020-07-12T23:16:39Z</time>
      </trkpt>
      <trkpt lat="31.205778781851038" lon="121.61078499943099">
        <ele>5.626013728789985</ele>
        <time>2020-07-12T23:16:43Z</time>
      </trkpt>
      <trkpt lat="31.205742005722936" lon="121.61064836662375">
        <ele>7.616505476646125</ele>
        <time>2020-07-12T23:16:47Z</time>
      </trkpt>
    </trkseg>
  </trk>
</gpx>