<?xml version="1.0" encoding="UTF-8"?>
<gpx xmlns="http://www.topografix.com/GPX/1/1" xmlns:gpxtpx="http://www.garmin.com/xmlschemas/TrackPointExtension/v1" xmlns:xsi="http://www.w3.org/2001/XMLSchema-instance" xsi:schemaLocation="http://www.topografix.com/GPX/1/1 http://www.topografix.com/GPX/1/1/gpx.xsd" version="1.1" creator="gpx.py -- https://github.com/tkrajina/gpxpy">
  <trk>
    <name>gpx from keep</name>
    <type>Run</type>
    <trkseg>
      <trkpt lat="31.204483020659588" lon="121.61079188410326">
        <ele>12.158436840963386</ele>
        <time>2019-10-16T13:42:09Z</time>
      </trkpt>
      <trkpt lat="31.204475307494384" lon="121.61095915404957">
        <ele>11.923912647966853</ele>
        <time>2019-10-16T13:42:12Z</time>
      </trkpt>
      <trkpt lat="31.204422624605723" lon="121.61107220682213">
        <ele>11.324634316860648</ele>
        <time>2019-10-16T13:42:16Z</time>
      </trkpt>
      <trkpt lat="31.20426258565439" lon="121.61116629109128">
        <ele>10.714684495549058</ele>
        <time>2019-10-16T13:42:24Z</time>
      </trkpt>
      <trkpt lat="31.204120652905402" lon="121.61134061787777">
        <ele>10.803520982456275</ele>
        <time>2019-10-16T13:42:31Z</time>
      </trkpt>
      <trkpt lat="31.20413303089236" lon="121.6114669469975">
        <ele>10.736437747089646</ele>
        <time>2019-10-16T13:42:35Z</time>
      </trkpt>
      <trkpt lat="31.20412294034561" lon="121.6115450227657">
        <ele>10.721921570802241</ele>
        <time>2019-10-16T13:42:39Z</time>
      </trkpt>
      <trkpt lat="31.204321475328396" lon="121.61181880871331">
        <ele>10.724256947280164</ele>
        <time>2019-10-16T13:42:50Z</time>
      </trkpt>
      <trkpt lat="31.204388659978772" lon="121.611893352743">
        <ele>10.75955720446585</ele>
        <time>2019-10-16T13:42:53Z</time>
      </trkpt>
      <trkpt lat="31.204469414287782" lon="121.61195081685425">
        <ele>10.737149596300865</ele>
        <time>2019-10-16T13:42:56Z</time>
      </trkpt>
      <trkpt lat="31.20472541335763" lon="121.612240587248">
        <ele>10.508581193315274</ele>
        <time>2019-10-16T13:43:08Z</time>
      </trkpt>
      <trkpt lat="31.20482862246157" lon="121.61236039792537">
        <ele>10.776081662775091</ele>
        <time>2019-10-16T13:43:14Z</time>
      </trkpt>
      <trkpt lat="31.204892487362194" lon="121.61251707837184">
        <ele>10.689856200491983</ele>
        <time>2019-10-16T13:43:21Z</time>
      </trkpt>
      <trkpt lat="31.205072867290042" lon="121.61276455969539">
        <ele>10.390976964383997</ele>
        <time>2019-10-16T13:43:33Z</time>
      </trkpt>
      <trkpt lat="31.205197249995617" lon="121.61285021014685">
        <ele>10.45533488979591</ele>
        <time>2019-10-16T13:43:40Z</time>
      </trkpt>
      <trkpt lat="31.205193673705086" lon="121.61291445578846">
        <ele>10.657979342987092</ele>
        <time>2019-10-16T13:43:44Z</time>
      </trkpt>
      <trkpt lat="31.205065630357712" lon="121.61299822903025">
        <ele>10.916123114480527</ele>
        <time>2019-10-16T13:43:51Z</time>
      </trkpt>
      <trkpt lat="31.204996163197546" lon="121.61306817229466">
        <ele>10.990776568604538</ele>
        <time>2019-10-16T13:43:55Z</time>
      </trkpt>
      <trkpt lat="31.204873166512996" lon="121.6132801623558">
        <ele>11.04737341285261</ele>
        <time>2019-10-16T13:44:03Z</time>
      </trkpt>
      <trkpt lat="31.204800164531388" lon="121.61336149009274">
        <ele>11.101191948429232</ele>
        <time>2019-10-16T13:44:07Z</time>
      </trkpt>
      <trkpt lat="31.204691679907853" lon="121.61339863587963">
        <ele>11.148435918688891</ele>
        <time>2019-10-16T13:44:10Z</time>
      </trkpt>
      <trkpt lat="31.204607803982075" lon="121.61351411896423">
        <ele>11.17005830908993</ele>
        <time>2019-10-16T13:44:14Z</time>
      </trkpt>
      <trkpt lat="31.20446987056176" lon="121.61375104445273">
        <ele>11.332004435410855</ele>
        <time>2019-10-16T13:44:24Z</time>
      </trkpt>
      <trkpt lat="31.204226240269985" lon="121.61393105265647">
        <ele>11.171100566442284</ele>
        <time>2019-10-16T13:44:36Z</time>
      </trkpt>
      <trkpt lat="31.203953032781413" lon="121.61413735505958">
        <ele>11.00920627421785</ele>
        <time>2019-10-16T13:44:48Z</time>
      </trkpt>
      <trkpt lat="31.203871073872797" lon="121.61422681244579">
        <ele>10.992540023185628</ele>
        <time>2019-10-16T13:44:52Z</time>
      </trkpt>
      <trkpt lat="31.203755406060026" lon="121.61441873309008">
        <ele>11.078023395418606</ele>
        <time>2019-10-16T13:45:00Z</time>
      </trkpt>
      <trkpt lat="31.20351797679939" lon="121.61463424425487">
        <ele>10.697771294841434</ele>
        <time>2019-10-16T13:45:12Z</time>
      </trkpt>
      <trkpt lat="31.20351844771339" lon="121.61471637443806">
        <ele>10.455826757570271</ele>
        <time>2019-10-16T13:45:16Z</time>
      </trkpt>
      <trkpt lat="31.203349042687837" lon="121.6149641326908">
        <ele>10.255107774841584</ele>
        <time>2019-10-16T13:45:28Z</time>
      </trkpt>
      <trkpt lat="31.203362525415418" lon="121.61504815803515">
        <ele>10.190656762678387</ele>
        <time>2019-10-16T13:45:32Z</time>
      </trkpt>
      <trkpt lat="31.203506277410753" lon="121.61529697116421">
        <ele>10.036322410038894</ele>
        <time>2019-10-16T13:45:43Z</time>
      </trkpt>
      <trkpt lat="31.20350541561791" lon="121.61535118113778">
        <ele>10.011122287737875</ele>
        <time>2019-10-16T13:45:46Z</time>
      </trkpt>
      <trkpt lat="31.20342728556281" lon="121.6153994343101">
        <ele>9.892137213674026</ele>
        <time>2019-10-16T13:45:50Z</time>
      </trkpt>
      <trkpt lat="31.20326606423827" lon="121.61558538631247">
        <ele>9.81572739458496</ele>
        <time>2019-10-16T13:46:01Z</time>
      </trkpt>
      <trkpt lat="31.203056567824603" lon="121.61578435101134">
        <ele>10.064965567741725</ele>
        <time>2019-10-16T13:46:12Z</time>
      </trkpt>
      <trkpt lat="31.202973004954366" lon="121.61584290343245">
        <ele>10.059368406155576</ele>
        <time>2019-10-16T13:46:16Z</time>
      </trkpt>
      <trkpt lat="31.202754529385313" lon="121.61607439172005">
        <ele>9.664027822595257</ele>
        <time>2019-10-16T13:46:29Z</time>
      </trkpt>
      <trkpt lat="31.20249750796632" lon="121.61635195750672">
        <ele>8.956971313951618</ele>
        <time>2019-10-16T13:46:44Z</time>
      </trkpt>
      <trkpt lat="31.20224971412987" lon="121.61661705176908">
        <ele>9.348309524555537</ele>
        <time>2019-10-16T13:46:58Z</time>
      </trkpt>
      <trkpt lat="31.20203582920764" lon="121.61686154191013">
        <ele>9.146425414327751</ele>
        <time>2019-10-16T13:47:10Z</time>
      </trkpt>
      <trkpt lat="31.201745151875503" lon="121.61716783067777">
        <ele>8.864144883614147</ele>
        <time>2019-10-16T13:47:26Z</time>
      </trkpt>
      <trkpt lat="31.201679451886427" lon="121.61725673348083">
        <ele>8.910411098883026</ele>
        <time>2019-10-16T13:47:29Z</time>
      </trkpt>
      <trkpt lat="31.201554364235392" lon="121.61735485579726">
        <ele>8.780924723183944</ele>
        <time>2019-10-16T13:47:36Z</time>
      </trkpt>
      <trkpt lat="31.20139160587617" lon="121.61743509312394">
        <ele>8.789036899284568</ele>
        <time>2019-10-16T13:47:44Z</time>
      </trkpt>
      <trkpt lat="31.201331342762614" lon="121.61750854608101">
        <ele>8.905041854359606</ele>
        <time>2019-10-16T13:47:47Z</time>
      </trkpt>
      <trkpt lat="31.201262460361804" lon="121.61752318714231">
        <ele>9.001984116477873</ele>
        <time>2019-10-16T13:47:50Z</time>
      </trkpt>
      <trkpt lat="31.201187010057644" lon="121.61760016441212">
        <ele>9.039395929353457</ele>
        <time>2019-10-16T13:47:54Z</time>
      </trkpt>
      <trkpt lat="31.20107343922512" lon="121.61784192633635">
        <ele>9.18146722628681</ele>
        <time>2019-10-16T13:48:04Z</time>
      </trkpt>
      <trkpt lat="31.200860578137203" lon="121.61813708483861">
        <ele>8.588567455448159</ele>
        <time>2019-10-16T13:48:19Z</time>
      </trkpt>
      <trkpt lat="31.200631176192733" lon="121.61843088616261">
        <ele>8.499007870765995</ele>
        <time>2019-10-16T13:48:34Z</time>
      </trkpt>
      <trkpt lat="31.200389325188652" lon="121.61869893892246">
        <ele>8.763218439486128</ele>
        <time>2019-10-16T13:48:48Z</time>
      </trkpt>
      <trkpt lat="31.200152611649933" lon="121.61897837082097">
        <ele>7.906861006771351</ele>
        <time>2019-10-16T13:49:02Z</time>
      </trkpt>
      <trkpt lat="31.19999511809861" lon="121.61920792784848">
        <ele>8.50980571793566</ele>
        <time>2019-10-16T13:49:12Z</time>
      </trkpt>
      <trkpt lat="31.199745944175767" lon="121.61947136595022">
        <ele>9.065580765213312</ele>
        <time>2019-10-16T13:49:26Z</time>
      </trkpt>
      <trkpt lat="31.19952748641046" lon="121.61965810527306">
        <ele>9.124485330810579</ele>
        <time>2019-10-16T13:49:37Z</time>
      </trkpt>
      <trkpt lat="31.199466697878137" lon="121.61971014268725">
        <ele>9.195149841681411</ele>
        <time>2019-10-16T13:49:40Z</time>
      </trkpt>
      <trkpt lat="31.199368132452143" lon="121.61984700635193">
        <ele>9.219196217917023</ele>
        <time>2019-10-16T13:49:46Z</time>
      </trkpt>
      <trkpt lat="31.199159654923236" lon="121.6200803537956">
        <ele>8.837938091909246</ele>
        <time>2019-10-16T13:50:00Z</time>
      </trkpt>
      <trkpt lat="31.19912129630101" lon="121.6202014927208">
        <ele>8.812035578010777</ele>
        <time>2019-10-16T13:50:04Z</time>
      </trkpt>
      <trkpt lat="31.19902280097682" lon="121.62027060490469">
        <ele>8.834610117673181</ele>
        <time>2019-10-16T13:50:08Z</time>
      </trkpt>
      <trkpt lat="31.198780100419384" lon="121.62030395745492">
        <ele>9.079292210632296</ele>
        <time>2019-10-16T13:50:16Z</time>
      </trkpt>
      <trkpt lat="31.198669704562356" lon="121.62034542886848">
        <ele>9.568731778474422</ele>
        <time>2019-10-16T13:50:20Z</time>
      </trkpt>
      <trkpt lat="31.198622197517107" lon="121.62040017374622">
        <ele>9.833058656882573</ele>
        <time>2019-10-16T13:50:23Z</time>
      </trkpt>
      <trkpt lat="31.19855835304469" lon="121.62051941633631">
        <ele>10.321934155379422</ele>
        <time>2019-10-16T13:50:27Z</time>
      </trkpt>
      <trkpt lat="31.198311373133905" lon="121.62074923804553">
        <ele>10.139090814088698</ele>
        <time>2019-10-16T13:50:41Z</time>
      </trkpt>
      <trkpt lat="31.19807525280971" lon="121.62096442345513">
        <ele>10.228780334760083</ele>
        <time>2019-10-16T13:50:54Z</time>
      </trkpt>
      <trkpt lat="31.197956357328792" lon="121.62109152666336">
        <ele>9.997507019484548</ele>
        <time>2019-10-16T13:51:01Z</time>
      </trkpt>
      <trkpt lat="31.197883361168216" lon="121.62114735603672">
        <ele>9.782439735237517</ele>
        <time>2019-10-16T13:51:05Z</time>
      </trkpt>
      <trkpt lat="31.19784911620127" lon="121.62122215111162">
        <ele>9.620263829366152</ele>
        <time>2019-10-16T13:51:09Z</time>
      </trkpt>
      <trkpt lat="31.197584285940298" lon="121.62140698482958">
        <ele>9.531558334951402</ele>
        <time>2019-10-16T13:51:22Z</time>
      </trkpt>
      <trkpt lat="31.197309600309904" lon="121.6216758224249">
        <ele>8.752687539305665</ele>
        <time>2019-10-16T13:51:37Z</time>
      </trkpt>
      <trkpt lat="31.197077293397758" lon="121.62186959261179">
        <ele>8.737836186183277</ele>
        <time>2019-10-16T13:51:49Z</time>
      </trkpt>
      <trkpt lat="31.19695191287913" lon="121.62197365886736">
        <ele>8.822774395871589</ele>
        <time>2019-10-16T13:51:56Z</time>
      </trkpt>
      <trkpt lat="31.196881870145443" lon="121.62205387412769">
        <ele>8.682495686555388</ele>
        <time>2019-10-16T13:52:00Z</time>
      </trkpt>
      <trkpt lat="31.196687846261103" lon="121.62219859178508">
        <ele>8.503914881307551</ele>
        <time>2019-10-16T13:52:10Z</time>
      </trkpt>
      <trkpt lat="31.196658469908193" lon="121.62228151275869">
        <ele>8.411101705045388</ele>
        <time>2019-10-16T13:52:14Z</time>
      </trkpt>
      <trkpt lat="31.19674614327525" lon="121.62267170697612">
        <ele>8.505586893078755</ele>
        <time>2019-10-16T13:52:29Z</time>
      </trkpt>
      <trkpt lat="31.196806186842444" lon="121.62303534303078">
        <ele>8.64979090377673</ele>
        <time>2019-10-16T13:52:43Z</time>
      </trkpt>
      <trkpt lat="31.196870093619836" lon="121.62333773596346">
        <ele>8.816201722799466</ele>
        <time>2019-10-16T13:52:55Z</time>
      </trkpt>
      <trkpt lat="31.196906024695163" lon="121.62367914632105">
        <ele>9.084045204516302</ele>
        <time>2019-10-16T13:53:07Z</time>
      </trkpt>
      <trkpt lat="31.19693182569219" lon="121.62387179698084">
        <ele>9.024137852514379</ele>
        <time>2019-10-16T13:53:14Z</time>
      </trkpt>
      <trkpt lat="31.196971817039234" lon="121.62398668021103">
        <ele>8.937901487649881</ele>
        <time>2019-10-16T13:53:18Z</time>
      </trkpt>
      <trkpt lat="31.197007127850757" lon="121.6239332984592">
        <ele>8.964513993746031</ele>
        <time>2019-10-16T13:53:24Z</time>
      </trkpt>
      <trkpt lat="31.19696385661984" lon="121.623610859207">
        <ele>9.122107641501298</ele>
        <time>2019-10-16T13:53:35Z</time>
      </trkpt>
      <trkpt lat="31.196902679017857" lon="121.62329546274835">
        <ele>9.233672832223757</ele>
        <time>2019-10-16T13:53:46Z</time>
      </trkpt>
      <trkpt lat="31.196884067464197" lon="121.62321254885241">
        <ele>9.186548391698576</ele>
        <time>2019-10-16T13:53:50Z</time>
      </trkpt>
      <trkpt lat="31.196796700620645" lon="121.62303236317162">
        <ele>8.934530405551696</ele>
        <time>2019-10-16T13:53:57Z</time>
      </trkpt>
      <trkpt lat="31.196807998167777" lon="121.62287574246527">
        <ele>8.557102204121387</ele>
        <time>2019-10-16T13:54:05Z</time>
      </trkpt>
      <trkpt lat="31.196898942479443" lon="121.62277628904323">
        <ele>8.324260840506666</ele>
        <time>2019-10-16T13:54:12Z</time>
      </trkpt>
      <trkpt lat="31.197142139204118" lon="121.62254865295789">
        <ele>8.092894766196746</ele>
        <time>2019-10-16T13:54:25Z</time>
      </trkpt>
      <trkpt lat="31.197380125474638" lon="121.62237141665149">
        <ele>8.313254245023955</ele>
        <time>2019-10-16T13:54:36Z</time>
      </trkpt>
      <trkpt lat="31.197654508233764" lon="121.62213618722018">
        <ele>9.127537776000075</ele>
        <time>2019-10-16T13:54:51Z</time>
      </trkpt>
      <trkpt lat="31.19778449041771" lon="121.62203943761503">
        <ele>9.324020789737922</ele>
        <time>2019-10-16T13:54:57Z</time>
      </trkpt>
      <trkpt lat="31.197932982674956" lon="121.62187738019726">
        <ele>9.33917321412429</ele>
        <time>2019-10-16T13:55:08Z</time>
      </trkpt>
      <trkpt lat="31.19812668173342" lon="121.62177954046072">
        <ele>9.307582731557371</ele>
        <time>2019-10-16T13:55:19Z</time>
      </trkpt>
      <trkpt lat="31.198371506167327" lon="121.62154457924765">
        <ele>9.05492342328506</ele>
        <time>2019-10-16T13:55:33Z</time>
      </trkpt>
      <trkpt lat="31.198452166532558" lon="121.62142398500151">
        <ele>9.10795225079787</ele>
        <time>2019-10-16T13:55:39Z</time>
      </trkpt>
      <trkpt lat="31.19857350935055" lon="121.62129173447481">
        <ele>9.088077392139738</ele>
        <time>2019-10-16T13:55:46Z</time>
      </trkpt>
      <trkpt lat="31.19876102761219" lon="121.6211418636723">
        <ele>8.875930569944426</ele>
        <time>2019-10-16T13:55:54Z</time>
      </trkpt>
      <trkpt lat="31.19888608303354" lon="121.62108467504284">
        <ele>8.823523265419507</ele>
        <time>2019-10-16T13:56:00Z</time>
      </trkpt>
      <trkpt lat="31.19899361073277" lon="121.62093941649326">
        <ele>9.00846477302757</ele>
        <time>2019-10-16T13:56:08Z</time>
      </trkpt>
      <trkpt lat="31.199049068817306" lon="121.62080445908212">
        <ele>9.214053076278054</ele>
        <time>2019-10-16T13:56:15Z</time>
      </trkpt>
      <trkpt lat="31.199109328733496" lon="121.62074158427049">
        <ele>9.252802434575768</ele>
        <time>2019-10-16T13:56:18Z</time>
      </trkpt>
      <trkpt lat="31.199405163348022" lon="121.6207163576197">
        <ele>9.541222600799697</ele>
        <time>2019-10-16T13:56:37Z</time>
      </trkpt>
      <trkpt lat="31.19972829367843" lon="121.62077323897276">
        <ele>9.274321894585798</ele>
        <time>2019-10-16T13:56:56Z</time>
      </trkpt>
      <trkpt lat="31.19978797638865" lon="121.62074261207587">
        <ele>9.206221928276669</ele>
        <time>2019-10-16T13:57:03Z</time>
      </trkpt>
      <trkpt lat="31.20009265375789" lon="121.62081412837273">
        <ele>8.548526830220398</ele>
        <time>2019-10-16T13:57:21Z</time>
      </trkpt>
      <trkpt lat="31.200263695670767" lon="121.62085449172639">
        <ele>8.644378217724462</ele>
        <time>2019-10-16T13:57:29Z</time>
      </trkpt>
      <trkpt lat="31.200360241583503" lon="121.62083415949563">
        <ele>8.616894189064933</ele>
        <time>2019-10-16T13:57:32Z</time>
      </trkpt>
      <trkpt lat="31.20052694918672" lon="121.62087100031212">
        <ele>8.520359664853473</ele>
        <time>2019-10-16T13:57:40Z</time>
      </trkpt>
      <trkpt lat="31.200620161631193" lon="121.62092410650715">
        <ele>8.433568789352016</ele>
        <time>2019-10-16T13:57:44Z</time>
      </trkpt>
      <trkpt lat="31.200741891847084" lon="121.62093249709261">
        <ele>8.505079025293</ele>
        <time>2019-10-16T13:57:48Z</time>
      </trkpt>
      <trkpt lat="31.200899896764945" lon="121.62099345646378">
        <ele>8.482136050464733</ele>
        <time>2019-10-16T13:57:55Z</time>
      </trkpt>
      <trkpt lat="31.201264533653386" lon="121.62102919672334">
        <ele>8.235786032820078</ele>
        <time>2019-10-16T13:58:10Z</time>
      </trkpt>
      <trkpt lat="31.201541884513123" lon="121.62104732995749">
        <ele>8.568391618920506</ele>
        <time>2019-10-16T13:58:21Z</time>
      </trkpt>
      <trkpt lat="31.201872597350373" lon="121.6211126105613">
        <ele>8.085845553214615</ele>
        <time>2019-10-16T13:58:35Z</time>
      </trkpt>
      <trkpt lat="31.20218273213619" lon="121.62115214898151">
        <ele>8.228147570946277</ele>
        <time>2019-10-16T13:58:49Z</time>
      </trkpt>
      <trkpt lat="31.202332375950874" lon="121.62117273157745">
        <ele>8.013460803736088</ele>
        <time>2019-10-16T13:58:56Z</time>
      </trkpt>
      <trkpt lat="31.202495874418275" lon="121.62116892423452">
        <ele>8.112493674973926</ele>
        <time>2019-10-16T13:59:07Z</time>
      </trkpt>
      <trkpt lat="31.202487242974204" lon="121.62112800595187">
        <ele>8.221029769739642</ele>
        <time>2019-10-16T13:59:13Z</time>
      </trkpt>
      <trkpt lat="31.20246499476786" lon="121.62114182812384">
        <ele>8.40065213067039</ele>
        <time>2019-10-16T13:59:48Z</time>
      </trkpt>
      <trkpt lat="31.202448950582014" lon="121.62093696263003">
        <ele>8.094072041592044</ele>
        <time>2019-10-16T13:59:59Z</time>
      </trkpt>
      <trkpt lat="31.20246133539932" lon="121.62076786397589">
        <ele>7.950663627197777</ele>
        <time>2019-10-16T14:00:06Z</time>
      </trkpt>
      <trkpt lat="31.202404529186946" lon="121.62039362788582">
        <ele>7.70115490732023</ele>
        <time>2019-10-16T14:00:20Z</time>
      </trkpt>
      <trkpt lat="31.20247662666209" lon="121.62041638545193">
        <ele>7.448425904463248</ele>
        <time>2019-10-16T14:00:27Z</time>
      </trkpt>
      <trkpt lat="31.202523310333113" lon="121.62037112549837">
        <ele>7.628004383480933</ele>
        <time>2019-10-16T14:00:35Z</time>
      </trkpt>
      <trkpt lat="31.202505123986775" lon="121.62039009663164">
        <ele>7.950031324003168</ele>
        <time>2019-10-16T14:01:09Z</time>
      </trkpt>
      <trkpt lat="31.202699228392042" lon="121.62041636703033">
        <ele>7.873882497961061</ele>
        <time>2019-10-16T14:01:18Z</time>
      </trkpt>
      <trkpt lat="31.202857072747452" lon="121.62037543379387">
        <ele>7.60647013403716</ele>
        <time>2019-10-16T14:01:25Z</time>
      </trkpt>
      <trkpt lat="31.202898335409753" lon="121.6203285482465">
        <ele>7.7723773714649536</ele>
        <time>2019-10-16T14:01:28Z</time>
      </trkpt>
      <trkpt lat="31.202789647698555" lon="121.62003859072256">
        <ele>8.478928948209607</ele>
        <time>2019-10-16T14:01:45Z</time>
      </trkpt>
      <trkpt lat="31.202731665899382" lon="121.6197423927185">
        <ele>9.020841775962468</ele>
        <time>2019-10-16T14:02:04Z</time>
      </trkpt>
      <trkpt lat="31.202699039712343" lon="121.61956922495526">
        <ele>8.920896411202843</ele>
        <time>2019-10-16T14:02:14Z</time>
      </trkpt>
      <trkpt lat="31.202648444999618" lon="121.6194659767134">
        <ele>8.781324414217327</ele>
        <time>2019-10-16T14:02:21Z</time>
      </trkpt>
      <trkpt lat="31.202572642442448" lon="121.61909199432273">
        <ele>8.627182452392322</ele>
        <time>2019-10-16T14:02:42Z</time>
      </trkpt>
      <trkpt lat="31.202519128359246" lon="121.6189253281223">
        <ele>8.314705240967175</ele>
        <time>2019-10-16T14:02:53Z</time>
      </trkpt>
      <trkpt lat="31.20249407312089" lon="121.61876787287358">
        <ele>8.87847960688012</ele>
        <time>2019-10-16T14:03:04Z</time>
      </trkpt>
      <trkpt lat="31.202507965043395" lon="121.6187047259142">
        <ele>8.985932580370106</ele>
        <time>2019-10-16T14:03:08Z</time>
      </trkpt>
      <trkpt lat="31.202587459407134" lon="121.6186534979421">
        <ele>9.075026414274072</ele>
        <time>2019-10-16T14:03:15Z</time>
      </trkpt>
      <trkpt lat="31.202709755215892" lon="121.6186396661598">
        <ele>9.089405671487068</ele>
        <time>2019-10-16T14:03:23Z</time>
      </trkpt>
      <trkpt lat="31.202765093572552" lon="121.61861310228414">
        <ele>9.059538005786274</ele>
        <time>2019-10-16T14:03:26Z</time>
      </trkpt>
      <trkpt lat="31.202845714649207" lon="121.61851986683966">
        <ele>8.799366294883434</ele>
        <time>2019-10-16T14:03:30Z</time>
      </trkpt>
      <trkpt lat="31.202861038916502" lon="121.61837975074882">
        <ele>8.904947043811681</ele>
        <time>2019-10-16T14:03:37Z</time>
      </trkpt>
      <trkpt lat="31.20277699397468" lon="121.6181008808103">
        <ele>9.002152924801965</ele>
        <time>2019-10-16T14:03:48Z</time>
      </trkpt>
      <trkpt lat="31.20262662878072" lon="121.61770926788655">
        <ele>9.183620830756231</ele>
        <time>2019-10-16T14:04:02Z</time>
      </trkpt>
      <trkpt lat="31.202561212784016" lon="121.61750546306513">
        <ele>9.15247575191239</ele>
        <time>2019-10-16T14:04:09Z</time>
      </trkpt>
      <trkpt lat="31.202458331389085" lon="121.61735071561536">
        <ele>9.106403230512841</ele>
        <time>2019-10-16T14:04:16Z</time>
      </trkpt>
      <trkpt lat="31.202473296613945" lon="121.6172959668538">
        <ele>9.005211918997865</ele>
        <time>2019-10-16T14:04:20Z</time>
      </trkpt>
      <trkpt lat="31.202709648931737" lon="121.61709403088484">
        <ele>8.537460622491109</ele>
        <time>2019-10-16T14:04:31Z</time>
      </trkpt>
      <trkpt lat="31.20295819680128" lon="121.61689642877073">
        <ele>8.710061002954962</ele>
        <time>2019-10-16T14:04:45Z</time>
      </trkpt>
      <trkpt lat="31.203010021375345" lon="121.61685658274412">
        <ele>8.79561598149089</ele>
        <time>2019-10-16T14:04:48Z</time>
      </trkpt>
      <trkpt lat="31.2030550982865" lon="121.61678421324166">
        <ele>8.748743455852619</ele>
        <time>2019-10-16T14:04:51Z</time>
      </trkpt>
      <trkpt lat="31.203195640836498" lon="121.61668391910602">
        <ele>8.558222622790332</ele>
        <time>2019-10-16T14:04:58Z</time>
      </trkpt>
      <trkpt lat="31.20324531489093" lon="121.61662401632955">
        <ele>8.54686726994953</ele>
        <time>2019-10-16T14:05:01Z</time>
      </trkpt>
      <trkpt lat="31.203519081936626" lon="121.61641909034951">
        <ele>8.966320280913376</ele>
        <time>2019-10-16T14:05:15Z</time>
      </trkpt>
      <trkpt lat="31.203820741845366" lon="121.61624939546532">
        <ele>10.120531454289546</ele>
        <time>2019-10-16T14:05:31Z</time>
      </trkpt>
      <trkpt lat="31.203940182474888" lon="121.61609651901442">
        <ele>10.048281595288959</ele>
        <time>2019-10-16T14:05:38Z</time>
      </trkpt>
      <trkpt lat="31.203990106257002" lon="121.61605856913373">
        <ele>10.100105754055047</ele>
        <time>2019-10-16T14:05:42Z</time>
      </trkpt>
      <trkpt lat="31.204043521634244" lon="121.61605666742643">
        <ele>10.093643409164525</ele>
        <time>2019-10-16T14:05:45Z</time>
      </trkpt>
      <trkpt lat="31.204128959352108" lon="121.61602386433864">
        <ele>9.998938866422625</ele>
        <time>2019-10-16T14:05:49Z</time>
      </trkpt>
      <trkpt lat="31.20419701802606" lon="121.61601979308378">
        <ele>9.84601361842346</ele>
        <time>2019-10-16T14:05:52Z</time>
      </trkpt>
      <trkpt lat="31.204296465375908" lon="121.6160842927027">
        <ele>9.685035285578717</ele>
        <time>2019-10-16T14:05:56Z</time>
      </trkpt>
      <trkpt lat="31.20451530656094" lon="121.61633959389064">
        <ele>9.288582403721861</ele>
        <time>2019-10-16T14:06:10Z</time>
      </trkpt>
      <trkpt lat="31.204583587526482" lon="121.61638810402651">
        <ele>9.324484149409821</ele>
        <time>2019-10-16T14:06:13Z</time>
      </trkpt>
      <trkpt lat="31.20460616081124" lon="121.61631383773587">
        <ele>9.65000958962722</ele>
        <time>2019-10-16T14:06:20Z</time>
      </trkpt>
      <trkpt lat="31.204548838641475" lon="121.6161425455739">
        <ele>10.126908530591727</ele>
        <time>2019-10-16T14:06:28Z</time>
      </trkpt>
      <trkpt lat="31.204500600542758" lon="121.61611652967586">
        <ele>10.251112056869129</ele>
        <time>2019-10-16T14:06:32Z</time>
      </trkpt>
      <trkpt lat="31.204453691888578" lon="121.61611897292161">
        <ele>10.221301144752495</ele>
        <time>2019-10-16T14:06:35Z</time>
      </trkpt>
      <trkpt lat="31.20439029189221" lon="121.61606937768208">
        <ele>10.233021208124786</ele>
        <time>2019-10-16T14:06:42Z</time>
      </trkpt>
      <trkpt lat="31.204332278912684" lon="121.61605854083135">
        <ele>10.247948407051638</ele>
        <time>2019-10-16T14:06:45Z</time>
      </trkpt>
      <trkpt lat="31.204141060850823" lon="121.61583630177316">
        <ele>10.18931896155137</ele>
        <time>2019-10-16T14:07:04Z</time>
      </trkpt>
      <trkpt lat="31.20388645456369" lon="121.61554847263898">
        <ele>10.45451482427707</ele>
        <time>2019-10-16T14:07:19Z</time>
      </trkpt>
      <trkpt lat="31.20362908250733" lon="121.6153183739336">
        <ele>9.692923437647075</ele>
        <time>2019-10-16T14:07:33Z</time>
      </trkpt>
      <trkpt lat="31.203658985598437" lon="121.61523055123808">
        <ele>9.630696155591096</ele>
        <time>2019-10-16T14:07:37Z</time>
      </trkpt>
      <trkpt lat="31.203837020927768" lon="121.61503781879154">
        <ele>9.90541641680152</ele>
        <time>2019-10-16T14:07:47Z</time>
      </trkpt>
      <trkpt lat="31.203851174401617" lon="121.61497601751775">
        <ele>9.921519542375984</ele>
        <time>2019-10-16T14:07:50Z</time>
      </trkpt>
      <trkpt lat="31.203912242681085" lon="121.61490445425413">
        <ele>10.096346319659535</ele>
        <time>2019-10-16T14:07:58Z</time>
      </trkpt>
      <trkpt lat="31.204020201985763" lon="121.61485023441601">
        <ele>10.225672081529574</ele>
        <time>2019-10-16T14:08:04Z</time>
      </trkpt>
      <trkpt lat="31.204040586176646" lon="121.61479412430947">
        <ele>10.211575998856453</ele>
        <time>2019-10-16T14:08:08Z</time>
      </trkpt>
      <trkpt lat="31.20412309819656" lon="121.61469436885734">
        <ele>10.130812162946164</ele>
        <time>2019-10-16T14:08:16Z</time>
      </trkpt>
      <trkpt lat="31.20416224909645" lon="121.61457049242291">
        <ele>10.258513215154016</ele>
        <time>2019-10-16T14:08:22Z</time>
      </trkpt>
      <trkpt lat="31.20431533933909" lon="121.61437314870297">
        <ele>10.69036749908431</ele>
        <time>2019-10-16T14:08:38Z</time>
      </trkpt>
      <trkpt lat="31.20444041645024" lon="121.61427528540064">
        <ele>10.419270599998187</ele>
        <time>2019-10-16T14:08:47Z</time>
      </trkpt>
      <trkpt lat="31.204481684035567" lon="121.61421076929074">
        <ele>10.513055755739662</ele>
        <time>2019-10-16T14:08:54Z</time>
      </trkpt>
      <trkpt lat="31.204628987006114" lon="121.6141207643146">
        <ele>11.061298325675908</ele>
        <time>2019-10-16T14:09:06Z</time>
      </trkpt>
      <trkpt lat="31.204702827124347" lon="121.61401287482995">
        <ele>11.058182875571438</ele>
        <time>2019-10-16T14:09:13Z</time>
      </trkpt>
      <trkpt lat="31.20478391604042" lon="121.6139898276406">
        <ele>11.072108185219905</ele>
        <time>2019-10-16T14:09:20Z</time>
      </trkpt>
      <trkpt lat="31.20493756251661" lon="121.6137707936881">
        <ele>10.895891803149638</ele>
        <time>2019-10-16T14:09:31Z</time>
      </trkpt>
      <trkpt lat="31.205105490653075" lon="121.61365638918495">
        <ele>10.732218744804163</ele>
        <time>2019-10-16T14:09:39Z</time>
      </trkpt>
      <trkpt lat="31.20531555448436" lon="121.61340834286011">
        <ele>10.724836646874591</ele>
        <time>2019-10-16T14:09:52Z</time>
      </trkpt>
      <trkpt lat="31.20537419511217" lon="121.61331644465275">
        <ele>10.690143392664277</ele>
        <time>2019-10-16T14:09:56Z</time>
      </trkpt>
      <trkpt lat="31.20545284813099" lon="121.61328743338585">
        <ele>10.619571137264677</ele>
        <time>2019-10-16T14:09:59Z</time>
      </trkpt>
      <trkpt lat="31.205539736673366" lon="121.61313372746633">
        <ele>10.53686804254799</ele>
        <time>2019-10-16T14:10:06Z</time>
      </trkpt>
      <trkpt lat="31.20551616327384" lon="121.61311475419335">
        <ele>10.777184224278956</ele>
        <time>2019-10-16T14:10:13Z</time>
      </trkpt>
      <trkpt lat="31.20548609863192" lon="121.6130759929632">
        <ele>10.925344174336242</ele>
        <time>2019-10-16T14:10:16Z</time>
      </trkpt>
      <trkpt lat="31.20527891531065" lon="121.61278324708606">
        <ele>11.002386205504875</ele>
        <time>2019-10-16T14:10:30Z</time>
      </trkpt>
      <trkpt lat="31.205161901034092" lon="121.61263714496013">
        <ele>11.042758007500758</ele>
        <time>2019-10-16T14:10:37Z</time>
      </trkpt>
      <trkpt lat="31.204954043002427" lon="121.61250704325865">
        <ele>10.759942776071526</ele>
        <time>2019-10-16T14:10:48Z</time>
      </trkpt>
      <trkpt lat="31.20471023462686" lon="121.61223435354974">
        <ele>10.69724346621001</ele>
        <time>2019-10-16T14:11:03Z</time>
      </trkpt>
      <trkpt lat="31.204604326804223" lon="121.61209746399624">
        <ele>10.973555593140787</ele>
        <time>2019-10-16T14:11:10Z</time>
      </trkpt>
      <trkpt lat="31.204505973212747" lon="121.61200855556402">
        <ele>10.91723672770897</ele>
        <time>2019-10-16T14:11:17Z</time>
      </trkpt>
      <trkpt lat="31.204454477089783" lon="121.61198307757255">
        <ele>10.921508346861888</ele>
        <time>2019-10-16T14:11:20Z</time>
      </trkpt>
      <trkpt lat="31.204344206847214" lon="121.61187627780748">
        <ele>10.769764533319794</ele>
        <time>2019-10-16T14:11:30Z</time>
      </trkpt>
      <trkpt lat="31.204323378024277" lon="121.61181257348893">
        <ele>10.65886900146781</ele>
        <time>2019-10-16T14:11:33Z</time>
      </trkpt>
      <trkpt lat="31.204380968340335" lon="121.61166807735319">
        <ele>10.936674471993676</ele>
        <time>2019-10-16T14:11:40Z</time>
      </trkpt>
      <trkpt lat="31.204399478325428" lon="121.61157156700764">
        <ele>11.12394906530879</ele>
        <time>2019-10-16T14:11:44Z</time>
      </trkpt>
      <trkpt lat="31.20436644686065" lon="121.61150894722878">
        <ele>11.208007908380221</ele>
        <time>2019-10-16T14:11:47Z</time>
      </trkpt>
      <trkpt lat="31.204172212069434" lon="121.61128205691813">
        <ele>11.142833133567537</ele>
        <time>2019-10-16T14:12:05Z</time>
      </trkpt>
      <trkpt lat="31.204123949597736" lon="121.6112826031004">
        <ele>11.19521325766598</ele>
        <time>2019-10-16T14:12:21Z</time>
      </trkpt>
      <trkpt lat="31.204076009417605" lon="121.6112140196325">
        <ele>11.308848588950461</ele>
        <time>2019-10-16T14:12:25Z</time>
      </trkpt>
      <trkpt lat="31.204016668205472" lon="121.61116332934839">
        <ele>11.290627964724486</ele>
        <time>2019-10-16T14:12:28Z</time>
      </trkpt>
      <trkpt lat="31.20374103514529" lon="121.6110115369902">
        <ele>11.091400651962566</ele>
        <time>2019-10-16T14:12:50Z</time>
      </trkpt>
      <trkpt lat="31.20369904936455" lon="121.61095650722204">
        <ele>10.832897376414426</ele>
        <time>2019-10-16T14:12:56Z</time>
      </trkpt>
      <trkpt lat="31.20373410479206" lon="121.61084779295453">
        <ele>10.793312975013047</ele>
        <time>2019-10-16T14:13:00Z</time>
      </trkpt>
      <trkpt lat="31.203941424005773" lon="121.61060893430296">
        <ele>10.97532076152409</ele>
        <time>2019-10-16T14:13:15Z</time>
      </trkpt>
      <trkpt lat="31.204033977717028" lon="121.61047337416706">
        <ele>11.094657275610876</ele>
        <time>2019-10-16T14:13:26Z</time>
      </trkpt>
      <trkpt lat="31.20412921376428" lon="121.61037793685973">
        <ele>11.130027531990176</ele>
        <time>2019-10-16T14:13:35Z</time>
      </trkpt>
      <trkpt lat="31.204164775878876" lon="121.61031639256603">
        <ele>11.107359511119101</ele>
        <time>2019-10-16T14:13:39Z</time>
      </trkpt>
      <trkpt lat="31.204255380964703" lon="121.6102510480374">
        <ele>11.139643892885164</ele>
        <time>2019-10-16T14:13:46Z</time>
      </trkpt>
      <trkpt lat="31.2044246946469" lon="121.61007155954535">
        <ele>11.894844511710097</ele>
        <time>2019-10-16T14:14:04Z</time>
      </trkpt>
      <trkpt lat="31.20447546342363" lon="121.60997558199745">
        <ele>12.179672385072244</ele>
        <time>2019-10-16T14:14:12Z</time>
      </trkpt>
      <trkpt lat="31.204570419074738" lon="121.60989098712763">
        <ele>12.20765978004735</ele>
        <time>2019-10-16T14:14:22Z</time>
      </trkpt>
      <trkpt lat="31.20470412805935" lon="121.60983377121141">
        <ele>12.148039955217335</ele>
        <time>2019-10-16T14:14:35Z</time>
      </trkpt>
      <trkpt lat="31.2047546126235" lon="121.60975568623208">
        <ele>12.19760032592721</ele>
        <time>2019-10-16T14:14:42Z</time>
      </trkpt>
      <trkpt lat="31.204794486526676" lon="121.60973074039926">
        <ele>12.125792572570765</ele>
        <time>2019-10-16T14:14:45Z</time>
      </trkpt>
      <trkpt lat="31.204917303834815" lon="121.60974103260236">
        <ele>11.802772220059364</ele>
        <time>2019-10-16T14:14:52Z</time>
      </trkpt>
      <trkpt lat="31.205018447317862" lon="121.60972638405077">
        <ele>11.36584988123272</ele>
        <time>2019-10-16T14:15:00Z</time>
      </trkpt>
      <trkpt lat="31.20512006906383" lon="121.60980554101295">
        <ele>11.189487637639143</ele>
        <time>2019-10-16T14:15:08Z</time>
      </trkpt>
      <trkpt lat="31.205198677737997" lon="121.60983562812423">
        <ele>11.203372000844006</ele>
        <time>2019-10-16T14:15:12Z</time>
      </trkpt>
      <trkpt lat="31.20526456254201" lon="121.60983724935834">
        <ele>11.140877693920755</ele>
        <time>2019-10-16T14:15:16Z</time>
      </trkpt>
      <trkpt lat="31.20535829038692" lon="121.60996086898064">
        <ele>11.051058478484919</ele>
        <time>2019-10-16T14:15:24Z</time>
      </trkpt>
      <trkpt lat="31.20540490321735" lon="121.6099933985333">
        <ele>11.04136825666329</ele>
        <time>2019-10-16T14:15:27Z</time>
      </trkpt>
      <trkpt lat="31.205404558562083" lon="121.61009940291775">
        <ele>11.000477789207606</ele>
        <time>2019-10-16T14:15:35Z</time>
      </trkpt>
      <trkpt lat="31.205298450312636" lon="121.61023442419062">
        <ele>10.997728930607979</ele>
        <time>2019-10-16T14:15:42Z</time>
      </trkpt>
      <trkpt lat="31.20517341537165" lon="121.61029353613155">
        <ele>11.094092156460661</ele>
        <time>2019-10-16T14:15:50Z</time>
      </trkpt>
      <trkpt lat="31.205173374129384" lon="121.61035209537101">
        <ele>11.187671251820781</ele>
        <time>2019-10-16T14:15:54Z</time>
      </trkpt>
      <trkpt lat="31.20512425090504" lon="121.61041960503032">
        <ele>11.439166912228973</ele>
        <time>2019-10-16T14:16:00Z</time>
      </trkpt>
      <trkpt lat="31.20512425090504" lon="121.61041960503032">
        <ele>11.439166912228973</ele>
        <time>2019-10-16T14:16:04Z</time>
      </trkpt>
    </trkseg>
  </trk>
</gpx>