<?xml version="1.0" encoding="UTF-8"?>
<gpx xmlns="http://www.topografix.com/GPX/1/1" xmlns:gpxtpx="http://www.garmin.com/xmlschemas/TrackPointExtension/v1" xmlns:xsi="http://www.w3.org/2001/XMLSchema-instance" xsi:schemaLocation="http://www.topografix.com/GPX/1/1 http://www.topografix.com/GPX/1/1/gpx.xsd" version="1.1" creator="gpx.py -- https://github.com/tkrajina/gpxpy">
  <trk>
    <name>gpx from keep</name>
    <type>Run</type>
    <trkseg>
      <trkpt lat="31.204426162502333" lon="121.61068046561694">
        <ele>8.625807634661918</ele>
        <time>2020-07-06T23:48:13Z</time>
      </trkpt>
      <trkpt lat="31.20453237942219" lon="121.6107750716938">
        <ele>8.648380786269716</ele>
        <time>2020-07-06T23:48:17Z</time>
      </trkpt>
      <trkpt lat="31.204648149508365" lon="121.61078156857458">
        <ele>8.504874930717051</ele>
        <time>2020-07-06T23:48:25Z</time>
      </trkpt>
      <trkpt lat="31.20471738653719" lon="121.61064601139586">
        <ele>8.322171392850578</ele>
        <time>2020-07-06T23:48:29Z</time>
      </trkpt>
      <trkpt lat="31.204793613218936" lon="121.61059341091239">
        <ele>8.307611647062004</ele>
        <time>2020-07-06T23:48:33Z</time>
      </trkpt>
      <trkpt lat="31.204897002902005" lon="121.61047113397736">
        <ele>8.266565072350204</ele>
        <time>2020-07-06T23:48:37Z</time>
      </trkpt>
      <trkpt lat="31.20495076314087" lon="121.61036458470262">
        <ele>7.1066283490508795</ele>
        <time>2020-07-06T23:48:41Z</time>
      </trkpt>
      <trkpt lat="31.205063316259167" lon="121.61031930047136">
        <ele>7.84243334364146</ele>
        <time>2020-07-06T23:48:48Z</time>
      </trkpt>
      <trkpt lat="31.20519414931449" lon="121.61011107804924">
        <ele>6.828626228496432</ele>
        <time>2020-07-06T23:48:52Z</time>
      </trkpt>
      <trkpt lat="31.20528717743205" lon="121.61006986158476">
        <ele>7.629001908004284</ele>
        <time>2020-07-06T23:48:55Z</time>
      </trkpt>
      <trkpt lat="31.205248908861897" lon="121.61012517124378">
        <ele>8.769158794544637</ele>
        <time>2020-07-06T23:48:58Z</time>
      </trkpt>
      <trkpt lat="31.205412143942684" lon="121.61010862003728">
        <ele>7.37568923458457</ele>
        <time>2020-07-06T23:49:02Z</time>
      </trkpt>
      <trkpt lat="31.205517266165007" lon="121.610220850666">
        <ele>7.175562310963869</ele>
        <time>2020-07-06T23:49:06Z</time>
      </trkpt>
      <trkpt lat="31.205499270191115" lon="121.6103645393586">
        <ele>7.278596976771951</ele>
        <time>2020-07-06T23:49:09Z</time>
      </trkpt>
      <trkpt lat="31.205716035658117" lon="121.61056595310085">
        <ele>7.064533610828221</ele>
        <time>2020-07-06T23:49:19Z</time>
      </trkpt>
      <trkpt lat="31.205781317662176" lon="121.61065215882505">
        <ele>7.277641532942653</ele>
        <time>2020-07-06T23:49:23Z</time>
      </trkpt>
      <trkpt lat="31.20581678208063" lon="121.61072779368317">
        <ele>8.345158365555108</ele>
        <time>2020-07-06T23:49:26Z</time>
      </trkpt>
      <trkpt lat="31.205887213363876" lon="121.61081643828375">
        <ele>4.607376579195261</ele>
        <time>2020-07-06T23:49:30Z</time>
      </trkpt>
      <trkpt lat="31.2059852995924" lon="121.61090589355494">
        <ele>8.653024315834045</ele>
        <time>2020-07-06T23:49:34Z</time>
      </trkpt>
      <trkpt lat="31.206065277710696" lon="121.61091537546255">
        <ele>7.422735884785652</ele>
        <time>2020-07-06T23:49:37Z</time>
      </trkpt>
      <trkpt lat="31.206219694318737" lon="121.61109428833016">
        <ele>7.384904662147164</ele>
        <time>2020-07-06T23:49:44Z</time>
      </trkpt>
      <trkpt lat="31.206498231115166" lon="121.61135234950751">
        <ele>7.205468128435314</ele>
        <time>2020-07-06T23:49:55Z</time>
      </trkpt>
      <trkpt lat="31.206642330829563" lon="121.61154562774807">
        <ele>7.2364592254161835</ele>
        <time>2020-07-06T23:50:03Z</time>
      </trkpt>
      <trkpt lat="31.206615685602877" lon="121.61164376542412">
        <ele>6.730379550717771</ele>
        <time>2020-07-06T23:50:07Z</time>
      </trkpt>
      <trkpt lat="31.206347794674304" lon="121.61165544452201">
        <ele>7.048911154270172</ele>
        <time>2020-07-06T23:50:10Z</time>
      </trkpt>
      <trkpt lat="31.206303020366853" lon="121.61170424468762">
        <ele>9.625602097250521</ele>
        <time>2020-07-06T23:50:13Z</time>
      </trkpt>
      <trkpt lat="31.206289663504904" lon="121.61179804314835">
        <ele>6.399698471650481</ele>
        <time>2020-07-06T23:50:17Z</time>
      </trkpt>
      <trkpt lat="31.20617757576937" lon="121.61194037426567">
        <ele>6.552477482706308</ele>
        <time>2020-07-06T23:50:24Z</time>
      </trkpt>
      <trkpt lat="31.20593368980426" lon="121.61211578796133">
        <ele>7.679032061249018</ele>
        <time>2020-07-06T23:50:34Z</time>
      </trkpt>
      <trkpt lat="31.205941380585088" lon="121.61233726381046">
        <ele>8.013839119113982</ele>
        <time>2020-07-06T23:50:38Z</time>
      </trkpt>
      <trkpt lat="31.2058697470939" lon="121.61240585382197">
        <ele>7.977720182389021</ele>
        <time>2020-07-06T23:50:42Z</time>
      </trkpt>
      <trkpt lat="31.205817900568924" lon="121.61248176121181">
        <ele>7.986566169187427</ele>
        <time>2020-07-06T23:50:45Z</time>
      </trkpt>
      <trkpt lat="31.205624180836658" lon="121.6126449680621">
        <ele>7.995498369447887</ele>
        <time>2020-07-06T23:50:53Z</time>
      </trkpt>
      <trkpt lat="31.205550630705922" lon="121.61273605690167">
        <ele>7.7515330677852035</ele>
        <time>2020-07-06T23:50:56Z</time>
      </trkpt>
      <trkpt lat="31.205381582348206" lon="121.6128998020861">
        <ele>7.813767962157726</ele>
        <time>2020-07-06T23:51:03Z</time>
      </trkpt>
      <trkpt lat="31.205341672034475" lon="121.61296621920722">
        <ele>7.700854132883251</ele>
        <time>2020-07-06T23:51:06Z</time>
      </trkpt>
      <trkpt lat="31.205280091287403" lon="121.61300715680517">
        <ele>7.638736192137003</ele>
        <time>2020-07-06T23:51:09Z</time>
      </trkpt>
      <trkpt lat="31.20523303922568" lon="121.61285102042086">
        <ele>8.383211500011384</ele>
        <time>2020-07-06T23:51:12Z</time>
      </trkpt>
      <trkpt lat="31.205154043668088" lon="121.61296948763896">
        <ele>8.000246556475759</ele>
        <time>2020-07-06T23:51:18Z</time>
      </trkpt>
      <trkpt lat="31.205073483882682" lon="121.61300988464875">
        <ele>8.564798766747117</ele>
        <time>2020-07-06T23:51:22Z</time>
      </trkpt>
      <trkpt lat="31.204887050582407" lon="121.61321130861454">
        <ele>7.788319448940456</ele>
        <time>2020-07-06T23:51:33Z</time>
      </trkpt>
      <trkpt lat="31.204704821795477" lon="121.61357293308133">
        <ele>7.681865538470447</ele>
        <time>2020-07-06T23:51:40Z</time>
      </trkpt>
      <trkpt lat="31.204636137943886" lon="121.61367730026028">
        <ele>7.826842878945172</ele>
        <time>2020-07-06T23:51:44Z</time>
      </trkpt>
      <trkpt lat="31.204535472405528" lon="121.61376648986368">
        <ele>8.106992395594716</ele>
        <time>2020-07-06T23:51:48Z</time>
      </trkpt>
      <trkpt lat="31.20434141176758" lon="121.61400341746213">
        <ele>8.035126831382513</ele>
        <time>2020-07-06T23:51:58Z</time>
      </trkpt>
      <trkpt lat="31.204116199478996" lon="121.61420402296109">
        <ele>7.743813617154956</ele>
        <time>2020-07-06T23:52:08Z</time>
      </trkpt>
      <trkpt lat="31.20421591910675" lon="121.61395246766055">
        <ele>8.269937688484788</ele>
        <time>2020-07-06T23:52:15Z</time>
      </trkpt>
      <trkpt lat="31.204140997012708" lon="121.61405764687161">
        <ele>6.710437145084143</ele>
        <time>2020-07-06T23:52:19Z</time>
      </trkpt>
      <trkpt lat="31.203979535795018" lon="121.61421758736873">
        <ele>7.529198477976024</ele>
        <time>2020-07-06T23:52:27Z</time>
      </trkpt>
      <trkpt lat="31.20393363226429" lon="121.61431327587393">
        <ele>6.752320357598364</ele>
        <time>2020-07-06T23:52:31Z</time>
      </trkpt>
      <trkpt lat="31.203981814863965" lon="121.61440597455488">
        <ele>8.07284140586853</ele>
        <time>2020-07-06T23:52:35Z</time>
      </trkpt>
      <trkpt lat="31.203749538274643" lon="121.61493103101111">
        <ele>6.404731831513345</ele>
        <time>2020-07-06T23:52:42Z</time>
      </trkpt>
      <trkpt lat="31.20374699401554" lon="121.6150492104492">
        <ele>6.916749212890863</ele>
        <time>2020-07-06T23:53:09Z</time>
      </trkpt>
      <trkpt lat="31.2039061801406" lon="121.6147057711719">
        <ele>6.422592071816325</ele>
        <time>2020-07-06T23:53:19Z</time>
      </trkpt>
      <trkpt lat="31.203823678036922" lon="121.61479414224799">
        <ele>5.263669731095433</ele>
        <time>2020-07-06T23:53:23Z</time>
      </trkpt>
      <trkpt lat="31.203763642062004" lon="121.61492560876525">
        <ele>7.619209732860327</ele>
        <time>2020-07-06T23:53:29Z</time>
      </trkpt>
      <trkpt lat="31.20356344606753" lon="121.61503729931138">
        <ele>6.763487293384969</ele>
        <time>2020-07-06T23:53:39Z</time>
      </trkpt>
      <trkpt lat="31.20335917672307" lon="121.6154596126717">
        <ele>6.740183302201331</ele>
        <time>2020-07-06T23:53:42Z</time>
      </trkpt>
      <trkpt lat="31.203222150143596" lon="121.61557454807885">
        <ele>6.88834960013628</ele>
        <time>2020-07-06T23:53:49Z</time>
      </trkpt>
      <trkpt lat="31.20304815253273" lon="121.61579546452332">
        <ele>6.933568257838488</ele>
        <time>2020-07-06T23:53:57Z</time>
      </trkpt>
      <trkpt lat="31.20294234198643" lon="121.6158700103234">
        <ele>6.748609801754355</ele>
        <time>2020-07-06T23:54:03Z</time>
      </trkpt>
      <trkpt lat="31.202820478161943" lon="121.61600581276545">
        <ele>5.771036212332547</ele>
        <time>2020-07-06T23:54:10Z</time>
      </trkpt>
      <trkpt lat="31.2028665280854" lon="121.61575590705516">
        <ele>6.805358473211527</ele>
        <time>2020-07-06T23:54:17Z</time>
      </trkpt>
      <trkpt lat="31.202784813084445" lon="121.6158694812655">
        <ele>6.344235471449792</ele>
        <time>2020-07-06T23:54:23Z</time>
      </trkpt>
      <trkpt lat="31.202727013568772" lon="121.61592179736665">
        <ele>6.76231525093317</ele>
        <time>2020-07-06T23:54:26Z</time>
      </trkpt>
      <trkpt lat="31.20253968811422" lon="121.61618553609564">
        <ele>6.065467951819301</ele>
        <time>2020-07-06T23:54:37Z</time>
      </trkpt>
      <trkpt lat="31.20246288648367" lon="121.61626170453687">
        <ele>5.4075415804982185</ele>
        <time>2020-07-06T23:54:41Z</time>
      </trkpt>
      <trkpt lat="31.202128662689464" lon="121.61675013965831">
        <ele>5.947496007196605</ele>
        <time>2020-07-06T23:54:44Z</time>
      </trkpt>
      <trkpt lat="31.201994825339447" lon="121.61692740608974">
        <ele>5.702595283277333</ele>
        <time>2020-07-06T23:54:51Z</time>
      </trkpt>
      <trkpt lat="31.20186918541491" lon="121.61703718407128">
        <ele>5.770976445637643</ele>
        <time>2020-07-06T23:54:57Z</time>
      </trkpt>
      <trkpt lat="31.201861269425873" lon="121.61709274591227">
        <ele>5.610767619684339</ele>
        <time>2020-07-06T23:55:01Z</time>
      </trkpt>
      <trkpt lat="31.201740753085925" lon="121.61723098072949">
        <ele>6.114452353678644</ele>
        <time>2020-07-06T23:55:08Z</time>
      </trkpt>
      <trkpt lat="31.201603746834813" lon="121.61731744995771">
        <ele>4.728922019712627</ele>
        <time>2020-07-06T23:55:12Z</time>
      </trkpt>
      <trkpt lat="31.201796017041556" lon="121.61699734861055">
        <ele>6.37117837741971</ele>
        <time>2020-07-06T23:55:19Z</time>
      </trkpt>
      <trkpt lat="31.201718158475266" lon="121.61704234614233">
        <ele>5.918099985457957</ele>
        <time>2020-07-06T23:55:23Z</time>
      </trkpt>
      <trkpt lat="31.201472526033243" lon="121.6173087879334">
        <ele>5.38097114302218</ele>
        <time>2020-07-06T23:55:36Z</time>
      </trkpt>
      <trkpt lat="31.20140251470921" lon="121.61736950381199">
        <ele>6.161605997942388</ele>
        <time>2020-07-06T23:55:39Z</time>
      </trkpt>
      <trkpt lat="31.200944162568813" lon="121.6180614636463">
        <ele>4.526605697348714</ele>
        <time>2020-07-06T23:55:43Z</time>
      </trkpt>
      <trkpt lat="31.20074164490072" lon="121.61831406914011">
        <ele>5.000631273724139</ele>
        <time>2020-07-06T23:55:54Z</time>
      </trkpt>
      <trkpt lat="31.200523933036266" lon="121.61857507478535">
        <ele>4.636624206788838</ele>
        <time>2020-07-06T23:56:05Z</time>
      </trkpt>
      <trkpt lat="31.200352381378945" lon="121.61876750804045">
        <ele>4.454261634498835</ele>
        <time>2020-07-06T23:56:14Z</time>
      </trkpt>
      <trkpt lat="31.200536354386745" lon="121.61835582264499">
        <ele>4.990463018417358</ele>
        <time>2020-07-06T23:56:26Z</time>
      </trkpt>
      <trkpt lat="31.20049045906159" lon="121.61842927171168">
        <ele>5.33962344750762</ele>
        <time>2020-07-06T23:56:29Z</time>
      </trkpt>
      <trkpt lat="31.200272263417848" lon="121.61863146641232">
        <ele>5.6447627460584044</ele>
        <time>2020-07-06T23:56:41Z</time>
      </trkpt>
      <trkpt lat="31.199787492731726" lon="121.61940876045453">
        <ele>5.519187266007066</ele>
        <time>2020-07-06T23:56:45Z</time>
      </trkpt>
      <trkpt lat="31.199727235350075" lon="121.61947190950661">
        <ele>6.412161258049309</ele>
        <time>2020-07-06T23:56:48Z</time>
      </trkpt>
      <trkpt lat="31.199509537362438" lon="121.61970986814104">
        <ele>5.824267670512199</ele>
        <time>2020-07-06T23:56:59Z</time>
      </trkpt>
      <trkpt lat="31.199278316806776" lon="121.61991367976819">
        <ele>6.217455487698317</ele>
        <time>2020-07-06T23:57:10Z</time>
      </trkpt>
      <trkpt lat="31.199197172437696" lon="121.61998495927551">
        <ele>4.227580735459924</ele>
        <time>2020-07-06T23:57:14Z</time>
      </trkpt>
      <trkpt lat="31.199117656141308" lon="121.62005488346108">
        <ele>4.885840610601008</ele>
        <time>2020-07-06T23:57:18Z</time>
      </trkpt>
      <trkpt lat="31.19906984077923" lon="121.62014512962988">
        <ele>5.088146754540503</ele>
        <time>2020-07-06T23:57:22Z</time>
      </trkpt>
      <trkpt lat="31.198986288833737" lon="121.62018524409223">
        <ele>5.861084800213575</ele>
        <time>2020-07-06T23:57:26Z</time>
      </trkpt>
      <trkpt lat="31.19877845218913" lon="121.62032401125084">
        <ele>5.94835542421788</ele>
        <time>2020-07-06T23:57:36Z</time>
      </trkpt>
      <trkpt lat="31.198665339743435" lon="121.62037036076427">
        <ele>6.130632438696921</ele>
        <time>2020-07-06T23:57:39Z</time>
      </trkpt>
      <trkpt lat="31.198894830001997" lon="121.61975409224526">
        <ele>6.153490434400737</ele>
        <time>2020-07-06T23:57:49Z</time>
      </trkpt>
      <trkpt lat="31.198732552492384" lon="121.6198866249512">
        <ele>6.015025318600237</ele>
        <time>2020-07-06T23:57:57Z</time>
      </trkpt>
      <trkpt lat="31.19819001593989" lon="121.62089693769795">
        <ele>6.60071262717247</ele>
        <time>2020-07-06T23:58:01Z</time>
      </trkpt>
      <trkpt lat="31.198051310789666" lon="121.62103976017309">
        <ele>5.841956013813615</ele>
        <time>2020-07-06T23:58:08Z</time>
      </trkpt>
      <trkpt lat="31.197887938634604" lon="121.62117635122586">
        <ele>6.574125888757408</ele>
        <time>2020-07-06T23:58:16Z</time>
      </trkpt>
      <trkpt lat="31.198067844380724" lon="121.6205449302773">
        <ele>6.949721188284457</ele>
        <time>2020-07-06T23:58:26Z</time>
      </trkpt>
      <trkpt lat="31.197770400273356" lon="121.62080537786042">
        <ele>7.064577256329358</ele>
        <time>2020-07-06T23:58:37Z</time>
      </trkpt>
      <trkpt lat="31.197650722195995" lon="121.62090484101324">
        <ele>6.099312853999436</ele>
        <time>2020-07-06T23:58:43Z</time>
      </trkpt>
      <trkpt lat="31.197193698602785" lon="121.62179018590159">
        <ele>6.4559188932180405</ele>
        <time>2020-07-06T23:58:47Z</time>
      </trkpt>
      <trkpt lat="31.196932874696678" lon="121.62202595920837">
        <ele>5.0743771605193615</ele>
        <time>2020-07-06T23:58:58Z</time>
      </trkpt>
      <trkpt lat="31.196707347944276" lon="121.62221620360843">
        <ele>6.588161710649729</ele>
        <time>2020-07-06T23:59:08Z</time>
      </trkpt>
      <trkpt lat="31.196647491885177" lon="121.62239830372906">
        <ele>5.80818291939795</ele>
        <time>2020-07-06T23:59:15Z</time>
      </trkpt>
      <trkpt lat="31.197055648474862" lon="121.62207011839168">
        <ele>4.877731448970735</ele>
        <time>2020-07-06T23:59:25Z</time>
      </trkpt>
      <trkpt lat="31.197091119765613" lon="121.62235138846486">
        <ele>4.557466205209494</ele>
        <time>2020-07-06T23:59:35Z</time>
      </trkpt>
      <trkpt lat="31.197043809872174" lon="121.62246791116465">
        <ele>2.9440147588029504</ele>
        <time>2020-07-06T23:59:39Z</time>
      </trkpt>
      <trkpt lat="31.197030167201003" lon="121.62254324277437">
        <ele>6.236015880480409</ele>
        <time>2020-07-06T23:59:42Z</time>
      </trkpt>
      <trkpt lat="31.196780649604218" lon="121.62331200171337">
        <ele>3.6199330650269985</ele>
        <time>2020-07-06T23:59:46Z</time>
      </trkpt>
      <trkpt lat="31.196828420094267" lon="121.62350004675682">
        <ele>5.281813593581319</ele>
        <time>2020-07-06T23:59:54Z</time>
      </trkpt>
      <trkpt lat="31.19686973063427" lon="121.62387640843033">
        <ele>5.858870955184102</ele>
        <time>2020-07-07T00:00:06Z</time>
      </trkpt>
      <trkpt lat="31.196910258105508" lon="121.62399643980274">
        <ele>5.306069700978696</ele>
        <time>2020-07-07T00:00:10Z</time>
      </trkpt>
      <trkpt lat="31.196953699399508" lon="121.62394603794202">
        <ele>5.28142508212477</ele>
        <time>2020-07-07T00:00:14Z</time>
      </trkpt>
      <trkpt lat="31.19695723876039" lon="121.62347429459238">
        <ele>7.657913028262556</ele>
        <time>2020-07-07T00:00:22Z</time>
      </trkpt>
      <trkpt lat="31.196918509537724" lon="121.62343771772863">
        <ele>6.444236915558577</ele>
        <time>2020-07-07T00:00:33Z</time>
      </trkpt>
      <trkpt lat="31.196887685629118" lon="121.62336483095876">
        <ele>8.033582609146833</ele>
        <time>2020-07-07T00:00:44Z</time>
      </trkpt>
      <trkpt lat="31.19690031373029" lon="121.62346318980698">
        <ele>5.801379926502705</ele>
        <time>2020-07-07T00:00:48Z</time>
      </trkpt>
      <trkpt lat="31.196813441894225" lon="121.62332473434654">
        <ele>7.612771305255592</ele>
        <time>2020-07-07T00:00:52Z</time>
      </trkpt>
      <trkpt lat="31.196854637095313" lon="121.6231066034197">
        <ele>7.085208346135914</ele>
        <time>2020-07-07T00:01:07Z</time>
      </trkpt>
      <trkpt lat="31.19679725544423" lon="121.62302152441626">
        <ele>5.851231482811272</ele>
        <time>2020-07-07T00:01:14Z</time>
      </trkpt>
      <trkpt lat="31.19678896032241" lon="121.62292641524228">
        <ele>5.577913441695273</ele>
        <time>2020-07-07T00:01:18Z</time>
      </trkpt>
      <trkpt lat="31.19672939692814" lon="121.62285190366703">
        <ele>6.900104231201112</ele>
        <time>2020-07-07T00:01:22Z</time>
      </trkpt>
      <trkpt lat="31.196888152269747" lon="121.62272832816181">
        <ele>6.448777298443019</ele>
        <time>2020-07-07T00:01:32Z</time>
      </trkpt>
      <trkpt lat="31.196967963797967" lon="121.62264269467387">
        <ele>5.300552194938064</ele>
        <time>2020-07-07T00:01:36Z</time>
      </trkpt>
      <trkpt lat="31.197198874215374" lon="121.62248903424226">
        <ele>5.059877509251237</ele>
        <time>2020-07-07T00:01:47Z</time>
      </trkpt>
      <trkpt lat="31.197537576372298" lon="121.62220096024475">
        <ele>5.379515427164733</ele>
        <time>2020-07-07T00:01:57Z</time>
      </trkpt>
      <trkpt lat="31.19772890737924" lon="121.62203998417044">
        <ele>5.99908659979701</ele>
        <time>2020-07-07T00:02:05Z</time>
      </trkpt>
      <trkpt lat="31.19788445883005" lon="121.62186925483287">
        <ele>7.8960468377918005</ele>
        <time>2020-07-07T00:02:13Z</time>
      </trkpt>
      <trkpt lat="31.19796123947034" lon="121.62182480782303">
        <ele>7.822047587484121</ele>
        <time>2020-07-07T00:02:17Z</time>
      </trkpt>
      <trkpt lat="31.19802659212734" lon="121.62181640203838">
        <ele>6.517856551334262</ele>
        <time>2020-07-07T00:02:20Z</time>
      </trkpt>
      <trkpt lat="31.19801998564679" lon="121.62190501287097">
        <ele>6.065235097892582</ele>
        <time>2020-07-07T00:02:24Z</time>
      </trkpt>
      <trkpt lat="31.198253915234524" lon="121.62171530752417">
        <ele>5.948737149126828</ele>
        <time>2020-07-07T00:02:34Z</time>
      </trkpt>
      <trkpt lat="31.19831363053196" lon="121.62165622867023">
        <ele>5.2114582089707255</ele>
        <time>2020-07-07T00:02:38Z</time>
      </trkpt>
      <trkpt lat="31.19838913528583" lon="121.62153970009989">
        <ele>7.719586934894323</ele>
        <time>2020-07-07T00:02:42Z</time>
      </trkpt>
      <trkpt lat="31.198439880006205" lon="121.62150121632358">
        <ele>7.009214757010341</ele>
        <time>2020-07-07T00:02:45Z</time>
      </trkpt>
      <trkpt lat="31.19875921335758" lon="121.62106544542867">
        <ele>4.755941099487245</ele>
        <time>2020-07-07T00:02:55Z</time>
      </trkpt>
      <trkpt lat="31.198859604309988" lon="121.62100012902707">
        <ele>5.677239991724491</ele>
        <time>2020-07-07T00:02:59Z</time>
      </trkpt>
      <trkpt lat="31.199053157286166" lon="121.6207846764444">
        <ele>6.144421768374741</ele>
        <time>2020-07-07T00:03:09Z</time>
      </trkpt>
      <trkpt lat="31.199187762997568" lon="121.6206708490462">
        <ele>5.995602662675083</ele>
        <time>2020-07-07T00:03:16Z</time>
      </trkpt>
      <trkpt lat="31.199060797910256" lon="121.62098900185613">
        <ele>6.521100638434291</ele>
        <time>2020-07-07T00:03:23Z</time>
      </trkpt>
      <trkpt lat="31.199107427946252" lon="121.62099360479966">
        <ele>6.8413003431633115</ele>
        <time>2020-07-07T00:03:27Z</time>
      </trkpt>
      <trkpt lat="31.199226749423794" lon="121.62097299980323">
        <ele>6.444172788411379</ele>
        <time>2020-07-07T00:03:33Z</time>
      </trkpt>
      <trkpt lat="31.19933542836922" lon="121.62101499400246">
        <ele>5.483354669064283</ele>
        <time>2020-07-07T00:03:40Z</time>
      </trkpt>
      <trkpt lat="31.1996131498767" lon="121.62094153313608">
        <ele>4.848469723947346</ele>
        <time>2020-07-07T00:03:54Z</time>
      </trkpt>
      <trkpt lat="31.199825712144772" lon="121.62069816640164">
        <ele>5.793594737537205</ele>
        <time>2020-07-07T00:03:58Z</time>
      </trkpt>
      <trkpt lat="31.199890235651086" lon="121.62070412287233">
        <ele>5.687860665842891</ele>
        <time>2020-07-07T00:04:02Z</time>
      </trkpt>
      <trkpt lat="31.19999410557218" lon="121.62068053802007">
        <ele>5.68772931676358</ele>
        <time>2020-07-07T00:04:09Z</time>
      </trkpt>
      <trkpt lat="31.20012124705262" lon="121.62069949690263">
        <ele>5.326794001273811</ele>
        <time>2020-07-07T00:04:17Z</time>
      </trkpt>
      <trkpt lat="31.200180301836017" lon="121.6207479994283">
        <ele>5.019848387688398</ele>
        <time>2020-07-07T00:04:21Z</time>
      </trkpt>
      <trkpt lat="31.200188809249333" lon="121.62090354702742">
        <ele>4.877259063534439</ele>
        <time>2020-07-07T00:04:25Z</time>
      </trkpt>
      <trkpt lat="31.200361487309053" lon="121.62093523846292">
        <ele>4.932581033557653</ele>
        <time>2020-07-07T00:04:32Z</time>
      </trkpt>
      <trkpt lat="31.200471850811102" lon="121.6209243897698">
        <ele>4.622322900220752</ele>
        <time>2020-07-07T00:04:35Z</time>
      </trkpt>
      <trkpt lat="31.2005816378109" lon="121.6209449758443">
        <ele>4.614722244441509</ele>
        <time>2020-07-07T00:04:39Z</time>
      </trkpt>
      <trkpt lat="31.200672759646128" lon="121.62092599907767">
        <ele>4.900957587175071</ele>
        <time>2020-07-07T00:04:42Z</time>
      </trkpt>
      <trkpt lat="31.200776564571647" lon="121.6209623029929">
        <ele>3.597432103008032</ele>
        <time>2020-07-07T00:04:46Z</time>
      </trkpt>
      <trkpt lat="31.20094439061256" lon="121.62096797986533">
        <ele>5.0228239465504885</ele>
        <time>2020-07-07T00:04:50Z</time>
      </trkpt>
      <trkpt lat="31.201083227736373" lon="121.62095306399817">
        <ele>4.567817625589669</ele>
        <time>2020-07-07T00:04:53Z</time>
      </trkpt>
      <trkpt lat="31.20138575390117" lon="121.62100804962117">
        <ele>5.056229108944535</ele>
        <time>2020-07-07T00:05:03Z</time>
      </trkpt>
      <trkpt lat="31.20145893686348" lon="121.62102945162259">
        <ele>6.294860137626529</ele>
        <time>2020-07-07T00:05:07Z</time>
      </trkpt>
      <trkpt lat="31.20156740729249" lon="121.62101426731515">
        <ele>5.49836734123528</ele>
        <time>2020-07-07T00:05:14Z</time>
      </trkpt>
      <trkpt lat="31.201865332770957" lon="121.62106139454944">
        <ele>4.532856315374374</ele>
        <time>2020-07-07T00:05:34Z</time>
      </trkpt>
      <trkpt lat="31.201991129797822" lon="121.62107005574116">
        <ele>5.003433105535805</ele>
        <time>2020-07-07T00:05:42Z</time>
      </trkpt>
      <trkpt lat="31.202083604529538" lon="121.62105378883005">
        <ele>4.6444278340786695</ele>
        <time>2020-07-07T00:05:46Z</time>
      </trkpt>
      <trkpt lat="31.20223836970626" lon="121.6211020117898">
        <ele>4.19495387095958</ele>
        <time>2020-07-07T00:05:58Z</time>
      </trkpt>
      <trkpt lat="31.202343055623682" lon="121.62107653031518">
        <ele>3.895308993756771</ele>
        <time>2020-07-07T00:06:02Z</time>
      </trkpt>
      <trkpt lat="31.2023967171836" lon="121.62109766288866">
        <ele>2.7722805961966515</ele>
        <time>2020-07-07T00:06:06Z</time>
      </trkpt>
      <trkpt lat="31.202438968199793" lon="121.62113966238338">
        <ele>4.561477013863623</ele>
        <time>2020-07-07T00:06:13Z</time>
      </trkpt>
      <trkpt lat="31.20248862239854" lon="121.6211063268731">
        <ele>5.245851335115731</ele>
        <time>2020-07-07T00:06:24Z</time>
      </trkpt>
      <trkpt lat="31.202472356088286" lon="121.62110470229631">
        <ele>5.291022686287761</ele>
        <time>2020-07-07T00:06:31Z</time>
      </trkpt>
      <trkpt lat="31.202462042872813" lon="121.62111391671257">
        <ele>5.476205979473889</ele>
        <time>2020-07-07T00:06:36Z</time>
      </trkpt>
      <trkpt lat="31.202443308139653" lon="121.62113803610319">
        <ele>6.114915837533772</ele>
        <time>2020-07-07T00:07:09Z</time>
      </trkpt>
      <trkpt lat="31.202432189828844" lon="121.62113966294439">
        <ele>5.2496397299692035</ele>
        <time>2020-07-07T00:07:26Z</time>
      </trkpt>
      <trkpt lat="31.202419120652443" lon="121.62118952555485">
        <ele>4.998400837182999</ele>
        <time>2020-07-07T00:07:32Z</time>
      </trkpt>
      <trkpt lat="31.202419931974163" lon="121.62119142239183">
        <ele>5.36174438521266</ele>
        <time>2020-07-07T00:08:07Z</time>
      </trkpt>
      <trkpt lat="31.202421863822636" lon="121.62116052977636">
        <ele>5.0898223193362355</ele>
        <time>2020-07-07T00:08:13Z</time>
      </trkpt>
      <trkpt lat="31.20244575963992" lon="121.62112773839826">
        <ele>5.433475408703089</ele>
        <time>2020-07-07T00:08:46Z</time>
      </trkpt>
      <trkpt lat="31.20244032209146" lon="121.62114128819225">
        <ele>4.89690384734422</ele>
        <time>2020-07-07T00:08:53Z</time>
      </trkpt>
      <trkpt lat="31.20245876044901" lon="121.62114020271893">
        <ele>5.145172371529043</ele>
        <time>2020-07-07T00:09:23Z</time>
      </trkpt>
      <trkpt lat="31.202459831319874" lon="121.62115266802111">
        <ele>5.313295636326075</ele>
        <time>2020-07-07T00:09:27Z</time>
      </trkpt>
      <trkpt lat="31.202441664096696" lon="121.62115375347145">
        <ele>4.695726935751736</ele>
        <time>2020-07-07T00:09:37Z</time>
      </trkpt>
      <trkpt lat="31.20236641646722" lon="121.62078792513289">
        <ele>5.014559341594577</ele>
        <time>2020-07-07T00:09:52Z</time>
      </trkpt>
      <trkpt lat="31.202387369588212" lon="121.62071800776728">
        <ele>3.425448418594897</ele>
        <time>2020-07-07T00:09:55Z</time>
      </trkpt>
      <trkpt lat="31.20236259368288" lon="121.62056191843024">
        <ele>5.9738282561302185</ele>
        <time>2020-07-07T00:09:59Z</time>
      </trkpt>
      <trkpt lat="31.202374724669202" lon="121.62037466072658">
        <ele>4.821604602970183</ele>
        <time>2020-07-07T00:10:06Z</time>
      </trkpt>
      <trkpt lat="31.202437107720996" lon="121.62035405995479">
        <ele>5.147004078142345</ele>
        <time>2020-07-07T00:10:23Z</time>
      </trkpt>
      <trkpt lat="31.202413001354316" lon="121.62033102736734">
        <ele>5.245525253936648</ele>
        <time>2020-07-07T00:10:46Z</time>
      </trkpt>
      <trkpt lat="31.20266894773827" lon="121.62033561310464">
        <ele>6.669683746062219</ele>
        <time>2020-07-07T00:10:59Z</time>
      </trkpt>
      <trkpt lat="31.202811068177702" lon="121.62029278407323">
        <ele>6.723080042749643</ele>
        <time>2020-07-07T00:11:06Z</time>
      </trkpt>
      <trkpt lat="31.202879437843674" lon="121.62025185804679">
        <ele>6.187394870445132</ele>
        <time>2020-07-07T00:11:09Z</time>
      </trkpt>
      <trkpt lat="31.20282872153636" lon="121.6200098616572">
        <ele>2.4594852924346924</ele>
        <time>2020-07-07T00:11:17Z</time>
      </trkpt>
      <trkpt lat="31.202713002474614" lon="121.61969957600974">
        <ele>5.384333617985249</ele>
        <time>2020-07-07T00:11:27Z</time>
      </trkpt>
      <trkpt lat="31.202642867295154" lon="121.61935405215642">
        <ele>6.298364274203777</ele>
        <time>2020-07-07T00:11:37Z</time>
      </trkpt>
      <trkpt lat="31.20252504515075" lon="121.61897248333595">
        <ele>5.200626255944371</ele>
        <time>2020-07-07T00:11:49Z</time>
      </trkpt>
      <trkpt lat="31.202460187042977" lon="121.6187621844304">
        <ele>5.477446481585503</ele>
        <time>2020-07-07T00:11:55Z</time>
      </trkpt>
      <trkpt lat="31.202519101335177" lon="121.61868521209266">
        <ele>5.297587489709258</ele>
        <time>2020-07-07T00:11:59Z</time>
      </trkpt>
      <trkpt lat="31.20256898438705" lon="121.61869089922962">
        <ele>3.2791107278317213</ele>
        <time>2020-07-07T00:12:02Z</time>
      </trkpt>
      <trkpt lat="31.202631395314732" lon="121.61864156973458">
        <ele>3.401837868615985</ele>
        <time>2020-07-07T00:12:05Z</time>
      </trkpt>
      <trkpt lat="31.202821298588063" lon="121.61853369058926">
        <ele>4.413740022107959</ele>
        <time>2020-07-07T00:12:13Z</time>
      </trkpt>
      <trkpt lat="31.202825470784216" lon="121.61842907853425">
        <ele>4.729163936339319</ele>
        <time>2020-07-07T00:12:17Z</time>
      </trkpt>
      <trkpt lat="31.202793366286734" lon="121.6182686395895">
        <ele>4.5089111579582095</ele>
        <time>2020-07-07T00:12:28Z</time>
      </trkpt>
      <trkpt lat="31.202741123662065" lon="121.61818191829585">
        <ele>5.972280723042786</ele>
        <time>2020-07-07T00:12:35Z</time>
      </trkpt>
      <trkpt lat="31.202743398238656" lon="121.61807567882005">
        <ele>5.667117653414607</ele>
        <time>2020-07-07T00:12:43Z</time>
      </trkpt>
      <trkpt lat="31.202659747800617" lon="121.61794397008003">
        <ele>5.923662538640201</ele>
        <time>2020-07-07T00:12:51Z</time>
      </trkpt>
      <trkpt lat="31.202636764628885" lon="121.61787974001899">
        <ele>4.5272915149107575</ele>
        <time>2020-07-07T00:12:54Z</time>
      </trkpt>
      <trkpt lat="31.202489223521233" lon="121.6176477569254">
        <ele>7.432810164056718</ele>
        <time>2020-07-07T00:13:10Z</time>
      </trkpt>
      <trkpt lat="31.202400284971382" lon="121.61737511283916">
        <ele>3.3548237197101116</ele>
        <time>2020-07-07T00:13:28Z</time>
      </trkpt>
      <trkpt lat="31.20243205851138" lon="121.61732253095994">
        <ele>4.892347492277622</ele>
        <time>2020-07-07T00:13:31Z</time>
      </trkpt>
      <trkpt lat="31.20250723283051" lon="121.61724988930429">
        <ele>5.794008036144078</ele>
        <time>2020-07-07T00:13:38Z</time>
      </trkpt>
      <trkpt lat="31.202580002351663" lon="121.61714011664156">
        <ele>7.1117723705247045</ele>
        <time>2020-07-07T00:13:45Z</time>
      </trkpt>
      <trkpt lat="31.202835933205215" lon="121.61687719560292">
        <ele>6.677396135404706</ele>
        <time>2020-07-07T00:14:09Z</time>
      </trkpt>
      <trkpt lat="31.202970503664186" lon="121.61678476230563">
        <ele>4.660773943178356</ele>
        <time>2020-07-07T00:14:20Z</time>
      </trkpt>
      <trkpt lat="31.203073383191036" lon="121.61665818094065">
        <ele>7.210426859557629</ele>
        <time>2020-07-07T00:14:31Z</time>
      </trkpt>
      <trkpt lat="31.203224206056422" lon="121.6165817365752">
        <ele>6.731975101865828</ele>
        <time>2020-07-07T00:14:42Z</time>
      </trkpt>
      <trkpt lat="31.203358296569814" lon="121.6164215429844">
        <ele>7.256960963830352</ele>
        <time>2020-07-07T00:14:56Z</time>
      </trkpt>
      <trkpt lat="31.203418777116713" lon="121.61640283640338">
        <ele>6.9243706446141005</ele>
        <time>2020-07-07T00:15:00Z</time>
      </trkpt>
      <trkpt lat="31.203480935131438" lon="121.61632965103533">
        <ele>7.217039262875915</ele>
        <time>2020-07-07T00:15:06Z</time>
      </trkpt>
      <trkpt lat="31.203605168576544" lon="121.61627190953719">
        <ele>8.056037209928036</ele>
        <time>2020-07-07T00:15:16Z</time>
      </trkpt>
      <trkpt lat="31.20368577196068" lon="121.6161895068988">
        <ele>7.808717585168779</ele>
        <time>2020-07-07T00:15:24Z</time>
      </trkpt>
      <trkpt lat="31.2038564084447" lon="121.61608920783905">
        <ele>7.275101510807872</ele>
        <time>2020-07-07T00:15:41Z</time>
      </trkpt>
      <trkpt lat="31.203913158368927" lon="121.61599921738294">
        <ele>6.845557861030102</ele>
        <time>2020-07-07T00:15:48Z</time>
      </trkpt>
      <trkpt lat="31.20411572219629" lon="121.6159710122489">
        <ele>5.555163776502013</ele>
        <time>2020-07-07T00:16:04Z</time>
      </trkpt>
      <trkpt lat="31.204214194634854" lon="121.61591598246159">
        <ele>6.300258811563253</ele>
        <time>2020-07-07T00:16:11Z</time>
      </trkpt>
      <trkpt lat="31.204330076169576" lon="121.61609513156037">
        <ele>5.6452418668195605</ele>
        <time>2020-07-07T00:16:22Z</time>
      </trkpt>
      <trkpt lat="31.20457554239224" lon="121.61629242822134">
        <ele>7.029528816230595</ele>
        <time>2020-07-07T00:16:42Z</time>
      </trkpt>
      <trkpt lat="31.20463815176019" lon="121.61631708755088">
        <ele>6.448118345811963</ele>
        <time>2020-07-07T00:16:46Z</time>
      </trkpt>
      <trkpt lat="31.204669107203223" lon="121.61626748490963">
        <ele>7.507707209326327</ele>
        <time>2020-07-07T00:16:49Z</time>
      </trkpt>
      <trkpt lat="31.204645833484243" lon="121.61622005496938">
        <ele>7.085747939534485</ele>
        <time>2020-07-07T00:16:52Z</time>
      </trkpt>
      <trkpt lat="31.204558341622903" lon="121.61612817964475">
        <ele>7.883574784733355</ele>
        <time>2020-07-07T00:17:00Z</time>
      </trkpt>
      <trkpt lat="31.204365081545646" lon="121.61606368790208">
        <ele>8.106679460033774</ele>
        <time>2020-07-07T00:17:14Z</time>
      </trkpt>
      <trkpt lat="31.20431983482889" lon="121.61602791417548">
        <ele>8.017325294204056</ele>
        <time>2020-07-07T00:17:17Z</time>
      </trkpt>
      <trkpt lat="31.20418308557599" lon="121.61583765351605">
        <ele>7.407376088202</ele>
        <time>2020-07-07T00:17:32Z</time>
      </trkpt>
      <trkpt lat="31.203891821286" lon="121.61561054187634">
        <ele>6.2187775652855635</ele>
        <time>2020-07-07T00:17:55Z</time>
      </trkpt>
      <trkpt lat="31.20375527636449" lon="121.61549156355328">
        <ele>6.787547854706645</ele>
        <time>2020-07-07T00:18:07Z</time>
      </trkpt>
      <trkpt lat="31.203681888448507" lon="121.6153915528405">
        <ele>6.363330604508519</ele>
        <time>2020-07-07T00:18:15Z</time>
      </trkpt>
      <trkpt lat="31.20359274508159" lon="121.61532434002882">
        <ele>5.271467458456755</ele>
        <time>2020-07-07T00:18:23Z</time>
      </trkpt>
      <trkpt lat="31.203536906973167" lon="121.61530672642242">
        <ele>5.523059071972966</ele>
        <time>2020-07-07T00:18:27Z</time>
      </trkpt>
      <trkpt lat="31.203567888782683" lon="121.6152254088109">
        <ele>5.725348579697311</ele>
        <time>2020-07-07T00:18:31Z</time>
      </trkpt>
      <trkpt lat="31.203640339848572" lon="121.6151600795305">
        <ele>4.708807293325663</ele>
        <time>2020-07-07T00:18:35Z</time>
      </trkpt>
      <trkpt lat="31.203682154651062" lon="121.61509231313751">
        <ele>6.500022046267986</ele>
        <time>2020-07-07T00:18:38Z</time>
      </trkpt>
      <trkpt lat="31.20374564455861" lon="121.61504216319199">
        <ele>6.130883930251002</ele>
        <time>2020-07-07T00:18:41Z</time>
      </trkpt>
      <trkpt lat="31.203801306748893" lon="121.6149518978742">
        <ele>7.42976906709373</ele>
        <time>2020-07-07T00:18:45Z</time>
      </trkpt>
      <trkpt lat="31.204061587473657" lon="121.614651818017">
        <ele>8.468402474187315</ele>
        <time>2020-07-07T00:18:56Z</time>
      </trkpt>
      <trkpt lat="31.204291730102675" lon="121.61439700394726">
        <ele>6.413411712273955</ele>
        <time>2020-07-07T00:19:07Z</time>
      </trkpt>
      <trkpt lat="31.204401385466358" lon="121.61426065130911">
        <ele>6.137879578396678</ele>
        <time>2020-07-07T00:19:11Z</time>
      </trkpt>
      <trkpt lat="31.20444782464733" lon="121.614172552301">
        <ele>8.437811543233693</ele>
        <time>2020-07-07T00:19:14Z</time>
      </trkpt>
      <trkpt lat="31.20468120437859" lon="121.61393209929462">
        <ele>8.499259452335536</ele>
        <time>2020-07-07T00:19:25Z</time>
      </trkpt>
      <trkpt lat="31.20476692916213" lon="121.61387733695041">
        <ele>6.104469395242631</ele>
        <time>2020-07-07T00:19:28Z</time>
      </trkpt>
      <trkpt lat="31.204874689874487" lon="121.61373393372547">
        <ele>7.14215964730829</ele>
        <time>2020-07-07T00:19:34Z</time>
      </trkpt>
      <trkpt lat="31.204937888368523" lon="121.61370519531856">
        <ele>7.785587623715401</ele>
        <time>2020-07-07T00:19:37Z</time>
      </trkpt>
      <trkpt lat="31.204995698368247" lon="121.61363525491409">
        <ele>9.380431858822703</ele>
        <time>2020-07-07T00:19:40Z</time>
      </trkpt>
      <trkpt lat="31.20508223148516" lon="121.61358591320123">
        <ele>6.880002953112125</ele>
        <time>2020-07-07T00:19:44Z</time>
      </trkpt>
      <trkpt lat="31.20522522310144" lon="121.61346093810779">
        <ele>4.975575967691839</ele>
        <time>2020-07-07T00:19:52Z</time>
      </trkpt>
      <trkpt lat="31.205300167356683" lon="121.61332593830575">
        <ele>7.62396596185863</ele>
        <time>2020-07-07T00:19:59Z</time>
      </trkpt>
      <trkpt lat="31.205400299165703" lon="121.61322454877636">
        <ele>7.950359764508903</ele>
        <time>2020-07-07T00:20:09Z</time>
      </trkpt>
      <trkpt lat="31.20553948532518" lon="121.61310933076993">
        <ele>6.688484024256468</ele>
        <time>2020-07-07T00:20:19Z</time>
      </trkpt>
      <trkpt lat="31.20547770439701" lon="121.61306243989526">
        <ele>6.382783683016896</ele>
        <time>2020-07-07T00:20:23Z</time>
      </trkpt>
      <trkpt lat="31.20537449557474" lon="121.61294615682826">
        <ele>7.814477262087166</ele>
        <time>2020-07-07T00:20:30Z</time>
      </trkpt>
      <trkpt lat="31.205396000552604" lon="121.61283989275465">
        <ele>8.167883264832199</ele>
        <time>2020-07-07T00:20:37Z</time>
      </trkpt>
      <trkpt lat="31.205473117871342" lon="121.61269594356861">
        <ele>9.518112833611667</ele>
        <time>2020-07-07T00:20:41Z</time>
      </trkpt>
      <trkpt lat="31.20553960803194" lon="121.6126178670227">
        <ele>8.971188629977405</ele>
        <time>2020-07-07T00:20:45Z</time>
      </trkpt>
      <trkpt lat="31.20568852574434" lon="121.61253653042252">
        <ele>11.935321524739265</ele>
        <time>2020-07-07T00:20:52Z</time>
      </trkpt>
      <trkpt lat="31.205822830640603" lon="121.61241859859659">
        <ele>9.626717196777463</ele>
        <time>2020-07-07T00:20:59Z</time>
      </trkpt>
      <trkpt lat="31.205916672674515" lon="121.61238145246328">
        <ele>6.81056946143508</ele>
        <time>2020-07-07T00:21:03Z</time>
      </trkpt>
      <trkpt lat="31.206020095491397" lon="121.61222746812172">
        <ele>7.2600876139476895</ele>
        <time>2020-07-07T00:21:11Z</time>
      </trkpt>
      <trkpt lat="31.206067037111232" lon="121.61218219299488">
        <ele>7.38788615167141</ele>
        <time>2020-07-07T00:21:15Z</time>
      </trkpt>
      <trkpt lat="31.206250259237603" lon="121.61191542810958">
        <ele>7.178654737770557</ele>
        <time>2020-07-07T00:21:37Z</time>
      </trkpt>
      <trkpt lat="31.206365868518343" lon="121.61177716290243">
        <ele>5.208132667466998</ele>
        <time>2020-07-07T00:21:48Z</time>
      </trkpt>
      <trkpt lat="31.206408769252633" lon="121.61169637429866">
        <ele>7.520515852607787</ele>
        <time>2020-07-07T00:21:55Z</time>
      </trkpt>
    </trkseg>
  </trk>
</gpx>