<?xml version="1.0" encoding="UTF-8"?>
<gpx xmlns="http://www.topografix.com/GPX/1/1" xmlns:gpxtpx="http://www.garmin.com/xmlschemas/TrackPointExtension/v1" xmlns:xsi="http://www.w3.org/2001/XMLSchema-instance" xsi:schemaLocation="http://www.topografix.com/GPX/1/1 http://www.topografix.com/GPX/1/1/gpx.xsd" version="1.1" creator="gpx.py -- https://github.com/tkrajina/gpxpy">
  <trk>
    <name>gpx from keep</name>
    <type>Run</type>
    <trkseg>
      <trkpt lat="31.204388413374936" lon="121.61113781542991">
        <ele>7.631252288818359</ele>
        <time>2019-04-20T23:16:17Z</time>
      </trkpt>
      <trkpt lat="31.20429512887429" lon="121.61115679998514">
        <ele>7.507167816162109</ele>
        <time>2019-04-20T23:16:28Z</time>
      </trkpt>
      <trkpt lat="31.204171939728433" lon="121.61128368351758">
        <ele>7.224941253662109</ele>
        <time>2019-04-20T23:16:35Z</time>
      </trkpt>
      <trkpt lat="31.204136370078363" lon="121.61135227368082">
        <ele>7.312587738037109</ele>
        <time>2019-04-20T23:16:38Z</time>
      </trkpt>
      <trkpt lat="31.204142523667866" lon="121.61146287980262">
        <ele>6.988674163818359</ele>
        <time>2019-04-20T23:16:42Z</time>
      </trkpt>
      <trkpt lat="31.204192293413737" lon="121.61162146514785">
        <ele>7.204067230224609</ele>
        <time>2019-04-20T23:16:48Z</time>
      </trkpt>
      <trkpt lat="31.204390056228615" lon="121.61184021913033">
        <ele>7.291342468777586</ele>
        <time>2019-04-20T23:16:58Z</time>
      </trkpt>
      <trkpt lat="31.204463465309303" lon="121.61192994353875">
        <ele>7.152785360650817</ele>
        <time>2019-04-20T23:17:02Z</time>
      </trkpt>
      <trkpt lat="31.204566980533887" lon="121.61200611073143">
        <ele>7.260458916239884</ele>
        <time>2019-04-20T23:17:06Z</time>
      </trkpt>
      <trkpt lat="31.204626557807224" lon="121.61210017302366">
        <ele>7.312274616973575</ele>
        <time>2019-04-20T23:17:10Z</time>
      </trkpt>
      <trkpt lat="31.20481645674928" lon="121.61231512794473">
        <ele>7.318121210071951</ele>
        <time>2019-04-20T23:17:21Z</time>
      </trkpt>
      <trkpt lat="31.204957353131014" lon="121.61243520620344">
        <ele>6.983584492662196</ele>
        <time>2019-04-20T23:17:28Z</time>
      </trkpt>
      <trkpt lat="31.20500230040598" lon="121.61251300306682">
        <ele>7.137324506568255</ele>
        <time>2019-04-20T23:17:31Z</time>
      </trkpt>
      <trkpt lat="31.205086571738835" lon="121.61257859777916">
        <ele>6.986969347392616</ele>
        <time>2019-04-20T23:17:43Z</time>
      </trkpt>
      <trkpt lat="31.20515541096805" lon="121.61261545906595">
        <ele>7.503006067521362</ele>
        <time>2019-04-20T23:17:53Z</time>
      </trkpt>
      <trkpt lat="31.205340168325034" lon="121.61281278956545">
        <ele>8.078676775393937</ele>
        <time>2019-04-20T23:18:07Z</time>
      </trkpt>
      <trkpt lat="31.20534307762546" lon="121.61290414250489">
        <ele>8.426301094907032</ele>
        <time>2019-04-20T23:18:11Z</time>
      </trkpt>
      <trkpt lat="31.20526521510161" lon="121.61296215938246">
        <ele>8.102051164856718</ele>
        <time>2019-04-20T23:18:22Z</time>
      </trkpt>
      <trkpt lat="31.205224478309074" lon="121.61304456985648">
        <ele>8.570315250785036</ele>
        <time>2019-04-20T23:18:31Z</time>
      </trkpt>
      <trkpt lat="31.205168839365687" lon="121.61311396968946">
        <ele>8.511409457221866</ele>
        <time>2019-04-20T23:18:34Z</time>
      </trkpt>
      <trkpt lat="31.205135952234485" lon="121.61321210125364">
        <ele>7.981844741717097</ele>
        <time>2019-04-20T23:18:40Z</time>
      </trkpt>
      <trkpt lat="31.204836152476005" lon="121.61345039852051">
        <ele>8.360576997937308</ele>
        <time>2019-04-20T23:18:51Z</time>
      </trkpt>
      <trkpt lat="31.204731428934416" lon="121.61352955973248">
        <ele>8.195120793217583</ele>
        <time>2019-04-20T23:18:55Z</time>
      </trkpt>
      <trkpt lat="31.204608746509606" lon="121.61368543457084">
        <ele>7.903251544479296</ele>
        <time>2019-04-20T23:19:02Z</time>
      </trkpt>
      <trkpt lat="31.204468465501655" lon="121.61381013718452">
        <ele>7.900363814817567</ele>
        <time>2019-04-20T23:19:08Z</time>
      </trkpt>
      <trkpt lat="31.204418505021888" lon="121.61389552717381">
        <ele>7.557721342474899</ele>
        <time>2019-04-20T23:19:12Z</time>
      </trkpt>
      <trkpt lat="31.20418729705072" lon="121.61413326974227">
        <ele>7.562673967612227</ele>
        <time>2019-04-20T23:19:22Z</time>
      </trkpt>
      <trkpt lat="31.20410018148841" lon="121.61422869093303">
        <ele>7.726539536707534</ele>
        <time>2019-04-20T23:19:26Z</time>
      </trkpt>
      <trkpt lat="31.20386872144172" lon="121.61444095060858">
        <ele>7.649002241002719</ele>
        <time>2019-04-20T23:19:37Z</time>
      </trkpt>
      <trkpt lat="31.20372841686309" lon="121.6145889602391">
        <ele>7.267547686588351</ele>
        <time>2019-04-20T23:19:44Z</time>
      </trkpt>
      <trkpt lat="31.203660546552992" lon="121.6146887149206">
        <ele>7.60687786527847</ele>
        <time>2019-04-20T23:19:48Z</time>
      </trkpt>
      <trkpt lat="31.203691645164334" lon="121.61478276883383">
        <ele>7.943049424148562</ele>
        <time>2019-04-20T23:19:51Z</time>
      </trkpt>
      <trkpt lat="31.203774262451738" lon="121.6148730233526">
        <ele>7.67794257097394</ele>
        <time>2019-04-20T23:19:55Z</time>
      </trkpt>
      <trkpt lat="31.20381023895513" lon="121.61496924456642">
        <ele>7.714976748480439</ele>
        <time>2019-04-20T23:19:59Z</time>
      </trkpt>
      <trkpt lat="31.203781406876956" lon="121.61507333127308">
        <ele>7.962797986854554</ele>
        <time>2019-04-20T23:20:06Z</time>
      </trkpt>
      <trkpt lat="31.203508693687994" lon="121.61532380488124">
        <ele>7.671574218679368</ele>
        <time>2019-04-20T23:20:32Z</time>
      </trkpt>
      <trkpt lat="31.20338688352705" lon="121.61540269023533">
        <ele>7.587124435088718</ele>
        <time>2019-04-20T23:20:38Z</time>
      </trkpt>
      <trkpt lat="31.203191722571916" lon="121.61564149903789">
        <ele>7.681673753629468</ele>
        <time>2019-04-20T23:20:49Z</time>
      </trkpt>
      <trkpt lat="31.202948560771905" lon="121.61588898283946">
        <ele>7.580669665662107</ele>
        <time>2019-04-20T23:21:03Z</time>
      </trkpt>
      <trkpt lat="31.202686121221944" lon="121.61616356974355">
        <ele>7.690360862024107</ele>
        <time>2019-04-20T23:21:18Z</time>
      </trkpt>
      <trkpt lat="31.202432630253686" lon="121.61643408726066">
        <ele>8.012456270031251</ele>
        <time>2019-04-20T23:21:33Z</time>
      </trkpt>
      <trkpt lat="31.20220170569801" lon="121.61663575715524">
        <ele>7.634314805608945</ele>
        <time>2019-04-20T23:21:45Z</time>
      </trkpt>
      <trkpt lat="31.202009519113414" lon="121.61687211434815">
        <ele>7.0224413046354925</ele>
        <time>2019-04-20T23:21:56Z</time>
      </trkpt>
      <trkpt lat="31.201769009908254" lon="121.61716972590754">
        <ele>7.050387444095371</ele>
        <time>2019-04-20T23:22:13Z</time>
      </trkpt>
      <trkpt lat="31.20150685462059" lon="121.6174180089387">
        <ele>6.586835704779062</ele>
        <time>2019-04-20T23:22:24Z</time>
      </trkpt>
      <trkpt lat="31.201345927117767" lon="121.6175670862763">
        <ele>6.674002028793396</ele>
        <time>2019-04-20T23:22:31Z</time>
      </trkpt>
      <trkpt lat="31.201268560225422" lon="121.6176630352312">
        <ele>6.692255567579714</ele>
        <time>2019-04-20T23:22:35Z</time>
      </trkpt>
      <trkpt lat="31.20104843724719" lon="121.61790046902375">
        <ele>6.366509853850779</ele>
        <time>2019-04-20T23:22:46Z</time>
      </trkpt>
      <trkpt lat="31.200847023835745" lon="121.6181346467932">
        <ele>6.813229053325905</ele>
        <time>2019-04-20T23:22:57Z</time>
      </trkpt>
      <trkpt lat="31.200719992042508" lon="121.61827612857877">
        <ele>6.805283749294134</ele>
        <time>2019-04-20T23:23:04Z</time>
      </trkpt>
      <trkpt lat="31.200505757735566" lon="121.61858429075633">
        <ele>7.044967256127485</ele>
        <time>2019-04-20T23:23:18Z</time>
      </trkpt>
      <trkpt lat="31.200319255620297" lon="121.61881412475643">
        <ele>7.194862852022936</ele>
        <time>2019-04-20T23:23:29Z</time>
      </trkpt>
      <trkpt lat="31.200242721502985" lon="121.61888703300599">
        <ele>7.346287112628772</ele>
        <time>2019-04-20T23:23:33Z</time>
      </trkpt>
      <trkpt lat="31.200242721502985" lon="121.61888703300599">
        <ele>7.346287112628772</ele>
        <time>2019-04-20T23:23:41Z</time>
      </trkpt>
      <trkpt lat="31.20019959594292" lon="121.61890194214462">
        <ele>6.941182973325361</ele>
        <time>2019-04-20T23:23:48Z</time>
      </trkpt>
      <trkpt lat="31.200029126130545" lon="121.61909491484829">
        <ele>7.043714487565069</ele>
        <time>2019-04-20T23:23:59Z</time>
      </trkpt>
      <trkpt lat="31.199832311035028" lon="121.61933043620708">
        <ele>7.034610547378016</ele>
        <time>2019-04-20T23:24:12Z</time>
      </trkpt>
      <trkpt lat="31.199595101282274" lon="121.61955999666691">
        <ele>7.263344694534567</ele>
        <time>2019-04-20T23:24:24Z</time>
      </trkpt>
      <trkpt lat="31.199387713386297" lon="121.61979063661008">
        <ele>7.319114194438249</ele>
        <time>2019-04-20T23:24:35Z</time>
      </trkpt>
      <trkpt lat="31.199228111510884" lon="121.6199567728208">
        <ele>7.586300724741243</ele>
        <time>2019-04-20T23:24:44Z</time>
      </trkpt>
      <trkpt lat="31.199174073564564" lon="121.62003455392697">
        <ele>7.744794405894645</ele>
        <time>2019-04-20T23:24:48Z</time>
      </trkpt>
      <trkpt lat="31.19901184543382" lon="121.62011938968527">
        <ele>7.570189854261571</ele>
        <time>2019-04-20T23:24:54Z</time>
      </trkpt>
      <trkpt lat="31.198900819839523" lon="121.6202432444024">
        <ele>7.4732819478054395</ele>
        <time>2019-04-20T23:25:01Z</time>
      </trkpt>
      <trkpt lat="31.198777285586925" lon="121.62040070290257">
        <ele>7.2058715163082</ele>
        <time>2019-04-20T23:25:08Z</time>
      </trkpt>
      <trkpt lat="31.19847365680475" lon="121.62061454180528">
        <ele>7.0564276341276795</ele>
        <time>2019-04-20T23:25:20Z</time>
      </trkpt>
      <trkpt lat="31.198209049527065" lon="121.62084707403567">
        <ele>6.764218879176113</ele>
        <time>2019-04-20T23:25:33Z</time>
      </trkpt>
      <trkpt lat="31.197943069990835" lon="121.62109315368689">
        <ele>7.3099103362799625</ele>
        <time>2019-04-20T23:25:48Z</time>
      </trkpt>
      <trkpt lat="31.19768767943663" lon="121.62132405500874">
        <ele>7.295824365006439</ele>
        <time>2019-04-20T23:26:02Z</time>
      </trkpt>
      <trkpt lat="31.19746130297902" lon="121.62155088717317">
        <ele>7.5477266208330605</ele>
        <time>2019-04-20T23:26:13Z</time>
      </trkpt>
      <trkpt lat="31.19720889420411" lon="121.62177934543433">
        <ele>7.699872949210182</ele>
        <time>2019-04-20T23:26:25Z</time>
      </trkpt>
      <trkpt lat="31.196985281498453" lon="121.62195658446595">
        <ele>8.10928327856631</ele>
        <time>2019-04-20T23:26:35Z</time>
      </trkpt>
      <trkpt lat="31.196736692282766" lon="121.62216146399835">
        <ele>8.550755027481244</ele>
        <time>2019-04-20T23:26:48Z</time>
      </trkpt>
      <trkpt lat="31.19665309392278" lon="121.62224032494007">
        <ele>8.896709230862271</ele>
        <time>2019-04-20T23:26:52Z</time>
      </trkpt>
      <trkpt lat="31.196622913286298" lon="121.62231511660646">
        <ele>9.61079135954001</ele>
        <time>2019-04-20T23:26:55Z</time>
      </trkpt>
      <trkpt lat="31.196681565286475" lon="121.62271371283761">
        <ele>9.075395489425162</ele>
        <time>2019-04-20T23:27:09Z</time>
      </trkpt>
      <trkpt lat="31.196761687953686" lon="121.6230637983026">
        <ele>8.152931360208228</ele>
        <time>2019-04-20T23:27:32Z</time>
      </trkpt>
      <trkpt lat="31.19681768560464" lon="121.62340548137996">
        <ele>6.994636283194417</ele>
        <time>2019-04-20T23:27:55Z</time>
      </trkpt>
      <trkpt lat="31.196863055634264" lon="121.6237891599374">
        <ele>6.513339249428583</ele>
        <time>2019-04-20T23:28:13Z</time>
      </trkpt>
      <trkpt lat="31.196915678843588" lon="121.62399806510292">
        <ele>6.586698761952228</ele>
        <time>2019-04-20T23:28:20Z</time>
      </trkpt>
      <trkpt lat="31.196956144430473" lon="121.62394197335944">
        <ele>6.534992405616926</ele>
        <time>2019-04-20T23:28:24Z</time>
      </trkpt>
      <trkpt lat="31.196949820152042" lon="121.62355775177531">
        <ele>6.837765512940209</ele>
        <time>2019-04-20T23:28:38Z</time>
      </trkpt>
      <trkpt lat="31.19688109540598" lon="121.62320360722259">
        <ele>6.682663023538161</ele>
        <time>2019-04-20T23:28:52Z</time>
      </trkpt>
      <trkpt lat="31.196851003560205" lon="121.62296651345059">
        <ele>6.341166417819579</ele>
        <time>2019-04-20T23:29:02Z</time>
      </trkpt>
      <trkpt lat="31.196851003560205" lon="121.62296651345059">
        <ele>6.341166417819579</ele>
        <time>2019-04-20T23:29:09Z</time>
      </trkpt>
      <trkpt lat="31.196808288051976" lon="121.62285948428178">
        <ele>6.519212342562646</ele>
        <time>2019-04-20T23:29:26Z</time>
      </trkpt>
      <trkpt lat="31.196823277498883" lon="121.62279255351524">
        <ele>6.133100167105631</ele>
        <time>2019-04-20T23:29:29Z</time>
      </trkpt>
      <trkpt lat="31.196983122431057" lon="121.62266437113657">
        <ele>6.035347501730101</ele>
        <time>2019-04-20T23:29:37Z</time>
      </trkpt>
      <trkpt lat="31.197155237768328" lon="121.62247494724804">
        <ele>6.3920381381640965</ele>
        <time>2019-04-20T23:29:47Z</time>
      </trkpt>
      <trkpt lat="31.19724288619489" lon="121.62241153217661">
        <ele>6.564943775581277</ele>
        <time>2019-04-20T23:29:51Z</time>
      </trkpt>
      <trkpt lat="31.19732398692935" lon="121.62238361513852">
        <ele>6.2227687134917815</ele>
        <time>2019-04-20T23:29:54Z</time>
      </trkpt>
      <trkpt lat="31.19758615895314" lon="121.62215705807274">
        <ele>7.448631328337502</ele>
        <time>2019-04-20T23:30:08Z</time>
      </trkpt>
      <trkpt lat="31.197876002938422" lon="121.62191450905091">
        <ele>8.31004305763167</ele>
        <time>2019-04-20T23:30:22Z</time>
      </trkpt>
      <trkpt lat="31.198109138200017" lon="121.62170773203808">
        <ele>8.262264283576528</ele>
        <time>2019-04-20T23:30:41Z</time>
      </trkpt>
      <trkpt lat="31.19836154121487" lon="121.62148415086378">
        <ele>7.638640808302505</ele>
        <time>2019-04-20T23:31:05Z</time>
      </trkpt>
      <trkpt lat="31.19852584762539" lon="121.62123916722257">
        <ele>8.317287208984574</ele>
        <time>2019-04-20T23:31:19Z</time>
      </trkpt>
      <trkpt lat="31.1987809132665" lon="121.62105704301584">
        <ele>7.59353103053747</ele>
        <time>2019-04-20T23:31:31Z</time>
      </trkpt>
      <trkpt lat="31.19909001006435" lon="121.62080445569424">
        <ele>6.950090932400755</ele>
        <time>2019-04-20T23:31:49Z</time>
      </trkpt>
      <trkpt lat="31.19927854370144" lon="121.62071636809745">
        <ele>7.361731798194544</ele>
        <time>2019-04-20T23:31:57Z</time>
      </trkpt>
      <trkpt lat="31.19945560573697" lon="121.62070578478621">
        <ele>7.537593373403119</ele>
        <time>2019-04-20T23:32:04Z</time>
      </trkpt>
      <trkpt lat="31.19972941843541" lon="121.62073611313829">
        <ele>7.642018094317923</ele>
        <time>2019-04-20T23:32:14Z</time>
      </trkpt>
      <trkpt lat="31.200008655024963" lon="121.62076535704313">
        <ele>7.471507155809267</ele>
        <time>2019-04-20T23:32:25Z</time>
      </trkpt>
      <trkpt lat="31.200220922934975" lon="121.62079325150465">
        <ele>7.120311337580386</ele>
        <time>2019-04-20T23:32:39Z</time>
      </trkpt>
      <trkpt lat="31.20033800709354" lon="121.62083551628551">
        <ele>7.409415458439714</ele>
        <time>2019-04-20T23:32:50Z</time>
      </trkpt>
      <trkpt lat="31.200550297080866" lon="121.6208430864357">
        <ele>7.352584724476113</ele>
        <time>2019-04-20T23:33:05Z</time>
      </trkpt>
      <trkpt lat="31.200740547980722" lon="121.62092165764281">
        <ele>7.6380854019709545</ele>
        <time>2019-04-20T23:33:20Z</time>
      </trkpt>
      <trkpt lat="31.201047977588782" lon="121.62095550581408">
        <ele>7.5985359608205485</ele>
        <time>2019-04-20T23:33:43Z</time>
      </trkpt>
      <trkpt lat="31.20115237856288" lon="121.62094248971181">
        <ele>7.4792541292766614</ele>
        <time>2019-04-20T23:33:50Z</time>
      </trkpt>
      <trkpt lat="31.20143538721289" lon="121.62099368313572">
        <ele>8.032328600974761</ele>
        <time>2019-04-20T23:34:10Z</time>
      </trkpt>
      <trkpt lat="31.201739255730143" lon="121.62106086300847">
        <ele>7.842373179577404</ele>
        <time>2019-04-20T23:34:33Z</time>
      </trkpt>
      <trkpt lat="31.20201006681239" lon="121.62110880536426">
        <ele>7.8836975854355344</ele>
        <time>2019-04-20T23:34:47Z</time>
      </trkpt>
      <trkpt lat="31.202292814942627" lon="121.6211502429637">
        <ele>8.198089538984611</ele>
        <time>2019-04-20T23:34:58Z</time>
      </trkpt>
      <trkpt lat="31.202454697882363" lon="121.62113613825255">
        <ele>8.265826965167324</ele>
        <time>2019-04-20T23:35:05Z</time>
      </trkpt>
      <trkpt lat="31.202451186197163" lon="121.62112421511856">
        <ele>8.077421438998101</ele>
        <time>2019-04-20T23:35:28Z</time>
      </trkpt>
      <trkpt lat="31.20244412718797" lon="121.62113288728489">
        <ele>7.804310618891968</ele>
        <time>2019-04-20T23:35:33Z</time>
      </trkpt>
      <trkpt lat="31.20243375925569" lon="121.62119196322">
        <ele>7.5307659660442035</ele>
        <time>2019-04-20T23:36:13Z</time>
      </trkpt>
      <trkpt lat="31.20246471947338" lon="121.6211456219616">
        <ele>7.354618866105284</ele>
        <time>2019-04-20T23:36:19Z</time>
      </trkpt>
      <trkpt lat="31.202409230192764" lon="121.62081149774885">
        <ele>7.497819778006203</ele>
        <time>2019-04-20T23:36:30Z</time>
      </trkpt>
      <trkpt lat="31.202387338081795" lon="121.62049579405478">
        <ele>7.072504062588962</ele>
        <time>2019-04-20T23:36:41Z</time>
      </trkpt>
      <trkpt lat="31.202387704601005" lon="121.6204069080079">
        <ele>7.22299132949329</ele>
        <time>2019-04-20T23:36:44Z</time>
      </trkpt>
      <trkpt lat="31.20240893056549" lon="121.62033455064167">
        <ele>7.28209636229937</ele>
        <time>2019-04-20T23:36:47Z</time>
      </trkpt>
      <trkpt lat="31.202478894362248" lon="121.62032424703334">
        <ele>7.093002441941479</ele>
        <time>2019-04-20T23:36:55Z</time>
      </trkpt>
      <trkpt lat="31.202478894362248" lon="121.62032424703334">
        <ele>7.093002441941479</ele>
        <time>2019-04-20T23:36:59Z</time>
      </trkpt>
      <trkpt lat="31.202480769706696" lon="121.62034538450118">
        <ele>6.933086428379028</ele>
        <time>2019-04-20T23:37:26Z</time>
      </trkpt>
      <trkpt lat="31.202569964958645" lon="121.62035296498031">
        <ele>6.620541446804047</ele>
        <time>2019-04-20T23:37:33Z</time>
      </trkpt>
      <trkpt lat="31.202894053690933" lon="121.62027570447707">
        <ele>6.567390439960054</ele>
        <time>2019-04-20T23:37:45Z</time>
      </trkpt>
      <trkpt lat="31.20292420659268" lon="121.62022231575772">
        <ele>6.448727643066402</ele>
        <time>2019-04-20T23:37:48Z</time>
      </trkpt>
      <trkpt lat="31.202846586893564" lon="121.62003777301591">
        <ele>6.544654949505269</ele>
        <time>2019-04-20T23:37:55Z</time>
      </trkpt>
      <trkpt lat="31.202862202770827" lon="121.61988519924587">
        <ele>6.184246005465358</ele>
        <time>2019-04-20T23:38:01Z</time>
      </trkpt>
      <trkpt lat="31.202918927326973" lon="121.61983072351978">
        <ele>6.125336097570269</ele>
        <time>2019-04-20T23:38:04Z</time>
      </trkpt>
      <trkpt lat="31.203194006668795" lon="121.61968923813576">
        <ele>5.981698607725711</ele>
        <time>2019-04-20T23:38:16Z</time>
      </trkpt>
      <trkpt lat="31.203336752833145" lon="121.61956564914425">
        <ele>5.950772087182408</ele>
        <time>2019-04-20T23:38:23Z</time>
      </trkpt>
      <trkpt lat="31.203208013120662" lon="121.6192567142416">
        <ele>5.500162421677054</ele>
        <time>2019-04-20T23:38:35Z</time>
      </trkpt>
      <trkpt lat="31.203142831136635" lon="121.61909980638275">
        <ele>5.691870347059911</ele>
        <time>2019-04-20T23:38:42Z</time>
      </trkpt>
      <trkpt lat="31.203093786664688" lon="121.61880413879908">
        <ele>5.690480183694326</ele>
        <time>2019-04-20T23:38:53Z</time>
      </trkpt>
      <trkpt lat="31.20302689336801" lon="121.6187282610471">
        <ele>5.5983314637826425</ele>
        <time>2019-04-20T23:38:57Z</time>
      </trkpt>
      <trkpt lat="31.202985768383265" lon="121.61864181142806">
        <ele>5.726808175055687</ele>
        <time>2019-04-20T23:39:00Z</time>
      </trkpt>
      <trkpt lat="31.202953640539885" lon="121.61850576515874">
        <ele>5.940440223976353</ele>
        <time>2019-04-20T23:39:04Z</time>
      </trkpt>
      <trkpt lat="31.20282053003869" lon="121.61821822811446">
        <ele>5.850657443627902</ele>
        <time>2019-04-20T23:39:15Z</time>
      </trkpt>
      <trkpt lat="31.202737186569653" lon="121.61805101657781">
        <ele>6.040488111388115</ele>
        <time>2019-04-20T23:39:22Z</time>
      </trkpt>
      <trkpt lat="31.202662715842784" lon="121.61795860494207">
        <ele>6.121238302227532</ele>
        <time>2019-04-20T23:39:28Z</time>
      </trkpt>
      <trkpt lat="31.202559902545435" lon="121.61773691775123">
        <ele>6.2388155893146795</ele>
        <time>2019-04-20T23:39:35Z</time>
      </trkpt>
      <trkpt lat="31.202487740763704" lon="121.61749977760985">
        <ele>6.658482237737104</ele>
        <time>2019-04-20T23:39:43Z</time>
      </trkpt>
      <trkpt lat="31.202443877893174" lon="121.61743690326173">
        <ele>6.963263905081931</ele>
        <time>2019-04-20T23:39:46Z</time>
      </trkpt>
      <trkpt lat="31.202409262786606" lon="121.61734367297021">
        <ele>6.919267130471745</ele>
        <time>2019-04-20T23:39:50Z</time>
      </trkpt>
      <trkpt lat="31.202440524531458" lon="121.61725938080579">
        <ele>6.766925461695092</ele>
        <time>2019-04-20T23:39:53Z</time>
      </trkpt>
      <trkpt lat="31.202683640710923" lon="121.61707235063835">
        <ele>6.392113714635929</ele>
        <time>2019-04-20T23:40:04Z</time>
      </trkpt>
      <trkpt lat="31.20281798450361" lon="121.61693384275988">
        <ele>6.217120597911681</ele>
        <time>2019-04-20T23:40:11Z</time>
      </trkpt>
      <trkpt lat="31.20290153216996" lon="121.61689372313755">
        <ele>6.3279635122694735</ele>
        <time>2019-04-20T23:40:15Z</time>
      </trkpt>
      <trkpt lat="31.203040496681268" lon="121.6167422042584">
        <ele>6.118752067016821</ele>
        <time>2019-04-20T23:40:23Z</time>
      </trkpt>
      <trkpt lat="31.203271106311902" lon="121.61658823754675">
        <ele>5.900675757089111</ele>
        <time>2019-04-20T23:40:34Z</time>
      </trkpt>
      <trkpt lat="31.2034843998821" lon="121.61639415777479">
        <ele>5.929729659841502</ele>
        <time>2019-04-20T23:40:45Z</time>
      </trkpt>
      <trkpt lat="31.203734815089263" lon="121.61622446695617">
        <ele>5.866694716657122</ele>
        <time>2019-04-20T23:40:59Z</time>
      </trkpt>
      <trkpt lat="31.203878063307602" lon="121.61612823591366">
        <ele>6.07679487277219</ele>
        <time>2019-04-20T23:41:13Z</time>
      </trkpt>
      <trkpt lat="31.20394349341942" lon="121.61603417926071">
        <ele>6.140765097304119</ele>
        <time>2019-04-20T23:41:21Z</time>
      </trkpt>
      <trkpt lat="31.20398392067285" lon="121.61600354820088">
        <ele>6.304475534284446</ele>
        <time>2019-04-20T23:41:25Z</time>
      </trkpt>
      <trkpt lat="31.204042188370376" lon="121.61603227380633">
        <ele>6.327741905449059</ele>
        <time>2019-04-20T23:41:32Z</time>
      </trkpt>
      <trkpt lat="31.204138717233977" lon="121.61602711603146">
        <ele>6.10937222532468</ele>
        <time>2019-04-20T23:41:39Z</time>
      </trkpt>
      <trkpt lat="31.204269726512297" lon="121.61597154159529">
        <ele>6.094119819238244</ele>
        <time>2019-04-20T23:41:49Z</time>
      </trkpt>
      <trkpt lat="31.20438864712639" lon="121.61608889277457">
        <ele>6.48843466045156</ele>
        <time>2019-04-20T23:42:00Z</time>
      </trkpt>
      <trkpt lat="31.20444979889099" lon="121.61622413677674">
        <ele>6.642008180416692</ele>
        <time>2019-04-20T23:42:11Z</time>
      </trkpt>
      <trkpt lat="31.20452214658145" lon="121.61627318888344">
        <ele>6.5569341542039155</ele>
        <time>2019-04-20T23:42:17Z</time>
      </trkpt>
      <trkpt lat="31.204588768860003" lon="121.61635612113666">
        <ele>6.339884959811968</ele>
        <time>2019-04-20T23:42:24Z</time>
      </trkpt>
      <trkpt lat="31.2045660468721" lon="121.61629866289589">
        <ele>7.150694002217929</ele>
        <time>2019-04-20T23:42:34Z</time>
      </trkpt>
      <trkpt lat="31.204326031835926" lon="121.61607046716198">
        <ele>8.046363969455435</ele>
        <time>2019-04-20T23:42:55Z</time>
      </trkpt>
      <trkpt lat="31.204100146091736" lon="121.6158070324125">
        <ele>9.74612704259824</ele>
        <time>2019-04-20T23:43:17Z</time>
      </trkpt>
      <trkpt lat="31.203860411911457" lon="121.61556365341963">
        <ele>9.418270521466763</ele>
        <time>2019-04-20T23:43:40Z</time>
      </trkpt>
      <trkpt lat="31.203649654159097" lon="121.61535713229033">
        <ele>8.239761035225676</ele>
        <time>2019-04-20T23:43:59Z</time>
      </trkpt>
      <trkpt lat="31.20357867482855" lon="121.61529208627942">
        <ele>8.026755754974467</ele>
        <time>2019-04-20T23:44:06Z</time>
      </trkpt>
      <trkpt lat="31.20359827157031" lon="121.61520778800129">
        <ele>7.917781669693156</ele>
        <time>2019-04-20T23:44:09Z</time>
      </trkpt>
      <trkpt lat="31.20365392254253" lon="121.61513080484278">
        <ele>8.002804932604786</ele>
        <time>2019-04-20T23:44:12Z</time>
      </trkpt>
      <trkpt lat="31.20375487152165" lon="121.615032675583">
        <ele>7.790796950133387</ele>
        <time>2019-04-20T23:44:16Z</time>
      </trkpt>
      <trkpt lat="31.20384231903577" lon="121.61487112034196">
        <ele>7.775993411074804</ele>
        <time>2019-04-20T23:44:23Z</time>
      </trkpt>
      <trkpt lat="31.203900675687844" lon="121.61479955698942">
        <ele>7.945137981732167</ele>
        <time>2019-04-20T23:44:27Z</time>
      </trkpt>
      <trkpt lat="31.204005643318226" lon="121.61475563728872">
        <ele>7.813950271723137</ele>
        <time>2019-04-20T23:44:31Z</time>
      </trkpt>
      <trkpt lat="31.204085345485176" lon="121.61476891243396">
        <ele>7.6402981261463445</ele>
        <time>2019-04-20T23:44:34Z</time>
      </trkpt>
      <trkpt lat="31.20415714684458" lon="121.61482555708592">
        <ele>7.737382611787293</ele>
        <time>2019-04-20T23:44:37Z</time>
      </trkpt>
      <trkpt lat="31.20425580757699" lon="121.61486268345098">
        <ele>7.703610006549596</ele>
        <time>2019-04-20T23:44:41Z</time>
      </trkpt>
      <trkpt lat="31.20434618749325" lon="121.61506650825422">
        <ele>8.140356890687382</ele>
        <time>2019-04-20T23:44:48Z</time>
      </trkpt>
      <trkpt lat="31.204420739158593" lon="121.61507842839148">
        <ele>7.284710464528338</ele>
        <time>2019-04-20T23:44:53Z</time>
      </trkpt>
      <trkpt lat="31.204558046368614" lon="121.61495048002091">
        <ele>7.355183124435893</ele>
        <time>2019-04-20T23:45:00Z</time>
      </trkpt>
      <trkpt lat="31.204623392363814" lon="121.61494776407916">
        <ele>7.223729733756713</ele>
        <time>2019-04-20T23:45:04Z</time>
      </trkpt>
      <trkpt lat="31.204664930074653" lon="121.61488623136364">
        <ele>7.284607965902396</ele>
        <time>2019-04-20T23:45:07Z</time>
      </trkpt>
      <trkpt lat="31.204688858064905" lon="121.61480843663253">
        <ele>8.793364152769481</ele>
        <time>2019-04-20T23:45:11Z</time>
      </trkpt>
      <trkpt lat="31.204777866579665" lon="121.61472114929718">
        <ele>8.300172878370084</ele>
        <time>2019-04-20T23:45:17Z</time>
      </trkpt>
      <trkpt lat="31.204948191917403" lon="121.61466096063329">
        <ele>7.5547225676631236</ele>
        <time>2019-04-20T23:45:24Z</time>
      </trkpt>
      <trkpt lat="31.205183422717898" lon="121.6144801454781">
        <ele>8.21506726953849</ele>
        <time>2019-04-20T23:45:34Z</time>
      </trkpt>
      <trkpt lat="31.20546741522691" lon="121.61434784480818">
        <ele>7.728684711517655</ele>
        <time>2019-04-20T23:45:45Z</time>
      </trkpt>
      <trkpt lat="31.205693448459815" lon="121.61413992176084">
        <ele>8.379786524235382</ele>
        <time>2019-04-20T23:45:57Z</time>
      </trkpt>
      <trkpt lat="31.20578811018893" lon="121.61409817020504">
        <ele>7.8127964758321475</ele>
        <time>2019-04-20T23:46:01Z</time>
      </trkpt>
      <trkpt lat="31.205891762855718" lon="121.61400491563923">
        <ele>7.331282618080245</ele>
        <time>2019-04-20T23:46:09Z</time>
      </trkpt>
      <trkpt lat="31.205938909084406" lon="121.61404204754332">
        <ele>7.095235273581796</ele>
        <time>2019-04-20T23:46:12Z</time>
      </trkpt>
      <trkpt lat="31.205953775886627" lon="121.61409598799712">
        <ele>6.495192825691635</ele>
        <time>2019-04-20T23:46:16Z</time>
      </trkpt>
      <trkpt lat="31.205953775886627" lon="121.61409598799712">
        <ele>6.495192825691635</ele>
        <time>2019-04-20T23:46:24Z</time>
      </trkpt>
      <trkpt lat="31.20593694180343" lon="121.61412390890584">
        <ele>5.978734619991307</ele>
        <time>2019-04-20T23:46:28Z</time>
      </trkpt>
      <trkpt lat="31.205950826673345" lon="121.61405668401156">
        <ele>6.901300018306131</ele>
        <time>2019-04-20T23:46:48Z</time>
      </trkpt>
      <trkpt lat="31.205950826673345" lon="121.61405668401156">
        <ele>7.076815231848599</ele>
        <time>2019-04-20T23:46:49Z</time>
      </trkpt>
      <trkpt lat="31.20595624319361" lon="121.61406400228714">
        <ele>6.388722294128286</ele>
        <time>2019-04-20T23:47:00Z</time>
      </trkpt>
      <trkpt lat="31.205950005927114" lon="121.61406535812189">
        <ele>6.430934401655378</ele>
        <time>2019-04-20T23:47:12Z</time>
      </trkpt>
      <trkpt lat="31.205950005927114" lon="121.61406535812189">
        <ele>6.246318749835332</ele>
        <time>2019-04-20T23:47:19Z</time>
      </trkpt>
    </trkseg>
  </trk>
</gpx>