<?xml version="1.0" encoding="UTF-8"?>
<gpx xmlns="http://www.topografix.com/GPX/1/1" xmlns:gpxtpx="http://www.garmin.com/xmlschemas/TrackPointExtension/v1" xmlns:xsi="http://www.w3.org/2001/XMLSchema-instance" xsi:schemaLocation="http://www.topografix.com/GPX/1/1 http://www.topografix.com/GPX/1/1/gpx.xsd" version="1.1" creator="gpx.py -- https://github.com/tkrajina/gpxpy">
  <trk>
    <name>gpx from keep</name>
    <type>Run</type>
    <trkseg>
      <trkpt lat="31.204037874398434" lon="121.61145096031387">
        <ele>9.19057846069336</ele>
        <time>2019-07-10T23:08:13Z</time>
      </trkpt>
      <trkpt lat="31.204037560023075" lon="121.61150870332557">
        <ele>9.26705551147461</ele>
        <time>2019-07-10T23:08:16Z</time>
      </trkpt>
      <trkpt lat="31.20409659269591" lon="121.61160818954022">
        <ele>9.07583236694336</ele>
        <time>2019-07-10T23:08:20Z</time>
      </trkpt>
      <trkpt lat="31.204295163845803" lon="121.61183372082478">
        <ele>8.45400619506836</ele>
        <time>2019-07-10T23:08:32Z</time>
      </trkpt>
      <trkpt lat="31.20451760177351" lon="121.61204786227214">
        <ele>7.667708021604049</ele>
        <time>2019-07-10T23:08:43Z</time>
      </trkpt>
      <trkpt lat="31.204618096599432" lon="121.61217255371417">
        <ele>7.810267934283139</ele>
        <time>2019-07-10T23:08:49Z</time>
      </trkpt>
      <trkpt lat="31.204865771189823" lon="121.61235632860117">
        <ele>8.041754251329493</ele>
        <time>2019-07-10T23:09:00Z</time>
      </trkpt>
      <trkpt lat="31.205089032948" lon="121.61255203162825">
        <ele>8.69807133276261</ele>
        <time>2019-07-10T23:09:11Z</time>
      </trkpt>
      <trkpt lat="31.205292237051697" lon="121.61273797582118">
        <ele>8.903468129825924</ele>
        <time>2019-07-10T23:09:22Z</time>
      </trkpt>
      <trkpt lat="31.205306544273306" lon="121.61281685851863">
        <ele>8.938030671661117</ele>
        <time>2019-07-10T23:09:26Z</time>
      </trkpt>
      <trkpt lat="31.205246510027145" lon="121.61295809478158">
        <ele>9.035826897752194</ele>
        <time>2019-07-10T23:09:32Z</time>
      </trkpt>
      <trkpt lat="31.20515341648434" lon="121.61307466509676">
        <ele>9.167590080775831</ele>
        <time>2019-07-10T23:09:39Z</time>
      </trkpt>
      <trkpt lat="31.205037558749332" lon="121.61317686979669">
        <ele>8.895208715634567</ele>
        <time>2019-07-10T23:09:46Z</time>
      </trkpt>
      <trkpt lat="31.204980820992475" lon="121.61326334693399">
        <ele>9.014010708679777</ele>
        <time>2019-07-10T23:09:49Z</time>
      </trkpt>
      <trkpt lat="31.20472957774216" lon="121.6134729062023">
        <ele>9.035951945762676</ele>
        <time>2019-07-10T23:10:00Z</time>
      </trkpt>
      <trkpt lat="31.204486113097918" lon="121.61378167370401">
        <ele>9.056084071299175</ele>
        <time>2019-07-10T23:10:16Z</time>
      </trkpt>
      <trkpt lat="31.204276315956157" lon="121.61403107140718">
        <ele>8.86676600505593</ele>
        <time>2019-07-10T23:10:30Z</time>
      </trkpt>
      <trkpt lat="31.204049457706724" lon="121.61425390387267">
        <ele>8.87704643742002</ele>
        <time>2019-07-10T23:10:41Z</time>
      </trkpt>
      <trkpt lat="31.20395039644694" lon="121.61436721555619">
        <ele>8.718815052196454</ele>
        <time>2019-07-10T23:10:48Z</time>
      </trkpt>
      <trkpt lat="31.203770784213546" lon="121.61450763925147">
        <ele>8.963183251920718</ele>
        <time>2019-07-10T23:10:56Z</time>
      </trkpt>
      <trkpt lat="31.20353090128203" lon="121.61473778685203">
        <ele>8.961019755688959</ele>
        <time>2019-07-10T23:11:08Z</time>
      </trkpt>
      <trkpt lat="31.20341618539363" lon="121.6147673414389">
        <ele>8.773816952434608</ele>
        <time>2019-07-10T23:11:12Z</time>
      </trkpt>
      <trkpt lat="31.20330681867521" lon="121.61488092259252">
        <ele>8.882167202098366</ele>
        <time>2019-07-10T23:11:18Z</time>
      </trkpt>
      <trkpt lat="31.20327311987173" lon="121.61496983109396">
        <ele>8.855784093724232</ele>
        <time>2019-07-10T23:11:22Z</time>
      </trkpt>
      <trkpt lat="31.203251319347732" lon="121.6150942461334">
        <ele>8.219566462181874</ele>
        <time>2019-07-10T23:11:38Z</time>
      </trkpt>
      <trkpt lat="31.203251319347732" lon="121.6150942461334">
        <ele>8.147337771704294</ele>
        <time>2019-07-10T23:11:39Z</time>
      </trkpt>
      <trkpt lat="31.203251319347732" lon="121.6150942461334">
        <ele>8.135892292212688</ele>
        <time>2019-07-10T23:11:43Z</time>
      </trkpt>
      <trkpt lat="31.20325376914729" lon="121.61508340384431">
        <ele>8.380039048902738</ele>
        <time>2019-07-10T23:11:48Z</time>
      </trkpt>
      <trkpt lat="31.203286053610487" lon="121.61506144593423">
        <ele>8.40352975993305</ele>
        <time>2019-07-10T23:12:09Z</time>
      </trkpt>
      <trkpt lat="31.203290922789176" lon="121.61507418499428">
        <ele>8.136034673505435</ele>
        <time>2019-07-10T23:12:38Z</time>
      </trkpt>
      <trkpt lat="31.203362158382962" lon="121.61515657886906">
        <ele>7.759935148413334</ele>
        <time>2019-07-10T23:12:41Z</time>
      </trkpt>
      <trkpt lat="31.203403302321675" lon="121.61523382499063">
        <ele>7.536114501267242</ele>
        <time>2019-07-10T23:12:44Z</time>
      </trkpt>
      <trkpt lat="31.20341462553934" lon="121.61530619443622">
        <ele>7.234790562974865</ele>
        <time>2019-07-10T23:12:48Z</time>
      </trkpt>
      <trkpt lat="31.203198028901763" lon="121.61556370820335">
        <ele>6.851884637352569</ele>
        <time>2019-07-10T23:13:00Z</time>
      </trkpt>
      <trkpt lat="31.202978997329314" lon="121.61581281706748">
        <ele>6.808834813519617</ele>
        <time>2019-07-10T23:13:11Z</time>
      </trkpt>
      <trkpt lat="31.202720093756373" lon="121.61607602081489">
        <ele>7.200841735377118</ele>
        <time>2019-07-10T23:13:24Z</time>
      </trkpt>
      <trkpt lat="31.202512460673464" lon="121.61630859014537">
        <ele>7.688566195356806</ele>
        <time>2019-07-10T23:13:35Z</time>
      </trkpt>
      <trkpt lat="31.202264140985317" lon="121.61655660967271">
        <ele>8.124454478451526</ele>
        <time>2019-07-10T23:13:48Z</time>
      </trkpt>
      <trkpt lat="31.20202147499339" lon="121.6168447390822">
        <ele>7.620050478726348</ele>
        <time>2019-07-10T23:14:01Z</time>
      </trkpt>
      <trkpt lat="31.201795153998326" lon="121.61704938656358">
        <ele>8.047530193207763</ele>
        <time>2019-07-10T23:14:12Z</time>
      </trkpt>
      <trkpt lat="31.201688452997157" lon="121.61720090088967">
        <ele>8.264675682719492</ele>
        <time>2019-07-10T23:14:19Z</time>
      </trkpt>
      <trkpt lat="31.201475405364892" lon="121.61741557230322">
        <ele>7.952110656280539</ele>
        <time>2019-07-10T23:14:30Z</time>
      </trkpt>
      <trkpt lat="31.201220830216297" lon="121.61767360909941">
        <ele>7.9016336854955185</ele>
        <time>2019-07-10T23:14:44Z</time>
      </trkpt>
      <trkpt lat="31.20101373896809" lon="121.61789342534536">
        <ele>8.795509061132684</ele>
        <time>2019-07-10T23:14:55Z</time>
      </trkpt>
      <trkpt lat="31.200763192093106" lon="121.61818614719702">
        <ele>9.25696394802015</ele>
        <time>2019-07-10T23:15:09Z</time>
      </trkpt>
      <trkpt lat="31.200565561661513" lon="121.61843089159075">
        <ele>9.67836753546657</ele>
        <time>2019-07-10T23:15:21Z</time>
      </trkpt>
      <trkpt lat="31.20032096114425" lon="121.61873661528328">
        <ele>10.05285338306836</ele>
        <time>2019-07-10T23:15:36Z</time>
      </trkpt>
      <trkpt lat="31.20006958462627" lon="121.61903691567107">
        <ele>10.126841656365187</ele>
        <time>2019-07-10T23:15:51Z</time>
      </trkpt>
      <trkpt lat="31.199869224810893" lon="121.6192922213149">
        <ele>10.305696139091054</ele>
        <time>2019-07-10T23:16:04Z</time>
      </trkpt>
      <trkpt lat="31.199630085788588" lon="121.61955213467512">
        <ele>11.04710518093582</ele>
        <time>2019-07-10T23:16:17Z</time>
      </trkpt>
      <trkpt lat="31.19936872260485" lon="121.61980147821434">
        <ele>10.958569116974115</ele>
        <time>2019-07-10T23:16:32Z</time>
      </trkpt>
      <trkpt lat="31.1991276837953" lon="121.62005894760267">
        <ele>10.733286011255927</ele>
        <time>2019-07-10T23:16:45Z</time>
      </trkpt>
      <trkpt lat="31.19895780937442" lon="121.62019500232961">
        <ele>11.047954756131467</ele>
        <time>2019-07-10T23:16:55Z</time>
      </trkpt>
      <trkpt lat="31.198915707358374" lon="121.6202665488279">
        <ele>10.76380506530601</ele>
        <time>2019-07-10T23:16:58Z</time>
      </trkpt>
      <trkpt lat="31.198815614055793" lon="121.62030856143956">
        <ele>10.808561301085348</ele>
        <time>2019-07-10T23:17:02Z</time>
      </trkpt>
      <trkpt lat="31.198764942954654" lon="121.6202795691023">
        <ele>10.838074892179591</ele>
        <time>2019-07-10T23:17:07Z</time>
      </trkpt>
      <trkpt lat="31.198708461940033" lon="121.62035924640652">
        <ele>10.75363827662975</ele>
        <time>2019-07-10T23:17:14Z</time>
      </trkpt>
      <trkpt lat="31.198620256001256" lon="121.62044082305026">
        <ele>10.739224494216849</ele>
        <time>2019-07-10T23:17:18Z</time>
      </trkpt>
      <trkpt lat="31.198579521305994" lon="121.62050098703655">
        <ele>10.612436181985288</ele>
        <time>2019-07-10T23:17:21Z</time>
      </trkpt>
      <trkpt lat="31.198334995230933" lon="121.62071834311287">
        <ele>10.46378888260518</ele>
        <time>2019-07-10T23:17:34Z</time>
      </trkpt>
      <trkpt lat="31.19805626132226" lon="121.62097553555898">
        <ele>10.231253263549306</ele>
        <time>2019-07-10T23:17:48Z</time>
      </trkpt>
      <trkpt lat="31.197839923850466" lon="121.62119830509384">
        <ele>10.243024741665046</ele>
        <time>2019-07-10T23:18:00Z</time>
      </trkpt>
      <trkpt lat="31.197699357303858" lon="121.62130671099986">
        <ele>9.955444851826812</ele>
        <time>2019-07-10T23:18:07Z</time>
      </trkpt>
      <trkpt lat="31.19748193500161" lon="121.6215275809495">
        <ele>9.855831124803899</ele>
        <time>2019-07-10T23:18:20Z</time>
      </trkpt>
      <trkpt lat="31.197252086440127" lon="121.62170590609766">
        <ele>9.765258718904263</ele>
        <time>2019-07-10T23:18:31Z</time>
      </trkpt>
      <trkpt lat="31.197045809390733" lon="121.62189858999533">
        <ele>10.028637307798434</ele>
        <time>2019-07-10T23:18:41Z</time>
      </trkpt>
      <trkpt lat="31.196792307115732" lon="121.62213273587949">
        <ele>10.514304562826624</ele>
        <time>2019-07-10T23:18:54Z</time>
      </trkpt>
      <trkpt lat="31.196641143474853" lon="121.62225848128989">
        <ele>11.186674629068506</ele>
        <time>2019-07-10T23:19:02Z</time>
      </trkpt>
      <trkpt lat="31.196606876087777" lon="121.62235061561843">
        <ele>11.840627434916328</ele>
        <time>2019-07-10T23:19:06Z</time>
      </trkpt>
      <trkpt lat="31.196636225880614" lon="121.62252945577393">
        <ele>11.580178064105986</ele>
        <time>2019-07-10T23:19:12Z</time>
      </trkpt>
      <trkpt lat="31.19672075780931" lon="121.62281965899452">
        <ele>11.082154250231376</ele>
        <time>2019-07-10T23:19:23Z</time>
      </trkpt>
      <trkpt lat="31.19676031719985" lon="121.62307680484666">
        <ele>9.997321245537506</ele>
        <time>2019-07-10T23:19:31Z</time>
      </trkpt>
      <trkpt lat="31.19677823723653" lon="121.62328815699108">
        <ele>9.560599085093337</ele>
        <time>2019-07-10T23:19:38Z</time>
      </trkpt>
      <trkpt lat="31.196839889504528" lon="121.62366099738402">
        <ele>9.008080440549492</ele>
        <time>2019-07-10T23:19:51Z</time>
      </trkpt>
      <trkpt lat="31.196878583155137" lon="121.62395634058744">
        <ele>8.800742323265467</ele>
        <time>2019-07-10T23:20:06Z</time>
      </trkpt>
      <trkpt lat="31.196903177353214" lon="121.62402272331843">
        <ele>9.134382884987147</ele>
        <time>2019-07-10T23:20:13Z</time>
      </trkpt>
      <trkpt lat="31.196911523749606" lon="121.62384388983064">
        <ele>9.407147427283746</ele>
        <time>2019-07-10T23:20:23Z</time>
      </trkpt>
      <trkpt lat="31.196943916330028" lon="121.62350572741973">
        <ele>9.184510273652904</ele>
        <time>2019-07-10T23:20:43Z</time>
      </trkpt>
      <trkpt lat="31.19695511067069" lon="121.62343934048084">
        <ele>9.072816278651636</ele>
        <time>2019-07-10T23:20:47Z</time>
      </trkpt>
      <trkpt lat="31.196946799726735" lon="121.62335886484856">
        <ele>9.247411489037141</ele>
        <time>2019-07-10T23:20:51Z</time>
      </trkpt>
      <trkpt lat="31.196878661512255" lon="121.62319818810393">
        <ele>9.39571022923404</ele>
        <time>2019-07-10T23:21:02Z</time>
      </trkpt>
      <trkpt lat="31.19687551280937" lon="121.62310795652645">
        <ele>9.305705658863367</ele>
        <time>2019-07-10T23:21:08Z</time>
      </trkpt>
      <trkpt lat="31.196890230406677" lon="121.62304211026488">
        <ele>9.232079033603988</ele>
        <time>2019-07-10T23:21:12Z</time>
      </trkpt>
      <trkpt lat="31.196852542771623" lon="121.62280745444302">
        <ele>8.764368182389049</ele>
        <time>2019-07-10T23:21:26Z</time>
      </trkpt>
      <trkpt lat="31.196878093235767" lon="121.62275190343654">
        <ele>8.452425329402125</ele>
        <time>2019-07-10T23:21:33Z</time>
      </trkpt>
      <trkpt lat="31.197099836778953" lon="121.62255353396395">
        <ele>8.755578839621968</ele>
        <time>2019-07-10T23:21:58Z</time>
      </trkpt>
      <trkpt lat="31.197203480086827" lon="121.6224920145652">
        <ele>8.66953173844442</ele>
        <time>2019-07-10T23:22:05Z</time>
      </trkpt>
      <trkpt lat="31.197271013084045" lon="121.62247385377286">
        <ele>8.3200493224779</ele>
        <time>2019-07-10T23:22:12Z</time>
      </trkpt>
      <trkpt lat="31.197399397531235" lon="121.62235244684874">
        <ele>7.944260370072783</ele>
        <time>2019-07-10T23:22:20Z</time>
      </trkpt>
      <trkpt lat="31.19745690804874" lon="121.62232588657565">
        <ele>7.6904844542361985</ele>
        <time>2019-07-10T23:22:24Z</time>
      </trkpt>
      <trkpt lat="31.19774299321163" lon="121.62205163504103">
        <ele>6.122663378340732</ele>
        <time>2019-07-10T23:22:49Z</time>
      </trkpt>
      <trkpt lat="31.19786219244068" lon="121.62189906439089">
        <ele>6.351739412544383</ele>
        <time>2019-07-10T23:22:59Z</time>
      </trkpt>
      <trkpt lat="31.197938174894684" lon="121.62184106851684">
        <ele>6.228095149008794</ele>
        <time>2019-07-10T23:23:06Z</time>
      </trkpt>
      <trkpt lat="31.19807241950965" lon="121.62181124962679">
        <ele>5.854046864338791</ele>
        <time>2019-07-10T23:23:17Z</time>
      </trkpt>
      <trkpt lat="31.198167674700535" lon="121.62173319939778">
        <ele>5.277977632432126</ele>
        <time>2019-07-10T23:23:24Z</time>
      </trkpt>
      <trkpt lat="31.198276299647084" lon="121.62157927288818">
        <ele>5.145469868551487</ele>
        <time>2019-07-10T23:23:34Z</time>
      </trkpt>
      <trkpt lat="31.198395455163865" lon="121.62146409528489">
        <ele>5.211471369550402</ele>
        <time>2019-07-10T23:23:41Z</time>
      </trkpt>
      <trkpt lat="31.198561076562143" lon="121.62125596542266">
        <ele>5.699308362038259</ele>
        <time>2019-07-10T23:23:52Z</time>
      </trkpt>
      <trkpt lat="31.19880016170789" lon="121.62105893833677">
        <ele>5.561027017594817</ele>
        <time>2019-07-10T23:24:03Z</time>
      </trkpt>
      <trkpt lat="31.198863117809935" lon="121.62101042628889">
        <ele>5.690741593826537</ele>
        <time>2019-07-10T23:24:06Z</time>
      </trkpt>
      <trkpt lat="31.199115835364875" lon="121.62074212571396">
        <ele>5.222798693445661</ele>
        <time>2019-07-10T23:24:20Z</time>
      </trkpt>
      <trkpt lat="31.19920074989984" lon="121.62069632117746">
        <ele>5.620554291522225</ele>
        <time>2019-07-10T23:24:24Z</time>
      </trkpt>
      <trkpt lat="31.199288619620628" lon="121.62067571855029">
        <ele>5.800333189569699</ele>
        <time>2019-07-10T23:24:28Z</time>
      </trkpt>
      <trkpt lat="31.199625033813962" lon="121.62073422483913">
        <ele>6.565891275706143</ele>
        <time>2019-07-10T23:24:42Z</time>
      </trkpt>
      <trkpt lat="31.199959289784005" lon="121.62078270452736">
        <ele>6.230528825520977</ele>
        <time>2019-07-10T23:24:56Z</time>
      </trkpt>
      <trkpt lat="31.200310369631012" lon="121.62081871718888">
        <ele>6.272976396829307</ele>
        <time>2019-07-10T23:25:10Z</time>
      </trkpt>
      <trkpt lat="31.200621026348237" lon="121.62087695429739">
        <ele>5.730721800970265</ele>
        <time>2019-07-10T23:25:22Z</time>
      </trkpt>
      <trkpt lat="31.200700171367497" lon="121.62090106580597">
        <ele>5.713012779472095</ele>
        <time>2019-07-10T23:25:26Z</time>
      </trkpt>
      <trkpt lat="31.200828675829765" lon="121.62091324968681">
        <ele>6.193278451601863</ele>
        <time>2019-07-10T23:25:34Z</time>
      </trkpt>
      <trkpt lat="31.200889093652567" lon="121.62095470599671">
        <ele>6.120010060624274</ele>
        <time>2019-07-10T23:25:41Z</time>
      </trkpt>
      <trkpt lat="31.201158526552124" lon="121.62102324376039">
        <ele>7.05775938243557</ele>
        <time>2019-07-10T23:25:58Z</time>
      </trkpt>
      <trkpt lat="31.201440456752177" lon="121.62106874637766">
        <ele>8.067436008326993</ele>
        <time>2019-07-10T23:26:16Z</time>
      </trkpt>
      <trkpt lat="31.20153154790593" lon="121.62107795241437">
        <ele>8.191785831075663</ele>
        <time>2019-07-10T23:26:23Z</time>
      </trkpt>
      <trkpt lat="31.20160309185168" lon="121.62111046496905">
        <ele>8.10712791822813</ele>
        <time>2019-07-10T23:26:30Z</time>
      </trkpt>
      <trkpt lat="31.20193279875528" lon="121.62110393399004">
        <ele>8.40888971515755</ele>
        <time>2019-07-10T23:26:50Z</time>
      </trkpt>
      <trkpt lat="31.20227194172298" lon="121.62114645087692">
        <ele>8.301932057402595</ele>
        <time>2019-07-10T23:27:07Z</time>
      </trkpt>
      <trkpt lat="31.20236655291214" lon="121.6211599923809">
        <ele>8.468488813941143</ele>
        <time>2019-07-10T23:27:11Z</time>
      </trkpt>
      <trkpt lat="31.202409950830315" lon="121.62114508452095">
        <ele>8.300212246131267</ele>
        <time>2019-07-10T23:27:15Z</time>
      </trkpt>
      <trkpt lat="31.202434140020742" lon="121.62109196905838">
        <ele>8.264034061410186</ele>
        <time>2019-07-10T23:27:19Z</time>
      </trkpt>
      <trkpt lat="31.20244381348384" lon="121.62092368459493">
        <ele>8.502815978084172</ele>
        <time>2019-07-10T23:27:26Z</time>
      </trkpt>
      <trkpt lat="31.202432056067114" lon="121.62076488550154">
        <ele>8.855825177027008</ele>
        <time>2019-07-10T23:27:33Z</time>
      </trkpt>
      <trkpt lat="31.202447034497027" lon="121.62070391128421">
        <ele>8.449923103002398</ele>
        <time>2019-07-10T23:27:37Z</time>
      </trkpt>
      <trkpt lat="31.20245158658461" lon="121.62075675416304">
        <ele>8.689025018757306</ele>
        <time>2019-07-10T23:27:56Z</time>
      </trkpt>
      <trkpt lat="31.2024738290357" lon="121.62074808061587">
        <ele>8.452026055162065</ele>
        <time>2019-07-10T23:28:13Z</time>
      </trkpt>
      <trkpt lat="31.202468139312966" lon="121.6207442872143">
        <ele>8.867373767864613</ele>
        <time>2019-07-10T23:28:14Z</time>
      </trkpt>
      <trkpt lat="31.20246327883702" lon="121.62072586022819">
        <ele>8.570036453011689</ele>
        <time>2019-07-10T23:28:24Z</time>
      </trkpt>
      <trkpt lat="31.2024416085758" lon="121.62070689263768">
        <ele>8.361478026107335</ele>
        <time>2019-07-10T23:28:37Z</time>
      </trkpt>
      <trkpt lat="31.202450325320946" lon="121.62066949509051">
        <ele>8.334725874664464</ele>
        <time>2019-07-10T23:28:49Z</time>
      </trkpt>
      <trkpt lat="31.202451699144127" lon="121.62065269348693">
        <ele>8.267467918382131</ele>
        <time>2019-07-10T23:28:51Z</time>
      </trkpt>
      <trkpt lat="31.202451699144127" lon="121.62065269348693">
        <ele>8.247902429119407</ele>
        <time>2019-07-10T23:28:57Z</time>
      </trkpt>
      <trkpt lat="31.202441177814197" lon="121.62060364478502">
        <ele>8.428277539429708</ele>
        <time>2019-07-10T23:29:14Z</time>
      </trkpt>
      <trkpt lat="31.202374219802106" lon="121.62033970242186">
        <ele>8.07029404784631</ele>
        <time>2019-07-10T23:29:28Z</time>
      </trkpt>
      <trkpt lat="31.20242518068719" lon="121.62035135099201">
        <ele>6.877939531342328</ele>
        <time>2019-07-10T23:29:45Z</time>
      </trkpt>
      <trkpt lat="31.20242518068719" lon="121.62035135099201">
        <ele>5.691081883116368</ele>
        <time>2019-07-10T23:30:01Z</time>
      </trkpt>
      <trkpt lat="31.20242518068719" lon="121.62035135099201">
        <ele>5.631297579164773</ele>
        <time>2019-07-10T23:30:12Z</time>
      </trkpt>
      <trkpt lat="31.20242518068719" lon="121.62035135099201">
        <ele>5.5004736467630195</ele>
        <time>2019-07-10T23:30:15Z</time>
      </trkpt>
      <trkpt lat="31.202710142563248" lon="121.62035214039493">
        <ele>4.224487503352826</ele>
        <time>2019-07-10T23:30:55Z</time>
      </trkpt>
      <trkpt lat="31.202882937447605" lon="121.6202754344012">
        <ele>3.6416536708070453</ele>
        <time>2019-07-10T23:31:02Z</time>
      </trkpt>
      <trkpt lat="31.20288735619416" lon="121.62019982610126">
        <ele>3.5835356498174846</ele>
        <time>2019-07-10T23:31:05Z</time>
      </trkpt>
      <trkpt lat="31.202766753851996" lon="121.6198941501386">
        <ele>3.6639229628561836</ele>
        <time>2019-07-10T23:31:16Z</time>
      </trkpt>
      <trkpt lat="31.202681942946437" lon="121.61958386053875">
        <ele>4.232664740720672</ele>
        <time>2019-07-10T23:31:27Z</time>
      </trkpt>
      <trkpt lat="31.202607178924275" lon="121.61925595093724">
        <ele>4.595896722124259</ele>
        <time>2019-07-10T23:31:39Z</time>
      </trkpt>
      <trkpt lat="31.202504256582067" lon="121.61888549084563">
        <ele>5.041188081950644</ele>
        <time>2019-07-10T23:31:53Z</time>
      </trkpt>
      <trkpt lat="31.202476708655947" lon="121.61877952781164">
        <ele>5.1625637051144295</ele>
        <time>2019-07-10T23:31:57Z</time>
      </trkpt>
      <trkpt lat="31.202487089856323" lon="121.61870255954206">
        <ele>5.462311886758876</ele>
        <time>2019-07-10T23:32:00Z</time>
      </trkpt>
      <trkpt lat="31.202762195815957" lon="121.61852908823681">
        <ele>5.766850598278765</ele>
        <time>2019-07-10T23:32:12Z</time>
      </trkpt>
      <trkpt lat="31.202831914855842" lon="121.61849195348492">
        <ele>5.778535294064824</ele>
        <time>2019-07-10T23:32:15Z</time>
      </trkpt>
      <trkpt lat="31.202850961818704" lon="121.61842474017924">
        <ele>5.558868718985167</ele>
        <time>2019-07-10T23:32:19Z</time>
      </trkpt>
      <trkpt lat="31.202728737606375" lon="121.6180951934052">
        <ele>6.042091229183043</ele>
        <time>2019-07-10T23:32:33Z</time>
      </trkpt>
      <trkpt lat="31.202568026504675" lon="121.61774721594483">
        <ele>6.259252383275509</ele>
        <time>2019-07-10T23:32:45Z</time>
      </trkpt>
      <trkpt lat="31.202476843484373" lon="121.61755317046138">
        <ele>6.407338828626919</ele>
        <time>2019-07-10T23:32:52Z</time>
      </trkpt>
      <trkpt lat="31.202424710930732" lon="121.61735044736945">
        <ele>6.322365428649981</ele>
        <time>2019-07-10T23:32:59Z</time>
      </trkpt>
      <trkpt lat="31.20247468856487" lon="121.61725829386752">
        <ele>6.009149482399309</ele>
        <time>2019-07-10T23:33:03Z</time>
      </trkpt>
      <trkpt lat="31.202639699499382" lon="121.61709051328268">
        <ele>6.1612134573892945</ele>
        <time>2019-07-10T23:33:11Z</time>
      </trkpt>
      <trkpt lat="31.202919713900783" lon="121.61687718867275">
        <ele>6.1099619053030665</ele>
        <time>2019-07-10T23:33:25Z</time>
      </trkpt>
      <trkpt lat="31.203054625612783" lon="121.61671049212374">
        <ele>5.850082569816358</ele>
        <time>2019-07-10T23:33:33Z</time>
      </trkpt>
      <trkpt lat="31.203206265081075" lon="121.61663079543432">
        <ele>6.272993259115495</ele>
        <time>2019-07-10T23:33:40Z</time>
      </trkpt>
      <trkpt lat="31.203461344059072" lon="121.61640418806978">
        <ele>6.1227932035291275</ele>
        <time>2019-07-10T23:33:53Z</time>
      </trkpt>
      <trkpt lat="31.203709858366015" lon="121.61623774994982">
        <ele>6.165677136135322</ele>
        <time>2019-07-10T23:34:05Z</time>
      </trkpt>
      <trkpt lat="31.20382647831975" lon="121.6162033182882">
        <ele>5.9955043639620555</ele>
        <time>2019-07-10T23:34:15Z</time>
      </trkpt>
      <trkpt lat="31.203883197130178" lon="121.61614747935816">
        <ele>6.373916973945761</ele>
        <time>2019-07-10T23:34:21Z</time>
      </trkpt>
      <trkpt lat="31.203955428594075" lon="121.6160284864">
        <ele>6.170624410027855</ele>
        <time>2019-07-10T23:34:31Z</time>
      </trkpt>
      <trkpt lat="31.204105666343875" lon="121.61599703312437">
        <ele>5.71038546930982</ele>
        <time>2019-07-10T23:34:47Z</time>
      </trkpt>
      <trkpt lat="31.204176192798943" lon="121.61596287597786">
        <ele>5.447087547873096</ele>
        <time>2019-07-10T23:34:54Z</time>
      </trkpt>
      <trkpt lat="31.20419565687604" lon="121.61602575611354">
        <ele>5.4892110661486555</ele>
        <time>2019-07-10T23:34:58Z</time>
      </trkpt>
      <trkpt lat="31.20432377884666" lon="121.61616153700734">
        <ele>5.822047142493851</ele>
        <time>2019-07-10T23:35:09Z</time>
      </trkpt>
      <trkpt lat="31.204395764596974" lon="121.61630870540809">
        <ele>5.694461804321506</ele>
        <time>2019-07-10T23:35:19Z</time>
      </trkpt>
      <trkpt lat="31.20444858862909" lon="121.6163596562256">
        <ele>5.684875849098162</ele>
        <time>2019-07-10T23:35:23Z</time>
      </trkpt>
      <trkpt lat="31.204546424314938" lon="121.61640707972737">
        <ele>5.7769453895756655</ele>
        <time>2019-07-10T23:35:30Z</time>
      </trkpt>
      <trkpt lat="31.20454188285887" lon="121.61633417092834">
        <ele>6.870476030807545</ele>
        <time>2019-07-10T23:35:37Z</time>
      </trkpt>
      <trkpt lat="31.204361849095832" lon="121.6160406496537">
        <ele>7.930621513461297</ele>
        <time>2019-07-10T23:35:58Z</time>
      </trkpt>
      <trkpt lat="31.20429767826117" lon="121.61594443504218">
        <ele>8.21998847213338</ele>
        <time>2019-07-10T23:36:05Z</time>
      </trkpt>
      <trkpt lat="31.204105624727443" lon="121.61574550487141">
        <ele>9.054328764039447</ele>
        <time>2019-07-10T23:36:22Z</time>
      </trkpt>
      <trkpt lat="31.20393412546961" lon="121.61560267803358">
        <ele>8.756335323673937</ele>
        <time>2019-07-10T23:36:39Z</time>
      </trkpt>
      <trkpt lat="31.203740471580893" lon="121.61537149037932">
        <ele>7.626951631476608</ele>
        <time>2019-07-10T23:36:58Z</time>
      </trkpt>
      <trkpt lat="31.203616391823967" lon="121.61525928610334">
        <ele>6.950537273464363</ele>
        <time>2019-07-10T23:37:09Z</time>
      </trkpt>
      <trkpt lat="31.203560004891145" lon="121.61524899085546">
        <ele>6.737094250147997</ele>
        <time>2019-07-10T23:37:13Z</time>
      </trkpt>
      <trkpt lat="31.203606434739026" lon="121.61517499015461">
        <ele>6.391340548067099</ele>
        <time>2019-07-10T23:37:24Z</time>
      </trkpt>
      <trkpt lat="31.203778450475166" lon="121.61504378679491">
        <ele>6.324179189505081</ele>
        <time>2019-07-10T23:37:39Z</time>
      </trkpt>
      <trkpt lat="31.20385560537074" lon="121.61487030607928">
        <ele>6.222313145897537</ele>
        <time>2019-07-10T23:37:53Z</time>
      </trkpt>
      <trkpt lat="31.20396629537106" lon="121.61479385939792">
        <ele>6.224683098427185</ele>
        <time>2019-07-10T23:38:02Z</time>
      </trkpt>
      <trkpt lat="31.204185587581865" lon="121.6145463663163">
        <ele>6.4109028421395</ele>
        <time>2019-07-10T23:38:24Z</time>
      </trkpt>
      <trkpt lat="31.204231173637037" lon="121.61450543270793">
        <ele>6.547383169419959</ele>
        <time>2019-07-10T23:38:28Z</time>
      </trkpt>
      <trkpt lat="31.204285200968823" lon="121.61442248411343">
        <ele>6.268261435820037</ele>
        <time>2019-07-10T23:38:35Z</time>
      </trkpt>
      <trkpt lat="31.20436089796666" lon="121.61436392888439">
        <ele>6.553366408508083</ele>
        <time>2019-07-10T23:38:42Z</time>
      </trkpt>
      <trkpt lat="31.20453350386333" lon="121.61417200309047">
        <ele>6.52917354804579</ele>
        <time>2019-07-10T23:39:00Z</time>
      </trkpt>
      <trkpt lat="31.204689227969578" lon="121.61406302281206">
        <ele>6.966842361508014</ele>
        <time>2019-07-10T23:39:14Z</time>
      </trkpt>
      <trkpt lat="31.204743545886362" lon="121.61395540574411">
        <ele>7.142033826373691</ele>
        <time>2019-07-10T23:39:22Z</time>
      </trkpt>
      <trkpt lat="31.20494245110364" lon="121.61376103486425">
        <ele>7.600561334762709</ele>
        <time>2019-07-10T23:39:44Z</time>
      </trkpt>
      <trkpt lat="31.204985576113266" lon="121.6137436829866">
        <ele>7.604383746497312</ele>
        <time>2019-07-10T23:39:48Z</time>
      </trkpt>
      <trkpt lat="31.20523034830659" lon="121.61349292400686">
        <ele>8.172499003949973</ele>
        <time>2019-07-10T23:40:15Z</time>
      </trkpt>
      <trkpt lat="31.20544662419484" lon="121.6132725248963">
        <ele>8.052247231360205</ele>
        <time>2019-07-10T23:40:41Z</time>
      </trkpt>
      <trkpt lat="31.205718494679044" lon="121.61303531243657">
        <ele>7.940310700159316</ele>
        <time>2019-07-10T23:41:08Z</time>
      </trkpt>
      <trkpt lat="31.205799940149408" lon="121.61290518903596">
        <ele>7.68437554766507</ele>
        <time>2019-07-10T23:41:18Z</time>
      </trkpt>
      <trkpt lat="31.20592068320466" lon="121.61279566362981">
        <ele>7.725810659240878</ele>
        <time>2019-07-10T23:41:29Z</time>
      </trkpt>
      <trkpt lat="31.205955995242782" lon="121.61271487920295">
        <ele>7.810859747743933</ele>
        <time>2019-07-10T23:41:36Z</time>
      </trkpt>
      <trkpt lat="31.205957122442843" lon="121.61266120533624">
        <ele>8.299913365577353</ele>
        <time>2019-07-10T23:41:43Z</time>
      </trkpt>
      <trkpt lat="31.205957122442843" lon="121.61266120533624">
        <ele>8.113766563656576</ele>
        <time>2019-07-10T23:41:47Z</time>
      </trkpt>
      <trkpt lat="31.205931889606923" lon="121.61268289381071">
        <ele>7.97267694869943</ele>
        <time>2019-07-10T23:42:13Z</time>
      </trkpt>
      <trkpt lat="31.205720491912867" lon="121.61257176833847">
        <ele>7.706737098499602</ele>
        <time>2019-07-10T23:42:35Z</time>
      </trkpt>
      <trkpt lat="31.205575153392505" lon="121.61258425007952">
        <ele>7.594395729577592</ele>
        <time>2019-07-10T23:42:45Z</time>
      </trkpt>
      <trkpt lat="31.20536724702319" lon="121.61251514154489">
        <ele>7.420077203358019</ele>
        <time>2019-07-10T23:43:00Z</time>
      </trkpt>
      <trkpt lat="31.205105516693276" lon="121.61227715225134">
        <ele>7.838096327976594</ele>
        <time>2019-07-10T23:43:25Z</time>
      </trkpt>
      <trkpt lat="31.204850506395232" lon="121.61211208231194">
        <ele>7.66323659726649</ele>
        <time>2019-07-10T23:43:48Z</time>
      </trkpt>
      <trkpt lat="31.20463869433178" lon="121.61183098152596">
        <ele>9.138618887292893</ele>
        <time>2019-07-10T23:44:16Z</time>
      </trkpt>
      <trkpt lat="31.204450156333266" lon="121.61160382283201">
        <ele>9.754253446458002</ele>
        <time>2019-07-10T23:44:38Z</time>
      </trkpt>
      <trkpt lat="31.20439786863616" lon="121.61154879533875">
        <ele>9.898801963053728</ele>
        <time>2019-07-10T23:44:44Z</time>
      </trkpt>
    </trkseg>
  </trk>
</gpx>