<?xml version="1.0" encoding="UTF-8"?>
<gpx xmlns="http://www.topografix.com/GPX/1/1" xmlns:gpxtpx="http://www.garmin.com/xmlschemas/TrackPointExtension/v1" xmlns:xsi="http://www.w3.org/2001/XMLSchema-instance" xsi:schemaLocation="http://www.topografix.com/GPX/1/1 http://www.topografix.com/GPX/1/1/gpx.xsd" version="1.1" creator="gpx.py -- https://github.com/tkrajina/gpxpy">
  <trk>
    <name>gpx from keep</name>
    <type>Run</type>
    <trkseg>
      <trkpt lat="31.20427513159044" lon="121.61106598374565">
        <ele>8.02805644728354</ele>
        <time>2019-10-27T00:15:14Z</time>
      </trkpt>
      <trkpt lat="31.204186897513495" lon="121.61122241446984">
        <ele>6.9557466012954805</ele>
        <time>2019-10-27T00:15:22Z</time>
      </trkpt>
      <trkpt lat="31.20419414002183" lon="121.61132787031163">
        <ele>6.906769527122378</ele>
        <time>2019-10-27T00:15:29Z</time>
      </trkpt>
      <trkpt lat="31.20416015333833" lon="121.6114550166169">
        <ele>6.815785243175924</ele>
        <time>2019-10-27T00:15:36Z</time>
      </trkpt>
      <trkpt lat="31.204213961518896" lon="121.6116515545664">
        <ele>8.037980627268553</ele>
        <time>2019-10-27T00:15:44Z</time>
      </trkpt>
      <trkpt lat="31.204274354272872" lon="121.61174453387444">
        <ele>6.790660751052201</ele>
        <time>2019-10-27T00:15:50Z</time>
      </trkpt>
      <trkpt lat="31.204305467398928" lon="121.6118331777936">
        <ele>7.326486892066896</ele>
        <time>2019-10-27T00:15:54Z</time>
      </trkpt>
      <trkpt lat="31.204353972686615" lon="121.61186977085931">
        <ele>7.69159525167197</ele>
        <time>2019-10-27T00:15:57Z</time>
      </trkpt>
      <trkpt lat="31.20438916697107" lon="121.61193943777816">
        <ele>7.796973325312138</ele>
        <time>2019-10-27T00:16:00Z</time>
      </trkpt>
      <trkpt lat="31.20453277302238" lon="121.61206385515386">
        <ele>7.717313942499459</ele>
        <time>2019-10-27T00:16:08Z</time>
      </trkpt>
      <trkpt lat="31.204570687587548" lon="121.61212132238286">
        <ele>7.830179863609374</ele>
        <time>2019-10-27T00:16:11Z</time>
      </trkpt>
      <trkpt lat="31.20464358962415" lon="121.61216441903443">
        <ele>8.181368307210505</ele>
        <time>2019-10-27T00:16:15Z</time>
      </trkpt>
      <trkpt lat="31.20472594402703" lon="121.61225549686817">
        <ele>5.470847599208355</ele>
        <time>2019-10-27T00:16:23Z</time>
      </trkpt>
      <trkpt lat="31.20501425171555" lon="121.61248589389226">
        <ele>9.836729446426034</ele>
        <time>2019-10-27T00:16:38Z</time>
      </trkpt>
      <trkpt lat="31.205100662206476" lon="121.61258943984922">
        <ele>7.380461596883833</ele>
        <time>2019-10-27T00:16:42Z</time>
      </trkpt>
      <trkpt lat="31.20520308049294" lon="121.61267888787765">
        <ele>8.042308214120567</ele>
        <time>2019-10-27T00:16:46Z</time>
      </trkpt>
      <trkpt lat="31.205187536813423" lon="121.61279057376183">
        <ele>6.591104102320969</ele>
        <time>2019-10-27T00:16:49Z</time>
      </trkpt>
      <trkpt lat="31.205193420198444" lon="121.61289249855919">
        <ele>7.911826014518738</ele>
        <time>2019-10-27T00:16:53Z</time>
      </trkpt>
      <trkpt lat="31.205150768197658" lon="121.61299659553387">
        <ele>7.693356075324118</ele>
        <time>2019-10-27T00:16:57Z</time>
      </trkpt>
      <trkpt lat="31.205050393132705" lon="121.61306464383188">
        <ele>7.95139198936522</ele>
        <time>2019-10-27T00:17:01Z</time>
      </trkpt>
      <trkpt lat="31.204997195243855" lon="121.61313295910566">
        <ele>7.621596488170326</ele>
        <time>2019-10-27T00:17:04Z</time>
      </trkpt>
      <trkpt lat="31.204945857355593" lon="121.61324762758599">
        <ele>7.395568043924868</ele>
        <time>2019-10-27T00:17:08Z</time>
      </trkpt>
      <trkpt lat="31.20486094126409" lon="121.61330971028374">
        <ele>8.200078235007823</ele>
        <time>2019-10-27T00:17:12Z</time>
      </trkpt>
      <trkpt lat="31.20481583650736" lon="121.61342708809667">
        <ele>7.41672689281404</ele>
        <time>2019-10-27T00:17:16Z</time>
      </trkpt>
      <trkpt lat="31.20473148082764" lon="121.61346667142075">
        <ele>7.52618960943073</ele>
        <time>2019-10-27T00:17:20Z</time>
      </trkpt>
      <trkpt lat="31.204609101592343" lon="121.61358432590991">
        <ele>7.838911049999297</ele>
        <time>2019-10-27T00:17:24Z</time>
      </trkpt>
      <trkpt lat="31.20444255251673" lon="121.61367108169824">
        <ele>7.251150606200099</ele>
        <time>2019-10-27T00:17:31Z</time>
      </trkpt>
      <trkpt lat="31.20431556470168" lon="121.61378683808024">
        <ele>7.2092220550403</ele>
        <time>2019-10-27T00:17:38Z</time>
      </trkpt>
      <trkpt lat="31.204222242668386" lon="121.61384837792006">
        <ele>7.601601121015847</ele>
        <time>2019-10-27T00:17:42Z</time>
      </trkpt>
      <trkpt lat="31.203992671603068" lon="121.61407473615509">
        <ele>8.19434062205255</ele>
        <time>2019-10-27T00:17:54Z</time>
      </trkpt>
      <trkpt lat="31.20379751777596" lon="121.61431870834856">
        <ele>7.353203184902668</ele>
        <time>2019-10-27T00:18:05Z</time>
      </trkpt>
      <trkpt lat="31.203523708450476" lon="121.61459060351496">
        <ele>7.450256333686411</ele>
        <time>2019-10-27T00:18:22Z</time>
      </trkpt>
      <trkpt lat="31.20346860292705" lon="121.61466569096466">
        <ele>6.367482158355415</ele>
        <time>2019-10-27T00:18:25Z</time>
      </trkpt>
      <trkpt lat="31.203444378238228" lon="121.61477330233414">
        <ele>6.303602148778737</ele>
        <time>2019-10-27T00:18:29Z</time>
      </trkpt>
      <trkpt lat="31.20334909221101" lon="121.614907753478">
        <ele>6.0184151735156775</ele>
        <time>2019-10-27T00:18:36Z</time>
      </trkpt>
      <trkpt lat="31.20332487492801" lon="121.61500587690287">
        <ele>6.043449042364955</ele>
        <time>2019-10-27T00:18:40Z</time>
      </trkpt>
      <trkpt lat="31.20344690873623" lon="121.61528586302921">
        <ele>7.124666441231966</ele>
        <time>2019-10-27T00:18:57Z</time>
      </trkpt>
      <trkpt lat="31.203423507138154" lon="121.61537991911084">
        <ele>6.506263396702707</ele>
        <time>2019-10-27T00:19:01Z</time>
      </trkpt>
      <trkpt lat="31.203224841198608" lon="121.615597044722">
        <ele>6.189126396551728</ele>
        <time>2019-10-27T00:19:15Z</time>
      </trkpt>
      <trkpt lat="31.202985206274608" lon="121.61584263137959">
        <ele>7.761091732420027</ele>
        <time>2019-10-27T00:19:29Z</time>
      </trkpt>
      <trkpt lat="31.202937453641933" lon="121.61587868411488">
        <ele>5.840399331413209</ele>
        <time>2019-10-27T00:19:32Z</time>
      </trkpt>
      <trkpt lat="31.202734436963027" lon="121.61610529205002">
        <ele>5.909611056558788</ele>
        <time>2019-10-27T00:19:44Z</time>
      </trkpt>
      <trkpt lat="31.202698054409545" lon="121.61616004523462">
        <ele>5.7524582566693425</ele>
        <time>2019-10-27T00:19:47Z</time>
      </trkpt>
      <trkpt lat="31.20253335013135" lon="121.61629557856519">
        <ele>6.014833082444966</ele>
        <time>2019-10-27T00:19:55Z</time>
      </trkpt>
      <trkpt lat="31.20231239612114" lon="121.61656392364618">
        <ele>5.220074199140072</ele>
        <time>2019-10-27T00:20:09Z</time>
      </trkpt>
      <trkpt lat="31.202192134314632" lon="121.61672248896166">
        <ele>5.322196500375867</ele>
        <time>2019-10-27T00:20:17Z</time>
      </trkpt>
      <trkpt lat="31.202123219258016" lon="121.61677209382344">
        <ele>5.1359804486855865</ele>
        <time>2019-10-27T00:20:21Z</time>
      </trkpt>
      <trkpt lat="31.202012190582618" lon="121.61691412409711">
        <ele>6.186586679890752</ele>
        <time>2019-10-27T00:20:28Z</time>
      </trkpt>
      <trkpt lat="31.20186537995636" lon="121.61704721251184">
        <ele>5.952072797343135</ele>
        <time>2019-10-27T00:20:36Z</time>
      </trkpt>
      <trkpt lat="31.20181732667477" lon="121.61711253471982">
        <ele>5.062579590827227</ele>
        <time>2019-10-27T00:20:39Z</time>
      </trkpt>
      <trkpt lat="31.201717503675045" lon="121.61715997312108">
        <ele>5.870247373357415</ele>
        <time>2019-10-27T00:20:43Z</time>
      </trkpt>
      <trkpt lat="31.201609767409902" lon="121.61725972055366">
        <ele>5.41752968262881</ele>
        <time>2019-10-27T00:20:47Z</time>
      </trkpt>
      <trkpt lat="31.201535378528465" lon="121.61736136201498">
        <ele>5.662723725661635</ele>
        <time>2019-10-27T00:20:51Z</time>
      </trkpt>
      <trkpt lat="31.201271616979607" lon="121.61758687721772">
        <ele>6.1298589846119285</ele>
        <time>2019-10-27T00:21:06Z</time>
      </trkpt>
      <trkpt lat="31.201205964905974" lon="121.61762536809402">
        <ele>4.905515132471919</ele>
        <time>2019-10-27T00:21:09Z</time>
      </trkpt>
      <trkpt lat="31.20114514074566" lon="121.61771752113378">
        <ele>5.9669323563575745</ele>
        <time>2019-10-27T00:21:13Z</time>
      </trkpt>
      <trkpt lat="31.201088695387924" lon="121.61776793603997">
        <ele>4.798680555075407</ele>
        <time>2019-10-27T00:21:16Z</time>
      </trkpt>
      <trkpt lat="31.200938226859197" lon="121.61803192301346">
        <ele>5.472881824709475</ele>
        <time>2019-10-27T00:21:28Z</time>
      </trkpt>
      <trkpt lat="31.200710464709275" lon="121.61831380070295">
        <ele>4.636669679544866</ele>
        <time>2019-10-27T00:21:42Z</time>
      </trkpt>
      <trkpt lat="31.200491917300155" lon="121.6185967585283">
        <ele>4.818098513409495</ele>
        <time>2019-10-27T00:21:57Z</time>
      </trkpt>
      <trkpt lat="31.200394172372203" lon="121.61873173100886">
        <ele>4.64956578053534</ele>
        <time>2019-10-27T00:22:04Z</time>
      </trkpt>
      <trkpt lat="31.20013387676397" lon="121.61900438926807">
        <ele>3.6448572603985667</ele>
        <time>2019-10-27T00:22:19Z</time>
      </trkpt>
      <trkpt lat="31.199909329987808" lon="121.61931416948522">
        <ele>4.387858494184911</ele>
        <time>2019-10-27T00:22:34Z</time>
      </trkpt>
      <trkpt lat="31.199714457648263" lon="121.6195049730602">
        <ele>4.966501879505813</ele>
        <time>2019-10-27T00:22:45Z</time>
      </trkpt>
      <trkpt lat="31.199566019200454" lon="121.61962774981191">
        <ele>4.914420758374035</ele>
        <time>2019-10-27T00:22:52Z</time>
      </trkpt>
      <trkpt lat="31.199328251763607" lon="121.61986977366587">
        <ele>5.206166800111532</ele>
        <time>2019-10-27T00:23:06Z</time>
      </trkpt>
      <trkpt lat="31.199213489155568" lon="121.61993888808148">
        <ele>5.593306050635874</ele>
        <time>2019-10-27T00:23:13Z</time>
      </trkpt>
      <trkpt lat="31.199102016684854" lon="121.61997331419599">
        <ele>5.342026156373322</ele>
        <time>2019-10-27T00:23:20Z</time>
      </trkpt>
      <trkpt lat="31.19907697856049" lon="121.62006193277664">
        <ele>5.76680254470557</ele>
        <time>2019-10-27T00:23:24Z</time>
      </trkpt>
      <trkpt lat="31.19903026787236" lon="121.62013320902633">
        <ele>5.714270520024002</ele>
        <time>2019-10-27T00:23:28Z</time>
      </trkpt>
      <trkpt lat="31.198837704489858" lon="121.62018796635373">
        <ele>5.365982609800994</ele>
        <time>2019-10-27T00:23:35Z</time>
      </trkpt>
      <trkpt lat="31.198734593872143" lon="121.62026276987099">
        <ele>5.475136300548911</ele>
        <time>2019-10-27T00:23:39Z</time>
      </trkpt>
      <trkpt lat="31.198658573863803" lon="121.62035870854459">
        <ele>5.909800020046532</ele>
        <time>2019-10-27T00:23:43Z</time>
      </trkpt>
      <trkpt lat="31.19861451273164" lon="121.6204868924779">
        <ele>5.9944539880380034</ele>
        <time>2019-10-27T00:23:47Z</time>
      </trkpt>
      <trkpt lat="31.19837944330271" lon="121.62073486989259">
        <ele>6.0390578070655465</ele>
        <time>2019-10-27T00:23:58Z</time>
      </trkpt>
      <trkpt lat="31.19826903218666" lon="121.62078989014883">
        <ele>7.038688983768225</ele>
        <time>2019-10-27T00:24:05Z</time>
      </trkpt>
      <trkpt lat="31.198078763363842" lon="121.62097743061665">
        <ele>5.0559800853952765</ele>
        <time>2019-10-27T00:24:17Z</time>
      </trkpt>
      <trkpt lat="31.19802742760507" lon="121.62106117018271">
        <ele>4.814856086857617</ele>
        <time>2019-10-27T00:24:21Z</time>
      </trkpt>
      <trkpt lat="31.197810829703194" lon="121.62127364156895">
        <ele>6.0373684372752905</ele>
        <time>2019-10-27T00:24:35Z</time>
      </trkpt>
      <trkpt lat="31.197558159935834" lon="121.62149478569448">
        <ele>5.114557706750929</ele>
        <time>2019-10-27T00:24:49Z</time>
      </trkpt>
      <trkpt lat="31.197362209002712" lon="121.62166795961085">
        <ele>5.843830283731222</ele>
        <time>2019-10-27T00:25:00Z</time>
      </trkpt>
      <trkpt lat="31.19712775855395" lon="121.6218389677478">
        <ele>5.228306828066707</ele>
        <time>2019-10-27T00:25:11Z</time>
      </trkpt>
      <trkpt lat="31.196910642655663" lon="121.62202514811487">
        <ele>5.53201266285032</ele>
        <time>2019-10-27T00:25:24Z</time>
      </trkpt>
      <trkpt lat="31.19684172985364" lon="121.6220649875253">
        <ele>5.775176331400871</ele>
        <time>2019-10-27T00:25:31Z</time>
      </trkpt>
      <trkpt lat="31.196721211628745" lon="121.62218449826558">
        <ele>4.658176209777594</ele>
        <time>2019-10-27T00:25:39Z</time>
      </trkpt>
      <trkpt lat="31.1966801799494" lon="121.62226443951829">
        <ele>5.977482317946851</ele>
        <time>2019-10-27T00:25:43Z</time>
      </trkpt>
      <trkpt lat="31.196714012105584" lon="121.62255492075903">
        <ele>4.931446395814419</ele>
        <time>2019-10-27T00:25:53Z</time>
      </trkpt>
      <trkpt lat="31.196729886370388" lon="121.62289769743035">
        <ele>3.971067109145224</ele>
        <time>2019-10-27T00:26:05Z</time>
      </trkpt>
      <trkpt lat="31.196743087148107" lon="121.62320470250982">
        <ele>4.478270591236651</ele>
        <time>2019-10-27T00:26:16Z</time>
      </trkpt>
      <trkpt lat="31.196758453021815" lon="121.62328084256893">
        <ele>4.652380648069084</ele>
        <time>2019-10-27T00:26:19Z</time>
      </trkpt>
      <trkpt lat="31.196803879991393" lon="121.62338651503767">
        <ele>4.297713782638311</ele>
        <time>2019-10-27T00:26:23Z</time>
      </trkpt>
      <trkpt lat="31.196802806130528" lon="121.62360843388082">
        <ele>5.622298424132168</ele>
        <time>2019-10-27T00:26:33Z</time>
      </trkpt>
      <trkpt lat="31.196818209146013" lon="121.62388156092237">
        <ele>5.847428751178086</ele>
        <time>2019-10-27T00:26:51Z</time>
      </trkpt>
      <trkpt lat="31.196846533327246" lon="121.62400348998948">
        <ele>5.697354016825557</ele>
        <time>2019-10-27T00:26:59Z</time>
      </trkpt>
      <trkpt lat="31.196898358516886" lon="121.62397097070863">
        <ele>5.630184435285628</ele>
        <time>2019-10-27T00:27:02Z</time>
      </trkpt>
      <trkpt lat="31.19695996110409" lon="121.62369539952813">
        <ele>6.377647338435054</ele>
        <time>2019-10-27T00:27:17Z</time>
      </trkpt>
      <trkpt lat="31.196891238874418" lon="121.62334044385952">
        <ele>5.023341674357653</ele>
        <time>2019-10-27T00:27:31Z</time>
      </trkpt>
      <trkpt lat="31.196846897857757" lon="121.62323341629462">
        <ele>6.980329730547965</ele>
        <time>2019-10-27T00:27:35Z</time>
      </trkpt>
      <trkpt lat="31.19684996548506" lon="121.62316025520823">
        <ele>5.0581714157015085</ele>
        <time>2019-10-27T00:27:39Z</time>
      </trkpt>
      <trkpt lat="31.19682295345815" lon="121.62307300612056">
        <ele>6.424912049435079</ele>
        <time>2019-10-27T00:27:43Z</time>
      </trkpt>
      <trkpt lat="31.19683657922938" lon="121.62301339212651">
        <ele>4.44098936393857</ele>
        <time>2019-10-27T00:27:46Z</time>
      </trkpt>
      <trkpt lat="31.196819971783707" lon="121.62283780575359">
        <ele>4.5423698434606194</ele>
        <time>2019-10-27T00:27:53Z</time>
      </trkpt>
      <trkpt lat="31.19702195508465" lon="121.6226115284561">
        <ele>5.353610807098448</ele>
        <time>2019-10-27T00:28:05Z</time>
      </trkpt>
      <trkpt lat="31.197055388821834" lon="121.62253782123489">
        <ele>5.367621782235801</ele>
        <time>2019-10-27T00:28:08Z</time>
      </trkpt>
      <trkpt lat="31.19718782229846" lon="121.62243240171591">
        <ele>6.304673666134477</ele>
        <time>2019-10-27T00:28:15Z</time>
      </trkpt>
      <trkpt lat="31.19727000634942" lon="121.62240556850564">
        <ele>4.861062456853688</ele>
        <time>2019-10-27T00:28:19Z</time>
      </trkpt>
      <trkpt lat="31.19741331670778" lon="121.62227196615218">
        <ele>6.1928206803277135</ele>
        <time>2019-10-27T00:28:29Z</time>
      </trkpt>
      <trkpt lat="31.197448626718963" lon="121.622216684211">
        <ele>5.594467600807548</ele>
        <time>2019-10-27T00:28:33Z</time>
      </trkpt>
      <trkpt lat="31.19767118211949" lon="121.62201668485987">
        <ele>6.96944940648973</ele>
        <time>2019-10-27T00:28:51Z</time>
      </trkpt>
      <trkpt lat="31.19773821006416" lon="121.62196519346486">
        <ele>6.911703840829432</ele>
        <time>2019-10-27T00:28:55Z</time>
      </trkpt>
      <trkpt lat="31.197811012525474" lon="121.621841621">
        <ele>7.504784447140992</ele>
        <time>2019-10-27T00:29:01Z</time>
      </trkpt>
      <trkpt lat="31.19801531137491" lon="121.621720746889">
        <ele>6.19509247597307</ele>
        <time>2019-10-27T00:29:18Z</time>
      </trkpt>
      <trkpt lat="31.19809937526514" lon="121.62170962971314">
        <ele>5.570049365982413</ele>
        <time>2019-10-27T00:29:22Z</time>
      </trkpt>
      <trkpt lat="31.19815011234102" lon="121.62167819169906">
        <ele>4.990689314901829</ele>
        <time>2019-10-27T00:29:25Z</time>
      </trkpt>
      <trkpt lat="31.19819545595723" lon="121.62162046886151">
        <ele>6.190273146145046</ele>
        <time>2019-10-27T00:29:28Z</time>
      </trkpt>
      <trkpt lat="31.19828499790212" lon="121.62155949045052">
        <ele>6.198986751958728</ele>
        <time>2019-10-27T00:29:32Z</time>
      </trkpt>
      <trkpt lat="31.198432145145706" lon="121.62138550691337">
        <ele>5.498819558881223</ele>
        <time>2019-10-27T00:29:40Z</time>
      </trkpt>
      <trkpt lat="31.198528290810735" lon="121.62123645716207">
        <ele>6.967842061072588</ele>
        <time>2019-10-27T00:29:47Z</time>
      </trkpt>
      <trkpt lat="31.198619987091575" lon="121.6211882140491">
        <ele>6.007206995971501</ele>
        <time>2019-10-27T00:29:51Z</time>
      </trkpt>
      <trkpt lat="31.198898709678254" lon="121.62094321819085">
        <ele>5.293077356182039</ele>
        <time>2019-10-27T00:30:05Z</time>
      </trkpt>
      <trkpt lat="31.19897606929964" lon="121.62086381193136">
        <ele>6.202248136512935</ele>
        <time>2019-10-27T00:30:09Z</time>
      </trkpt>
      <trkpt lat="31.19901735494994" lon="121.62079633199616">
        <ele>5.800122431479394</ele>
        <time>2019-10-27T00:30:12Z</time>
      </trkpt>
      <trkpt lat="31.199138678060045" lon="121.62067979583199">
        <ele>7.927312333136797</ele>
        <time>2019-10-27T00:30:20Z</time>
      </trkpt>
      <trkpt lat="31.19933126607705" lon="121.62060308916263">
        <ele>6.245198165997863</ele>
        <time>2019-10-27T00:30:34Z</time>
      </trkpt>
      <trkpt lat="31.199625111768288" lon="121.62066214112053">
        <ele>5.805507485754788</ele>
        <time>2019-10-27T00:30:52Z</time>
      </trkpt>
      <trkpt lat="31.19977827566461" lon="121.62068705967735">
        <ele>6.001814157702029</ele>
        <time>2019-10-27T00:31:02Z</time>
      </trkpt>
      <trkpt lat="31.19983143057256" lon="121.62067540264106">
        <ele>4.75007180031389</ele>
        <time>2019-10-27T00:31:06Z</time>
      </trkpt>
      <trkpt lat="31.199906208822547" lon="121.62072607183953">
        <ele>4.837621661834419</ele>
        <time>2019-10-27T00:31:12Z</time>
      </trkpt>
      <trkpt lat="31.199956644197712" lon="121.62072200279898">
        <ele>5.845949807204306</ele>
        <time>2019-10-27T00:31:16Z</time>
      </trkpt>
      <trkpt lat="31.200022760762256" lon="121.62075912308897">
        <ele>5.039757242426276</ele>
        <time>2019-10-27T00:31:20Z</time>
      </trkpt>
      <trkpt lat="31.200113079009828" lon="121.62073093256012">
        <ele>5.3025517566129565</ele>
        <time>2019-10-27T00:31:28Z</time>
      </trkpt>
      <trkpt lat="31.200281981324274" lon="121.62074419714145">
        <ele>5.714773599989712</ele>
        <time>2019-10-27T00:31:38Z</time>
      </trkpt>
      <trkpt lat="31.200380072631344" lon="121.62079892913246">
        <ele>6.004193203523755</ele>
        <time>2019-10-27T00:31:44Z</time>
      </trkpt>
      <trkpt lat="31.200654120953686" lon="121.62086204712948">
        <ele>6.040871795266867</ele>
        <time>2019-10-27T00:32:02Z</time>
      </trkpt>
      <trkpt lat="31.20099678305286" lon="121.62090971291538">
        <ele>6.261305603198707</ele>
        <time>2019-10-27T00:32:26Z</time>
      </trkpt>
      <trkpt lat="31.201147742985068" lon="121.6209666080933">
        <ele>5.732431484386325</ele>
        <time>2019-10-27T00:32:36Z</time>
      </trkpt>
      <trkpt lat="31.20141693260551" lon="121.6210096729699">
        <ele>5.197857138700783</ele>
        <time>2019-10-27T00:32:55Z</time>
      </trkpt>
      <trkpt lat="31.201727045777478" lon="121.62106899364693">
        <ele>5.115071878768504</ele>
        <time>2019-10-27T00:33:19Z</time>
      </trkpt>
      <trkpt lat="31.20177233623625" lon="121.62105896335713">
        <ele>5.479258768260479</ele>
        <time>2019-10-27T00:33:22Z</time>
      </trkpt>
      <trkpt lat="31.20186883736337" lon="121.6210798214121">
        <ele>4.381188578903675</ele>
        <time>2019-10-27T00:33:29Z</time>
      </trkpt>
      <trkpt lat="31.201944757753488" lon="121.62107737624169">
        <ele>6.224966497160494</ele>
        <time>2019-10-27T00:33:33Z</time>
      </trkpt>
      <trkpt lat="31.202225059166746" lon="121.6211247758076">
        <ele>4.417660320177674</ele>
        <time>2019-10-27T00:33:55Z</time>
      </trkpt>
      <trkpt lat="31.202525409974815" lon="121.62118545196284">
        <ele>4.658527223393321</ele>
        <time>2019-10-27T00:34:19Z</time>
      </trkpt>
      <trkpt lat="31.202570129670747" lon="121.62120143645168">
        <ele>5.10342235583812</ele>
        <time>2019-10-27T00:34:23Z</time>
      </trkpt>
      <trkpt lat="31.202552473745047" lon="121.62123070440525">
        <ele>4.775501931086183</ele>
        <time>2019-10-27T00:34:32Z</time>
      </trkpt>
      <trkpt lat="31.202490462721354" lon="121.6211588981791">
        <ele>5.178442656993866</ele>
        <time>2019-10-27T00:35:27Z</time>
      </trkpt>
      <trkpt lat="31.202490462721354" lon="121.6211588981791">
        <ele>5.178442656993866</ele>
        <time>2019-10-27T00:35:40Z</time>
      </trkpt>
      <trkpt lat="31.202483952215022" lon="121.62116187957066">
        <ele>5.091828318312764</ele>
        <time>2019-10-27T00:35:42Z</time>
      </trkpt>
      <trkpt lat="31.202472898654744" lon="121.6211044312642">
        <ele>4.555937071330845</ele>
        <time>2019-10-27T00:35:54Z</time>
      </trkpt>
      <trkpt lat="31.202483816681216" lon="121.62103803841556">
        <ele>4.073897611349821</ele>
        <time>2019-10-27T00:35:57Z</time>
      </trkpt>
      <trkpt lat="31.202431886980655" lon="121.62067058058315">
        <ele>5.295406601391733</ele>
        <time>2019-10-27T00:36:09Z</time>
      </trkpt>
      <trkpt lat="31.20239027481382" lon="121.62053833975494">
        <ele>4.662184923887253</ele>
        <time>2019-10-27T00:36:13Z</time>
      </trkpt>
      <trkpt lat="31.202378438939743" lon="121.62045080983299">
        <ele>2.6080631781369448</ele>
        <time>2019-10-27T00:36:16Z</time>
      </trkpt>
      <trkpt lat="31.202396977736157" lon="121.62035596024043">
        <ele>4.55855081230402</ele>
        <time>2019-10-27T00:36:19Z</time>
      </trkpt>
      <trkpt lat="31.202440886789557" lon="121.62036977734536">
        <ele>4.713929750956595</ele>
        <time>2019-10-27T00:36:31Z</time>
      </trkpt>
      <trkpt lat="31.202501887198533" lon="121.6203743792085">
        <ele>4.916055941954255</ele>
        <time>2019-10-27T00:36:57Z</time>
      </trkpt>
      <trkpt lat="31.20256672409359" lon="121.62034104146677">
        <ele>4.68646789714694</ele>
        <time>2019-10-27T00:37:01Z</time>
      </trkpt>
      <trkpt lat="31.20267273348416" lon="121.62034509762016">
        <ele>5.152675614692271</ele>
        <time>2019-10-27T00:37:05Z</time>
      </trkpt>
      <trkpt lat="31.202755457730742" lon="121.62031880424026">
        <ele>3.78859871160239</ele>
        <time>2019-10-27T00:37:08Z</time>
      </trkpt>
      <trkpt lat="31.202836061166657" lon="121.62024725470346">
        <ele>4.826773464679718</ele>
        <time>2019-10-27T00:37:12Z</time>
      </trkpt>
      <trkpt lat="31.202831809863625" lon="121.62016568510695">
        <ele>4.813793144188821</ele>
        <time>2019-10-27T00:37:15Z</time>
      </trkpt>
      <trkpt lat="31.202792336078883" lon="121.6200602703521">
        <ele>4.502412907779217</ele>
        <time>2019-10-27T00:37:19Z</time>
      </trkpt>
      <trkpt lat="31.202796490585573" lon="121.61997761547502">
        <ele>5.203677929006517</ele>
        <time>2019-10-27T00:37:22Z</time>
      </trkpt>
      <trkpt lat="31.202722588001947" lon="121.6196079764355">
        <ele>5.71507154405117</ele>
        <time>2019-10-27T00:37:34Z</time>
      </trkpt>
      <trkpt lat="31.20264302937345" lon="121.61919713948811">
        <ele>5.109170232899487</ele>
        <time>2019-10-27T00:37:48Z</time>
      </trkpt>
      <trkpt lat="31.20257382891446" lon="121.61899253399743">
        <ele>5.139128412120044</ele>
        <time>2019-10-27T00:37:55Z</time>
      </trkpt>
      <trkpt lat="31.202563341041966" lon="121.61890797981573">
        <ele>6.617935501970351</ele>
        <time>2019-10-27T00:37:58Z</time>
      </trkpt>
      <trkpt lat="31.202511394641146" lon="121.61879849574655">
        <ele>6.13188317976892</ele>
        <time>2019-10-27T00:38:02Z</time>
      </trkpt>
      <trkpt lat="31.2025131091912" lon="121.61871204282228">
        <ele>5.806722258217633</ele>
        <time>2019-10-27T00:38:05Z</time>
      </trkpt>
      <trkpt lat="31.202554091174232" lon="121.61867192957651">
        <ele>5.959010227583349</ele>
        <time>2019-10-27T00:38:08Z</time>
      </trkpt>
      <trkpt lat="31.20278765874435" lon="121.61855266436149">
        <ele>5.206027119420469</ele>
        <time>2019-10-27T00:38:19Z</time>
      </trkpt>
      <trkpt lat="31.202843307428616" lon="121.61848707427768">
        <ele>5.277750410139561</ele>
        <time>2019-10-27T00:38:22Z</time>
      </trkpt>
      <trkpt lat="31.20283031734121" lon="121.61819166756342">
        <ele>5.639969213865697</ele>
        <time>2019-10-27T00:38:33Z</time>
      </trkpt>
      <trkpt lat="31.202809266557022" lon="121.61809328961024">
        <ele>5.472619408741593</ele>
        <time>2019-10-27T00:38:37Z</time>
      </trkpt>
      <trkpt lat="31.202766248148084" lon="121.61800033348862">
        <ele>5.532647939398885</ele>
        <time>2019-10-27T00:38:41Z</time>
      </trkpt>
      <trkpt lat="31.20270747155209" lon="121.61793990082272">
        <ele>5.466017870232463</ele>
        <time>2019-10-27T00:38:44Z</time>
      </trkpt>
      <trkpt lat="31.202538000004278" lon="121.61767621037377">
        <ele>5.398194746114314</ele>
        <time>2019-10-27T00:38:55Z</time>
      </trkpt>
      <trkpt lat="31.202501864235042" lon="121.61747457106485">
        <ele>6.393052245490253</ele>
        <time>2019-10-27T00:39:03Z</time>
      </trkpt>
      <trkpt lat="31.202450535386163" lon="121.61728133323955">
        <ele>5.209448193199933</ele>
        <time>2019-10-27T00:39:11Z</time>
      </trkpt>
      <trkpt lat="31.202578321735995" lon="121.61719621979236">
        <ele>5.9142242055386305</ele>
        <time>2019-10-27T00:39:18Z</time>
      </trkpt>
      <trkpt lat="31.202620698536236" lon="121.61711301032535">
        <ele>6.211793543770909</ele>
        <time>2019-10-27T00:39:21Z</time>
      </trkpt>
      <trkpt lat="31.202809843240043" lon="121.61694143231732">
        <ele>5.179306337609887</ele>
        <time>2019-10-27T00:39:32Z</time>
      </trkpt>
      <trkpt lat="31.20289257468076" lon="121.61690429412636">
        <ele>7.314857822842896</ele>
        <time>2019-10-27T00:39:36Z</time>
      </trkpt>
      <trkpt lat="31.20300061091652" lon="121.61677283434919">
        <ele>5.319536373950541</ele>
        <time>2019-10-27T00:39:43Z</time>
      </trkpt>
      <trkpt lat="31.20308174626406" lon="121.61670290092523">
        <ele>5.600421418435872</ele>
        <time>2019-10-27T00:39:47Z</time>
      </trkpt>
      <trkpt lat="31.203277627536423" lon="121.61657333005466">
        <ele>6.771035240031779</ele>
        <time>2019-10-27T00:39:57Z</time>
      </trkpt>
      <trkpt lat="31.203390524717747" lon="121.61646111172722">
        <ele>5.95740962587297</ele>
        <time>2019-10-27T00:40:03Z</time>
      </trkpt>
      <trkpt lat="31.203659647630744" lon="121.61629250398039">
        <ele>6.963621485978365</ele>
        <time>2019-10-27T00:40:16Z</time>
      </trkpt>
      <trkpt lat="31.203767638485136" lon="121.61620711771036">
        <ele>7.264105171896517</ele>
        <time>2019-10-27T00:40:23Z</time>
      </trkpt>
      <trkpt lat="31.20383029099455" lon="121.61618515830732">
        <ele>6.734885464422405</ele>
        <time>2019-10-27T00:40:29Z</time>
      </trkpt>
      <trkpt lat="31.203933441246452" lon="121.61605613444891">
        <ele>6.980920786038041</ele>
        <time>2019-10-27T00:40:36Z</time>
      </trkpt>
      <trkpt lat="31.204013735596675" lon="121.61601438740857">
        <ele>6.630082195624709</ele>
        <time>2019-10-27T00:40:40Z</time>
      </trkpt>
      <trkpt lat="31.204161546779876" lon="121.61596802699351">
        <ele>6.62068444211036</ele>
        <time>2019-10-27T00:40:47Z</time>
      </trkpt>
      <trkpt lat="31.20424287692066" lon="121.61597940404039">
        <ele>7.169912894256413</ele>
        <time>2019-10-27T00:40:51Z</time>
      </trkpt>
      <trkpt lat="31.20428837392918" lon="121.61603794531607">
        <ele>6.194428032264113</ele>
        <time>2019-10-27T00:40:54Z</time>
      </trkpt>
      <trkpt lat="31.204359926984747" lon="121.61606694082305">
        <ele>5.982913717627525</ele>
        <time>2019-10-27T00:40:58Z</time>
      </trkpt>
      <trkpt lat="31.20440896505344" lon="121.61610759291256">
        <ele>7.053222233429551</ele>
        <time>2019-10-27T00:41:02Z</time>
      </trkpt>
      <trkpt lat="31.204428702443487" lon="121.61616776225111">
        <ele>6.936920904554427</ele>
        <time>2019-10-27T00:41:05Z</time>
      </trkpt>
      <trkpt lat="31.20447205730042" lon="121.61619675993585">
        <ele>9.05670315399766</ele>
        <time>2019-10-27T00:41:09Z</time>
      </trkpt>
      <trkpt lat="31.204508592579817" lon="121.61627020857645">
        <ele>7.146164616569877</ele>
        <time>2019-10-27T00:41:16Z</time>
      </trkpt>
      <trkpt lat="31.204575529565012" lon="121.61630625119174">
        <ele>7.017190678045154</ele>
        <time>2019-10-27T00:41:23Z</time>
      </trkpt>
      <trkpt lat="31.20462054859308" lon="121.61629486384665">
        <ele>7.445644496008754</ele>
        <time>2019-10-27T00:41:27Z</time>
      </trkpt>
      <trkpt lat="31.20454798770822" lon="121.61618320166374">
        <ele>8.056182423606515</ele>
        <time>2019-10-27T00:41:33Z</time>
      </trkpt>
      <trkpt lat="31.204463165884157" lon="121.61613604769094">
        <ele>6.224599818699062</ele>
        <time>2019-10-27T00:41:37Z</time>
      </trkpt>
      <trkpt lat="31.204334767168866" lon="121.61600622960013">
        <ele>6.990185498259962</ele>
        <time>2019-10-27T00:41:45Z</time>
      </trkpt>
      <trkpt lat="31.204270330034298" lon="121.61590459401488">
        <ele>7.759019856341183</ele>
        <time>2019-10-27T00:41:51Z</time>
      </trkpt>
      <trkpt lat="31.204009182396025" lon="121.61565525476689">
        <ele>7.315424736589193</ele>
        <time>2019-10-27T00:42:15Z</time>
      </trkpt>
      <trkpt lat="31.203775679114948" lon="121.6154162105073">
        <ele>6.281992770731449</ele>
        <time>2019-10-27T00:42:37Z</time>
      </trkpt>
      <trkpt lat="31.203594932542135" lon="121.61530374007647">
        <ele>5.821614114567637</ele>
        <time>2019-10-27T00:42:51Z</time>
      </trkpt>
      <trkpt lat="31.203580616463874" lon="121.61524302604222">
        <ele>7.02448979113251</ele>
        <time>2019-10-27T00:42:58Z</time>
      </trkpt>
      <trkpt lat="31.203629754522012" lon="121.61517254876514">
        <ele>7.145967189222574</ele>
        <time>2019-10-27T00:43:02Z</time>
      </trkpt>
      <trkpt lat="31.20370463632766" lon="121.61511779016408">
        <ele>4.57183497864753</ele>
        <time>2019-10-27T00:43:06Z</time>
      </trkpt>
      <trkpt lat="31.20385669940683" lon="121.61485946380122">
        <ele>7.496706712059677</ele>
        <time>2019-10-27T00:43:22Z</time>
      </trkpt>
      <trkpt lat="31.20393050055665" lon="121.61479955452288">
        <ele>7.361294909380376</ele>
        <time>2019-10-27T00:43:26Z</time>
      </trkpt>
      <trkpt lat="31.20397583923148" lon="121.61473178682013">
        <ele>6.128513487055898</ele>
        <time>2019-10-27T00:43:29Z</time>
      </trkpt>
      <trkpt lat="31.204233327515958" lon="121.61452305134304">
        <ele>6.780122348107398</ele>
        <time>2019-10-27T00:43:41Z</time>
      </trkpt>
      <trkpt lat="31.204496847748757" lon="121.61423407936768">
        <ele>7.639677581377327</ele>
        <time>2019-10-27T00:43:55Z</time>
      </trkpt>
      <trkpt lat="31.204768988270487" lon="121.61400799019931">
        <ele>7.599030990153551</ele>
        <time>2019-10-27T00:44:09Z</time>
      </trkpt>
      <trkpt lat="31.204894379163004" lon="121.61385780965564">
        <ele>7.916601032949984</ele>
        <time>2019-10-27T00:44:16Z</time>
      </trkpt>
      <trkpt lat="31.205120193590282" lon="121.6135821150918">
        <ele>8.442191699519753</ele>
        <time>2019-10-27T00:44:30Z</time>
      </trkpt>
      <trkpt lat="31.205255074779682" lon="121.6134284071307">
        <ele>7.779932340607047</ele>
        <time>2019-10-27T00:44:38Z</time>
      </trkpt>
      <trkpt lat="31.20532289607075" lon="121.61338286153483">
        <ele>7.843086962588131</ele>
        <time>2019-10-27T00:44:41Z</time>
      </trkpt>
      <trkpt lat="31.205442580172065" lon="121.61324433363319">
        <ele>8.450343432836235</ele>
        <time>2019-10-27T00:44:49Z</time>
      </trkpt>
      <trkpt lat="31.20570357324167" lon="121.61304642776875">
        <ele>6.133919443003833</ele>
        <time>2019-10-27T00:45:03Z</time>
      </trkpt>
      <trkpt lat="31.205849039619228" lon="121.61287536647133">
        <ele>8.039881961420178</ele>
        <time>2019-10-27T00:45:11Z</time>
      </trkpt>
      <trkpt lat="31.205933144612967" lon="121.6128092165161">
        <ele>7.196773833595216</ele>
        <time>2019-10-27T00:45:15Z</time>
      </trkpt>
      <trkpt lat="31.205977180238843" lon="121.61266906499569">
        <ele>7.220187860541046</ele>
        <time>2019-10-27T00:45:22Z</time>
      </trkpt>
      <trkpt lat="31.205977180238843" lon="121.61266906499569">
        <ele>7.220187860541046</ele>
        <time>2019-10-27T00:45:34Z</time>
      </trkpt>
      <trkpt lat="31.205976593136036" lon="121.61272544959206">
        <ele>8.026417177170515</ele>
        <time>2019-10-27T00:45:37Z</time>
      </trkpt>
      <trkpt lat="31.205797239987632" lon="121.61255061766336">
        <ele>8.46855788026005</ele>
        <time>2019-10-27T00:45:55Z</time>
      </trkpt>
      <trkpt lat="31.205806830875016" lon="121.61242212399573">
        <ele>8.361034994013608</ele>
        <time>2019-10-27T00:46:05Z</time>
      </trkpt>
      <trkpt lat="31.205837240975313" lon="121.61236736269848">
        <ele>8.83613597881049</ele>
        <time>2019-10-27T00:46:09Z</time>
      </trkpt>
      <trkpt lat="31.206074387602513" lon="121.61214369820458">
        <ele>7.8556416453793645</ele>
        <time>2019-10-27T00:46:23Z</time>
      </trkpt>
      <trkpt lat="31.206222794224736" lon="121.61202007037942">
        <ele>8.66349639557302</ele>
        <time>2019-10-27T00:46:30Z</time>
      </trkpt>
      <trkpt lat="31.206300906109472" lon="121.61198780448984">
        <ele>6.878652196377516</ele>
        <time>2019-10-27T00:46:33Z</time>
      </trkpt>
      <trkpt lat="31.20653864697132" lon="121.61169148391676">
        <ele>8.244538958184421</ele>
        <time>2019-10-27T00:46:47Z</time>
      </trkpt>
      <trkpt lat="31.206596986852052" lon="121.61163102564788">
        <ele>8.27968370821327</ele>
        <time>2019-10-27T00:46:50Z</time>
      </trkpt>
      <trkpt lat="31.206603299289377" lon="121.61152963648">
        <ele>6.885756270959973</ele>
        <time>2019-10-27T00:46:54Z</time>
      </trkpt>
      <trkpt lat="31.206350517896077" lon="121.61127726819139">
        <ele>5.732117721810937</ele>
        <time>2019-10-27T00:47:08Z</time>
      </trkpt>
      <trkpt lat="31.206238598192602" lon="121.61119703282402">
        <ele>7.860257590189576</ele>
        <time>2019-10-27T00:47:14Z</time>
      </trkpt>
      <trkpt lat="31.20618167369566" lon="121.61117806072085">
        <ele>7.894792501814663</ele>
        <time>2019-10-27T00:47:17Z</time>
      </trkpt>
      <trkpt lat="31.206103175454597" lon="121.6109994133321">
        <ele>7.61374878231436</ele>
        <time>2019-10-27T00:47:24Z</time>
      </trkpt>
      <trkpt lat="31.205913561870844" lon="121.61074947389096">
        <ele>8.953781661577523</ele>
        <time>2019-10-27T00:47:36Z</time>
      </trkpt>
      <trkpt lat="31.20575109104668" lon="121.61045506812275">
        <ele>8.35265298653394</ele>
        <time>2019-10-27T00:47:48Z</time>
      </trkpt>
      <trkpt lat="31.20566300137668" lon="121.61041359615042">
        <ele>7.002570848912001</ele>
        <time>2019-10-27T00:47:52Z</time>
      </trkpt>
      <trkpt lat="31.20561505195544" lon="121.61035476993027">
        <ele>8.379565334878862</ele>
        <time>2019-10-27T00:47:56Z</time>
      </trkpt>
      <trkpt lat="31.205562724898158" lon="121.6103517920768">
        <ele>7.963074338622391</ele>
        <time>2019-10-27T00:48:00Z</time>
      </trkpt>
      <trkpt lat="31.205439238233232" lon="121.61013627101471">
        <ele>8.347850744612515</ele>
        <time>2019-10-27T00:48:21Z</time>
      </trkpt>
      <trkpt lat="31.205407854736215" lon="121.61003813164595">
        <ele>7.91501235216856</ele>
        <time>2019-10-27T00:48:25Z</time>
      </trkpt>
      <trkpt lat="31.205317887080952" lon="121.60996683678187">
        <ele>7.737457815557718</ele>
        <time>2019-10-27T00:48:29Z</time>
      </trkpt>
      <trkpt lat="31.20527752452856" lon="121.60991370213527">
        <ele>8.707021295093</ele>
        <time>2019-10-27T00:48:32Z</time>
      </trkpt>
      <trkpt lat="31.205122517256253" lon="121.60979388291507">
        <ele>7.84913971927017</ele>
        <time>2019-10-27T00:48:43Z</time>
      </trkpt>
      <trkpt lat="31.205057521063733" lon="121.60968191796091">
        <ele>9.173578624613583</ele>
        <time>2019-10-27T00:48:58Z</time>
      </trkpt>
    </trkseg>
  </trk>
</gpx>