<?xml version="1.0" encoding="UTF-8"?>
<gpx xmlns="http://www.topografix.com/GPX/1/1" xmlns:gpxtpx="http://www.garmin.com/xmlschemas/TrackPointExtension/v1" xmlns:xsi="http://www.w3.org/2001/XMLSchema-instance" xsi:schemaLocation="http://www.topografix.com/GPX/1/1 http://www.topografix.com/GPX/1/1/gpx.xsd" version="1.1" creator="gpx.py -- https://github.com/tkrajina/gpxpy">
  <trk>
    <name>gpx from keep</name>
    <type>Run</type>
    <trkseg>
      <trkpt lat="31.20455329133206" lon="121.61110011916377">
        <ele>7.8410799119902315</ele>
        <time>2019-11-05T23:38:42Z</time>
      </trkpt>
      <trkpt lat="31.20453242426039" lon="121.61108602377189">
        <ele>7.93489397794492</ele>
        <time>2019-11-05T23:38:46Z</time>
      </trkpt>
      <trkpt lat="31.20444109555561" lon="121.61102611847792">
        <ele>7.973439166100235</ele>
        <time>2019-11-05T23:38:50Z</time>
      </trkpt>
      <trkpt lat="31.20440772309326" lon="121.61105729762336">
        <ele>8.053567387163639</ele>
        <time>2019-11-05T23:38:53Z</time>
      </trkpt>
      <trkpt lat="31.204290842524255" lon="121.6110863148422">
        <ele>8.047223216854036</ele>
        <time>2019-11-05T23:38:56Z</time>
      </trkpt>
      <trkpt lat="31.20420889508227" lon="121.61117415735717">
        <ele>7.848200601525605</ele>
        <time>2019-11-05T23:39:00Z</time>
      </trkpt>
      <trkpt lat="31.204165745759862" lon="121.61122675376801">
        <ele>7.794376777485013</ele>
        <time>2019-11-05T23:39:03Z</time>
      </trkpt>
      <trkpt lat="31.20418900717315" lon="121.61130265882903">
        <ele>7.702113060280681</ele>
        <time>2019-11-05T23:39:06Z</time>
      </trkpt>
      <trkpt lat="31.20414034362918" lon="121.61147751905577">
        <ele>7.943123059347272</ele>
        <time>2019-11-05T23:39:10Z</time>
      </trkpt>
      <trkpt lat="31.204158187109698" lon="121.61154610422392">
        <ele>6.884791635908186</ele>
        <time>2019-11-05T23:39:13Z</time>
      </trkpt>
      <trkpt lat="31.204168980486006" lon="121.61161523195473">
        <ele>8.61814224999398</ele>
        <time>2019-11-05T23:39:17Z</time>
      </trkpt>
      <trkpt lat="31.204252961927462" lon="121.6117084805505">
        <ele>8.652256312780082</ele>
        <time>2019-11-05T23:39:21Z</time>
      </trkpt>
      <trkpt lat="31.204301986595766" lon="121.61177543591006">
        <ele>8.451987487263978</ele>
        <time>2019-11-05T23:39:24Z</time>
      </trkpt>
      <trkpt lat="31.204339887724785" lon="121.61185133794835">
        <ele>7.675068281590939</ele>
        <time>2019-11-05T23:39:27Z</time>
      </trkpt>
      <trkpt lat="31.204402188941913" lon="121.61192967751643">
        <ele>7.434232326224446</ele>
        <time>2019-11-05T23:39:30Z</time>
      </trkpt>
      <trkpt lat="31.204498110288945" lon="121.6120085562141">
        <ele>7.087208917364478</ele>
        <time>2019-11-05T23:39:34Z</time>
      </trkpt>
      <trkpt lat="31.204580481964182" lon="121.61207794772686">
        <ele>7.076568819582462</ele>
        <time>2019-11-05T23:39:38Z</time>
      </trkpt>
      <trkpt lat="31.20465199965053" lon="121.61215818336532">
        <ele>7.246864050626755</ele>
        <time>2019-11-05T23:39:43Z</time>
      </trkpt>
      <trkpt lat="31.204699378458862" lon="121.61224817977623">
        <ele>6.79383431468159</ele>
        <time>2019-11-05T23:39:46Z</time>
      </trkpt>
      <trkpt lat="31.204783400227655" lon="121.61228693792307">
        <ele>8.779690000228584</ele>
        <time>2019-11-05T23:39:49Z</time>
      </trkpt>
      <trkpt lat="31.20484571734638" lon="121.61234331824595">
        <ele>8.30584713537246</ele>
        <time>2019-11-05T23:39:53Z</time>
      </trkpt>
      <trkpt lat="31.204928367165287" lon="121.6124026786637">
        <ele>10.940824552439153</ele>
        <time>2019-11-05T23:39:57Z</time>
      </trkpt>
      <trkpt lat="31.204960317091718" lon="121.61245879013376">
        <ele>8.949265632778406</ele>
        <time>2019-11-05T23:40:00Z</time>
      </trkpt>
      <trkpt lat="31.205064614697413" lon="121.6125723647322">
        <ele>8.713389272801578</ele>
        <time>2019-11-05T23:40:04Z</time>
      </trkpt>
      <trkpt lat="31.205206907155812" lon="121.61264012312144">
        <ele>8.902124178595841</ele>
        <time>2019-11-05T23:40:08Z</time>
      </trkpt>
      <trkpt lat="31.205224194136502" lon="121.61272280101369">
        <ele>9.0750861922279</ele>
        <time>2019-11-05T23:40:11Z</time>
      </trkpt>
      <trkpt lat="31.20519211035801" lon="121.61283530128907">
        <ele>7.685301809571683</ele>
        <time>2019-11-05T23:40:15Z</time>
      </trkpt>
      <trkpt lat="31.205165462547505" lon="121.6129307227377">
        <ele>7.963104985654354</ele>
        <time>2019-11-05T23:40:19Z</time>
      </trkpt>
      <trkpt lat="31.205098988758174" lon="121.61298738322678">
        <ele>7.127463800832629</ele>
        <time>2019-11-05T23:40:22Z</time>
      </trkpt>
      <trkpt lat="31.204979913704673" lon="121.6130451322303">
        <ele>7.392716913484037</ele>
        <time>2019-11-05T23:40:26Z</time>
      </trkpt>
      <trkpt lat="31.204893360720007" lon="121.61312022718643">
        <ele>8.370990291237831</ele>
        <time>2019-11-05T23:40:30Z</time>
      </trkpt>
      <trkpt lat="31.20485886177207" lon="121.61319992585152">
        <ele>7.161746743135154</ele>
        <time>2019-11-05T23:40:33Z</time>
      </trkpt>
      <trkpt lat="31.204785300037543" lon="121.613302939726">
        <ele>6.75312237162143</ele>
        <time>2019-11-05T23:40:37Z</time>
      </trkpt>
      <trkpt lat="31.20469249398189" lon="121.61339782259799">
        <ele>7.979332496412098</ele>
        <time>2019-11-05T23:40:41Z</time>
      </trkpt>
      <trkpt lat="31.204614868268038" lon="121.61349622774623">
        <ele>7.357376543805003</ele>
        <time>2019-11-05T23:40:44Z</time>
      </trkpt>
      <trkpt lat="31.204523974531146" lon="121.61357294803594">
        <ele>7.276036134921014</ele>
        <time>2019-11-05T23:40:48Z</time>
      </trkpt>
      <trkpt lat="31.204444742101444" lon="121.61364641428884">
        <ele>6.553884289227426</ele>
        <time>2019-11-05T23:40:52Z</time>
      </trkpt>
      <trkpt lat="31.20435521491853" lon="121.61370958058787">
        <ele>7.76981885265559</ele>
        <time>2019-11-05T23:40:56Z</time>
      </trkpt>
      <trkpt lat="31.20429904289043" lon="121.61376596728036">
        <ele>9.442590633407235</ele>
        <time>2019-11-05T23:40:59Z</time>
      </trkpt>
      <trkpt lat="31.204199474577855" lon="121.61383970568069">
        <ele>7.6263302229344845</ele>
        <time>2019-11-05T23:41:03Z</time>
      </trkpt>
      <trkpt lat="31.20411103127229" lon="121.61390314243911">
        <ele>7.0693145440891385</ele>
        <time>2019-11-05T23:41:07Z</time>
      </trkpt>
      <trkpt lat="31.20400875947215" lon="121.6139671223009">
        <ele>8.12793318927288</ele>
        <time>2019-11-05T23:41:11Z</time>
      </trkpt>
      <trkpt lat="31.20393303883792" lon="121.61405468236583">
        <ele>7.001194917596877</ele>
        <time>2019-11-05T23:41:15Z</time>
      </trkpt>
      <trkpt lat="31.203852966177188" lon="121.61415823517342">
        <ele>8.349038251675665</ele>
        <time>2019-11-05T23:41:19Z</time>
      </trkpt>
      <trkpt lat="31.203802452407402" lon="121.61425527960712">
        <ele>7.250458976253867</ele>
        <time>2019-11-05T23:41:23Z</time>
      </trkpt>
      <trkpt lat="31.203766026398807" lon="121.61436506232019">
        <ele>8.338069843128324</ele>
        <time>2019-11-05T23:41:26Z</time>
      </trkpt>
      <trkpt lat="31.203695731625253" lon="121.61444747034147">
        <ele>7.353352282196283</ele>
        <time>2019-11-05T23:41:30Z</time>
      </trkpt>
      <trkpt lat="31.203583689755938" lon="121.6145206655398">
        <ele>7.84141618013382</ele>
        <time>2019-11-05T23:41:34Z</time>
      </trkpt>
      <trkpt lat="31.203519090704777" lon="121.61460036197565">
        <ele>7.157131694257259</ele>
        <time>2019-11-05T23:41:37Z</time>
      </trkpt>
      <trkpt lat="31.203445250677817" lon="121.61470553823399">
        <ele>6.604114931076765</ele>
        <time>2019-11-05T23:41:41Z</time>
      </trkpt>
      <trkpt lat="31.2034712288849" lon="121.61476381316125">
        <ele>7.351694134995341</ele>
        <time>2019-11-05T23:41:44Z</time>
      </trkpt>
      <trkpt lat="31.20345139722221" lon="121.61480826791706">
        <ele>7.120092576369643</ele>
        <time>2019-11-05T23:41:48Z</time>
      </trkpt>
      <trkpt lat="31.203399832955366" lon="121.61486383846004">
        <ele>7.089252562262118</ele>
        <time>2019-11-05T23:41:51Z</time>
      </trkpt>
      <trkpt lat="31.203352870972168" lon="121.61492726906042">
        <ele>5.909344387240708</ele>
        <time>2019-11-05T23:41:54Z</time>
      </trkpt>
      <trkpt lat="31.203305890221568" lon="121.61501184164034">
        <ele>6.142927967011929</ele>
        <time>2019-11-05T23:41:58Z</time>
      </trkpt>
      <trkpt lat="31.203288212396714" lon="121.61507310100912">
        <ele>7.0764859933406115</ele>
        <time>2019-11-05T23:42:01Z</time>
      </trkpt>
      <trkpt lat="31.203294971847267" lon="121.61509451357534">
        <ele>6.221650583669543</ele>
        <time>2019-11-05T23:42:04Z</time>
      </trkpt>
      <trkpt lat="31.203313387928535" lon="121.61511836462506">
        <ele>6.005389377474785</ele>
        <time>2019-11-05T23:42:08Z</time>
      </trkpt>
      <trkpt lat="31.203315015698337" lon="121.61511728028309">
        <ele>6.626724892295897</ele>
        <time>2019-11-05T23:42:11Z</time>
      </trkpt>
      <trkpt lat="31.203316380247653" lon="121.61510725125004">
        <ele>9.407121943309903</ele>
        <time>2019-11-05T23:42:14Z</time>
      </trkpt>
      <trkpt lat="31.203302013207907" lon="121.61510372876256">
        <ele>7.89002794213593</ele>
        <time>2019-11-05T23:42:17Z</time>
      </trkpt>
      <trkpt lat="31.203302568420938" lon="121.61508909190452">
        <ele>6.910166840068996</ele>
        <time>2019-11-05T23:42:20Z</time>
      </trkpt>
      <trkpt lat="31.203318288741148" lon="121.61509532480328">
        <ele>7.013053760863841</ele>
        <time>2019-11-05T23:42:23Z</time>
      </trkpt>
      <trkpt lat="31.20332125852007" lon="121.61510969031406">
        <ele>6.898318286985159</ele>
        <time>2019-11-05T23:42:27Z</time>
      </trkpt>
      <trkpt lat="31.2033326485897" lon="121.61510697885267">
        <ele>6.925699871964753</ele>
        <time>2019-11-05T23:42:30Z</time>
      </trkpt>
      <trkpt lat="31.203325865417415" lon="121.61511240045218">
        <ele>6.719561233185232</ele>
        <time>2019-11-05T23:42:33Z</time>
      </trkpt>
      <trkpt lat="31.203321782556362" lon="121.6151302902083">
        <ele>6.36853455286473</ele>
        <time>2019-11-05T23:42:36Z</time>
      </trkpt>
      <trkpt lat="31.20333289189112" lon="121.61513842083897">
        <ele>6.586842157877982</ele>
        <time>2019-11-05T23:42:40Z</time>
      </trkpt>
      <trkpt lat="31.203351060099703" lon="121.61513597987187">
        <ele>6.663124777376652</ele>
        <time>2019-11-05T23:42:44Z</time>
      </trkpt>
      <trkpt lat="31.203383581895945" lon="121.61515224027454">
        <ele>6.315938921645284</ele>
        <time>2019-11-05T23:42:47Z</time>
      </trkpt>
      <trkpt lat="31.203416621659542" lon="121.61519587678532">
        <ele>7.156271670013666</ele>
        <time>2019-11-05T23:42:51Z</time>
      </trkpt>
      <trkpt lat="31.203440170903907" lon="121.61524032715324">
        <ele>7.248867444694042</ele>
        <time>2019-11-05T23:42:54Z</time>
      </trkpt>
      <trkpt lat="31.203464780206716" lon="121.61531215338115">
        <ele>6.660757043398917</ele>
        <time>2019-11-05T23:42:58Z</time>
      </trkpt>
      <trkpt lat="31.20341426962382" lon="121.61540106167853">
        <ele>7.302724432200193</ele>
        <time>2019-11-05T23:43:02Z</time>
      </trkpt>
      <trkpt lat="31.20334343434158" lon="121.61547804522992">
        <ele>6.2222686391323805</ele>
        <time>2019-11-05T23:43:06Z</time>
      </trkpt>
      <trkpt lat="31.20329076269671" lon="121.615557466456">
        <ele>6.273068195208907</ele>
        <time>2019-11-05T23:43:10Z</time>
      </trkpt>
      <trkpt lat="31.20323785396693" lon="121.61559894097081">
        <ele>5.238368464633822</ele>
        <time>2019-11-05T23:43:13Z</time>
      </trkpt>
      <trkpt lat="31.203160242710965" lon="121.61567267190581">
        <ele>7.338750129565597</ele>
        <time>2019-11-05T23:43:17Z</time>
      </trkpt>
      <trkpt lat="31.20308777051913" lon="121.61575995442654">
        <ele>7.361307270824909</ele>
        <time>2019-11-05T23:43:21Z</time>
      </trkpt>
      <trkpt lat="31.20302155391849" lon="121.61582555261407">
        <ele>6.8763647088781</ele>
        <time>2019-11-05T23:43:24Z</time>
      </trkpt>
      <trkpt lat="31.202931460204663" lon="121.61590985457018">
        <ele>6.453852967359126</ele>
        <time>2019-11-05T23:43:28Z</time>
      </trkpt>
      <trkpt lat="31.20286660737368" lon="121.61596623680295">
        <ele>6.354905936866999</ele>
        <time>2019-11-05T23:43:31Z</time>
      </trkpt>
      <trkpt lat="31.202803903846497" lon="121.61604403101191">
        <ele>6.785183141939342</ele>
        <time>2019-11-05T23:43:34Z</time>
      </trkpt>
      <trkpt lat="31.20270730824125" lon="121.6161218277756">
        <ele>5.890442020259798</ele>
        <time>2019-11-05T23:43:38Z</time>
      </trkpt>
      <trkpt lat="31.202664123742476" lon="121.61620205923091">
        <ele>5.242761343717575</ele>
        <time>2019-11-05T23:43:41Z</time>
      </trkpt>
      <trkpt lat="31.202606321093683" lon="121.61625708500915">
        <ele>6.023744817823172</ele>
        <time>2019-11-05T23:43:44Z</time>
      </trkpt>
      <trkpt lat="31.202517595372427" lon="121.6163267492947">
        <ele>4.895045232027769</ele>
        <time>2019-11-05T23:43:48Z</time>
      </trkpt>
      <trkpt lat="31.202451912409785" lon="121.61640020600126">
        <ele>5.672362728044391</ele>
        <time>2019-11-05T23:43:51Z</time>
      </trkpt>
      <trkpt lat="31.202369943689597" lon="121.61649236535895">
        <ele>5.87426071614027</ele>
        <time>2019-11-05T23:43:55Z</time>
      </trkpt>
      <trkpt lat="31.202307224987198" lon="121.61658479381336">
        <ele>5.904338018968701</ele>
        <time>2019-11-05T23:43:59Z</time>
      </trkpt>
      <trkpt lat="31.202231755245066" lon="121.6166850829719">
        <ele>6.08460495620966</ele>
        <time>2019-11-05T23:44:03Z</time>
      </trkpt>
      <trkpt lat="31.202153329299534" lon="121.61675718449159">
        <ele>5.115171298384666</ele>
        <time>2019-11-05T23:44:07Z</time>
      </trkpt>
      <trkpt lat="31.20209388080968" lon="121.61683118145959">
        <ele>6.421028507873416</ele>
        <time>2019-11-05T23:44:10Z</time>
      </trkpt>
      <trkpt lat="31.20202276226268" lon="121.61691683354086">
        <ele>5.859368341974914</ele>
        <time>2019-11-05T23:44:14Z</time>
      </trkpt>
      <trkpt lat="31.201947577987216" lon="121.61700085947568">
        <ele>5.867372659035027</ele>
        <time>2019-11-05T23:44:18Z</time>
      </trkpt>
      <trkpt lat="31.201852893782515" lon="121.61706184918036">
        <ele>5.563099130988121</ele>
        <time>2019-11-05T23:44:22Z</time>
      </trkpt>
      <trkpt lat="31.201754707786783" lon="121.61709871738323">
        <ele>5.042707367800176</ele>
        <time>2019-11-05T23:44:26Z</time>
      </trkpt>
      <trkpt lat="31.201624720731708" lon="121.61721716787737">
        <ele>5.329354649409652</ele>
        <time>2019-11-05T23:44:30Z</time>
      </trkpt>
      <trkpt lat="31.201556021647786" lon="121.61732314548048">
        <ele>5.484250422567129</ele>
        <time>2019-11-05T23:44:34Z</time>
      </trkpt>
      <trkpt lat="31.201450753091194" lon="121.6173938922257">
        <ele>4.582019599154592</ele>
        <time>2019-11-05T23:44:38Z</time>
      </trkpt>
      <trkpt lat="31.201330305033512" lon="121.61746030361184">
        <ele>5.147919557057321</ele>
        <time>2019-11-05T23:44:42Z</time>
      </trkpt>
      <trkpt lat="31.2012269362022" lon="121.61752888160873">
        <ele>5.638627709820867</ele>
        <time>2019-11-05T23:44:46Z</time>
      </trkpt>
      <trkpt lat="31.201167239144965" lon="121.61757767101808">
        <ele>5.73171520140022</ele>
        <time>2019-11-05T23:44:49Z</time>
      </trkpt>
      <trkpt lat="31.20109234974797" lon="121.61763540538038">
        <ele>6.567088085226715</ele>
        <time>2019-11-05T23:44:52Z</time>
      </trkpt>
      <trkpt lat="31.201030713218355" lon="121.61772647435856">
        <ele>6.850235554389656</ele>
        <time>2019-11-05T23:44:56Z</time>
      </trkpt>
      <trkpt lat="31.20099022622212" lon="121.61781618614494">
        <ele>6.24868099950254</ele>
        <time>2019-11-05T23:45:00Z</time>
      </trkpt>
      <trkpt lat="31.20095243185953" lon="121.61792459782905">
        <ele>5.820140945725143</ele>
        <time>2019-11-05T23:45:04Z</time>
      </trkpt>
      <trkpt lat="31.20090163871725" lon="121.61801674893547">
        <ele>5.121016971766949</ele>
        <time>2019-11-05T23:45:08Z</time>
      </trkpt>
      <trkpt lat="31.200842710437666" lon="121.61810971343242">
        <ele>5.484586393460631</ele>
        <time>2019-11-05T23:45:12Z</time>
      </trkpt>
      <trkpt lat="31.200776733710875" lon="121.61820132307902">
        <ele>6.087241197004914</ele>
        <time>2019-11-05T23:45:16Z</time>
      </trkpt>
      <trkpt lat="31.200724866239998" lon="121.61828236156597">
        <ele>5.18751497939229</ele>
        <time>2019-11-05T23:45:19Z</time>
      </trkpt>
      <trkpt lat="31.200657534922584" lon="121.61837234459988">
        <ele>5.245985108427703</ele>
        <time>2019-11-05T23:45:23Z</time>
      </trkpt>
      <trkpt lat="31.20060241608117" lon="121.61845067265418">
        <ele>3.944487082771957</ele>
        <time>2019-11-05T23:45:27Z</time>
      </trkpt>
      <trkpt lat="31.20054813034742" lon="121.61850921634546">
        <ele>4.8926595989614725</ele>
        <time>2019-11-05T23:45:30Z</time>
      </trkpt>
      <trkpt lat="31.200492179953145" lon="121.61860515992562">
        <ele>4.282258827239275</ele>
        <time>2019-11-05T23:45:34Z</time>
      </trkpt>
      <trkpt lat="31.20042323235559" lon="121.61868375941455">
        <ele>4.608935317024589</ele>
        <time>2019-11-05T23:45:38Z</time>
      </trkpt>
      <trkpt lat="31.200350486189848" lon="121.61876479807974">
        <ele>4.883383410051465</ele>
        <time>2019-11-05T23:45:42Z</time>
      </trkpt>
      <trkpt lat="31.20028535004197" lon="121.61882767811966">
        <ele>4.3939582938328385</ele>
        <time>2019-11-05T23:45:45Z</time>
      </trkpt>
      <trkpt lat="31.200212055957277" lon="121.61891386556412">
        <ele>5.0625862665474415</ele>
        <time>2019-11-05T23:45:49Z</time>
      </trkpt>
      <trkpt lat="31.2001393122076" lon="121.61899192239183">
        <ele>5.091721725650132</ele>
        <time>2019-11-05T23:45:53Z</time>
      </trkpt>
      <trkpt lat="31.20007390555338" lon="121.61905371785737">
        <ele>4.494461170397699</ele>
        <time>2019-11-05T23:45:56Z</time>
      </trkpt>
      <trkpt lat="31.200033169485817" lon="121.61911795020397">
        <ele>5.050353594124317</ele>
        <time>2019-11-05T23:45:59Z</time>
      </trkpt>
      <trkpt lat="31.19996286568391" lon="121.61919573519708">
        <ele>5.61999867297709</ele>
        <time>2019-11-05T23:46:03Z</time>
      </trkpt>
      <trkpt lat="31.199928914935544" lon="121.61925292045494">
        <ele>4.455325780436397</ele>
        <time>2019-11-05T23:46:06Z</time>
      </trkpt>
      <trkpt lat="31.199845873356132" lon="121.61932501496959">
        <ele>4.621107910759747</ele>
        <time>2019-11-05T23:46:10Z</time>
      </trkpt>
      <trkpt lat="31.199771237608115" lon="121.61939629557044">
        <ele>5.1372005715966225</ele>
        <time>2019-11-05T23:46:14Z</time>
      </trkpt>
      <trkpt lat="31.199703124120337" lon="121.61945294119741">
        <ele>5.117186990566552</ele>
        <time>2019-11-05T23:46:17Z</time>
      </trkpt>
      <trkpt lat="31.199644231346138" lon="121.61950741790544">
        <ele>5.0158004919067025</ele>
        <time>2019-11-05T23:46:20Z</time>
      </trkpt>
      <trkpt lat="31.199567414495387" lon="121.61958980930474">
        <ele>4.389533510431647</ele>
        <time>2019-11-05T23:46:24Z</time>
      </trkpt>
      <trkpt lat="31.199503633688515" lon="121.61965133218875">
        <ele>5.629214199259877</ele>
        <time>2019-11-05T23:46:27Z</time>
      </trkpt>
      <trkpt lat="31.199437388399243" lon="121.61973589026368">
        <ele>5.195505262352526</ele>
        <time>2019-11-05T23:46:31Z</time>
      </trkpt>
      <trkpt lat="31.19936599416988" lon="121.61981773848103">
        <ele>6.078846173360944</ele>
        <time>2019-11-05T23:46:35Z</time>
      </trkpt>
      <trkpt lat="31.199306827313464" lon="121.61987438243897">
        <ele>5.266886039637029</ele>
        <time>2019-11-05T23:46:38Z</time>
      </trkpt>
      <trkpt lat="31.19923680926464" lon="121.61993644715793">
        <ele>5.156322732567787</ele>
        <time>2019-11-05T23:46:42Z</time>
      </trkpt>
      <trkpt lat="31.199191766368905" lon="121.61996924178528">
        <ele>5.7174318777397275</ele>
        <time>2019-11-05T23:46:45Z</time>
      </trkpt>
      <trkpt lat="31.199142078879134" lon="121.6200353695692">
        <ele>5.888879919424653</ele>
        <time>2019-11-05T23:46:49Z</time>
      </trkpt>
      <trkpt lat="31.19908187390627" lon="121.62004784047">
        <ele>4.762662631459534</ele>
        <time>2019-11-05T23:46:52Z</time>
      </trkpt>
      <trkpt lat="31.199007241046" lon="121.62011478310949">
        <ele>5.154964120127261</ele>
        <time>2019-11-05T23:46:56Z</time>
      </trkpt>
      <trkpt lat="31.198939388984176" lon="121.6201792860438">
        <ele>5.578370752744377</ele>
        <time>2019-11-05T23:47:00Z</time>
      </trkpt>
      <trkpt lat="31.198875366156685" lon="121.62021235293044">
        <ele>5.664881109260023</ele>
        <time>2019-11-05T23:47:03Z</time>
      </trkpt>
      <trkpt lat="31.19874108229354" lon="121.62028038406386">
        <ele>5.654694676399231</ele>
        <time>2019-11-05T23:47:07Z</time>
      </trkpt>
      <trkpt lat="31.198659669995905" lon="121.62034786865429">
        <ele>5.418299422599375</ele>
        <time>2019-11-05T23:47:10Z</time>
      </trkpt>
      <trkpt lat="31.198575254445867" lon="121.62043459390937">
        <ele>5.585645473562181</ele>
        <time>2019-11-05T23:47:14Z</time>
      </trkpt>
      <trkpt lat="31.19850522885077" lon="121.62050261914453">
        <ele>6.075097577646375</ele>
        <time>2019-11-05T23:47:18Z</time>
      </trkpt>
      <trkpt lat="31.198425404314055" lon="121.62060587404385">
        <ele>6.718409867025912</ele>
        <time>2019-11-05T23:47:22Z</time>
      </trkpt>
      <trkpt lat="31.19833417801678" lon="121.6207218660658">
        <ele>5.935495970770717</ele>
        <time>2019-11-05T23:47:26Z</time>
      </trkpt>
      <trkpt lat="31.198268763697723" lon="121.62078745125685">
        <ele>7.1356623796746135</ele>
        <time>2019-11-05T23:47:29Z</time>
      </trkpt>
      <trkpt lat="31.198173780916658" lon="121.62086658821693">
        <ele>6.789811162278056</ele>
        <time>2019-11-05T23:47:33Z</time>
      </trkpt>
      <trkpt lat="31.19812247734943" lon="121.62092106132748">
        <ele>5.667390423826873</ele>
        <time>2019-11-05T23:47:36Z</time>
      </trkpt>
      <trkpt lat="31.198058430097568" lon="121.62097580636805">
        <ele>6.43973433226347</ele>
        <time>2019-11-05T23:47:39Z</time>
      </trkpt>
      <trkpt lat="31.197993835743176" lon="121.62103488714698">
        <ele>6.284071670845151</ele>
        <time>2019-11-05T23:47:43Z</time>
      </trkpt>
      <trkpt lat="31.197946048606333" lon="121.62109667627537">
        <ele>6.802936351858079</ele>
        <time>2019-11-05T23:47:46Z</time>
      </trkpt>
      <trkpt lat="31.19787085928557" lon="121.62117445573386">
        <ele>6.305010115727782</ele>
        <time>2019-11-05T23:47:50Z</time>
      </trkpt>
      <trkpt lat="31.19780006122781" lon="121.6212037281168">
        <ele>5.94565121550113</ele>
        <time>2019-11-05T23:47:53Z</time>
      </trkpt>
      <trkpt lat="31.197744969535382" lon="121.6212506132442">
        <ele>6.095467310398817</ele>
        <time>2019-11-05T23:47:56Z</time>
      </trkpt>
      <trkpt lat="31.197669241443453" lon="121.62132486948937">
        <ele>5.970984784886241</ele>
        <time>2019-11-05T23:48:00Z</time>
      </trkpt>
      <trkpt lat="31.197613041389904" lon="121.62139316225726">
        <ele>6.912993680685759</ele>
        <time>2019-11-05T23:48:03Z</time>
      </trkpt>
      <trkpt lat="31.19754708666773" lon="121.62145576500106">
        <ele>5.739082610234618</ele>
        <time>2019-11-05T23:48:07Z</time>
      </trkpt>
      <trkpt lat="31.19748251902612" lon="121.62148991425597">
        <ele>5.486844934523106</ele>
        <time>2019-11-05T23:48:10Z</time>
      </trkpt>
      <trkpt lat="31.197415765444845" lon="121.621539238686">
        <ele>6.143908168189228</ele>
        <time>2019-11-05T23:48:13Z</time>
      </trkpt>
      <trkpt lat="31.19735007824909" lon="121.62160482186573">
        <ele>5.3426564652472734</ele>
        <time>2019-11-05T23:48:16Z</time>
      </trkpt>
      <trkpt lat="31.197296319890995" lon="121.62167121684051">
        <ele>5.980396244674921</ele>
        <time>2019-11-05T23:48:20Z</time>
      </trkpt>
      <trkpt lat="31.197242597969925" lon="121.62170482295868">
        <ele>6.011511116288602</ele>
        <time>2019-11-05T23:48:24Z</time>
      </trkpt>
      <trkpt lat="31.197193742503444" lon="121.62175089374165">
        <ele>5.685962506569922</ele>
        <time>2019-11-05T23:48:28Z</time>
      </trkpt>
      <trkpt lat="31.197147608302934" lon="121.62178802187427">
        <ele>5.7653179140761495</ele>
        <time>2019-11-05T23:48:32Z</time>
      </trkpt>
      <trkpt lat="31.197118271606286" lon="121.62183652971557">
        <ele>5.206593312323093</ele>
        <time>2019-11-05T23:48:35Z</time>
      </trkpt>
      <trkpt lat="31.19707158744324" lon="121.62188043225703">
        <ele>4.7483749175444245</ele>
        <time>2019-11-05T23:48:39Z</time>
      </trkpt>
      <trkpt lat="31.19704986849284" lon="121.62190563511471">
        <ele>5.852742259390652</ele>
        <time>2019-11-05T23:48:42Z</time>
      </trkpt>
      <trkpt lat="31.19700510285889" lon="121.62193111083464">
        <ele>6.243897162377834</ele>
        <time>2019-11-05T23:48:45Z</time>
      </trkpt>
      <trkpt lat="31.196964648543958" lon="121.62198043227063">
        <ele>5.23334873188287</ele>
        <time>2019-11-05T23:48:49Z</time>
      </trkpt>
      <trkpt lat="31.19691362543041" lon="121.62202487689021">
        <ele>5.781820596195757</ele>
        <time>2019-11-05T23:48:53Z</time>
      </trkpt>
      <trkpt lat="31.196857206756132" lon="121.62204520488702">
        <ele>5.314552909694612</ele>
        <time>2019-11-05T23:48:56Z</time>
      </trkpt>
      <trkpt lat="31.196817031646155" lon="121.62208720970679">
        <ele>5.679106145165861</ele>
        <time>2019-11-05T23:49:00Z</time>
      </trkpt>
      <trkpt lat="31.19676141777263" lon="121.6221151249437">
        <ele>5.904295776039362</ele>
        <time>2019-11-05T23:49:04Z</time>
      </trkpt>
      <trkpt lat="31.19672802213319" lon="121.62215604518688">
        <ele>5.199728955514729</ele>
        <time>2019-11-05T23:49:07Z</time>
      </trkpt>
      <trkpt lat="31.19667700705002" lon="121.62219317316062">
        <ele>5.681956430897117</ele>
        <time>2019-11-05T23:49:11Z</time>
      </trkpt>
      <trkpt lat="31.19665796972207" lon="121.62224438917062">
        <ele>7.105262155644596</ele>
        <time>2019-11-05T23:49:14Z</time>
      </trkpt>
      <trkpt lat="31.196666268805462" lon="121.62233787489785">
        <ele>4.682958501391113</ele>
        <time>2019-11-05T23:49:18Z</time>
      </trkpt>
      <trkpt lat="31.196676734818915" lon="121.62243298596267">
        <ele>3.7140709049999714</ele>
        <time>2019-11-05T23:49:22Z</time>
      </trkpt>
      <trkpt lat="31.19664487707479" lon="121.62255140383876">
        <ele>2.2373209204524755</ele>
        <time>2019-11-05T23:49:25Z</time>
      </trkpt>
      <trkpt lat="31.19666828192019" lon="121.62271181714091">
        <ele>5.204276131466031</ele>
        <time>2019-11-05T23:49:29Z</time>
      </trkpt>
      <trkpt lat="31.196697684295625" lon="121.622843235267">
        <ele>3.246250624768436</ele>
        <time>2019-11-05T23:49:33Z</time>
      </trkpt>
      <trkpt lat="31.196700269582575" lon="121.62295243556956">
        <ele>3.687042551115155</ele>
        <time>2019-11-05T23:49:36Z</time>
      </trkpt>
      <trkpt lat="31.19671961603205" lon="121.62310363395906">
        <ele>2.8344092620536685</ele>
        <time>2019-11-05T23:49:40Z</time>
      </trkpt>
      <trkpt lat="31.196748171121612" lon="121.62326268874469">
        <ele>4.246768013574183</ele>
        <time>2019-11-05T23:49:44Z</time>
      </trkpt>
      <trkpt lat="31.196780556795858" lon="121.6233913943228">
        <ele>4.294250293634832</ele>
        <time>2019-11-05T23:49:48Z</time>
      </trkpt>
      <trkpt lat="31.196807229990245" lon="121.62353554464669">
        <ele>4.536037253215909</ele>
        <time>2019-11-05T23:49:52Z</time>
      </trkpt>
      <trkpt lat="31.196829314974977" lon="121.62366126922083">
        <ele>4.337823964655399</ele>
        <time>2019-11-05T23:49:56Z</time>
      </trkpt>
      <trkpt lat="31.196843554205568" lon="121.62377209105405">
        <ele>5.59009410161525</ele>
        <time>2019-11-05T23:49:59Z</time>
      </trkpt>
      <trkpt lat="31.19687110236478" lon="121.62386286034643">
        <ele>4.421699012629688</ele>
        <time>2019-11-05T23:50:02Z</time>
      </trkpt>
      <trkpt lat="31.196896170760823" lon="121.62398668647329">
        <ele>4.92226286418736</ele>
        <time>2019-11-05T23:50:06Z</time>
      </trkpt>
      <trkpt lat="31.196926018332494" lon="121.62396744595925">
        <ele>4.4979074243456125</ele>
        <time>2019-11-05T23:50:10Z</time>
      </trkpt>
      <trkpt lat="31.19691664124609" lon="121.62387261111596">
        <ele>5.318591173738241</ele>
        <time>2019-11-05T23:50:14Z</time>
      </trkpt>
      <trkpt lat="31.19693736258777" lon="121.62377533481273">
        <ele>6.041571549139917</ele>
        <time>2019-11-05T23:50:18Z</time>
      </trkpt>
      <trkpt lat="31.19692229143334" lon="121.6236802288196">
        <ele>4.827242748811841</ele>
        <time>2019-11-05T23:50:22Z</time>
      </trkpt>
      <trkpt lat="31.19691424331512" lon="121.62360734080833">
        <ele>5.518365317955613</ele>
        <time>2019-11-05T23:50:26Z</time>
      </trkpt>
      <trkpt lat="31.196916484094388" lon="121.62354637410853">
        <ele>6.582315891049802</ele>
        <time>2019-11-05T23:50:29Z</time>
      </trkpt>
      <trkpt lat="31.196898661185262" lon="121.62348513797102">
        <ele>6.747949652373791</ele>
        <time>2019-11-05T23:50:33Z</time>
      </trkpt>
      <trkpt lat="31.19689194320641" lon="121.62343365547251">
        <ele>6.044167390093207</ele>
        <time>2019-11-05T23:50:36Z</time>
      </trkpt>
      <trkpt lat="31.196890950321265" lon="121.62335534693356">
        <ele>6.505852032452822</ele>
        <time>2019-11-05T23:50:40Z</time>
      </trkpt>
      <trkpt lat="31.196861731518116" lon="121.62330088543857">
        <ele>6.0025807693600655</ele>
        <time>2019-11-05T23:50:44Z</time>
      </trkpt>
      <trkpt lat="31.1968503954339" lon="121.62325671904392">
        <ele>6.439995484426618</ele>
        <time>2019-11-05T23:50:47Z</time>
      </trkpt>
      <trkpt lat="31.19684017284058" lon="121.62318762361242">
        <ele>6.761963413096964</ele>
        <time>2019-11-05T23:50:51Z</time>
      </trkpt>
      <trkpt lat="31.19684812579889" lon="121.62311012652867">
        <ele>6.168936383910477</ele>
        <time>2019-11-05T23:50:54Z</time>
      </trkpt>
      <trkpt lat="31.196844722963583" lon="121.62300499144716">
        <ele>5.534491548314691</ele>
        <time>2019-11-05T23:50:58Z</time>
      </trkpt>
      <trkpt lat="31.196813908994393" lon="121.6229226196147">
        <ele>4.876592741347849</ele>
        <time>2019-11-05T23:51:01Z</time>
      </trkpt>
      <trkpt lat="31.196841171380388" lon="121.6227933649444">
        <ele>5.206844046711922</ele>
        <time>2019-11-05T23:51:05Z</time>
      </trkpt>
      <trkpt lat="31.196908745036463" lon="121.62273997819575">
        <ele>5.129322966560721</ele>
        <time>2019-11-05T23:51:08Z</time>
      </trkpt>
      <trkpt lat="31.196965794107932" lon="121.62264323679659">
        <ele>5.5214070258662105</ele>
        <time>2019-11-05T23:51:12Z</time>
      </trkpt>
      <trkpt lat="31.197041801167902" lon="121.62256491960864">
        <ele>6.036842694506049</ele>
        <time>2019-11-05T23:51:16Z</time>
      </trkpt>
      <trkpt lat="31.197105584753185" lon="121.62250611326436">
        <ele>5.117280304431915</ele>
        <time>2019-11-05T23:51:19Z</time>
      </trkpt>
      <trkpt lat="31.197195418362334" lon="121.62242860745533">
        <ele>5.330055671744049</ele>
        <time>2019-11-05T23:51:23Z</time>
      </trkpt>
      <trkpt lat="31.197257543759928" lon="121.6223971693431">
        <ele>4.861446994356811</ele>
        <time>2019-11-05T23:51:26Z</time>
      </trkpt>
      <trkpt lat="31.19734816280531" lon="121.62234405087855">
        <ele>4.573101518675685</ele>
        <time>2019-11-05T23:51:30Z</time>
      </trkpt>
      <trkpt lat="31.197425241368066" lon="121.62227657174503">
        <ele>5.671056404709816</ele>
        <time>2019-11-05T23:51:34Z</time>
      </trkpt>
      <trkpt lat="31.197520232396716" lon="121.62219337435053">
        <ele>5.875082677230239</ele>
        <time>2019-11-05T23:51:38Z</time>
      </trkpt>
      <trkpt lat="31.19759459409751" lon="121.62213050166801">
        <ele>5.168856623582542</ele>
        <time>2019-11-05T23:51:43Z</time>
      </trkpt>
      <trkpt lat="31.197686584865583" lon="121.6220627497859">
        <ele>6.181008609011769</ele>
        <time>2019-11-05T23:51:46Z</time>
      </trkpt>
      <trkpt lat="31.197775075733247" lon="121.62197277780817">
        <ele>8.131915403530002</ele>
        <time>2019-11-05T23:51:50Z</time>
      </trkpt>
      <trkpt lat="31.1978527325291" lon="121.62187250921089">
        <ele>8.353911091573536</ele>
        <time>2019-11-05T23:51:54Z</time>
      </trkpt>
      <trkpt lat="31.197920564845848" lon="121.62182887588641">
        <ele>7.635276235640049</ele>
        <time>2019-11-05T23:51:57Z</time>
      </trkpt>
      <trkpt lat="31.197985142891454" lon="121.62178578472032">
        <ele>6.4479490630328655</ele>
        <time>2019-11-05T23:52:00Z</time>
      </trkpt>
      <trkpt lat="31.198073316482308" lon="121.62173645897569">
        <ele>5.8614249704405665</ele>
        <time>2019-11-05T23:52:04Z</time>
      </trkpt>
      <trkpt lat="31.198134676425106" lon="121.62166139212901">
        <ele>5.849971178919077</ele>
        <time>2019-11-05T23:52:08Z</time>
      </trkpt>
      <trkpt lat="31.198197365346548" lon="121.62161017138874">
        <ele>6.478587078861892</ele>
        <time>2019-11-05T23:52:11Z</time>
      </trkpt>
      <trkpt lat="31.198249765835094" lon="121.62154567325322">
        <ele>6.3548231311142445</ele>
        <time>2019-11-05T23:52:14Z</time>
      </trkpt>
      <trkpt lat="31.1983205717636" lon="121.62150962667288">
        <ele>5.09279394056648</ele>
        <time>2019-11-05T23:52:17Z</time>
      </trkpt>
      <trkpt lat="31.198415549963322" lon="121.62143618230546">
        <ele>5.919100975617766</ele>
        <time>2019-11-05T23:52:21Z</time>
      </trkpt>
      <trkpt lat="31.198477743207096" lon="121.62134241659837">
        <ele>6.760404888540506</ele>
        <time>2019-11-05T23:52:25Z</time>
      </trkpt>
      <trkpt lat="31.198511713480837" lon="121.62127114469946">
        <ele>6.6003443375229836</ele>
        <time>2019-11-05T23:52:29Z</time>
      </trkpt>
      <trkpt lat="31.19851936364501" lon="121.62121803085681">
        <ele>6.705548758618534</ele>
        <time>2019-11-05T23:52:32Z</time>
      </trkpt>
      <trkpt lat="31.19855004493657" lon="121.62117873531334">
        <ele>5.6138179851695895</ele>
        <time>2019-11-05T23:52:36Z</time>
      </trkpt>
      <trkpt lat="31.198582335449505" lon="121.62115542779706">
        <ele>5.8709024079144</ele>
        <time>2019-11-05T23:52:39Z</time>
      </trkpt>
      <trkpt lat="31.198626861707666" lon="121.62110041375898">
        <ele>5.935608280822635</ele>
        <time>2019-11-05T23:52:43Z</time>
      </trkpt>
      <trkpt lat="31.19868169628972" lon="121.62104052097182">
        <ele>5.896121500991285</ele>
        <time>2019-11-05T23:52:47Z</time>
      </trkpt>
      <trkpt lat="31.198713197852967" lon="121.62099472137629">
        <ele>6.053205914795399</ele>
        <time>2019-11-05T23:52:50Z</time>
      </trkpt>
      <trkpt lat="31.198758248072284" lon="121.62095623727656">
        <ele>6.106831803917885</ele>
        <time>2019-11-05T23:52:54Z</time>
      </trkpt>
      <trkpt lat="31.198804913538478" lon="121.6209283215607">
        <ele>5.729642647318542</ele>
        <time>2019-11-05T23:52:58Z</time>
      </trkpt>
      <trkpt lat="31.1988670283119" lon="121.62090528234383">
        <ele>6.900535733439028</ele>
        <time>2019-11-05T23:53:01Z</time>
      </trkpt>
      <trkpt lat="31.19892186457358" lon="121.62084349218246">
        <ele>5.818164975382388</ele>
        <time>2019-11-05T23:53:05Z</time>
      </trkpt>
      <trkpt lat="31.198965307201767" lon="121.62078712262841">
        <ele>5.262466351501644</ele>
        <time>2019-11-05T23:53:09Z</time>
      </trkpt>
      <trkpt lat="31.199002209341632" lon="121.62076137546651">
        <ele>5.998200383037329</ele>
        <time>2019-11-05T23:53:12Z</time>
      </trkpt>
      <trkpt lat="31.199035056476546" lon="121.62072451798096">
        <ele>5.779681297950447</ele>
        <time>2019-11-05T23:53:15Z</time>
      </trkpt>
      <trkpt lat="31.19907604579126" lon="121.62068007200632">
        <ele>5.310608673840761</ele>
        <time>2019-11-05T23:53:19Z</time>
      </trkpt>
      <trkpt lat="31.199134932816083" lon="121.62063291455446">
        <ele>5.606966071762145</ele>
        <time>2019-11-05T23:53:23Z</time>
      </trkpt>
      <trkpt lat="31.19918698997963" lon="121.62063345223098">
        <ele>5.637512454763055</ele>
        <time>2019-11-05T23:53:26Z</time>
      </trkpt>
      <trkpt lat="31.199226860730505" lon="121.62062044130901">
        <ele>5.655487912707031</ele>
        <time>2019-11-05T23:53:29Z</time>
      </trkpt>
      <trkpt lat="31.199286249627537" lon="121.62061068067341">
        <ele>5.312526505440474</ele>
        <time>2019-11-05T23:53:33Z</time>
      </trkpt>
      <trkpt lat="31.199330976237526" lon="121.62062043269361">
        <ele>5.965378266759217</ele>
        <time>2019-11-05T23:53:36Z</time>
      </trkpt>
      <trkpt lat="31.1994001005332" lon="121.62063424757255">
        <ele>7.0943314507603645</ele>
        <time>2019-11-05T23:53:40Z</time>
      </trkpt>
      <trkpt lat="31.199451074048778" lon="121.62063397236247">
        <ele>6.616322819143534</ele>
        <time>2019-11-05T23:53:43Z</time>
      </trkpt>
      <trkpt lat="31.19951777100931" lon="121.62063586378774">
        <ele>6.171252489089966</ele>
        <time>2019-11-05T23:53:47Z</time>
      </trkpt>
      <trkpt lat="31.199564122961732" lon="121.62064697062365">
        <ele>6.530079192481935</ele>
        <time>2019-11-05T23:53:50Z</time>
      </trkpt>
      <trkpt lat="31.199611004591986" lon="121.62066973005645">
        <ele>6.720840389840305</ele>
        <time>2019-11-05T23:53:53Z</time>
      </trkpt>
      <trkpt lat="31.199654922477734" lon="121.62067514625555">
        <ele>5.9141126703470945</ele>
        <time>2019-11-05T23:53:56Z</time>
      </trkpt>
      <trkpt lat="31.19972538749236" lon="121.62070278155696">
        <ele>5.525849657133222</ele>
        <time>2019-11-05T23:54:00Z</time>
      </trkpt>
      <trkpt lat="31.199764412351982" lon="121.62071985077714">
        <ele>5.863920372910798</ele>
        <time>2019-11-05T23:54:03Z</time>
      </trkpt>
      <trkpt lat="31.199828677033437" lon="121.62071442563513">
        <ele>5.188217157498002</ele>
        <time>2019-11-05T23:54:07Z</time>
      </trkpt>
      <trkpt lat="31.199870963127506" lon="121.62072444880947">
        <ele>4.980293150991201</ele>
        <time>2019-11-05T23:54:10Z</time>
      </trkpt>
      <trkpt lat="31.19991760760627" lon="121.62071577323212">
        <ele>5.5919595789164305</ele>
        <time>2019-11-05T23:54:13Z</time>
      </trkpt>
      <trkpt lat="31.199967195844994" lon="121.62074286823609">
        <ele>5.068918847478926</ele>
        <time>2019-11-05T23:54:17Z</time>
      </trkpt>
      <trkpt lat="31.20001680666988" lon="121.62074909692143">
        <ele>5.403107210062444</ele>
        <time>2019-11-05T23:54:21Z</time>
      </trkpt>
      <trkpt lat="31.20006560467971" lon="121.62075478369093">
        <ele>4.831646919250488</ele>
        <time>2019-11-05T23:54:24Z</time>
      </trkpt>
      <trkpt lat="31.200110332151898" lon="121.62076372268483">
        <ele>4.9795789532363415</ele>
        <time>2019-11-05T23:54:27Z</time>
      </trkpt>
      <trkpt lat="31.200177029140225" lon="121.62076561410042">
        <ele>5.077317890711129</ele>
        <time>2019-11-05T23:54:31Z</time>
      </trkpt>
      <trkpt lat="31.20024156704149" lon="121.62075829200985">
        <ele>5.275310340337455</ele>
        <time>2019-11-05T23:54:35Z</time>
      </trkpt>
      <trkpt lat="31.20029252796598" lon="121.62076966940269">
        <ele>5.673472496680915</ele>
        <time>2019-11-05T23:54:38Z</time>
      </trkpt>
      <trkpt lat="31.200350785414866" lon="121.62080326740136">
        <ele>5.219804755412042</ele>
        <time>2019-11-05T23:54:41Z</time>
      </trkpt>
      <trkpt lat="31.20041180387839" lon="121.62079106778518">
        <ele>5.804940124973655</ele>
        <time>2019-11-05T23:54:44Z</time>
      </trkpt>
      <trkpt lat="31.200488763109053" lon="121.62083062598983">
        <ele>5.083331624977291</ele>
        <time>2019-11-05T23:54:48Z</time>
      </trkpt>
      <trkpt lat="31.200549741856765" lon="121.62085501003429">
        <ele>5.045901529490948</ele>
        <time>2019-11-05T23:54:51Z</time>
      </trkpt>
      <trkpt lat="31.200671729666766" lon="121.62087586614321">
        <ele>4.981154761277139</ele>
        <time>2019-11-05T23:54:55Z</time>
      </trkpt>
      <trkpt lat="31.200758758226673" lon="121.62088100774211">
        <ele>4.938956946134567</ele>
        <time>2019-11-05T23:54:58Z</time>
      </trkpt>
      <trkpt lat="31.200840895462864" lon="121.62089617635243">
        <ele>5.247136602178216</ele>
        <time>2019-11-05T23:55:01Z</time>
      </trkpt>
      <trkpt lat="31.200956913887953" lon="121.62092109775891">
        <ele>5.364719164557755</ele>
        <time>2019-11-05T23:55:05Z</time>
      </trkpt>
      <trkpt lat="31.201094878249688" lon="121.62096065071806">
        <ele>5.918045246042311</ele>
        <time>2019-11-05T23:55:09Z</time>
      </trkpt>
      <trkpt lat="31.201218227330052" lon="121.62097635784846">
        <ele>5.512593952007592</ele>
        <time>2019-11-05T23:55:13Z</time>
      </trkpt>
      <trkpt lat="31.201303611952806" lon="121.62099721688945">
        <ele>4.971244516782463</ele>
        <time>2019-11-05T23:55:16Z</time>
      </trkpt>
      <trkpt lat="31.20139334359881" lon="121.62100994591029">
        <ele>5.2064930303022265</ele>
        <time>2019-11-05T23:55:19Z</time>
      </trkpt>
      <trkpt lat="31.201509362277704" lon="121.62103459622024">
        <ele>4.512939716689289</ele>
        <time>2019-11-05T23:55:23Z</time>
      </trkpt>
      <trkpt lat="31.201595034308507" lon="121.6210405508634">
        <ele>4.421209101565182</ele>
        <time>2019-11-05T23:55:26Z</time>
      </trkpt>
      <trkpt lat="31.20171458395615" lon="121.62105951011208">
        <ele>4.197891564108431</ele>
        <time>2019-11-05T23:55:30Z</time>
      </trkpt>
      <trkpt lat="31.20182897967193" lon="121.6210806376731">
        <ele>3.4713142095133662</ele>
        <time>2019-11-05T23:55:34Z</time>
      </trkpt>
      <trkpt lat="31.201935786281748" lon="121.62109932696006">
        <ele>4.696904739364982</ele>
        <time>2019-11-05T23:55:38Z</time>
      </trkpt>
      <trkpt lat="31.202038797002807" lon="121.6211180165478">
        <ele>4.718843720853329</ele>
        <time>2019-11-05T23:55:42Z</time>
      </trkpt>
      <trkpt lat="31.20214289523044" lon="121.62113399616346">
        <ele>4.071551724337041</ele>
        <time>2019-11-05T23:55:46Z</time>
      </trkpt>
      <trkpt lat="31.202255124233325" lon="121.62115295595017">
        <ele>5.120448986068368</ele>
        <time>2019-11-05T23:55:50Z</time>
      </trkpt>
      <trkpt lat="31.20233537240797" lon="121.62115999496152">
        <ele>3.2929379865527153</ele>
        <time>2019-11-05T23:55:53Z</time>
      </trkpt>
      <trkpt lat="31.202443264444522" lon="121.62117787114256">
        <ele>3.3545634560287</ele>
        <time>2019-11-05T23:55:57Z</time>
      </trkpt>
      <trkpt lat="31.202511863047988" lon="121.62117651053283">
        <ele>3.4112176280468702</ele>
        <time>2019-11-05T23:56:01Z</time>
      </trkpt>
      <trkpt lat="31.202544414098657" lon="121.62116295851295">
        <ele>4.824762163683772</ele>
        <time>2019-11-05T23:56:04Z</time>
      </trkpt>
      <trkpt lat="31.202566906101435" lon="121.62117406709909">
        <ele>5.52875888813287</ele>
        <time>2019-11-05T23:56:08Z</time>
      </trkpt>
      <trkpt lat="31.202559578619375" lon="121.62118030039365">
        <ele>5.183171985670924</ele>
        <time>2019-11-05T23:56:11Z</time>
      </trkpt>
      <trkpt lat="31.202568253447836" lon="121.62118165460768">
        <ele>6.812652802094817</ele>
        <time>2019-11-05T23:56:15Z</time>
      </trkpt>
      <trkpt lat="31.20255198297612" lon="121.62118382384536">
        <ele>5.688896800391376</ele>
        <time>2019-11-05T23:56:18Z</time>
      </trkpt>
      <trkpt lat="31.20252350012905" lon="121.62119629157287">
        <ele>5.066950528882444</ele>
        <time>2019-11-05T23:56:22Z</time>
      </trkpt>
      <trkpt lat="31.202512384790293" lon="121.62119520854783">
        <ele>4.846976629458368</ele>
        <time>2019-11-05T23:56:26Z</time>
      </trkpt>
      <trkpt lat="31.202510206782847" lon="121.62120333831447">
        <ele>4.631970971822739</ele>
        <time>2019-11-05T23:56:30Z</time>
      </trkpt>
      <trkpt lat="31.202466820146363" lon="121.62120794866986">
        <ele>5.025591186247766</ele>
        <time>2019-11-05T23:56:33Z</time>
      </trkpt>
      <trkpt lat="31.2024597765939" lon="121.6212025295298">
        <ele>4.34359420184046</ele>
        <time>2019-11-05T23:56:37Z</time>
      </trkpt>
      <trkpt lat="31.202463295988778" lon="121.62120740698929">
        <ele>4.435359491035342</ele>
        <time>2019-11-05T23:56:40Z</time>
      </trkpt>
      <trkpt lat="31.20247034013586" lon="121.62121228415614">
        <ele>4.39134066645056</ele>
        <time>2019-11-05T23:56:45Z</time>
      </trkpt>
      <trkpt lat="31.202465209111878" lon="121.62119358653474">
        <ele>4.814291371963918</ele>
        <time>2019-11-05T23:56:48Z</time>
      </trkpt>
      <trkpt lat="31.202451931240525" lon="121.62118654198969">
        <ele>4.959484331309795</ele>
        <time>2019-11-05T23:56:51Z</time>
      </trkpt>
      <trkpt lat="31.20245491402129" lon="121.62118627075648">
        <ele>4.6364361913874745</ele>
        <time>2019-11-05T23:56:54Z</time>
      </trkpt>
      <trkpt lat="31.202475506284152" lon="121.62119900540736">
        <ele>4.390929967164993</ele>
        <time>2019-11-05T23:56:58Z</time>
      </trkpt>
      <trkpt lat="31.202503967406834" lon="121.62120631967859">
        <ele>5.0527417762205005</ele>
        <time>2019-11-05T23:57:03Z</time>
      </trkpt>
      <trkpt lat="31.202493408028733" lon="121.62119277124204">
        <ele>4.463141611777246</ele>
        <time>2019-11-05T23:57:08Z</time>
      </trkpt>
      <trkpt lat="31.202491795797183" lon="121.62117949304444">
        <ele>4.798466462641954</ele>
        <time>2019-11-05T23:57:11Z</time>
      </trkpt>
      <trkpt lat="31.202493408028733" lon="121.62119277124204">
        <ele>4.463141611777246</ele>
        <time>2019-11-05T23:57:13Z</time>
      </trkpt>
      <trkpt lat="31.20250887580565" lon="121.62118084656286">
        <ele>5.075367524288595</ele>
        <time>2019-11-05T23:57:15Z</time>
      </trkpt>
      <trkpt lat="31.202515103875182" lon="121.62118816267925">
        <ele>4.494291562587023</ele>
        <time>2019-11-05T23:57:18Z</time>
      </trkpt>
      <trkpt lat="31.2025077832341" lon="121.62118816328513">
        <ele>3.703779662027955</ele>
        <time>2019-11-05T23:57:21Z</time>
      </trkpt>
      <trkpt lat="31.202488255573883" lon="121.6211935846273">
        <ele>4.704352262429893</ele>
        <time>2019-11-05T23:57:25Z</time>
      </trkpt>
      <trkpt lat="31.20250887580565" lon="121.62118084656286">
        <ele>5.075367524288595</ele>
        <time>2019-11-05T23:57:26Z</time>
      </trkpt>
      <trkpt lat="31.20249205175935" lon="121.62119331332684">
        <ele>5.106659967452288</ele>
        <time>2019-11-05T23:57:31Z</time>
      </trkpt>
      <trkpt lat="31.202512684481835" lon="121.62116919382977">
        <ele>5.077878839336336</ele>
        <time>2019-11-05T23:57:34Z</time>
      </trkpt>
      <trkpt lat="31.20249205175935" lon="121.62119331332684">
        <ele>5.106659967452288</ele>
        <time>2019-11-05T23:57:36Z</time>
      </trkpt>
      <trkpt lat="31.202510796646255" lon="121.62115998044267">
        <ele>5.443375441245735</ele>
        <time>2019-11-05T23:57:40Z</time>
      </trkpt>
      <trkpt lat="31.20251266514905" lon="121.62118680794941">
        <ele>4.996389110572636</ele>
        <time>2019-11-05T23:57:45Z</time>
      </trkpt>
      <trkpt lat="31.202495547934756" lon="121.62121932770692">
        <ele>4.414525968953967</ele>
        <time>2019-11-05T23:57:58Z</time>
      </trkpt>
      <trkpt lat="31.202471455626718" lon="121.62118410149657">
        <ele>5.136362335644662</ele>
        <time>2019-11-05T23:58:01Z</time>
      </trkpt>
      <trkpt lat="31.20246522101266" lon="121.62118274708068">
        <ele>5.2674009539186954</ele>
        <time>2019-11-05T23:58:05Z</time>
      </trkpt>
      <trkpt lat="31.202479868540692" lon="121.62117705515374">
        <ele>5.154711963608861</ele>
        <time>2019-11-05T23:58:09Z</time>
      </trkpt>
      <trkpt lat="31.202485037646248" lon="121.62116106652104">
        <ele>5.069742106832564</ele>
        <time>2019-11-05T23:58:22Z</time>
      </trkpt>
      <trkpt lat="31.202489193740668" lon="121.62107977006983">
        <ele>6.674832290969789</ele>
        <time>2019-11-05T23:58:25Z</time>
      </trkpt>
      <trkpt lat="31.202481430031906" lon="121.6209889897623">
        <ele>4.081997396424413</ele>
        <time>2019-11-05T23:58:28Z</time>
      </trkpt>
      <trkpt lat="31.20247448298988" lon="121.6208949572013">
        <ele>4.924228354357183</ele>
        <time>2019-11-05T23:58:31Z</time>
      </trkpt>
      <trkpt lat="31.202475686450402" lon="121.6207854771755">
        <ele>4.1778124161064625</ele>
        <time>2019-11-05T23:58:35Z</time>
      </trkpt>
      <trkpt lat="31.202437089746766" lon="121.62062315656658">
        <ele>3.8753932416439056</ele>
        <time>2019-11-05T23:58:39Z</time>
      </trkpt>
      <trkpt lat="31.202402259814928" lon="121.62048712102677">
        <ele>7.206933503970504</ele>
        <time>2019-11-05T23:58:43Z</time>
      </trkpt>
      <trkpt lat="31.20241592004279" lon="121.6203906460029">
        <ele>6.14652643352747</ele>
        <time>2019-11-05T23:58:46Z</time>
      </trkpt>
      <trkpt lat="31.202423037398752" lon="121.62032723260364">
        <ele>5.637594521977007</ele>
        <time>2019-11-05T23:58:49Z</time>
      </trkpt>
      <trkpt lat="31.202460456323823" lon="121.620325061545">
        <ele>5.731223406270146</ele>
        <time>2019-11-05T23:58:53Z</time>
      </trkpt>
      <trkpt lat="31.202458288693286" lon="121.620323706748">
        <ele>7.518480999395251</ele>
        <time>2019-11-05T23:58:56Z</time>
      </trkpt>
      <trkpt lat="31.202458830383694" lon="121.62032424869373">
        <ele>5.423014516942203</ele>
        <time>2019-11-05T23:59:00Z</time>
      </trkpt>
      <trkpt lat="31.20246426118951" lon="121.62031666037544">
        <ele>5.436241592280567</ele>
        <time>2019-11-05T23:59:03Z</time>
      </trkpt>
      <trkpt lat="31.2024854317077" lon="121.62029606296821">
        <ele>5.023751205764711</ele>
        <time>2019-11-05T23:59:10Z</time>
      </trkpt>
      <trkpt lat="31.202482689091543" lon="121.6203253307004">
        <ele>5.107182078994811</ele>
        <time>2019-11-05T23:59:13Z</time>
      </trkpt>
      <trkpt lat="31.202473996552126" lon="121.6203405071502">
        <ele>5.367518671788275</ele>
        <time>2019-11-05T23:59:17Z</time>
      </trkpt>
      <trkpt lat="31.202460959758415" lon="121.62036137484398">
        <ele>4.836366508156061</ele>
        <time>2019-11-05T23:59:28Z</time>
      </trkpt>
      <trkpt lat="31.202459049052944" lon="121.62037329877454">
        <ele>5.027980952523649</ele>
        <time>2019-11-05T23:59:33Z</time>
      </trkpt>
      <trkpt lat="31.202502707274743" lon="121.62036814626053">
        <ele>4.546793736517429</ele>
        <time>2019-11-05T23:59:37Z</time>
      </trkpt>
      <trkpt lat="31.202569678455383" lon="121.62036732773386">
        <ele>6.281222892925143</ele>
        <time>2019-11-05T23:59:40Z</time>
      </trkpt>
      <trkpt lat="31.2026518253616" lon="121.6203738248108">
        <ele>4.025358528830111</ele>
        <time>2019-11-05T23:59:43Z</time>
      </trkpt>
      <trkpt lat="31.202737521679932" lon="121.62035728703336">
        <ele>3.1088200360536575</ele>
        <time>2019-11-05T23:59:47Z</time>
      </trkpt>
      <trkpt lat="31.202837616244302" lon="121.62031446151552">
        <ele>4.666776749305427</ele>
        <time>2019-11-05T23:59:51Z</time>
      </trkpt>
      <trkpt lat="31.202888661343803" lon="121.62024725035054">
        <ele>4.457714480347931</ele>
        <time>2019-11-05T23:59:54Z</time>
      </trkpt>
      <trkpt lat="31.20285840960455" lon="121.6201388541955">
        <ele>3.829907082952559</ele>
        <time>2019-11-05T23:59:58Z</time>
      </trkpt>
      <trkpt lat="31.20286392058157" lon="121.62005565746126">
        <ele>4.7773173889145255</ele>
        <time>2019-11-06T00:00:01Z</time>
      </trkpt>
      <trkpt lat="31.20287161214281" lon="121.6199613493193">
        <ele>4.526039261370897</ele>
        <time>2019-11-06T00:00:05Z</time>
      </trkpt>
      <trkpt lat="31.202898027406373" lon="121.6198521342756">
        <ele>4.89479483384639</ele>
        <time>2019-11-06T00:00:09Z</time>
      </trkpt>
      <trkpt lat="31.20297725952135" lon="121.61979440460745">
        <ele>5.358848963864148</ele>
        <time>2019-11-06T00:00:13Z</time>
      </trkpt>
      <trkpt lat="31.203042102041277" lon="121.61975510409171">
        <ele>5.6797429928556085</ele>
        <time>2019-11-06T00:00:16Z</time>
      </trkpt>
      <trkpt lat="31.203119720502674" lon="121.61968463724959">
        <ele>5.294559724628925</ele>
        <time>2019-11-06T00:00:20Z</time>
      </trkpt>
      <trkpt lat="31.20318160164339" lon="121.61962501162344">
        <ele>5.4482649229466915</ele>
        <time>2019-11-06T00:00:23Z</time>
      </trkpt>
      <trkpt lat="31.203267329543834" lon="121.61957785003175">
        <ele>4.871690772473812</ele>
        <time>2019-11-06T00:00:26Z</time>
      </trkpt>
      <trkpt lat="31.203328166824797" lon="121.61947892867175">
        <ele>6.289411574602127</ele>
        <time>2019-11-06T00:00:30Z</time>
      </trkpt>
      <trkpt lat="31.203350784403497" lon="121.61936971189273">
        <ele>6.500447905622423</ele>
        <time>2019-11-06T00:00:34Z</time>
      </trkpt>
      <trkpt lat="31.203346780215202" lon="121.61930900696223">
        <ele>5.324795849621296</ele>
        <time>2019-11-06T00:00:37Z</time>
      </trkpt>
      <trkpt lat="31.20330835768749" lon="121.61923285735459">
        <ele>5.620836483314633</ele>
        <time>2019-11-06T00:00:40Z</time>
      </trkpt>
      <trkpt lat="31.203287302376584" lon="121.61914234267721">
        <ele>6.264330673031509</ele>
        <time>2019-11-06T00:00:44Z</time>
      </trkpt>
      <trkpt lat="31.203257008459637" lon="121.61907107005234">
        <ele>6.764157352037728</ele>
        <time>2019-11-06T00:00:48Z</time>
      </trkpt>
      <trkpt lat="31.203241598491115" lon="121.6190274389241">
        <ele>6.479425143450499</ele>
        <time>2019-11-06T00:00:51Z</time>
      </trkpt>
      <trkpt lat="31.203216961826637" lon="121.61899166775622">
        <ele>6.495361428707838</ele>
        <time>2019-11-06T00:00:54Z</time>
      </trkpt>
      <trkpt lat="31.203179014014182" lon="121.61898083052057">
        <ele>6.561324451118708</ele>
        <time>2019-11-06T00:00:57Z</time>
      </trkpt>
      <trkpt lat="31.20315682525864" lon="121.61893747080822">
        <ele>6.315000732429326</ele>
        <time>2019-11-06T00:01:01Z</time>
      </trkpt>
      <trkpt lat="31.20313299248945" lon="121.61891091379529">
        <ele>6.541192848235369</ele>
        <time>2019-11-06T00:01:04Z</time>
      </trkpt>
      <trkpt lat="31.20310999381393" lon="121.61886403089179">
        <ele>6.0754713686183095</ele>
        <time>2019-11-06T00:01:08Z</time>
      </trkpt>
      <trkpt lat="31.20307535058782" lon="121.61880305627912">
        <ele>5.528546403162181</ele>
        <time>2019-11-06T00:01:12Z</time>
      </trkpt>
      <trkpt lat="31.203055610858367" lon="121.61875075266903">
        <ele>7.1207159999758005</ele>
        <time>2019-11-06T00:01:15Z</time>
      </trkpt>
      <trkpt lat="31.203031546322855" lon="121.61868516969454">
        <ele>5.73501046653837</ele>
        <time>2019-11-06T00:01:19Z</time>
      </trkpt>
      <trkpt lat="31.20299908192928" lon="121.61861416697828">
        <ele>6.084411431103945</ele>
        <time>2019-11-06T00:01:22Z</time>
      </trkpt>
      <trkpt lat="31.20298585100915" lon="121.61855996534153">
        <ele>5.433291491121054</ele>
        <time>2019-11-06T00:01:26Z</time>
      </trkpt>
      <trkpt lat="31.20295823155763" lon="121.61852392274587">
        <ele>6.239788429811597</ele>
        <time>2019-11-06T00:01:29Z</time>
      </trkpt>
      <trkpt lat="31.202943615635892" lon="121.6184987196094">
        <ele>6.036966575309634</ele>
        <time>2019-11-06T00:01:32Z</time>
      </trkpt>
      <trkpt lat="31.202916040729544" lon="121.61841823042451">
        <ele>5.664884936995804</ele>
        <time>2019-11-06T00:01:36Z</time>
      </trkpt>
      <trkpt lat="31.20290362691489" lon="121.61835996305797">
        <ele>5.696706661954522</ele>
        <time>2019-11-06T00:01:39Z</time>
      </trkpt>
      <trkpt lat="31.20289340046746" lon="121.61828326623156">
        <ele>6.51454190723598</ele>
        <time>2019-11-06T00:01:43Z</time>
      </trkpt>
      <trkpt lat="31.2028497923555" lon="121.61823855200718">
        <ele>6.503204550594091</ele>
        <time>2019-11-06T00:01:46Z</time>
      </trkpt>
      <trkpt lat="31.202830607350446" lon="121.61817269627846">
        <ele>6.285505468025804</ele>
        <time>2019-11-06T00:01:49Z</time>
      </trkpt>
      <trkpt lat="31.202829593342642" lon="121.6181016895154">
        <ele>4.6655037039890885</ele>
        <time>2019-11-06T00:01:52Z</time>
      </trkpt>
      <trkpt lat="31.20279470713196" lon="121.61801062989133">
        <ele>5.361700893379748</ele>
        <time>2019-11-06T00:01:56Z</time>
      </trkpt>
      <trkpt lat="31.20272945939783" lon="121.61791360998838">
        <ele>5.829681306146085</ele>
        <time>2019-11-06T00:02:00Z</time>
      </trkpt>
      <trkpt lat="31.20267397618421" lon="121.61781252357117">
        <ele>5.435608667321503</ele>
        <time>2019-11-06T00:02:04Z</time>
      </trkpt>
      <trkpt lat="31.202594918988243" lon="121.61769599037252">
        <ele>5.934402354992926</ele>
        <time>2019-11-06T00:02:08Z</time>
      </trkpt>
      <trkpt lat="31.202578487929454" lon="121.61758514296305">
        <ele>5.705362099222839</ele>
        <time>2019-11-06T00:02:12Z</time>
      </trkpt>
      <trkpt lat="31.202530038853425" lon="121.61749869000911">
        <ele>6.552994021214545</ele>
        <time>2019-11-06T00:02:16Z</time>
      </trkpt>
      <trkpt lat="31.202485397727134" lon="121.61739949819656">
        <ele>6.0285595105960965</ele>
        <time>2019-11-06T00:02:20Z</time>
      </trkpt>
      <trkpt lat="31.20244937504031" lon="121.61735993127407">
        <ele>6.195397977717221</ele>
        <time>2019-11-06T00:02:23Z</time>
      </trkpt>
      <trkpt lat="31.202445648954797" lon="121.61728756728246">
        <ele>7.783129273913801</ele>
        <time>2019-11-06T00:02:27Z</time>
      </trkpt>
      <trkpt lat="31.202470080054884" lon="121.61725748116457">
        <ele>5.721202493645251</ele>
        <time>2019-11-06T00:02:30Z</time>
      </trkpt>
      <trkpt lat="31.20250262666647" lon="121.61724663734732">
        <ele>5.9942219303920865</ele>
        <time>2019-11-06T00:02:33Z</time>
      </trkpt>
      <trkpt lat="31.202533303458782" lon="121.6172065226061">
        <ele>6.411243023350835</ele>
        <time>2019-11-06T00:02:36Z</time>
      </trkpt>
      <trkpt lat="31.20257729541688" lon="121.61713550936611">
        <ele>6.007765308953822</ele>
        <time>2019-11-06T00:02:40Z</time>
      </trkpt>
      <trkpt lat="31.202622066658964" lon="121.61710000078571">
        <ele>6.108174103312194</ele>
        <time>2019-11-06T00:02:43Z</time>
      </trkpt>
      <trkpt lat="31.20266793094085" lon="121.6170555480664">
        <ele>6.253698207437992</ele>
        <time>2019-11-06T00:02:47Z</time>
      </trkpt>
      <trkpt lat="31.202722731491413" lon="121.61702274884807">
        <ele>6.442535387352109</ele>
        <time>2019-11-06T00:02:51Z</time>
      </trkpt>
      <trkpt lat="31.202763431957788" lon="121.61699103487649">
        <ele>6.2595179276540875</ele>
        <time>2019-11-06T00:02:54Z</time>
      </trkpt>
      <trkpt lat="31.20282692061596" lon="121.61694576740878">
        <ele>6.510222206823528</ele>
        <time>2019-11-06T00:02:58Z</time>
      </trkpt>
      <trkpt lat="31.202875753244474" lon="121.61691594988837">
        <ele>6.36212264560163</ele>
        <time>2019-11-06T00:03:01Z</time>
      </trkpt>
      <trkpt lat="31.202951453654528" lon="121.61685929791322">
        <ele>6.611303470097482</ele>
        <time>2019-11-06T00:03:05Z</time>
      </trkpt>
      <trkpt lat="31.20301498542332" lon="121.6167682255922">
        <ele>5.752825127914548</ele>
        <time>2019-11-06T00:03:09Z</time>
      </trkpt>
      <trkpt lat="31.203089308139422" lon="121.61673461127546">
        <ele>6.519459715113044</ele>
        <time>2019-11-06T00:03:12Z</time>
      </trkpt>
      <trkpt lat="31.203184781393276" lon="121.6166988268898">
        <ele>5.957839381881058</ele>
        <time>2019-11-06T00:03:16Z</time>
      </trkpt>
      <trkpt lat="31.20323852709077" lon="121.61663404518492">
        <ele>4.889156151562929</ele>
        <time>2019-11-06T00:03:19Z</time>
      </trkpt>
      <trkpt lat="31.20332562885634" lon="121.61656221362267">
        <ele>5.523132535628974</ele>
        <time>2019-11-06T00:03:23Z</time>
      </trkpt>
      <trkpt lat="31.203400522270236" lon="121.61649797188086">
        <ele>5.840425180271268</ele>
        <time>2019-11-06T00:03:26Z</time>
      </trkpt>
      <trkpt lat="31.203491966659957" lon="121.61642098985332">
        <ele>5.001980501227081</ele>
        <time>2019-11-06T00:03:30Z</time>
      </trkpt>
      <trkpt lat="31.203594514025774" lon="121.6163583716817">
        <ele>6.326556704938412</ele>
        <time>2019-11-06T00:03:34Z</time>
      </trkpt>
      <trkpt lat="31.20365690231023" lon="121.6163290944037">
        <ele>6.521831706166267</ele>
        <time>2019-11-06T00:03:37Z</time>
      </trkpt>
      <trkpt lat="31.203719016413565" lon="121.61630306957647">
        <ele>6.047272060997784</ele>
        <time>2019-11-06T00:03:40Z</time>
      </trkpt>
      <trkpt lat="31.203784680368965" lon="121.61624994052646">
        <ele>6.808625405654311</ele>
        <time>2019-11-06T00:03:44Z</time>
      </trkpt>
      <trkpt lat="31.203837579821634" lon="121.61621957974552">
        <ele>6.625232061371207</ele>
        <time>2019-11-06T00:03:47Z</time>
      </trkpt>
      <trkpt lat="31.203906258366523" lon="121.61613148606756">
        <ele>7.345306039787829</ele>
        <time>2019-11-06T00:03:51Z</time>
      </trkpt>
      <trkpt lat="31.203947264406356" lon="121.61606128309008">
        <ele>6.649425165727735</ele>
        <time>2019-11-06T00:03:54Z</time>
      </trkpt>
      <trkpt lat="31.20403162554443" lon="121.61601980676392">
        <ele>6.592904540710151</ele>
        <time>2019-11-06T00:03:58Z</time>
      </trkpt>
      <trkpt lat="31.20412300233825" lon="121.61601519149613">
        <ele>5.980561822652817</ele>
        <time>2019-11-06T00:04:02Z</time>
      </trkpt>
      <trkpt lat="31.204188644159323" lon="121.61598564249533">
        <ele>5.953990921378136</ele>
        <time>2019-11-06T00:04:05Z</time>
      </trkpt>
      <trkpt lat="31.204245300987118" lon="121.61599702157474">
        <ele>6.720557157881558</ele>
        <time>2019-11-06T00:04:08Z</time>
      </trkpt>
      <trkpt lat="31.204340673140248" lon="121.61607046595093">
        <ele>5.204819600097835</ele>
        <time>2019-11-06T00:04:12Z</time>
      </trkpt>
      <trkpt lat="31.204413541127476" lon="121.61614364092648">
        <ele>6.299240246415138</ele>
        <time>2019-11-06T00:04:16Z</time>
      </trkpt>
      <trkpt lat="31.20448047025928" lon="121.61618835700617">
        <ele>5.771106221713126</ele>
        <time>2019-11-06T00:04:19Z</time>
      </trkpt>
      <trkpt lat="31.204557936442633" lon="121.616273185923">
        <ele>6.4288628697395325</ele>
        <time>2019-11-06T00:04:23Z</time>
      </trkpt>
      <trkpt lat="31.20466336533295" lon="121.6163192537725">
        <ele>5.44802762567997</ele>
        <time>2019-11-06T00:04:27Z</time>
      </trkpt>
      <trkpt lat="31.20464766464098" lon="121.6162921512169">
        <ele>6.251877130009234</ele>
        <time>2019-11-06T00:04:31Z</time>
      </trkpt>
      <trkpt lat="31.204602162886697" lon="121.61623930237816">
        <ele>5.114453980699182</ele>
        <time>2019-11-06T00:04:35Z</time>
      </trkpt>
      <trkpt lat="31.204569924116242" lon="121.61621084590378">
        <ele>3.6998666943982244</ele>
        <time>2019-11-06T00:04:38Z</time>
      </trkpt>
      <trkpt lat="31.204540683824334" lon="121.61616504258757">
        <ele>6.04783898871392</ele>
        <time>2019-11-06T00:04:42Z</time>
      </trkpt>
      <trkpt lat="31.204533394425646" lon="121.61613116315375">
        <ele>7.490695248357952</ele>
        <time>2019-11-06T00:04:45Z</time>
      </trkpt>
      <trkpt lat="31.20450551391937" lon="121.616080751878">
        <ele>7.185053298249841</ele>
        <time>2019-11-06T00:04:49Z</time>
      </trkpt>
      <trkpt lat="31.204455125358916" lon="121.61603440798335">
        <ele>7.791733894497156</ele>
        <time>2019-11-06T00:04:53Z</time>
      </trkpt>
      <trkpt lat="31.204417488279415" lon="121.61597911855552">
        <ele>7.2792923822999</ele>
        <time>2019-11-06T00:04:57Z</time>
      </trkpt>
      <trkpt lat="31.204357862599128" lon="121.61595283238212">
        <ele>7.3485704101622105</ele>
        <time>2019-11-06T00:05:01Z</time>
      </trkpt>
      <trkpt lat="31.204315070323204" lon="121.61590133779798">
        <ele>8.594441235996783</ele>
        <time>2019-11-06T00:05:05Z</time>
      </trkpt>
      <trkpt lat="31.204264939007178" lon="121.61586990093112">
        <ele>7.793812422081828</ele>
        <time>2019-11-06T00:05:09Z</time>
      </trkpt>
      <trkpt lat="31.204188247023144" lon="121.61582681133653">
        <ele>8.233189295977354</ele>
        <time>2019-11-06T00:05:13Z</time>
      </trkpt>
      <trkpt lat="31.204112395231505" lon="121.61575417774296">
        <ele>7.763641824014485</ele>
        <time>2019-11-06T00:05:17Z</time>
      </trkpt>
      <trkpt lat="31.204071494397635" lon="121.61570945871122">
        <ele>7.123841441236436</ele>
        <time>2019-11-06T00:05:20Z</time>
      </trkpt>
      <trkpt lat="31.20400539385827" lon="121.61564712370505">
        <ele>6.892787068150938</ele>
        <time>2019-11-06T00:05:23Z</time>
      </trkpt>
      <trkpt lat="31.203914368542097" lon="121.61556283581649">
        <ele>6.678103428333998</ele>
        <time>2019-11-06T00:05:27Z</time>
      </trkpt>
      <trkpt lat="31.203855051174926" lon="121.61549480787252">
        <ele>6.9131021443754435</ele>
        <time>2019-11-06T00:05:31Z</time>
      </trkpt>
      <trkpt lat="31.203813872469613" lon="121.61545713563352">
        <ele>6.715663651004434</ele>
        <time>2019-11-06T00:05:34Z</time>
      </trkpt>
      <trkpt lat="31.203767812552904" lon="121.6154202768847">
        <ele>6.449837673455477</ele>
        <time>2019-11-06T00:05:37Z</time>
      </trkpt>
      <trkpt lat="31.20372337648876" lon="121.61538667053117">
        <ele>6.528147228062153</ele>
        <time>2019-11-06T00:05:41Z</time>
      </trkpt>
      <trkpt lat="31.203694401141682" lon="121.6153462866215">
        <ele>6.348906757310033</ele>
        <time>2019-11-06T00:05:44Z</time>
      </trkpt>
      <trkpt lat="31.203646172725154" lon="121.6153086147335">
        <ele>6.7038502134382725</ele>
        <time>2019-11-06T00:05:48Z</time>
      </trkpt>
      <trkpt lat="31.203641329013607" lon="121.61526741554675">
        <ele>6.781384565867484</ele>
        <time>2019-11-06T00:05:51Z</time>
      </trkpt>
      <trkpt lat="31.203674486525095" lon="121.61517850819168">
        <ele>6.466165683232248</ele>
        <time>2019-11-06T00:05:55Z</time>
      </trkpt>
      <trkpt lat="31.20370435991416" lon="121.61512375332654">
        <ele>6.492301561869681</ele>
        <time>2019-11-06T00:05:58Z</time>
      </trkpt>
      <trkpt lat="31.20378033119443" lon="121.61506330242356">
        <ele>6.506717415526509</ele>
        <time>2019-11-06T00:06:02Z</time>
      </trkpt>
      <trkpt lat="31.203792608970776" lon="121.61497629341468">
        <ele>6.901115880347788</ele>
        <time>2019-11-06T00:06:06Z</time>
      </trkpt>
      <trkpt lat="31.20375851047607" lon="121.61490284064254">
        <ele>6.716543762944639</ele>
        <time>2019-11-06T00:06:09Z</time>
      </trkpt>
      <trkpt lat="31.20368375597004" lon="121.61481285664118">
        <ele>7.179711600765586</ele>
        <time>2019-11-06T00:06:13Z</time>
      </trkpt>
      <trkpt lat="31.203645585288026" lon="121.61474482482606">
        <ele>5.629686068743467</ele>
        <time>2019-11-06T00:06:16Z</time>
      </trkpt>
      <trkpt lat="31.203630736765845" lon="121.61467136975163">
        <ele>7.2142526637762785</ele>
        <time>2019-11-06T00:06:19Z</time>
      </trkpt>
      <trkpt lat="31.20369127041246" lon="121.6145900475423">
        <ele>7.341743177734315</ele>
        <time>2019-11-06T00:06:23Z</time>
      </trkpt>
      <trkpt lat="31.20374309683857" lon="121.61454423444323">
        <ele>7.125020379200578</ele>
        <time>2019-11-06T00:06:26Z</time>
      </trkpt>
      <trkpt lat="31.203809287040514" lon="121.61450573865609">
        <ele>6.650559464469552</ele>
        <time>2019-11-06T00:06:29Z</time>
      </trkpt>
      <trkpt lat="31.203864382113327" lon="121.61444230626488">
        <ele>8.600685509853065</ele>
        <time>2019-11-06T00:06:32Z</time>
      </trkpt>
      <trkpt lat="31.20395067548291" lon="121.61435799947981">
        <ele>7.368718896061182</ele>
        <time>2019-11-06T00:06:36Z</time>
      </trkpt>
      <trkpt lat="31.204011765288058" lon="121.61425932822166">
        <ele>7.691433786414564</ele>
        <time>2019-11-06T00:06:40Z</time>
      </trkpt>
      <trkpt lat="31.20405791071632" lon="121.61419779334993">
        <ele>7.526013853959739</ele>
        <time>2019-11-06T00:06:43Z</time>
      </trkpt>
      <trkpt lat="31.204120306853458" lon="121.61415658668922">
        <ele>7.931290743872523</ele>
        <time>2019-11-06T00:06:46Z</time>
      </trkpt>
      <trkpt lat="31.204193313724492" lon="121.6140722799898">
        <ele>8.888201666995883</ele>
        <time>2019-11-06T00:06:50Z</time>
      </trkpt>
      <trkpt lat="31.20426492323582" lon="121.61403703576038">
        <ele>5.928339781239629</ele>
        <time>2019-11-06T00:06:54Z</time>
      </trkpt>
      <trkpt lat="31.204327338110858" lon="121.61397333044835">
        <ele>8.025584753602743</ele>
        <time>2019-11-06T00:06:58Z</time>
      </trkpt>
      <trkpt lat="31.204367240179142" lon="121.61391965625043">
        <ele>7.616093683056533</ele>
        <time>2019-11-06T00:07:02Z</time>
      </trkpt>
      <trkpt lat="31.20441068281114" lon="121.6138470070059">
        <ele>5.793077298440039</ele>
        <time>2019-11-06T00:07:06Z</time>
      </trkpt>
      <trkpt lat="31.20444217716962" lon="121.61379604388551">
        <ele>8.055826152674854</ele>
        <time>2019-11-06T00:07:09Z</time>
      </trkpt>
      <trkpt lat="31.204484798606668" lon="121.61373233956145">
        <ele>8.261055083945394</ele>
        <time>2019-11-06T00:07:13Z</time>
      </trkpt>
      <trkpt lat="31.204540961551743" lon="121.61368679551681">
        <ele>7.55690438952297</ele>
        <time>2019-11-06T00:07:17Z</time>
      </trkpt>
      <trkpt lat="31.204597936702548" lon="121.61364260666033">
        <ele>8.69591126870364</ele>
        <time>2019-11-06T00:07:21Z</time>
      </trkpt>
      <trkpt lat="31.20463567397746" lon="121.61358296836606">
        <ele>8.010633557103574</ele>
        <time>2019-11-06T00:07:25Z</time>
      </trkpt>
      <trkpt lat="31.204603157710686" lon="121.61355884587357">
        <ele>7.808593261986971</ele>
        <time>2019-11-06T00:07:29Z</time>
      </trkpt>
      <trkpt lat="31.204608891433068" lon="121.61351059496266">
        <ele>6.217533775605261</ele>
        <time>2019-11-06T00:07:33Z</time>
      </trkpt>
      <trkpt lat="31.204630061908414" lon="121.6134840283226">
        <ele>6.720706129446626</ele>
        <time>2019-11-06T00:07:36Z</time>
      </trkpt>
      <trkpt lat="31.20465229500587" lon="121.61348402648413">
        <ele>7.685825360007584</ele>
        <time>2019-11-06T00:07:40Z</time>
      </trkpt>
      <trkpt lat="31.204668780085782" lon="121.6135496240792">
        <ele>7.7715724827721715</ele>
        <time>2019-11-06T00:07:43Z</time>
      </trkpt>
      <trkpt lat="31.204718631510207" lon="121.61359488855291">
        <ele>8.553907983005047</ele>
        <time>2019-11-06T00:07:46Z</time>
      </trkpt>
      <trkpt lat="31.20476903480839" lon="121.61362849693887">
        <ele>8.121154323220253</ele>
        <time>2019-11-06T00:07:50Z</time>
      </trkpt>
      <trkpt lat="31.204813765843298" lon="121.61363608316483">
        <ele>7.876357268542051</ele>
        <time>2019-11-06T00:07:54Z</time>
      </trkpt>
      <trkpt lat="31.20485230416671" lon="121.6135913535996">
        <ele>10.356205174699426</ele>
        <time>2019-11-06T00:07:57Z</time>
      </trkpt>
      <trkpt lat="31.204917716401336" lon="121.61350840086408">
        <ele>7.636250629089773</ele>
        <time>2019-11-06T00:08:01Z</time>
      </trkpt>
      <trkpt lat="31.204946010678213" lon="121.61339156699034">
        <ele>7.6693173591047525</ele>
        <time>2019-11-06T00:08:05Z</time>
      </trkpt>
      <trkpt lat="31.204975607792225" lon="121.61333870553749">
        <ele>7.332361384294927</ele>
        <time>2019-11-06T00:08:08Z</time>
      </trkpt>
      <trkpt lat="31.205021479350766" lon="121.61327798150924">
        <ele>7.425194608047605</ele>
        <time>2019-11-06T00:08:12Z</time>
      </trkpt>
      <trkpt lat="31.205046480630983" lon="121.6132083136215">
        <ele>8.705378716811538</ele>
        <time>2019-11-06T00:08:16Z</time>
      </trkpt>
      <trkpt lat="31.205074175693046" lon="121.613160060175">
        <ele>7.463391657918692</ele>
        <time>2019-11-06T00:08:19Z</time>
      </trkpt>
      <trkpt lat="31.205133340171393" lon="121.61308984696197">
        <ele>8.206055438145995</ele>
        <time>2019-11-06T00:08:23Z</time>
      </trkpt>
      <trkpt lat="31.205168096367412" lon="121.61302695460272">
        <ele>7.739849793724716</ele>
        <time>2019-11-06T00:08:26Z</time>
      </trkpt>
      <trkpt lat="31.20522236085058" lon="121.61298059611958">
        <ele>8.171345098875463</ele>
        <time>2019-11-06T00:08:29Z</time>
      </trkpt>
      <trkpt lat="31.205219431138556" lon="121.61291499581269">
        <ele>8.69511800725013</ele>
        <time>2019-11-06T00:08:33Z</time>
      </trkpt>
      <trkpt lat="31.205206246892036" lon="121.61278840358685">
        <ele>8.533829689025879</ele>
        <time>2019-11-06T00:08:37Z</time>
      </trkpt>
      <trkpt lat="31.20515641221374" lon="121.61272036690484">
        <ele>7.540826314128935</ele>
        <time>2019-11-06T00:08:41Z</time>
      </trkpt>
      <trkpt lat="31.205122874929025" lon="121.6126151906757">
        <ele>8.271094765514135</ele>
        <time>2019-11-06T00:08:44Z</time>
      </trkpt>
      <trkpt lat="31.205088765665018" lon="121.61254715218735">
        <ele>9.023789728060365</ele>
        <time>2019-11-06T00:08:48Z</time>
      </trkpt>
      <trkpt lat="31.20507770103231" lon="121.61248128025119">
        <ele>8.482626819983125</ele>
        <time>2019-11-06T00:08:52Z</time>
      </trkpt>
      <trkpt lat="31.205049282079628" lon="121.61241730714308">
        <ele>8.768724938854575</ele>
        <time>2019-11-06T00:08:56Z</time>
      </trkpt>
      <trkpt lat="31.205018946356898" lon="121.61237718935901">
        <ele>8.77434382494539</ele>
        <time>2019-11-06T00:08:59Z</time>
      </trkpt>
      <trkpt lat="31.204959602262527" lon="121.61233300764731">
        <ele>8.414958314038813</ele>
        <time>2019-11-06T00:09:03Z</time>
      </trkpt>
      <trkpt lat="31.20493006565064" lon="121.6123110522907">
        <ele>8.029249041341245</ele>
        <time>2019-11-06T00:09:06Z</time>
      </trkpt>
      <trkpt lat="31.20487641381521" lon="121.61226876757426">
        <ele>7.805160342715681</ele>
        <time>2019-11-06T00:09:10Z</time>
      </trkpt>
      <trkpt lat="31.204821935438837" lon="121.61224329011617">
        <ele>5.273784344084561</ele>
        <time>2019-11-06T00:09:14Z</time>
      </trkpt>
      <trkpt lat="31.204767466515523" lon="121.61220561379406">
        <ele>6.8340257210657</ele>
        <time>2019-11-06T00:09:17Z</time>
      </trkpt>
      <trkpt lat="31.20474309146398" lon="121.61217064577968">
        <ele>8.120091798715293</ele>
        <time>2019-11-06T00:09:20Z</time>
      </trkpt>
      <trkpt lat="31.204700277904006" lon="121.6121373057536">
        <ele>7.468184515833855</ele>
        <time>2019-11-06T00:09:24Z</time>
      </trkpt>
      <trkpt lat="31.204674017167612" lon="121.61208634368246">
        <ele>8.75712085980922</ele>
        <time>2019-11-06T00:09:28Z</time>
      </trkpt>
      <trkpt lat="31.20464585963825" lon="121.61203375513203">
        <ele>7.959068008698523</ele>
        <time>2019-11-06T00:09:32Z</time>
      </trkpt>
      <trkpt lat="31.20463233414944" lon="121.61199309311792">
        <ele>7.842989767901599</ele>
        <time>2019-11-06T00:09:35Z</time>
      </trkpt>
      <trkpt lat="31.204605783080037" lon="121.61196679978275">
        <ele>7.87680284678936</ele>
        <time>2019-11-06T00:09:38Z</time>
      </trkpt>
      <trkpt lat="31.20456161255171" lon="121.61193481501716">
        <ele>7.84626585803926</ele>
        <time>2019-11-06T00:09:42Z</time>
      </trkpt>
      <trkpt lat="31.204531538740795" lon="121.61190581101887">
        <ele>8.141342775896192</ele>
        <time>2019-11-06T00:09:46Z</time>
      </trkpt>
      <trkpt lat="31.204508506751512" lon="121.61188683669843">
        <ele>8.686980019323528</ele>
        <time>2019-11-06T00:09:49Z</time>
      </trkpt>
      <trkpt lat="31.204473549970437" lon="121.61186108611581">
        <ele>7.632954427041113</ele>
        <time>2019-11-06T00:09:52Z</time>
      </trkpt>
      <trkpt lat="31.204413109134865" lon="121.61183181344578">
        <ele>7.764515304006636</ele>
        <time>2019-11-06T00:09:56Z</time>
      </trkpt>
      <trkpt lat="31.20437247187067" lon="121.61178844241552">
        <ele>7.841734473593533</ele>
        <time>2019-11-06T00:09:59Z</time>
      </trkpt>
      <trkpt lat="31.20433724077248" lon="121.61176675810268">
        <ele>7.675173358991742</ele>
        <time>2019-11-06T00:10:02Z</time>
      </trkpt>
      <trkpt lat="31.204291472577342" lon="121.61169600717109">
        <ele>7.660412324592471</ele>
        <time>2019-11-06T00:10:05Z</time>
      </trkpt>
      <trkpt lat="31.204254365788813" lon="121.61164477392987">
        <ele>8.52158420626074</ele>
        <time>2019-11-06T00:10:08Z</time>
      </trkpt>
      <trkpt lat="31.20422485415868" lon="121.61158893137386">
        <ele>8.308977262116969</ele>
        <time>2019-11-06T00:10:11Z</time>
      </trkpt>
      <trkpt lat="31.204177700288565" lon="121.61155748851586">
        <ele>8.12624793779105</ele>
        <time>2019-11-06T00:10:15Z</time>
      </trkpt>
      <trkpt lat="31.20414032473974" lon="121.61150273077216">
        <ele>8.198816657066345</ele>
        <time>2019-11-06T00:10:18Z</time>
      </trkpt>
      <trkpt lat="31.204094278424474" lon="121.61144038297572">
        <ele>7.758594629354775</ele>
        <time>2019-11-06T00:10:22Z</time>
      </trkpt>
      <trkpt lat="31.20414502177925" lon="121.61138534657272">
        <ele>8.28603364340961</ele>
        <time>2019-11-06T00:10:26Z</time>
      </trkpt>
      <trkpt lat="31.20418249328752" lon="121.61131160553126">
        <ele>9.563136241398752</ele>
        <time>2019-11-06T00:10:30Z</time>
      </trkpt>
      <trkpt lat="31.204191769130272" lon="121.61123434232636">
        <ele>6.260307660326362</ele>
        <time>2019-11-06T00:10:33Z</time>
      </trkpt>
      <trkpt lat="31.204199416535175" lon="121.6111589766789">
        <ele>6.856450790539384</ele>
        <time>2019-11-06T00:10:37Z</time>
      </trkpt>
      <trkpt lat="31.204237678914133" lon="121.61111505565856">
        <ele>5.562179793603718</ele>
        <time>2019-11-06T00:10:40Z</time>
      </trkpt>
      <trkpt lat="31.204555557220687" lon="121.61096782261342">
        <ele>7.923471221700311</ele>
        <time>2019-11-06T00:11:07Z</time>
      </trkpt>
      <trkpt lat="31.20456344404393" lon="121.61093501885121">
        <ele>7.298037581145763</ele>
        <time>2019-11-06T00:11:10Z</time>
      </trkpt>
    </trkseg>
  </trk>
</gpx>