<?xml version="1.0" encoding="UTF-8"?>
<gpx xmlns="http://www.topografix.com/GPX/1/1" xmlns:gpxtpx="http://www.garmin.com/xmlschemas/TrackPointExtension/v1" xmlns:xsi="http://www.w3.org/2001/XMLSchema-instance" xsi:schemaLocation="http://www.topografix.com/GPX/1/1 http://www.topografix.com/GPX/1/1/gpx.xsd" version="1.1" creator="gpx.py -- https://github.com/tkrajina/gpxpy">
  <trk>
    <name>gpx from keep</name>
    <type>Run</type>
    <trkseg>
      <trkpt lat="31.204439197616654" lon="121.61065172757061">
        <ele>8.638135221580985</ele>
        <time>2020-03-16T23:27:08Z</time>
      </trkpt>
      <trkpt lat="31.204522639276416" lon="121.61074633564972">
        <ele>8.5293637374416</ele>
        <time>2020-03-16T23:27:16Z</time>
      </trkpt>
      <trkpt lat="31.204617814804926" lon="121.61073656808875">
        <ele>8.565578809939325</ele>
        <time>2020-03-16T23:27:20Z</time>
      </trkpt>
      <trkpt lat="31.20478383935652" lon="121.61061157570417">
        <ele>8.356495467945933</ele>
        <time>2020-03-16T23:27:27Z</time>
      </trkpt>
      <trkpt lat="31.204882609992413" lon="121.61050312562938">
        <ele>8.212069769389927</ele>
        <time>2020-03-16T23:27:31Z</time>
      </trkpt>
      <trkpt lat="31.205005472838888" lon="121.61044889432368">
        <ele>8.68271769117564</ele>
        <time>2020-03-16T23:27:34Z</time>
      </trkpt>
      <trkpt lat="31.205157701900198" lon="121.61027591540858">
        <ele>7.904548606835306</ele>
        <time>2020-03-16T23:27:41Z</time>
      </trkpt>
      <trkpt lat="31.205220946731405" lon="121.61017559994808">
        <ele>7.775118005461991</ele>
        <time>2020-03-16T23:27:45Z</time>
      </trkpt>
      <trkpt lat="31.20529392169421" lon="121.61011893199324">
        <ele>8.191188703291118</ele>
        <time>2020-03-16T23:27:49Z</time>
      </trkpt>
      <trkpt lat="31.20544511408093" lon="121.61026369177954">
        <ele>6.391078599728644</ele>
        <time>2020-03-16T23:27:56Z</time>
      </trkpt>
      <trkpt lat="31.205529341715987" lon="121.6103992385516">
        <ele>6.416149861179292</ele>
        <time>2020-03-16T23:28:03Z</time>
      </trkpt>
      <trkpt lat="31.20568878130429" lon="121.6103824167517">
        <ele>7.636241627857089</ele>
        <time>2020-03-16T23:28:07Z</time>
      </trkpt>
      <trkpt lat="31.205757039864306" lon="121.61047784052286">
        <ele>5.868312234990299</ele>
        <time>2020-03-16T23:28:11Z</time>
      </trkpt>
      <trkpt lat="31.205775695157676" lon="121.61055239293125">
        <ele>6.003102737478912</ele>
        <time>2020-03-16T23:28:14Z</time>
      </trkpt>
      <trkpt lat="31.205828526710125" lon="121.61060823609002">
        <ele>6.13696248922497</ele>
        <time>2020-03-16T23:28:17Z</time>
      </trkpt>
      <trkpt lat="31.205920835161415" lon="121.61081507999566">
        <ele>5.926475743763149</ele>
        <time>2020-03-16T23:28:24Z</time>
      </trkpt>
      <trkpt lat="31.206061444699458" lon="121.61096634261803">
        <ele>7.144378947094083</ele>
        <time>2020-03-16T23:28:31Z</time>
      </trkpt>
      <trkpt lat="31.206131362867332" lon="121.61101405037053">
        <ele>7.12653396371752</ele>
        <time>2020-03-16T23:28:35Z</time>
      </trkpt>
      <trkpt lat="31.206169240575527" lon="121.6111249265984">
        <ele>6.9033747194334865</ele>
        <time>2020-03-16T23:28:38Z</time>
      </trkpt>
      <trkpt lat="31.20624751061488" lon="121.61124447404214">
        <ele>5.992808301001787</ele>
        <time>2020-03-16T23:28:42Z</time>
      </trkpt>
      <trkpt lat="31.20652607314226" lon="121.61146620696074">
        <ele>5.863505492918193</ele>
        <time>2020-03-16T23:28:53Z</time>
      </trkpt>
      <trkpt lat="31.206501069702814" lon="121.61154482614853">
        <ele>6.427675670012832</ele>
        <time>2020-03-16T23:28:56Z</time>
      </trkpt>
      <trkpt lat="31.20638683268761" lon="121.61166276077043">
        <ele>6.615402079187334</ele>
        <time>2020-03-16T23:29:03Z</time>
      </trkpt>
      <trkpt lat="31.206276370013825" lon="121.61180834566798">
        <ele>6.7009067526087165</ele>
        <time>2020-03-16T23:29:10Z</time>
      </trkpt>
      <trkpt lat="31.20614206364252" lon="121.61193170237144">
        <ele>6.7537247175350785</ele>
        <time>2020-03-16T23:29:17Z</time>
      </trkpt>
      <trkpt lat="31.20608561020604" lon="121.61200625625735">
        <ele>5.687881797552109</ele>
        <time>2020-03-16T23:29:21Z</time>
      </trkpt>
      <trkpt lat="31.206074391589382" lon="121.61213854756933">
        <ele>6.643200242891908</ele>
        <time>2020-03-16T23:29:25Z</time>
      </trkpt>
      <trkpt lat="31.205990006387225" lon="121.61221852480165">
        <ele>6.411828483454883</ele>
        <time>2020-03-16T23:29:29Z</time>
      </trkpt>
      <trkpt lat="31.205901787791234" lon="121.61234621284636">
        <ele>7.372641108930111</ele>
        <time>2020-03-16T23:29:35Z</time>
      </trkpt>
      <trkpt lat="31.20569477640077" lon="121.61251809636117">
        <ele>7.047822987660766</ele>
        <time>2020-03-16T23:29:46Z</time>
      </trkpt>
      <trkpt lat="31.205489345219686" lon="121.61274717620995">
        <ele>7.16338918171823</ele>
        <time>2020-03-16T23:29:54Z</time>
      </trkpt>
      <trkpt lat="31.205411185659905" lon="121.61283799395363">
        <ele>6.899379224516451</ele>
        <time>2020-03-16T23:29:58Z</time>
      </trkpt>
      <trkpt lat="31.205394330938564" lon="121.6128932951781">
        <ele>7.59995452594012</ele>
        <time>2020-03-16T23:30:01Z</time>
      </trkpt>
      <trkpt lat="31.205283876464712" lon="121.6130204392105">
        <ele>7.7679402101784945</ele>
        <time>2020-03-16T23:30:08Z</time>
      </trkpt>
      <trkpt lat="31.20520276620851" lon="121.61307086596325">
        <ele>7.302923307754099</ele>
        <time>2020-03-16T23:30:12Z</time>
      </trkpt>
      <trkpt lat="31.205070055280295" lon="121.61322566037825">
        <ele>7.84986337646842</ele>
        <time>2020-03-16T23:30:20Z</time>
      </trkpt>
      <trkpt lat="31.205008969435617" lon="121.61332406487932">
        <ele>7.8010130589827895</ele>
        <time>2020-03-16T23:30:24Z</time>
      </trkpt>
      <trkpt lat="31.204870052655195" lon="121.61344036609404">
        <ele>6.946001794189215</ele>
        <time>2020-03-16T23:30:30Z</time>
      </trkpt>
      <trkpt lat="31.204624202802304" lon="121.61368353581568">
        <ele>8.200963105075061</ele>
        <time>2020-03-16T23:30:42Z</time>
      </trkpt>
      <trkpt lat="31.20444183426514" lon="121.61388170088854">
        <ele>7.050831951200962</ele>
        <time>2020-03-16T23:30:52Z</time>
      </trkpt>
      <trkpt lat="31.204236725399277" lon="121.6140367670281">
        <ele>7.9869583724066615</ele>
        <time>2020-03-16T23:31:02Z</time>
      </trkpt>
      <trkpt lat="31.204031817490506" lon="121.6142731506994">
        <ele>7.105943771079183</ele>
        <time>2020-03-16T23:31:12Z</time>
      </trkpt>
      <trkpt lat="31.20379732948601" lon="121.61453772455758">
        <ele>5.846593581140041</ele>
        <time>2020-03-16T23:31:24Z</time>
      </trkpt>
      <trkpt lat="31.203648353953977" lon="121.61467895788623">
        <ele>6.033910947851837</ele>
        <time>2020-03-16T23:31:31Z</time>
      </trkpt>
      <trkpt lat="31.203390055945665" lon="121.61488227098131">
        <ele>6.232477833516896</ele>
        <time>2020-03-16T23:31:43Z</time>
      </trkpt>
      <trkpt lat="31.2033321743114" lon="121.6150300000128">
        <ele>6.594376990571618</ele>
        <time>2020-03-16T23:31:54Z</time>
      </trkpt>
      <trkpt lat="31.203323722703583" lon="121.61508258490235">
        <ele>8.316707860678434</ele>
        <time>2020-03-16T23:32:15Z</time>
      </trkpt>
      <trkpt lat="31.203293318657607" lon="121.6151243294243">
        <ele>6.8630484556779265</ele>
        <time>2020-03-16T23:32:34Z</time>
      </trkpt>
      <trkpt lat="31.203376779722994" lon="121.61517907491532">
        <ele>6.566442969255149</ele>
        <time>2020-03-16T23:32:51Z</time>
      </trkpt>
      <trkpt lat="31.203469116191343" lon="121.61531459246923">
        <ele>6.175674739293754</ele>
        <time>2020-03-16T23:32:58Z</time>
      </trkpt>
      <trkpt lat="31.20343624951606" lon="121.6153810022525">
        <ele>6.3682023314759135</ele>
        <time>2020-03-16T23:33:02Z</time>
      </trkpt>
      <trkpt lat="31.203334224512943" lon="121.61546828826948">
        <ele>6.240919447503984</ele>
        <time>2020-03-16T23:33:08Z</time>
      </trkpt>
      <trkpt lat="31.203286427222725" lon="121.61555448529856">
        <ele>5.806377386674285</ele>
        <time>2020-03-16T23:33:12Z</time>
      </trkpt>
      <trkpt lat="31.20308099559154" lon="121.61575616036181">
        <ele>6.80858625844121</ele>
        <time>2020-03-16T23:33:23Z</time>
      </trkpt>
      <trkpt lat="31.202829440279853" lon="121.6159898205478">
        <ele>5.007279998622835</ele>
        <time>2020-03-16T23:33:37Z</time>
      </trkpt>
      <trkpt lat="31.202700809244963" lon="121.61611288397194">
        <ele>4.410067512653768</ele>
        <time>2020-03-16T23:33:44Z</time>
      </trkpt>
      <trkpt lat="31.202435904594516" lon="121.61641186193519">
        <ele>5.577901770360768</ele>
        <time>2020-03-16T23:33:59Z</time>
      </trkpt>
      <trkpt lat="31.2023688773877" lon="121.61647285081254">
        <ele>5.8351568123325706</ele>
        <time>2020-03-16T23:34:02Z</time>
      </trkpt>
      <trkpt lat="31.202325702045496" lon="121.61654223968058">
        <ele>4.997254083864391</ele>
        <time>2020-03-16T23:34:05Z</time>
      </trkpt>
      <trkpt lat="31.20223697384958" lon="121.61661380040138">
        <ele>4.090422622859478</ele>
        <time>2020-03-16T23:34:09Z</time>
      </trkpt>
      <trkpt lat="31.20209012723944" lon="121.61678646132644">
        <ele>4.226599485613406</ele>
        <time>2020-03-16T23:34:17Z</time>
      </trkpt>
      <trkpt lat="31.20202337678847" lon="121.61684067343562">
        <ele>4.00718136318028</ele>
        <time>2020-03-16T23:34:21Z</time>
      </trkpt>
      <trkpt lat="31.201902042848218" lon="121.61698460138402">
        <ele>5.393629739060998</ele>
        <time>2020-03-16T23:34:29Z</time>
      </trkpt>
      <trkpt lat="31.201699329335156" lon="121.61716864755523">
        <ele>5.740663714706898</ele>
        <time>2020-03-16T23:34:40Z</time>
      </trkpt>
      <trkpt lat="31.201636887916518" lon="121.61725240055205">
        <ele>4.931910798884928</ele>
        <time>2020-03-16T23:34:43Z</time>
      </trkpt>
      <trkpt lat="31.201552240137257" lon="121.61730823928454">
        <ele>3.7264235923066735</ele>
        <time>2020-03-16T23:34:47Z</time>
      </trkpt>
      <trkpt lat="31.201313966976894" lon="121.61753239773567">
        <ele>4.382773046381772</ele>
        <time>2020-03-16T23:35:01Z</time>
      </trkpt>
      <trkpt lat="31.201259932048576" lon="121.61761370959273">
        <ele>4.563525573350489</ele>
        <time>2020-03-16T23:35:04Z</time>
      </trkpt>
      <trkpt lat="31.20103082951549" lon="121.61788420921098">
        <ele>4.823924079537392</ele>
        <time>2020-03-16T23:35:18Z</time>
      </trkpt>
      <trkpt lat="31.200914604612187" lon="121.6180658024003">
        <ele>5.295738755725324</ele>
        <time>2020-03-16T23:35:26Z</time>
      </trkpt>
      <trkpt lat="31.20074711170951" lon="121.61826989294327">
        <ele>4.418684971518815</ele>
        <time>2020-03-16T23:35:36Z</time>
      </trkpt>
      <trkpt lat="31.20069441816286" lon="121.61836339801992">
        <ele>5.009249646216631</ele>
        <time>2020-03-16T23:35:40Z</time>
      </trkpt>
      <trkpt lat="31.20045127366315" lon="121.61857047356145">
        <ele>3.583839923143387</ele>
        <time>2020-03-16T23:35:54Z</time>
      </trkpt>
      <trkpt lat="31.200254200732445" lon="121.61879705642484">
        <ele>4.089508681558073</ele>
        <time>2020-03-16T23:36:05Z</time>
      </trkpt>
      <trkpt lat="31.200171884073757" lon="121.61895695946832">
        <ele>5.34397207852453</ele>
        <time>2020-03-16T23:36:13Z</time>
      </trkpt>
      <trkpt lat="31.199942525307847" lon="121.61920088601566">
        <ele>5.872435110621154</ele>
        <time>2020-03-16T23:36:35Z</time>
      </trkpt>
      <trkpt lat="31.199705788685737" lon="121.61949792767523">
        <ele>5.182142127305269</ele>
        <time>2020-03-16T23:36:53Z</time>
      </trkpt>
      <trkpt lat="31.199447965473794" lon="121.61973317937382">
        <ele>6.033954665996134</ele>
        <time>2020-03-16T23:37:07Z</time>
      </trkpt>
      <trkpt lat="31.199230041208256" lon="121.6199266917395">
        <ele>5.888997207395732</ele>
        <time>2020-03-16T23:37:18Z</time>
      </trkpt>
      <trkpt lat="31.19917105462403" lon="121.62006897094055">
        <ele>5.748442231677473</ele>
        <time>2020-03-16T23:37:24Z</time>
      </trkpt>
      <trkpt lat="31.198993099754034" lon="121.62015462087857">
        <ele>5.339611144736409</ele>
        <time>2020-03-16T23:37:32Z</time>
      </trkpt>
      <trkpt lat="31.19895753016283" lon="121.62020259025756">
        <ele>6.066777684725821</ele>
        <time>2020-03-16T23:37:35Z</time>
      </trkpt>
      <trkpt lat="31.198790766276794" lon="121.62021805085548">
        <ele>5.4967947863042355</ele>
        <time>2020-03-16T23:37:39Z</time>
      </trkpt>
      <trkpt lat="31.19872611955859" lon="121.62032753851962">
        <ele>6.033845123834908</ele>
        <time>2020-03-16T23:37:42Z</time>
      </trkpt>
      <trkpt lat="31.1986794317492" lon="121.6203768634729">
        <ele>6.047757161781192</ele>
        <time>2020-03-16T23:37:45Z</time>
      </trkpt>
      <trkpt lat="31.198573073746115" lon="121.62044543385323">
        <ele>6.271166102960706</ele>
        <time>2020-03-16T23:37:49Z</time>
      </trkpt>
      <trkpt lat="31.198519560189663" lon="121.62053866006059">
        <ele>6.097913119010627</ele>
        <time>2020-03-16T23:37:53Z</time>
      </trkpt>
      <trkpt lat="31.198444672936883" lon="121.6205890709176">
        <ele>6.050399738363922</ele>
        <time>2020-03-16T23:37:57Z</time>
      </trkpt>
      <trkpt lat="31.19840309585649" lon="121.6206757918255">
        <ele>5.202081634663045</ele>
        <time>2020-03-16T23:38:01Z</time>
      </trkpt>
      <trkpt lat="31.19833876000809" lon="121.62074706785225">
        <ele>5.9774623941630125</ele>
        <time>2020-03-16T23:38:05Z</time>
      </trkpt>
      <trkpt lat="31.198073660856625" lon="121.62093244690664">
        <ele>6.755835482850671</ele>
        <time>2020-03-16T23:38:28Z</time>
      </trkpt>
      <trkpt lat="31.197846722427432" lon="121.62117987746038">
        <ele>6.201959076337516</ele>
        <time>2020-03-16T23:38:46Z</time>
      </trkpt>
      <trkpt lat="31.197782961636616" lon="121.62122025968397">
        <ele>7.012331481091678</ele>
        <time>2020-03-16T23:38:49Z</time>
      </trkpt>
      <trkpt lat="31.197725937669922" lon="121.62129830825997">
        <ele>6.304277021437883</ele>
        <time>2020-03-16T23:38:53Z</time>
      </trkpt>
      <trkpt lat="31.197583194516284" lon="121.62141321755347">
        <ele>5.887514715082943</ele>
        <time>2020-03-16T23:39:00Z</time>
      </trkpt>
      <trkpt lat="31.197521281842224" lon="121.62149831152767">
        <ele>5.7126102754846215</ele>
        <time>2020-03-16T23:39:04Z</time>
      </trkpt>
      <trkpt lat="31.197287629120165" lon="121.62168422466374">
        <ele>5.734333410859108</ele>
        <time>2020-03-16T23:39:15Z</time>
      </trkpt>
      <trkpt lat="31.197000757419293" lon="121.62193761468362">
        <ele>4.505999144166708</ele>
        <time>2020-03-16T23:39:30Z</time>
      </trkpt>
      <trkpt lat="31.196716355427537" lon="121.6221630915399">
        <ele>6.545021065510809</ele>
        <time>2020-03-16T23:39:50Z</time>
      </trkpt>
      <trkpt lat="31.19662245245504" lon="121.62224330820769">
        <ele>6.222003368660808</ele>
        <time>2020-03-16T23:39:58Z</time>
      </trkpt>
      <trkpt lat="31.19661934884666" lon="121.62235007263713">
        <ele>5.847185542806983</ele>
        <time>2020-03-16T23:40:05Z</time>
      </trkpt>
      <trkpt lat="31.19667873592535" lon="121.62258012410541">
        <ele>3.0845996784046292</ele>
        <time>2020-03-16T23:40:20Z</time>
      </trkpt>
      <trkpt lat="31.196747274247283" lon="121.62286707647411">
        <ele>3.588810758665204</ele>
        <time>2020-03-16T23:40:38Z</time>
      </trkpt>
      <trkpt lat="31.196749449217663" lon="121.62309631538048">
        <ele>5.147500132210553</ele>
        <time>2020-03-16T23:40:52Z</time>
      </trkpt>
      <trkpt lat="31.196815277429636" lon="121.62337811420379">
        <ele>4.470629796385765</ele>
        <time>2020-03-16T23:41:09Z</time>
      </trkpt>
      <trkpt lat="31.196820408117144" lon="121.6236268578319">
        <ele>5.672243598848581</ele>
        <time>2020-03-16T23:41:24Z</time>
      </trkpt>
      <trkpt lat="31.196913321088456" lon="121.6239286999251">
        <ele>4.442825825884938</ele>
        <time>2020-03-16T23:41:39Z</time>
      </trkpt>
      <trkpt lat="31.19693500881701" lon="121.62370217562078">
        <ele>6.406323303468525</ele>
        <time>2020-03-16T23:41:52Z</time>
      </trkpt>
      <trkpt lat="31.196895744790908" lon="121.62342877781079">
        <ele>6.441823412664235</ele>
        <time>2020-03-16T23:42:01Z</time>
      </trkpt>
      <trkpt lat="31.196906448630525" lon="121.62331795252766">
        <ele>5.921197216026485</ele>
        <time>2020-03-16T23:42:05Z</time>
      </trkpt>
      <trkpt lat="31.196855094060943" lon="121.62294619047908">
        <ele>6.138044139370322</ele>
        <time>2020-03-16T23:42:19Z</time>
      </trkpt>
      <trkpt lat="31.196832463907846" lon="121.62282046265824">
        <ele>5.524234619922936</ele>
        <time>2020-03-16T23:42:23Z</time>
      </trkpt>
      <trkpt lat="31.197068394257272" lon="121.62254567836355">
        <ele>5.2716045919805765</ele>
        <time>2020-03-16T23:42:38Z</time>
      </trkpt>
      <trkpt lat="31.19714167984906" lon="121.62247603226318">
        <ele>6.299814015626907</ele>
        <time>2020-03-16T23:42:42Z</time>
      </trkpt>
      <trkpt lat="31.197218712395355" lon="121.62244919952268">
        <ele>4.397751945070922</ele>
        <time>2020-03-16T23:42:45Z</time>
      </trkpt>
      <trkpt lat="31.19729849111372" lon="121.62239174647276">
        <ele>5.032386443577707</ele>
        <time>2020-03-16T23:42:49Z</time>
      </trkpt>
      <trkpt lat="31.19751400888683" lon="121.62218226484333">
        <ele>6.565424047410488</ele>
        <time>2020-03-16T23:43:01Z</time>
      </trkpt>
      <trkpt lat="31.197754188073908" lon="121.62198199279847">
        <ele>7.288532028906047</ele>
        <time>2020-03-16T23:43:13Z</time>
      </trkpt>
      <trkpt lat="31.19782585625442" lon="121.62190286110487">
        <ele>6.514550382271409</ele>
        <time>2020-03-16T23:43:17Z</time>
      </trkpt>
      <trkpt lat="31.19808876476059" lon="121.62174214829197">
        <ele>5.375970117747784</ele>
        <time>2020-03-16T23:43:31Z</time>
      </trkpt>
      <trkpt lat="31.198139493406575" lon="121.62171829778379">
        <ele>5.815444868057966</ele>
        <time>2020-03-16T23:43:34Z</time>
      </trkpt>
      <trkpt lat="31.198199519348453" lon="121.621623720308">
        <ele>6.020437557250261</ele>
        <time>2020-03-16T23:43:38Z</time>
      </trkpt>
      <trkpt lat="31.198335758567698" lon="121.62150664460239">
        <ele>7.691077409312129</ele>
        <time>2020-03-16T23:43:45Z</time>
      </trkpt>
      <trkpt lat="31.19844061279828" lon="121.62132887042966">
        <ele>6.110466119833291</ele>
        <time>2020-03-16T23:43:53Z</time>
      </trkpt>
      <trkpt lat="31.19853479653615" lon="121.62123781155289">
        <ele>6.969459151849151</ele>
        <time>2020-03-16T23:43:59Z</time>
      </trkpt>
      <trkpt lat="31.198813724039397" lon="121.62105378844817">
        <ele>5.955660075880587</ele>
        <time>2020-03-16T23:44:21Z</time>
      </trkpt>
      <trkpt lat="31.198945561198126" lon="121.62099334720614">
        <ele>5.8488161861896515</ele>
        <time>2020-03-16T23:44:33Z</time>
      </trkpt>
      <trkpt lat="31.199063638240936" lon="121.62087057942627">
        <ele>6.502625656314194</ele>
        <time>2020-03-16T23:44:46Z</time>
      </trkpt>
      <trkpt lat="31.199091076954456" lon="121.62082071501891">
        <ele>7.145974304527044</ele>
        <time>2020-03-16T23:44:52Z</time>
      </trkpt>
      <trkpt lat="31.19923434913182" lon="121.62071610076332">
        <ele>6.012837807647884</ele>
        <time>2020-03-16T23:45:04Z</time>
      </trkpt>
      <trkpt lat="31.199283712252985" lon="121.62070065017475">
        <ele>5.748465554788709</ele>
        <time>2020-03-16T23:45:08Z</time>
      </trkpt>
      <trkpt lat="31.19949731669627" lon="121.62074615901022">
        <ele>6.144898785278201</ele>
        <time>2020-03-16T23:45:22Z</time>
      </trkpt>
      <trkpt lat="31.199587618467127" lon="121.62073314397115">
        <ele>5.620127963833511</ele>
        <time>2020-03-16T23:45:26Z</time>
      </trkpt>
      <trkpt lat="31.199688734801768" lon="121.6207485820882">
        <ele>6.05559210665524</ele>
        <time>2020-03-16T23:45:36Z</time>
      </trkpt>
      <trkpt lat="31.19992274273318" lon="121.62073094831084">
        <ele>6.18529417924583</ele>
        <time>2020-03-16T23:45:50Z</time>
      </trkpt>
      <trkpt lat="31.20020769755584" lon="121.62073769950575">
        <ele>5.655626683495939</ele>
        <time>2020-03-16T23:46:08Z</time>
      </trkpt>
      <trkpt lat="31.200340051589485" lon="121.62070029177019">
        <ele>6.452096965163946</ele>
        <time>2020-03-16T23:46:15Z</time>
      </trkpt>
      <trkpt lat="31.200444354991195" lon="121.6207772445757">
        <ele>3.4748743725940585</ele>
        <time>2020-03-16T23:46:26Z</time>
      </trkpt>
      <trkpt lat="31.20057552347231" lon="121.6208330577201">
        <ele>4.833449798636138</ele>
        <time>2020-03-16T23:46:38Z</time>
      </trkpt>
      <trkpt lat="31.200635376723294" lon="121.62089510940295">
        <ele>4.818317206576467</ele>
        <time>2020-03-16T23:46:45Z</time>
      </trkpt>
      <trkpt lat="31.20083433895814" lon="121.62094143207646">
        <ele>4.914438905194402</ele>
        <time>2020-03-16T23:47:00Z</time>
      </trkpt>
      <trkpt lat="31.200922464753088" lon="121.62093492104958">
        <ele>3.898597697727382</ele>
        <time>2020-03-16T23:47:07Z</time>
      </trkpt>
      <trkpt lat="31.200992651077573" lon="121.62096933081439">
        <ele>3.9618439320474863</ele>
        <time>2020-03-16T23:47:13Z</time>
      </trkpt>
      <trkpt lat="31.20110707487185" lon="121.62096471453853">
        <ele>4.036980212666094</ele>
        <time>2020-03-16T23:47:20Z</time>
      </trkpt>
      <trkpt lat="31.201182129168696" lon="121.62101050536653">
        <ele>4.716949971392751</ele>
        <time>2020-03-16T23:47:24Z</time>
      </trkpt>
      <trkpt lat="31.201490368340608" lon="121.62104787619653">
        <ele>4.0536781987175345</ele>
        <time>2020-03-16T23:47:35Z</time>
      </trkpt>
      <trkpt lat="31.201836543854363" lon="121.6211058388666">
        <ele>3.909382415935397</ele>
        <time>2020-03-16T23:47:48Z</time>
      </trkpt>
      <trkpt lat="31.20215805708816" lon="121.62115377694383">
        <ele>4.407341039739549</ele>
        <time>2020-03-16T23:47:59Z</time>
      </trkpt>
      <trkpt lat="31.20239741290261" lon="121.6212049735668">
        <ele>3.2269462943077087</ele>
        <time>2020-03-16T23:48:09Z</time>
      </trkpt>
      <trkpt lat="31.202439018074568" lon="121.6210941365531">
        <ele>3.9424043437466025</ele>
        <time>2020-03-16T23:48:13Z</time>
      </trkpt>
      <trkpt lat="31.202425036646126" lon="121.62098655553402">
        <ele>4.782968471758068</ele>
        <time>2020-03-16T23:48:17Z</time>
      </trkpt>
      <trkpt lat="31.202383695548125" lon="121.62085567122969">
        <ele>3.936900731176138</ele>
        <time>2020-03-16T23:48:21Z</time>
      </trkpt>
      <trkpt lat="31.20240145281478" lon="121.62048115923412">
        <ele>3.469204227440059</ele>
        <time>2020-03-16T23:48:31Z</time>
      </trkpt>
      <trkpt lat="31.202405633169235" lon="121.620375471153">
        <ele>4.363572076894343</ele>
        <time>2020-03-16T23:48:34Z</time>
      </trkpt>
      <trkpt lat="31.20242441218555" lon="121.62030934679746">
        <ele>4.200357528403401</ele>
        <time>2020-03-16T23:48:38Z</time>
      </trkpt>
      <trkpt lat="31.202417875697016" lon="121.62033671786268">
        <ele>4.542951597832143</ele>
        <time>2020-03-16T23:49:01Z</time>
      </trkpt>
      <trkpt lat="31.20241489205481" lon="121.62033780209016">
        <ele>4.491997191682458</ele>
        <time>2020-03-16T23:49:03Z</time>
      </trkpt>
      <trkpt lat="31.202485082639292" lon="121.62036896070352">
        <ele>4.503492153249681</ele>
        <time>2020-03-16T23:49:25Z</time>
      </trkpt>
      <trkpt lat="31.20268979961785" lon="121.62035945894199">
        <ele>4.467857303097844</ele>
        <time>2020-03-16T23:49:35Z</time>
      </trkpt>
      <trkpt lat="31.20278719383411" lon="121.62030633582563">
        <ele>3.1311551025137305</ele>
        <time>2020-03-16T23:49:39Z</time>
      </trkpt>
      <trkpt lat="31.2028360963979" lon="121.62021419315775">
        <ele>4.287313768640161</ele>
        <time>2020-03-16T23:49:43Z</time>
      </trkpt>
      <trkpt lat="31.20278827250147" lon="121.62005701871173">
        <ele>4.761564294807613</ele>
        <time>2020-03-16T23:49:50Z</time>
      </trkpt>
      <trkpt lat="31.20276731782598" lon="121.61987355410044">
        <ele>4.7413983987644315</ele>
        <time>2020-03-16T23:50:01Z</time>
      </trkpt>
      <trkpt lat="31.20272895739293" lon="121.61973968292871">
        <ele>5.239098963327706</ele>
        <time>2020-03-16T23:50:09Z</time>
      </trkpt>
      <trkpt lat="31.202726081324528" lon="121.61963805743896">
        <ele>5.786163417622447</ele>
        <time>2020-03-16T23:50:15Z</time>
      </trkpt>
      <trkpt lat="31.202651219948947" lon="121.61940472943986">
        <ele>4.684647438116372</ele>
        <time>2020-03-16T23:50:29Z</time>
      </trkpt>
      <trkpt lat="31.202588065954483" lon="121.61912234595401">
        <ele>3.8333315514028072</ele>
        <time>2020-03-16T23:50:44Z</time>
      </trkpt>
      <trkpt lat="31.202567633821968" lon="121.61895242509854">
        <ele>4.1161706037819386</ele>
        <time>2020-03-16T23:50:51Z</time>
      </trkpt>
      <trkpt lat="31.20251355821034" lon="121.61880391579486">
        <ele>4.510358547791839</ele>
        <time>2020-03-16T23:50:57Z</time>
      </trkpt>
      <trkpt lat="31.20252992916328" lon="121.6187025559977">
        <ele>3.8777768639847636</ele>
        <time>2020-03-16T23:51:01Z</time>
      </trkpt>
      <trkpt lat="31.202646883683176" lon="121.61860823382305">
        <ele>4.92078136280179</ele>
        <time>2020-03-16T23:51:08Z</time>
      </trkpt>
      <trkpt lat="31.202677024502428" lon="121.61856378508752">
        <ele>5.406219614669681</ele>
        <time>2020-03-16T23:51:11Z</time>
      </trkpt>
      <trkpt lat="31.202752162732597" lon="121.61853017312399">
        <ele>4.552866987884045</ele>
        <time>2020-03-16T23:51:15Z</time>
      </trkpt>
      <trkpt lat="31.202816127553028" lon="121.6182827305907">
        <ele>5.597361391410232</ele>
        <time>2020-03-16T23:51:23Z</time>
      </trkpt>
      <trkpt lat="31.202759964048944" lon="121.61804884653789">
        <ele>4.733775596134365</ele>
        <time>2020-03-16T23:51:35Z</time>
      </trkpt>
      <trkpt lat="31.202722339559486" lon="121.61798488897755">
        <ele>5.143124972470105</ele>
        <time>2020-03-16T23:51:39Z</time>
      </trkpt>
      <trkpt lat="31.202719974216187" lon="121.61790900341701">
        <ele>4.4660099083557725</ele>
        <time>2020-03-16T23:51:42Z</time>
      </trkpt>
      <trkpt lat="31.202642240359655" lon="121.61782580627181">
        <ele>4.667725184932351</ele>
        <time>2020-03-16T23:51:45Z</time>
      </trkpt>
      <trkpt lat="31.20257301873846" lon="121.61763284367963">
        <ele>4.24640881922096</ele>
        <time>2020-03-16T23:51:52Z</time>
      </trkpt>
      <trkpt lat="31.202560937437994" lon="121.61750979949322">
        <ele>4.500885624438524</ele>
        <time>2020-03-16T23:51:56Z</time>
      </trkpt>
      <trkpt lat="31.202512548936316" lon="121.61736046810208">
        <ele>4.763626174069941</ele>
        <time>2020-03-16T23:52:02Z</time>
      </trkpt>
      <trkpt lat="31.202464072021733" lon="121.61730220125189">
        <ele>5.31178078148514</ele>
        <time>2020-03-16T23:52:06Z</time>
      </trkpt>
      <trkpt lat="31.202498308574235" lon="121.6172257685256">
        <ele>4.874371464364231</ele>
        <time>2020-03-16T23:52:12Z</time>
      </trkpt>
      <trkpt lat="31.2026058195592" lon="121.61707804870697">
        <ele>4.981560788117349</ele>
        <time>2020-03-16T23:52:24Z</time>
      </trkpt>
      <trkpt lat="31.20273633782654" lon="121.61697070978543">
        <ele>5.767834801226854</ele>
        <time>2020-03-16T23:52:34Z</time>
      </trkpt>
      <trkpt lat="31.202771909598187" lon="121.61691487435088">
        <ele>5.588186223059893</ele>
        <time>2020-03-16T23:52:38Z</time>
      </trkpt>
      <trkpt lat="31.202858177837488" lon="121.61686499730925">
        <ele>3.829065727069974</ele>
        <time>2020-03-16T23:52:45Z</time>
      </trkpt>
      <trkpt lat="31.202919193734" lon="121.61685387993245">
        <ele>4.983111795969307</ele>
        <time>2020-03-16T23:52:49Z</time>
      </trkpt>
      <trkpt lat="31.20306682336494" lon="121.61671401455746">
        <ele>5.5536434492096305</ele>
        <time>2020-03-16T23:53:00Z</time>
      </trkpt>
      <trkpt lat="31.203138153323234" lon="121.61669124178796">
        <ele>5.181992198340595</ele>
        <time>2020-03-16T23:53:04Z</time>
      </trkpt>
      <trkpt lat="31.203227139165286" lon="121.6166343171618">
        <ele>4.899938954971731</ele>
        <time>2020-03-16T23:53:08Z</time>
      </trkpt>
      <trkpt lat="31.20327003931395" lon="121.61656953618386">
        <ele>5.576969954185188</ele>
        <time>2020-03-16T23:53:11Z</time>
      </trkpt>
      <trkpt lat="31.203522107087778" lon="121.61637328475426">
        <ele>5.184537400491536</ele>
        <time>2020-03-16T23:53:22Z</time>
      </trkpt>
      <trkpt lat="31.20360379631306" lon="121.61628979821302">
        <ele>4.668826592154801</ele>
        <time>2020-03-16T23:53:26Z</time>
      </trkpt>
      <trkpt lat="31.203866445184854" lon="121.61608405723027">
        <ele>6.198199234902859</ele>
        <time>2020-03-16T23:53:41Z</time>
      </trkpt>
      <trkpt lat="31.203918267640137" lon="121.61604529404877">
        <ele>6.288534628227353</ele>
        <time>2020-03-16T23:53:45Z</time>
      </trkpt>
      <trkpt lat="31.20393210399951" lon="121.61603607749362">
        <ele>6.506294966675341</ele>
        <time>2020-03-16T23:53:46Z</time>
      </trkpt>
      <trkpt lat="31.203981203601955" lon="121.61600978238862">
        <ele>6.845117194578052</ele>
        <time>2020-03-16T23:53:50Z</time>
      </trkpt>
      <trkpt lat="31.204127601934193" lon="121.6160257617426">
        <ele>6.699873310513794</ele>
        <time>2020-03-16T23:54:00Z</time>
      </trkpt>
      <trkpt lat="31.204178328843398" lon="121.615998924408">
        <ele>6.183100097812712</ele>
        <time>2020-03-16T23:54:04Z</time>
      </trkpt>
      <trkpt lat="31.204256394902334" lon="121.6160216854645">
        <ele>7.282946107909083</ele>
        <time>2020-03-16T23:54:10Z</time>
      </trkpt>
      <trkpt lat="31.204430548787" lon="121.61622359629013">
        <ele>4.952230527997017</ele>
        <time>2020-03-16T23:54:24Z</time>
      </trkpt>
      <trkpt lat="31.20451962708591" lon="121.61635856619765">
        <ele>5.283303072676063</ele>
        <time>2020-03-16T23:54:30Z</time>
      </trkpt>
      <trkpt lat="31.20453649111067" lon="121.61630083364953">
        <ele>6.338807345367968</ele>
        <time>2020-03-16T23:54:34Z</time>
      </trkpt>
      <trkpt lat="31.20451759850971" lon="121.61620705567732">
        <ele>7.094266556203365</ele>
        <time>2020-03-16T23:54:37Z</time>
      </trkpt>
      <trkpt lat="31.20446156330215" lon="121.61610975688777">
        <ele>6.888163670897484</ele>
        <time>2020-03-16T23:54:41Z</time>
      </trkpt>
      <trkpt lat="31.204217743908693" lon="121.61588914890808">
        <ele>7.215620305389166</ele>
        <time>2020-03-16T23:54:55Z</time>
      </trkpt>
      <trkpt lat="31.204013806401754" lon="121.61563899163134">
        <ele>6.708986399695277</ele>
        <time>2020-03-16T23:55:11Z</time>
      </trkpt>
      <trkpt lat="31.20391277249096" lon="121.61552868402386">
        <ele>7.047949317842722</ele>
        <time>2020-03-16T23:55:21Z</time>
      </trkpt>
      <trkpt lat="31.203730699077592" lon="121.61538450153499">
        <ele>5.687702818773687</ele>
        <time>2020-03-16T23:55:36Z</time>
      </trkpt>
      <trkpt lat="31.203702546815826" lon="121.61533327557976">
        <ele>6.063994851894677</ele>
        <time>2020-03-16T23:55:40Z</time>
      </trkpt>
      <trkpt lat="31.203557829055892" lon="121.61525658044418">
        <ele>5.848949184641242</ele>
        <time>2020-03-16T23:56:02Z</time>
      </trkpt>
      <trkpt lat="31.203595834965935" lon="121.61520372244016">
        <ele>6.977387189865112</ele>
        <time>2020-03-16T23:56:04Z</time>
      </trkpt>
      <trkpt lat="31.203670190889376" lon="121.61513053244565">
        <ele>6.891530438326299</ele>
        <time>2020-03-16T23:56:08Z</time>
      </trkpt>
      <trkpt lat="31.203767913242736" lon="121.61500177446601">
        <ele>5.239682438783348</ele>
        <time>2020-03-16T23:56:15Z</time>
      </trkpt>
      <trkpt lat="31.203850744161752" lon="121.61484835104636">
        <ele>6.244857706129551</ele>
        <time>2020-03-16T23:56:23Z</time>
      </trkpt>
      <trkpt lat="31.20405848796259" lon="121.61478626221847">
        <ele>5.414371996186674</ele>
        <time>2020-03-16T23:56:33Z</time>
      </trkpt>
      <trkpt lat="31.204143585105875" lon="121.61483125036463">
        <ele>4.2225865898653865</ele>
        <time>2020-03-16T23:56:37Z</time>
      </trkpt>
      <trkpt lat="31.204241111608475" lon="121.61492502716936">
        <ele>5.020807947963476</ele>
        <time>2020-03-16T23:56:41Z</time>
      </trkpt>
      <trkpt lat="31.20435566070343" lon="121.61508521007973">
        <ele>5.3340106178075075</ele>
        <time>2020-03-16T23:56:49Z</time>
      </trkpt>
      <trkpt lat="31.204432404202187" lon="121.61507138006655">
        <ele>6.129749095998704</ele>
        <time>2020-03-16T23:56:57Z</time>
      </trkpt>
      <trkpt lat="31.2044590237722" lon="121.61501662522694">
        <ele>5.8020979361608624</ele>
        <time>2020-03-16T23:57:00Z</time>
      </trkpt>
      <trkpt lat="31.20450732070535" lon="121.61497704746594">
        <ele>5.996739061549306</ele>
        <time>2020-03-16T23:57:04Z</time>
      </trkpt>
      <trkpt lat="31.204623631077567" lon="121.61498462734107">
        <ele>7.188280334696174</ele>
        <time>2020-03-16T23:57:12Z</time>
      </trkpt>
      <trkpt lat="31.204671975553936" lon="121.61489083870607">
        <ele>6.8008056953549385</ele>
        <time>2020-03-16T23:57:18Z</time>
      </trkpt>
      <trkpt lat="31.20473087456903" lon="121.61481927536819">
        <ele>6.099370743148029</ele>
        <time>2020-03-16T23:57:32Z</time>
      </trkpt>
      <trkpt lat="31.204928581010396" lon="121.61476342158028">
        <ele>5.709620057605207</ele>
        <time>2020-03-16T23:57:50Z</time>
      </trkpt>
      <trkpt lat="31.205012682331404" lon="121.61470676388824">
        <ele>6.6192308049649</ele>
        <time>2020-03-16T23:57:56Z</time>
      </trkpt>
      <trkpt lat="31.205118291502757" lon="121.61454818658896">
        <ele>6.709103308618069</ele>
        <time>2020-03-16T23:58:06Z</time>
      </trkpt>
      <trkpt lat="31.20521461426993" lon="121.61446740311976">
        <ele>7.0789217026904225</ele>
        <time>2020-03-16T23:58:13Z</time>
      </trkpt>
      <trkpt lat="31.205373566311717" lon="121.6143898669185">
        <ele>6.185935351066291</ele>
        <time>2020-03-16T23:58:21Z</time>
      </trkpt>
      <trkpt lat="31.205471295476134" lon="121.61424917824078">
        <ele>6.610685041174293</ele>
        <time>2020-03-16T23:58:28Z</time>
      </trkpt>
      <trkpt lat="31.205549703299017" lon="121.61419089342394">
        <ele>6.7989607797935605</ele>
        <time>2020-03-16T23:58:32Z</time>
      </trkpt>
      <trkpt lat="31.205689115583294" lon="121.61413368767104">
        <ele>6.264972701668739</ele>
        <time>2020-03-16T23:58:39Z</time>
      </trkpt>
      <trkpt lat="31.205922509321304" lon="121.61387642818981">
        <ele>5.528433667495847</ele>
        <time>2020-03-16T23:58:50Z</time>
      </trkpt>
      <trkpt lat="31.206083458779837" lon="121.6136777227104">
        <ele>7.222084094770253</ele>
        <time>2020-03-16T23:59:00Z</time>
      </trkpt>
      <trkpt lat="31.206294742352345" lon="121.61359475821675">
        <ele>6.742512421682477</ele>
        <time>2020-03-16T23:59:12Z</time>
      </trkpt>
      <trkpt lat="31.206285295686087" lon="121.61354271365924">
        <ele>7.298926313407719</ele>
        <time>2020-03-16T23:59:15Z</time>
      </trkpt>
      <trkpt lat="31.206239771316334" lon="121.61351073116913">
        <ele>7.613796255551279</ele>
        <time>2020-03-16T23:59:19Z</time>
      </trkpt>
      <trkpt lat="31.206078097874748" lon="121.6132738280424">
        <ele>7.18747950065881</ele>
        <time>2020-03-16T23:59:40Z</time>
      </trkpt>
      <trkpt lat="31.2060282332523" lon="121.6132440141309">
        <ele>8.05683050211519</ele>
        <time>2020-03-16T23:59:44Z</time>
      </trkpt>
      <trkpt lat="31.2059212422466" lon="121.61311173887482">
        <ele>7.103866265155375</ele>
        <time>2020-03-16T23:59:55Z</time>
      </trkpt>
      <trkpt lat="31.205771087754606" lon="121.6130442535818">
        <ele>6.819484066218138</ele>
        <time>2020-03-17T00:00:05Z</time>
      </trkpt>
      <trkpt lat="31.20568729349128" lon="121.61306079611228">
        <ele>6.557686039246619</ele>
        <time>2020-03-17T00:00:09Z</time>
      </trkpt>
      <trkpt lat="31.205613549440635" lon="121.61305483855202">
        <ele>6.350311424583197</ele>
        <time>2020-03-17T00:00:13Z</time>
      </trkpt>
      <trkpt lat="31.205535767697548" lon="121.61301255718202">
        <ele>6.216657269746065</ele>
        <time>2020-03-17T00:00:17Z</time>
      </trkpt>
      <trkpt lat="31.205477799077375" lon="121.61294506397951">
        <ele>5.813807976432145</ele>
        <time>2020-03-17T00:00:20Z</time>
      </trkpt>
      <trkpt lat="31.205382964769928" lon="121.61286645945172">
        <ele>5.696365250274539</ele>
        <time>2020-03-17T00:00:27Z</time>
      </trkpt>
      <trkpt lat="31.205385178768083" lon="121.61281034613957">
        <ele>7.241164873354137</ele>
        <time>2020-03-17T00:00:31Z</time>
      </trkpt>
      <trkpt lat="31.205350500921504" lon="121.61277592204459">
        <ele>8.424761436879635</ele>
        <time>2020-03-17T00:00:38Z</time>
      </trkpt>
      <trkpt lat="31.205326913647927" lon="121.61277402644437">
        <ele>7.955752219073474</ele>
        <time>2020-03-17T00:00:49Z</time>
      </trkpt>
      <trkpt lat="31.205325821749497" lon="121.61278324320749">
        <ele>8.138863517902792</ele>
        <time>2020-03-17T00:00:57Z</time>
      </trkpt>
      <trkpt lat="31.205450860602767" lon="121.61272630630148">
        <ele>7.326815949752927</ele>
        <time>2020-03-17T00:01:04Z</time>
      </trkpt>
      <trkpt lat="31.20548429187355" lon="121.61262356428604">
        <ele>7.827965187840164</ele>
        <time>2020-03-17T00:01:08Z</time>
      </trkpt>
      <trkpt lat="31.205467265228982" lon="121.61255416900393">
        <ele>7.183707173913717</ele>
        <time>2020-03-17T00:01:12Z</time>
      </trkpt>
      <trkpt lat="31.205676201492434" lon="121.61234812908445">
        <ele>5.841902839951217</ele>
        <time>2020-03-17T00:01:23Z</time>
      </trkpt>
      <trkpt lat="31.205878129410326" lon="121.61208678629812">
        <ele>7.474699000827968</ele>
        <time>2020-03-17T00:01:37Z</time>
      </trkpt>
      <trkpt lat="31.205941347479445" lon="121.61203039497181">
        <ele>6.6774516543373466</ele>
        <time>2020-03-17T00:01:41Z</time>
      </trkpt>
      <trkpt lat="31.20605997150671" lon="121.61185065355409">
        <ele>5.7760398937389255</ele>
        <time>2020-03-17T00:01:48Z</time>
      </trkpt>
      <trkpt lat="31.20623364428748" lon="121.61165843596916">
        <ele>6.3001418663188815</ele>
        <time>2020-03-17T00:01:58Z</time>
      </trkpt>
      <trkpt lat="31.20642222409175" lon="121.611471637426">
        <ele>8.02819027658552</ele>
        <time>2020-03-17T00:02:09Z</time>
      </trkpt>
      <trkpt lat="31.2063919457017" lon="121.61135262939041">
        <ele>7.409761485643685</ele>
        <time>2020-03-17T00:02:16Z</time>
      </trkpt>
      <trkpt lat="31.206362224468087" lon="121.61121274623315">
        <ele>8.23211263306439</ele>
        <time>2020-03-17T00:02:23Z</time>
      </trkpt>
      <trkpt lat="31.206292075406537" lon="121.61111081934139">
        <ele>7.206336178816855</ele>
        <time>2020-03-17T00:02:30Z</time>
      </trkpt>
      <trkpt lat="31.206153620939393" lon="121.61097988998844">
        <ele>8.14281793590635</ele>
        <time>2020-03-17T00:02:45Z</time>
      </trkpt>
      <trkpt lat="31.20609621887877" lon="121.61087172568098">
        <ele>8.112286174669862</ele>
        <time>2020-03-17T00:02:52Z</time>
      </trkpt>
      <trkpt lat="31.20586295394906" lon="121.61061799299166">
        <ele>7.712825790047646</ele>
        <time>2020-03-17T00:03:12Z</time>
      </trkpt>
      <trkpt lat="31.205749184824988" lon="121.610466725835">
        <ele>8.039079460315406</ele>
        <time>2020-03-17T00:03:23Z</time>
      </trkpt>
      <trkpt lat="31.205636983103933" lon="121.61039841633296">
        <ele>7.267089003697038</ele>
        <time>2020-03-17T00:03:31Z</time>
      </trkpt>
      <trkpt lat="31.20553135153512" lon="121.61024036932632">
        <ele>7.3310217671096325</ele>
        <time>2020-03-17T00:03:45Z</time>
      </trkpt>
      <trkpt lat="31.20548397653903" lon="121.61013491176725">
        <ele>8.1994669418782</ele>
        <time>2020-03-17T00:03:53Z</time>
      </trkpt>
      <trkpt lat="31.20539129647349" lon="121.61006551520755">
        <ele>8.331899373792112</ele>
        <time>2020-03-17T00:03:59Z</time>
      </trkpt>
      <trkpt lat="31.205310187368738" lon="121.61012245507854">
        <ele>8.061449415050447</ele>
        <time>2020-03-17T00:04:09Z</time>
      </trkpt>
      <trkpt lat="31.205276783202866" lon="121.61020053737745">
        <ele>7.6221003122627735</ele>
        <time>2020-03-17T00:04:12Z</time>
      </trkpt>
      <trkpt lat="31.205214648723246" lon="121.61026398193985">
        <ele>7.733132570050657</ele>
        <time>2020-03-17T00:04:15Z</time>
      </trkpt>
      <trkpt lat="31.205155452004146" lon="121.61039059404577">
        <ele>6.087320168502629</ele>
        <time>2020-03-17T00:04:22Z</time>
      </trkpt>
      <trkpt lat="31.2050876134081" lon="121.61046786495008">
        <ele>5.5918827736750245</ele>
        <time>2020-03-17T00:04:29Z</time>
      </trkpt>
      <trkpt lat="31.204779469342565" lon="121.61065603709886">
        <ele>8.6645697215572</ele>
        <time>2020-03-17T00:04:56Z</time>
      </trkpt>
      <trkpt lat="31.204672588828444" lon="121.61073005709638">
        <ele>8.740811767987907</ele>
        <time>2020-03-17T00:05:04Z</time>
      </trkpt>
      <trkpt lat="31.204585850095082" lon="121.6106959052991">
        <ele>8.264271127060056</ele>
        <time>2020-03-17T00:05:11Z</time>
      </trkpt>
      <trkpt lat="31.204390741347225" lon="121.61054410317266">
        <ele>6.610054841265082</ele>
        <time>2020-03-17T00:05:28Z</time>
      </trkpt>
      <trkpt lat="31.204421928473714" lon="121.61053488302493">
        <ele>9.603122216649354</ele>
        <time>2020-03-17T00:05:39Z</time>
      </trkpt>
    </trkseg>
  </trk>
</gpx>