<?xml version="1.0" encoding="UTF-8"?>
<gpx xmlns="http://www.topografix.com/GPX/1/1" xmlns:gpxtpx="http://www.garmin.com/xmlschemas/TrackPointExtension/v1" xmlns:xsi="http://www.w3.org/2001/XMLSchema-instance" xsi:schemaLocation="http://www.topografix.com/GPX/1/1 http://www.topografix.com/GPX/1/1/gpx.xsd" version="1.1" creator="gpx.py -- https://github.com/tkrajina/gpxpy">
  <trk>
    <name>gpx from keep</name>
    <type>Run</type>
    <trkseg>
      <trkpt lat="31.20421623550325" lon="121.61114731808767">
        <ele>8.15926742553711</ele>
        <time>2019-05-31T22:44:55Z</time>
      </trkpt>
      <trkpt lat="31.204209185188823" lon="121.61114840306155">
        <ele>8.45479965209961</ele>
        <time>2019-05-31T22:44:58Z</time>
      </trkpt>
      <trkpt lat="31.2041692895411" lon="121.61120099926258">
        <ele>6.999538421630859</ele>
        <time>2019-05-31T22:45:03Z</time>
      </trkpt>
      <trkpt lat="31.204129642231525" lon="121.61128422920667">
        <ele>6.084499359130859</ele>
        <time>2019-05-31T22:45:14Z</time>
      </trkpt>
      <trkpt lat="31.20414014437532" lon="121.61138128055141">
        <ele>6.062587738037109</ele>
        <time>2019-05-31T22:45:18Z</time>
      </trkpt>
      <trkpt lat="31.204185646333713" lon="121.61144661059">
        <ele>5.972927093505859</ele>
        <time>2019-05-31T22:45:21Z</time>
      </trkpt>
      <trkpt lat="31.204242980564832" lon="121.6116415217683">
        <ele>5.590908050537109</ele>
        <time>2019-05-31T22:45:29Z</time>
      </trkpt>
      <trkpt lat="31.204365143587022" lon="121.61179847335633">
        <ele>5.646876774233416</ele>
        <time>2019-05-31T22:45:36Z</time>
      </trkpt>
      <trkpt lat="31.204599496749015" lon="121.61203213244136">
        <ele>5.555294039738108</ele>
        <time>2019-05-31T22:45:49Z</time>
      </trkpt>
      <trkpt lat="31.204822435688513" lon="121.61229723589841">
        <ele>5.615397027946148</ele>
        <time>2019-05-31T22:46:00Z</time>
      </trkpt>
      <trkpt lat="31.205080108793624" lon="121.61252248449107">
        <ele>5.395701017646079</ele>
        <time>2019-05-31T22:46:12Z</time>
      </trkpt>
      <trkpt lat="31.205259981428917" lon="121.61272605100548">
        <ele>5.8937090252053075</ele>
        <time>2019-05-31T22:46:22Z</time>
      </trkpt>
      <trkpt lat="31.20526290987524" lon="121.61279382047091">
        <ele>5.739372380806611</ele>
        <time>2019-05-31T22:46:25Z</time>
      </trkpt>
      <trkpt lat="31.205062307296227" lon="121.61308416025986">
        <ele>5.635975217755142</ele>
        <time>2019-05-31T22:46:36Z</time>
      </trkpt>
      <trkpt lat="31.205000397760493" lon="121.61319584804164">
        <ele>5.581515454071042</ele>
        <time>2019-05-31T22:46:40Z</time>
      </trkpt>
      <trkpt lat="31.204832995903473" lon="121.61333221159819">
        <ele>5.530003251064617</ele>
        <time>2019-05-31T22:46:47Z</time>
      </trkpt>
      <trkpt lat="31.20465152669797" lon="121.6134292702524">
        <ele>5.506182479365247</ele>
        <time>2019-05-31T22:46:58Z</time>
      </trkpt>
      <trkpt lat="31.204610256730735" lon="121.61349893883053">
        <ele>5.329200354181214</ele>
        <time>2019-05-31T22:47:01Z</time>
      </trkpt>
      <trkpt lat="31.20444286170985" lon="121.6136252710852">
        <ele>5.710576820460059</ele>
        <time>2019-05-31T22:47:09Z</time>
      </trkpt>
      <trkpt lat="31.204212138044625" lon="121.61393484873682">
        <ele>5.953439553459351</ele>
        <time>2019-05-31T22:47:24Z</time>
      </trkpt>
      <trkpt lat="31.204016481406377" lon="121.61413382599395">
        <ele>5.889131937697879</ele>
        <time>2019-05-31T22:47:35Z</time>
      </trkpt>
      <trkpt lat="31.203990578998397" lon="121.6143035129683">
        <ele>5.952201270743156</ele>
        <time>2019-05-31T22:47:45Z</time>
      </trkpt>
      <trkpt lat="31.203774022630792" lon="121.61452525779536">
        <ele>6.168678741938276</ele>
        <time>2019-05-31T22:47:56Z</time>
      </trkpt>
      <trkpt lat="31.203592187963334" lon="121.61472612636723">
        <ele>6.082900925368424</ele>
        <time>2019-05-31T22:48:07Z</time>
      </trkpt>
      <trkpt lat="31.20345791488142" lon="121.61479634094047">
        <ele>6.052506574437654</ele>
        <time>2019-05-31T22:48:17Z</time>
      </trkpt>
      <trkpt lat="31.203324688154787" lon="121.61490992392977">
        <ele>6.077243140453238</ele>
        <time>2019-05-31T22:48:24Z</time>
      </trkpt>
      <trkpt lat="31.203302119156508" lon="121.61498365242046">
        <ele>6.184903639661808</ele>
        <time>2019-05-31T22:48:28Z</time>
      </trkpt>
      <trkpt lat="31.20331398602286" lon="121.61505520941654">
        <ele>6.538345348823629</ele>
        <time>2019-05-31T22:48:37Z</time>
      </trkpt>
      <trkpt lat="31.203309626556095" lon="121.61507933344112">
        <ele>6.17238105054086</ele>
        <time>2019-05-31T22:48:44Z</time>
      </trkpt>
      <trkpt lat="31.20332668985246" lon="121.61509993199354">
        <ele>5.838774931386428</ele>
        <time>2019-05-31T22:49:14Z</time>
      </trkpt>
      <trkpt lat="31.20333048454437" lon="121.61510128693986">
        <ele>5.807329843716236</ele>
        <time>2019-05-31T22:49:17Z</time>
      </trkpt>
      <trkpt lat="31.203312867238772" lon="121.61509396999116">
        <ele>4.611106030807516</ele>
        <time>2019-05-31T22:49:34Z</time>
      </trkpt>
      <trkpt lat="31.203328044568753" lon="121.61510101608962">
        <ele>4.48280938977215</ele>
        <time>2019-05-31T22:49:36Z</time>
      </trkpt>
      <trkpt lat="31.20346864828212" lon="121.61523110908085">
        <ele>4.645488056803462</ele>
        <time>2019-05-31T22:49:49Z</time>
      </trkpt>
      <trkpt lat="31.203529301405748" lon="121.61532217687976">
        <ele>4.416926074339198</ele>
        <time>2019-05-31T22:49:53Z</time>
      </trkpt>
      <trkpt lat="31.203493454165134" lon="121.6153864184982">
        <ele>4.799670004312315</ele>
        <time>2019-05-31T22:49:56Z</time>
      </trkpt>
      <trkpt lat="31.203270413399174" lon="121.61557318885363">
        <ele>4.285004135416756</ele>
        <time>2019-05-31T22:50:07Z</time>
      </trkpt>
      <trkpt lat="31.203034313056794" lon="121.61580820474339">
        <ele>4.641688041167146</ele>
        <time>2019-05-31T22:50:20Z</time>
      </trkpt>
      <trkpt lat="31.202806896538142" lon="121.61603291806206">
        <ele>4.828862244498893</ele>
        <time>2019-05-31T22:50:32Z</time>
      </trkpt>
      <trkpt lat="31.202565050770268" lon="121.6163194273339">
        <ele>5.185994836883555</ele>
        <time>2019-05-31T22:50:47Z</time>
      </trkpt>
      <trkpt lat="31.202366978177896" lon="121.61647420615309">
        <ele>5.386183302348666</ele>
        <time>2019-05-31T22:50:57Z</time>
      </trkpt>
      <trkpt lat="31.20217616112445" lon="121.61669728411327">
        <ele>4.882598796439201</ele>
        <time>2019-05-31T22:51:08Z</time>
      </trkpt>
      <trkpt lat="31.20193512954415" lon="121.61697592565181">
        <ele>5.122885773268223</ele>
        <time>2019-05-31T22:51:22Z</time>
      </trkpt>
      <trkpt lat="31.20189981225356" lon="121.61704910687622">
        <ele>5.059382943945643</ele>
        <time>2019-05-31T22:51:26Z</time>
      </trkpt>
      <trkpt lat="31.201781190945496" lon="121.61719059412634">
        <ele>5.319324407958938</ele>
        <time>2019-05-31T22:51:36Z</time>
      </trkpt>
      <trkpt lat="31.20148513655338" lon="121.61744619745588">
        <ele>4.969926206817426</ele>
        <time>2019-05-31T22:51:48Z</time>
      </trkpt>
      <trkpt lat="31.20125528812678" lon="121.61764921411938">
        <ele>4.9760178469403336</ele>
        <time>2019-05-31T22:51:59Z</time>
      </trkpt>
      <trkpt lat="31.201170345118047" lon="121.61772890201446">
        <ele>4.720822419489238</ele>
        <time>2019-05-31T22:52:02Z</time>
      </trkpt>
      <trkpt lat="31.201019095926846" lon="121.61796009601483">
        <ele>5.101124330222721</ele>
        <time>2019-05-31T22:52:12Z</time>
      </trkpt>
      <trkpt lat="31.20082283682205" lon="121.61819102058602">
        <ele>5.049171302624085</ele>
        <time>2019-05-31T22:52:23Z</time>
      </trkpt>
      <trkpt lat="31.20059427524321" lon="121.618457448705">
        <ele>4.970055100987253</ele>
        <time>2019-05-31T22:52:36Z</time>
      </trkpt>
      <trkpt lat="31.200375714615284" lon="121.6187520584365">
        <ele>4.917085962229226</ele>
        <time>2019-05-31T22:52:50Z</time>
      </trkpt>
      <trkpt lat="31.200125987505306" lon="121.61903013578232">
        <ele>4.578605144994601</ele>
        <time>2019-05-31T22:53:05Z</time>
      </trkpt>
      <trkpt lat="31.200074963405296" lon="121.61907973458992">
        <ele>4.669634200594558</ele>
        <time>2019-05-31T22:53:08Z</time>
      </trkpt>
      <trkpt lat="31.200012504469374" lon="121.61917513453697">
        <ele>4.519197637942838</ele>
        <time>2019-05-31T22:53:12Z</time>
      </trkpt>
      <trkpt lat="31.199850190748748" lon="121.61934506903364">
        <ele>4.4964029604226035</ele>
        <time>2019-05-31T22:53:22Z</time>
      </trkpt>
      <trkpt lat="31.199786428994223" lon="121.61938870617121">
        <ele>4.763468387193392</ele>
        <time>2019-05-31T22:53:26Z</time>
      </trkpt>
      <trkpt lat="31.19956439890831" lon="121.61962151688546">
        <ele>4.939519687378478</ele>
        <time>2019-05-31T22:53:38Z</time>
      </trkpt>
      <trkpt lat="31.199298974414077" lon="121.61986489808692">
        <ele>5.247815243811317</ele>
        <time>2019-05-31T22:53:53Z</time>
      </trkpt>
      <trkpt lat="31.199232643124834" lon="121.62003021310734">
        <ele>5.260603557135607</ele>
        <time>2019-05-31T22:54:03Z</time>
      </trkpt>
      <trkpt lat="31.199163171331197" lon="121.62008821244082">
        <ele>5.0363633019936</ele>
        <time>2019-05-31T22:54:10Z</time>
      </trkpt>
      <trkpt lat="31.19911858438301" lon="121.62020203493833">
        <ele>4.881192840006523</ele>
        <time>2019-05-31T22:54:17Z</time>
      </trkpt>
      <trkpt lat="31.19893223815054" lon="121.62027440633983">
        <ele>4.587642140387398</ele>
        <time>2019-05-31T22:54:24Z</time>
      </trkpt>
      <trkpt lat="31.19864842339838" lon="121.62046927508214">
        <ele>4.6496638348287185</ele>
        <time>2019-05-31T22:54:34Z</time>
      </trkpt>
      <trkpt lat="31.19837049617633" lon="121.62073459964192">
        <ele>4.427732614729781</ele>
        <time>2019-05-31T22:54:44Z</time>
      </trkpt>
      <trkpt lat="31.19814415448295" lon="121.62093352502929">
        <ele>4.32940994364953</ele>
        <time>2019-05-31T22:54:55Z</time>
      </trkpt>
      <trkpt lat="31.19787085541928" lon="121.62117797855828">
        <ele>5.142584811415347</ele>
        <time>2019-05-31T22:55:10Z</time>
      </trkpt>
      <trkpt lat="31.197623058367743" lon="121.62140671063696">
        <ele>5.043050892567891</ele>
        <time>2019-05-31T22:55:24Z</time>
      </trkpt>
      <trkpt lat="31.19736875633526" lon="121.62163191851394">
        <ele>5.4443129754270885</ele>
        <time>2019-05-31T22:55:37Z</time>
      </trkpt>
      <trkpt lat="31.197117973160886" lon="121.62186091790365">
        <ele>6.322077254200291</ele>
        <time>2019-05-31T22:55:50Z</time>
      </trkpt>
      <trkpt lat="31.196865325500035" lon="121.62205875309165">
        <ele>6.732485018994449</ele>
        <time>2019-05-31T22:56:03Z</time>
      </trkpt>
      <trkpt lat="31.19663078846219" lon="121.62230427695766">
        <ele>7.908136193060976</ele>
        <time>2019-05-31T22:56:21Z</time>
      </trkpt>
      <trkpt lat="31.19666620018681" lon="121.62263567438767">
        <ele>7.986997168789301</ele>
        <time>2019-05-31T22:56:39Z</time>
      </trkpt>
      <trkpt lat="31.196725218255953" lon="121.62294863994559">
        <ele>6.652388800896446</ele>
        <time>2019-05-31T22:56:59Z</time>
      </trkpt>
      <trkpt lat="31.1967937130306" lon="121.62327000103964">
        <ele>5.49194581040819</ele>
        <time>2019-05-31T22:57:22Z</time>
      </trkpt>
      <trkpt lat="31.196866784725795" lon="121.62361601551903">
        <ele>4.575590519099343</ele>
        <time>2019-05-31T22:57:45Z</time>
      </trkpt>
      <trkpt lat="31.196852764416455" lon="121.62377913526021">
        <ele>4.5879380053160155</ele>
        <time>2019-05-31T22:57:55Z</time>
      </trkpt>
      <trkpt lat="31.19690272756787" lon="121.62394495832696">
        <ele>4.133633915716807</ele>
        <time>2019-05-31T22:58:02Z</time>
      </trkpt>
      <trkpt lat="31.196933505150497" lon="121.62382735946682">
        <ele>4.095034208409256</ele>
        <time>2019-05-31T22:58:13Z</time>
      </trkpt>
      <trkpt lat="31.196909064922888" lon="121.62339924164378">
        <ele>4.06834812666623</ele>
        <time>2019-05-31T22:58:28Z</time>
      </trkpt>
      <trkpt lat="31.19682726675734" lon="121.62309441217003">
        <ele>3.878679322767706</ele>
        <time>2019-05-31T22:58:39Z</time>
      </trkpt>
      <trkpt lat="31.196800661928897" lon="121.62288929153128">
        <ele>3.7874228465471518</ele>
        <time>2019-05-31T22:58:46Z</time>
      </trkpt>
      <trkpt lat="31.196818382746685" lon="121.62280501854093">
        <ele>3.468737829249271</ele>
        <time>2019-05-31T22:58:49Z</time>
      </trkpt>
      <trkpt lat="31.196868333049114" lon="121.62275136230339">
        <ele>3.5080677076288715</ele>
        <time>2019-05-31T22:58:52Z</time>
      </trkpt>
      <trkpt lat="31.197044183699056" lon="121.6226153202225">
        <ele>3.6980602348024796</ele>
        <time>2019-05-31T22:59:00Z</time>
      </trkpt>
      <trkpt lat="31.197180972900057" lon="121.62249472615875">
        <ele>3.911696813745003</ele>
        <time>2019-05-31T22:59:07Z</time>
      </trkpt>
      <trkpt lat="31.197299259167952" lon="121.62243157957184">
        <ele>3.3676183026108326</ele>
        <time>2019-05-31T22:59:13Z</time>
      </trkpt>
      <trkpt lat="31.1975769085456" lon="121.62218524037576">
        <ele>3.718886771058319</ele>
        <time>2019-05-31T22:59:27Z</time>
      </trkpt>
      <trkpt lat="31.197823865195815" lon="121.621985780727">
        <ele>4.703076087803748</ele>
        <time>2019-05-31T22:59:38Z</time>
      </trkpt>
      <trkpt lat="31.197988892696348" lon="121.62182697337306">
        <ele>5.081741827899172</ele>
        <time>2019-05-31T22:59:48Z</time>
      </trkpt>
      <trkpt lat="31.198081110946788" lon="121.62179769990554">
        <ele>4.769465104602645</ele>
        <time>2019-05-31T22:59:52Z</time>
      </trkpt>
      <trkpt lat="31.19838857467133" lon="121.62155623008819">
        <ele>3.671023648226182</ele>
        <time>2019-05-31T23:00:07Z</time>
      </trkpt>
      <trkpt lat="31.19860900700427" lon="121.62131070049988">
        <ele>4.632179601977832</ele>
        <time>2019-05-31T23:00:20Z</time>
      </trkpt>
      <trkpt lat="31.19886521282936" lon="121.62107817307133">
        <ele>4.365650021720825</ele>
        <time>2019-05-31T23:00:34Z</time>
      </trkpt>
      <trkpt lat="31.199079684027065" lon="121.6208255937836">
        <ele>3.915607750231075</ele>
        <time>2019-05-31T23:00:47Z</time>
      </trkpt>
      <trkpt lat="31.19913883477776" lon="121.62078548232611">
        <ele>3.901765113775838</ele>
        <time>2019-05-31T23:00:50Z</time>
      </trkpt>
      <trkpt lat="31.199196586636656" lon="121.62078520655663">
        <ele>4.069399525088457</ele>
        <time>2019-05-31T23:00:54Z</time>
      </trkpt>
      <trkpt lat="31.19937587323425" lon="121.620723405814">
        <ele>4.258974424749638</ele>
        <time>2019-05-31T23:01:01Z</time>
      </trkpt>
      <trkpt lat="31.199654318362647" lon="121.62073232547857">
        <ele>4.6583096139451285</ele>
        <time>2019-05-31T23:01:12Z</time>
      </trkpt>
      <trkpt lat="31.199910543157593" lon="121.62072959436503">
        <ele>4.501536479540448</ele>
        <time>2019-05-31T23:01:23Z</time>
      </trkpt>
      <trkpt lat="31.200132269649554" lon="121.62078621308935">
        <ele>4.470623660803362</ele>
        <time>2019-05-31T23:01:33Z</time>
      </trkpt>
      <trkpt lat="31.20031583112606" lon="121.62078294601301">
        <ele>4.329218795160067</ele>
        <time>2019-05-31T23:01:40Z</time>
      </trkpt>
      <trkpt lat="31.20048902364813" lon="121.6208403816073">
        <ele>4.172795177163152</ele>
        <time>2019-05-31T23:01:47Z</time>
      </trkpt>
      <trkpt lat="31.200654129789267" lon="121.62085391743655">
        <ele>4.122586513168457</ele>
        <time>2019-05-31T23:01:54Z</time>
      </trkpt>
      <trkpt lat="31.20073975906207" lon="121.62089916560471">
        <ele>4.140536733745726</ele>
        <time>2019-05-31T23:01:58Z</time>
      </trkpt>
      <trkpt lat="31.201029779065934" lon="121.62098531606358">
        <ele>5.101664864803038</ele>
        <time>2019-05-31T23:02:13Z</time>
      </trkpt>
      <trkpt lat="31.201309282996238" lon="121.62101808251084">
        <ele>4.978958649216299</ele>
        <time>2019-05-31T23:02:24Z</time>
      </trkpt>
      <trkpt lat="31.20158199258642" lon="121.62106548281318">
        <ele>4.795076186810345</ele>
        <time>2019-05-31T23:02:35Z</time>
      </trkpt>
      <trkpt lat="31.201906767744603" lon="121.62110583305474">
        <ele>6.612027323560213</ele>
        <time>2019-05-31T23:02:48Z</time>
      </trkpt>
      <trkpt lat="31.20222338689669" lon="121.62116623692133">
        <ele>8.217774095231508</ele>
        <time>2019-05-31T23:03:02Z</time>
      </trkpt>
      <trkpt lat="31.202290068510738" lon="121.6211822196043">
        <ele>8.488450709414657</ele>
        <time>2019-05-31T23:03:05Z</time>
      </trkpt>
      <trkpt lat="31.202458447995635" lon="121.62117786988591">
        <ele>8.878756696988212</ele>
        <time>2019-05-31T23:03:17Z</time>
      </trkpt>
      <trkpt lat="31.202458447995635" lon="121.62117786988591">
        <ele>8.878756696988212</ele>
        <time>2019-05-31T23:03:25Z</time>
      </trkpt>
      <trkpt lat="31.20248230191304" lon="121.62118328763975">
        <ele>8.93262157645248</ele>
        <time>2019-05-31T23:03:36Z</time>
      </trkpt>
      <trkpt lat="31.202434455142253" lon="121.62080282397297">
        <ele>8.960497425204597</ele>
        <time>2019-05-31T23:03:50Z</time>
      </trkpt>
      <trkpt lat="31.202469474143534" lon="121.62076352745132">
        <ele>8.806408548263637</ele>
        <time>2019-05-31T23:03:58Z</time>
      </trkpt>
      <trkpt lat="31.202476879256036" lon="121.62068548139747">
        <ele>9.676246451300148</ele>
        <time>2019-05-31T23:04:26Z</time>
      </trkpt>
      <trkpt lat="31.202455124546983" lon="121.62074455928229">
        <ele>9.526956960790113</ele>
        <time>2019-05-31T23:04:37Z</time>
      </trkpt>
      <trkpt lat="31.202462713681104" lon="121.62074699757227">
        <ele>9.543977860807761</ele>
        <time>2019-05-31T23:05:01Z</time>
      </trkpt>
      <trkpt lat="31.20247139205065" lon="121.6207450999178">
        <ele>9.650934357464212</ele>
        <time>2019-05-31T23:05:06Z</time>
      </trkpt>
      <trkpt lat="31.202455459310354" lon="121.62068575416168">
        <ele>9.471783266816477</ele>
        <time>2019-05-31T23:05:12Z</time>
      </trkpt>
      <trkpt lat="31.202444881242982" lon="121.62068927792659">
        <ele>8.73213510619853</ele>
        <time>2019-05-31T23:05:32Z</time>
      </trkpt>
      <trkpt lat="31.202444881242982" lon="121.62068927792659">
        <ele>8.5703285455129</ele>
        <time>2019-05-31T23:05:34Z</time>
      </trkpt>
      <trkpt lat="31.202387153618275" lon="121.6204150378847">
        <ele>7.131648903898686</ele>
        <time>2019-05-31T23:06:13Z</time>
      </trkpt>
      <trkpt lat="31.202406733080906" lon="121.62036110833661">
        <ele>7.075289618309547</ele>
        <time>2019-05-31T23:06:17Z</time>
      </trkpt>
      <trkpt lat="31.202438739748068" lon="121.62034918190989">
        <ele>7.278149273425861</ele>
        <time>2019-05-31T23:06:29Z</time>
      </trkpt>
      <trkpt lat="31.202451477867506" lon="121.62035405876559">
        <ele>7.5256625159166965</ele>
        <time>2019-05-31T23:06:35Z</time>
      </trkpt>
      <trkpt lat="31.202451477867506" lon="121.62035405876559">
        <ele>7.5256625159166965</ele>
        <time>2019-05-31T23:06:40Z</time>
      </trkpt>
      <trkpt lat="31.202451477867506" lon="121.62035405876559">
        <ele>7.5285068029438875</ele>
        <time>2019-05-31T23:06:45Z</time>
      </trkpt>
      <trkpt lat="31.202451477867506" lon="121.62035405876559">
        <ele>7.497746046168352</ele>
        <time>2019-05-31T23:06:51Z</time>
      </trkpt>
      <trkpt lat="31.202451477867506" lon="121.62035405876559">
        <ele>7.452025839594917</ele>
        <time>2019-05-31T23:06:56Z</time>
      </trkpt>
      <trkpt lat="31.202710389918288" lon="121.62037436195376">
        <ele>7.939996622295027</ele>
        <time>2019-05-31T23:07:07Z</time>
      </trkpt>
      <trkpt lat="31.202873138973878" lon="121.62031066464024">
        <ele>7.861767047922115</ele>
        <time>2019-05-31T23:07:14Z</time>
      </trkpt>
      <trkpt lat="31.202907388718913" lon="121.62022936305335">
        <ele>8.004950355647779</ele>
        <time>2019-05-31T23:07:17Z</time>
      </trkpt>
      <trkpt lat="31.202807082316113" lon="121.61996108366016">
        <ele>7.757576789865126</ele>
        <time>2019-05-31T23:07:27Z</time>
      </trkpt>
      <trkpt lat="31.202810244384136" lon="121.619790624416">
        <ele>7.373325357285612</ele>
        <time>2019-05-31T23:07:33Z</time>
      </trkpt>
      <trkpt lat="31.202790539676965" lon="121.61970661564023">
        <ele>7.762816868919444</ele>
        <time>2019-05-31T23:07:37Z</time>
      </trkpt>
      <trkpt lat="31.202710333111447" lon="121.61965946792881">
        <ele>7.630941226629911</ele>
        <time>2019-05-31T23:07:41Z</time>
      </trkpt>
      <trkpt lat="31.20260065125916" lon="121.61927573494573">
        <ele>7.4988761155949355</ele>
        <time>2019-05-31T23:07:55Z</time>
      </trkpt>
      <trkpt lat="31.202516938247758" lon="121.6189459250582">
        <ele>7.4944978053605915</ele>
        <time>2019-05-31T23:08:06Z</time>
      </trkpt>
      <trkpt lat="31.2024510621242" lon="121.61866976999863">
        <ele>7.497176210052789</ele>
        <time>2019-05-31T23:08:16Z</time>
      </trkpt>
      <trkpt lat="31.202490675223366" lon="121.61864266542943">
        <ele>7.837014263455327</ele>
        <time>2019-05-31T23:08:19Z</time>
      </trkpt>
      <trkpt lat="31.20258477463327" lon="121.61862720989478">
        <ele>8.35582107982346</ele>
        <time>2019-05-31T23:08:23Z</time>
      </trkpt>
      <trkpt lat="31.20276165136271" lon="121.618531256396">
        <ele>7.813171239820424</ele>
        <time>2019-05-31T23:08:29Z</time>
      </trkpt>
      <trkpt lat="31.202851783652143" lon="121.61841633863241">
        <ele>7.598769275326642</ele>
        <time>2019-05-31T23:08:37Z</time>
      </trkpt>
      <trkpt lat="31.202850803585353" lon="121.61831199753324">
        <ele>7.58171459776764</ele>
        <time>2019-05-31T23:08:41Z</time>
      </trkpt>
      <trkpt lat="31.202680335597787" lon="121.61796266879057">
        <ele>7.631715735323898</ele>
        <time>2019-05-31T23:08:56Z</time>
      </trkpt>
      <trkpt lat="31.202553732710527" lon="121.61766916246037">
        <ele>7.795416728097184</ele>
        <time>2019-05-31T23:09:07Z</time>
      </trkpt>
      <trkpt lat="31.202443335886013" lon="121.61743663228046">
        <ele>7.945819595289638</ele>
        <time>2019-05-31T23:09:17Z</time>
      </trkpt>
      <trkpt lat="31.202424450784502" lon="121.61733906425232">
        <ele>7.934754956566078</ele>
        <time>2019-05-31T23:09:21Z</time>
      </trkpt>
      <trkpt lat="31.20244593679366" lon="121.61727022147748">
        <ele>7.587415662698373</ele>
        <time>2019-05-31T23:09:24Z</time>
      </trkpt>
      <trkpt lat="31.20257099146517" lon="121.6172062484599">
        <ele>7.7933553015421175</ele>
        <time>2019-05-31T23:09:30Z</time>
      </trkpt>
      <trkpt lat="31.202840448215476" lon="121.61697639282826">
        <ele>7.404342985070535</ele>
        <time>2019-05-31T23:09:44Z</time>
      </trkpt>
      <trkpt lat="31.202945190556132" lon="121.61688775682029">
        <ele>7.519038076955955</ele>
        <time>2019-05-31T23:09:51Z</time>
      </trkpt>
      <trkpt lat="31.203065713768957" lon="121.61674057597013">
        <ele>7.1784153411982885</ele>
        <time>2019-05-31T23:09:58Z</time>
      </trkpt>
      <trkpt lat="31.20336088682653" lon="121.61655109823971">
        <ele>7.246169732124812</ele>
        <time>2019-05-31T23:10:12Z</time>
      </trkpt>
      <trkpt lat="31.203602095975082" lon="121.61636894153283">
        <ele>7.251064369545293</ele>
        <time>2019-05-31T23:10:24Z</time>
      </trkpt>
      <trkpt lat="31.20389646524461" lon="121.61616645107456">
        <ele>7.836284444236487</ele>
        <time>2019-05-31T23:10:40Z</time>
      </trkpt>
      <trkpt lat="31.20399963109403" lon="121.61602035149372">
        <ele>7.6662085705252245</ele>
        <time>2019-05-31T23:10:51Z</time>
      </trkpt>
      <trkpt lat="31.204044377853208" lon="121.61601004820514">
        <ele>7.922922139520725</ele>
        <time>2019-05-31T23:10:54Z</time>
      </trkpt>
      <trkpt lat="31.204112686262103" lon="121.6160292865176">
        <ele>8.10991825000987</ele>
        <time>2019-05-31T23:10:58Z</time>
      </trkpt>
      <trkpt lat="31.204265387851667" lon="121.61597208403867">
        <ele>7.336957725673599</ele>
        <time>2019-05-31T23:11:10Z</time>
      </trkpt>
      <trkpt lat="31.20433986895593" lon="121.61606043749252">
        <ele>7.664519683380178</ele>
        <time>2019-05-31T23:11:17Z</time>
      </trkpt>
      <trkpt lat="31.204346034942763" lon="121.6161365994603">
        <ele>7.78097133389204</ele>
        <time>2019-05-31T23:11:21Z</time>
      </trkpt>
      <trkpt lat="31.204378238478387" lon="121.61620327264937">
        <ele>7.712123813011871</ele>
        <time>2019-05-31T23:11:25Z</time>
      </trkpt>
      <trkpt lat="31.20461207288249" lon="121.61637075525579">
        <ele>7.683519349179662</ele>
        <time>2019-05-31T23:11:43Z</time>
      </trkpt>
      <trkpt lat="31.20460969462839" lon="121.61630408005729">
        <ele>8.621073628535665</ele>
        <time>2019-05-31T23:11:50Z</time>
      </trkpt>
      <trkpt lat="31.204536863898255" lon="121.61619106273982">
        <ele>8.762931549207813</ele>
        <time>2019-05-31T23:11:58Z</time>
      </trkpt>
      <trkpt lat="31.20428356061709" lon="121.61596476439358">
        <ele>10.41868806222158</ele>
        <time>2019-05-31T23:12:20Z</time>
      </trkpt>
      <trkpt lat="31.204066344548828" lon="121.61570756182078">
        <ele>10.527760127273712</ele>
        <time>2019-05-31T23:12:42Z</time>
      </trkpt>
      <trkpt lat="31.20378921740779" lon="121.61543680906291">
        <ele>9.179596487743975</ele>
        <time>2019-05-31T23:13:06Z</time>
      </trkpt>
      <trkpt lat="31.203704162974688" lon="121.61534520161707">
        <ele>8.437067153563476</ele>
        <time>2019-05-31T23:13:14Z</time>
      </trkpt>
      <trkpt lat="31.20360388362618" lon="121.61529967358973">
        <ele>8.078155763843768</ele>
        <time>2019-05-31T23:13:21Z</time>
      </trkpt>
      <trkpt lat="31.203611823027366" lon="121.61521374999782">
        <ele>7.763848092260389</ele>
        <time>2019-05-31T23:13:25Z</time>
      </trkpt>
      <trkpt lat="31.203795294788016" lon="121.61500529589209">
        <ele>7.82370109779707</ele>
        <time>2019-05-31T23:13:35Z</time>
      </trkpt>
      <trkpt lat="31.203846076425926" lon="121.61491503083933">
        <ele>7.790279101944215</ele>
        <time>2019-05-31T23:13:39Z</time>
      </trkpt>
      <trkpt lat="31.2040452446467" lon="121.61473774431583">
        <ele>7.913840962349365</ele>
        <time>2019-05-31T23:13:50Z</time>
      </trkpt>
      <trkpt lat="31.204103793316246" lon="121.6147567133953">
        <ele>7.866234066110188</ele>
        <time>2019-05-31T23:13:53Z</time>
      </trkpt>
      <trkpt lat="31.204146031011362" lon="121.61482474483981">
        <ele>7.861783788040746</ele>
        <time>2019-05-31T23:13:56Z</time>
      </trkpt>
      <trkpt lat="31.204273383841322" lon="121.61491689287872">
        <ele>7.658190104810618</ele>
        <time>2019-05-31T23:14:03Z</time>
      </trkpt>
      <trkpt lat="31.204358379481654" lon="121.61507680723524">
        <ele>7.770442110361525</ele>
        <time>2019-05-31T23:14:10Z</time>
      </trkpt>
      <trkpt lat="31.204437266672006" lon="121.6150917085824">
        <ele>6.955828435372229</ele>
        <time>2019-05-31T23:14:14Z</time>
      </trkpt>
      <trkpt lat="31.20454498966326" lon="121.61499845756113">
        <ele>7.039026224305157</ele>
        <time>2019-05-31T23:14:20Z</time>
      </trkpt>
      <trkpt lat="31.204599481893737" lon="121.61500522938283">
        <ele>6.472935458811438</ele>
        <time>2019-05-31T23:14:24Z</time>
      </trkpt>
      <trkpt lat="31.204645890878645" lon="121.61495426750754">
        <ele>6.58244537334755</ele>
        <time>2019-05-31T23:14:27Z</time>
      </trkpt>
      <trkpt lat="31.204658438027355" lon="121.61486888440976">
        <ele>8.0778683251302</ele>
        <time>2019-05-31T23:14:31Z</time>
      </trkpt>
      <trkpt lat="31.204710269229924" lon="121.61481819285149">
        <ele>7.293726825493383</ele>
        <time>2019-05-31T23:14:34Z</time>
      </trkpt>
      <trkpt lat="31.204872707963833" lon="121.61478538171373">
        <ele>6.958573416352312</ele>
        <time>2019-05-31T23:14:45Z</time>
      </trkpt>
      <trkpt lat="31.20498229770724" lon="121.61472682457202">
        <ele>6.241693512954779</ele>
        <time>2019-05-31T23:14:53Z</time>
      </trkpt>
      <trkpt lat="31.205048775388384" lon="121.61466989719395">
        <ele>6.4100900314311</ele>
        <time>2019-05-31T23:14:59Z</time>
      </trkpt>
      <trkpt lat="31.205147859783608" lon="121.61453137852455">
        <ele>7.5707216136021</ele>
        <time>2019-05-31T23:15:10Z</time>
      </trkpt>
      <trkpt lat="31.205265329203943" lon="121.61445276172455">
        <ele>7.6162342433466215</ele>
        <time>2019-05-31T23:15:22Z</time>
      </trkpt>
      <trkpt lat="31.205383278739845" lon="121.61444624654436">
        <ele>7.10083008296456</ele>
        <time>2019-05-31T23:15:32Z</time>
      </trkpt>
      <trkpt lat="31.20546819400109" lon="121.61438823273211">
        <ele>7.337088546173167</ele>
        <time>2019-05-31T23:15:40Z</time>
      </trkpt>
      <trkpt lat="31.20558820523838" lon="121.61419007705277">
        <ele>7.9201546060178</ele>
        <time>2019-05-31T23:15:58Z</time>
      </trkpt>
      <trkpt lat="31.205771856291204" lon="121.61408136561234">
        <ele>7.207338899452157</ele>
        <time>2019-05-31T23:16:15Z</time>
      </trkpt>
      <trkpt lat="31.205803080909625" lon="121.61402931876279">
        <ele>7.355162320345567</ele>
        <time>2019-05-31T23:16:19Z</time>
      </trkpt>
      <trkpt lat="31.20588772554116" lon="121.61396967756598">
        <ele>6.783298318220673</ele>
        <time>2019-05-31T23:16:27Z</time>
      </trkpt>
      <trkpt lat="31.206113290692038" lon="121.61366931712708">
        <ele>8.641599219068699</ele>
        <time>2019-05-31T23:16:56Z</time>
      </trkpt>
      <trkpt lat="31.206294189294255" lon="121.6136077695792">
        <ele>9.127820483910241</ele>
        <time>2019-05-31T23:17:15Z</time>
      </trkpt>
      <trkpt lat="31.206280137158284" lon="121.61355111724727">
        <ele>9.124297936489818</ele>
        <time>2019-05-31T23:17:25Z</time>
      </trkpt>
      <trkpt lat="31.20614231246979" lon="121.6133283083165">
        <ele>9.159753128081476</ele>
        <time>2019-05-31T23:17:52Z</time>
      </trkpt>
      <trkpt lat="31.20594751270977" lon="121.61314833176482">
        <ele>9.034000625320033</ele>
        <time>2019-05-31T23:18:14Z</time>
      </trkpt>
      <trkpt lat="31.205746113899835" lon="121.61308057973969">
        <ele>8.34295046103648</ele>
        <time>2019-05-31T23:18:32Z</time>
      </trkpt>
      <trkpt lat="31.20563303258214" lon="121.61310254616403">
        <ele>8.717065257159035</ele>
        <time>2019-05-31T23:18:42Z</time>
      </trkpt>
      <trkpt lat="31.205595054922764" lon="121.61312559065578">
        <ele>8.70389067200249</ele>
        <time>2019-05-31T23:18:56Z</time>
      </trkpt>
      <trkpt lat="31.20560236568434" lon="121.61313778840456">
        <ele>8.447279956866677</ele>
        <time>2019-05-31T23:18:59Z</time>
      </trkpt>
      <trkpt lat="31.20561919038452" lon="121.61312016716761">
        <ele>8.422626866630075</ele>
        <time>2019-05-31T23:19:10Z</time>
      </trkpt>
      <trkpt lat="31.205616758077177" lon="121.61311040867926">
        <ele>8.245053120912658</ele>
        <time>2019-05-31T23:19:15Z</time>
      </trkpt>
      <trkpt lat="31.205549213653573" lon="121.61314944899809">
        <ele>8.208556039734631</ele>
        <time>2019-05-31T23:19:29Z</time>
      </trkpt>
      <trkpt lat="31.20555197315429" lon="121.61309008342025">
        <ele>7.694238363011209</ele>
        <time>2019-05-31T23:20:34Z</time>
      </trkpt>
      <trkpt lat="31.20546316037571" lon="121.61294181226958">
        <ele>7.900775874684726</ele>
        <time>2019-05-31T23:20:44Z</time>
      </trkpt>
      <trkpt lat="31.205388930620035" lon="121.61286537464802">
        <ele>8.327326915664969</ele>
        <time>2019-05-31T23:20:59Z</time>
      </trkpt>
      <trkpt lat="31.205367537399503" lon="121.61283230492573">
        <ele>8.728478526460862</ele>
        <time>2019-05-31T23:21:17Z</time>
      </trkpt>
      <trkpt lat="31.205440837651146" lon="121.61271492180022">
        <ele>8.709492926423046</ele>
        <time>2019-05-31T23:21:27Z</time>
      </trkpt>
      <trkpt lat="31.20546476710862" lon="121.612627361026">
        <ele>9.243388803936483</ele>
        <time>2019-05-31T23:21:35Z</time>
      </trkpt>
      <trkpt lat="31.205437718092355" lon="121.61254576792759">
        <ele>9.5569700772745</ele>
        <time>2019-05-31T23:21:41Z</time>
      </trkpt>
      <trkpt lat="31.20562762450344" lon="121.61240397626122">
        <ele>10.068537519139454</ele>
        <time>2019-05-31T23:22:00Z</time>
      </trkpt>
      <trkpt lat="31.205710392106152" lon="121.61231288535903">
        <ele>9.795894693770208</ele>
        <time>2019-05-31T23:22:07Z</time>
      </trkpt>
      <trkpt lat="31.20575542260415" lon="121.61228468887846">
        <ele>9.984610415669486</ele>
        <time>2019-05-31T23:22:15Z</time>
      </trkpt>
      <trkpt lat="31.20577688536513" lon="121.61222938582658">
        <ele>10.068824711169377</ele>
        <time>2019-05-31T23:22:22Z</time>
      </trkpt>
      <trkpt lat="31.205989029113198" lon="121.61207999996044">
        <ele>10.240428711843485</ele>
        <time>2019-05-31T23:22:40Z</time>
      </trkpt>
      <trkpt lat="31.206138558180793" lon="121.61190649141668">
        <ele>10.237547773117129</ele>
        <time>2019-05-31T23:22:54Z</time>
      </trkpt>
      <trkpt lat="31.20617903168014" lon="121.61180916698595">
        <ele>10.048044548558146</ele>
        <time>2019-05-31T23:23:02Z</time>
      </trkpt>
      <trkpt lat="31.20627288585736" lon="121.61175494117354">
        <ele>10.062854655350996</ele>
        <time>2019-05-31T23:23:10Z</time>
      </trkpt>
      <trkpt lat="31.206383889279685" lon="121.61161098244744">
        <ele>10.302915991931265</ele>
        <time>2019-05-31T23:23:26Z</time>
      </trkpt>
      <trkpt lat="31.20656885160705" lon="121.61154753147466">
        <ele>10.439002530127802</ele>
        <time>2019-05-31T23:23:39Z</time>
      </trkpt>
      <trkpt lat="31.2064881710307" lon="121.6113900325589">
        <ele>9.904479058871331</ele>
        <time>2019-05-31T23:23:51Z</time>
      </trkpt>
      <trkpt lat="31.20630878407511" lon="121.61124880652144">
        <ele>10.185471573650759</ele>
        <time>2019-05-31T23:24:06Z</time>
      </trkpt>
      <trkpt lat="31.206126764059807" lon="121.61099968248139">
        <ele>9.856034857863719</ele>
        <time>2019-05-31T23:24:31Z</time>
      </trkpt>
      <trkpt lat="31.206102670557602" lon="121.61094817550898">
        <ele>9.991446243090579</ele>
        <time>2019-05-31T23:24:35Z</time>
      </trkpt>
      <trkpt lat="31.20597506620894" lon="121.61080965347753">
        <ele>9.858998393422198</ele>
        <time>2019-05-31T23:24:49Z</time>
      </trkpt>
      <trkpt lat="31.205891879030442" lon="121.6107383604791">
        <ele>9.712110060193723</ele>
        <time>2019-05-31T23:24:57Z</time>
      </trkpt>
      <trkpt lat="31.2058141635028" lon="121.61059847752543">
        <ele>9.714554405106043</ele>
        <time>2019-05-31T23:25:06Z</time>
      </trkpt>
      <trkpt lat="31.2057199035291" lon="121.61046483051463">
        <ele>9.324176138601729</ele>
        <time>2019-05-31T23:25:19Z</time>
      </trkpt>
      <trkpt lat="31.205644297435445" lon="121.6104073622466">
        <ele>9.610969811261434</ele>
        <time>2019-05-31T23:25:26Z</time>
      </trkpt>
      <trkpt lat="31.205592295490998" lon="121.61032793218372">
        <ele>9.623780357562907</ele>
        <time>2019-05-31T23:25:33Z</time>
      </trkpt>
      <trkpt lat="31.205459735590704" lon="121.61029188581448">
        <ele>9.583638012025276</ele>
        <time>2019-05-31T23:25:44Z</time>
      </trkpt>
      <trkpt lat="31.20538683459203" lon="121.61024282125014">
        <ele>9.448853755971108</ele>
        <time>2019-05-31T23:25:51Z</time>
      </trkpt>
      <trkpt lat="31.205336716087633" lon="121.61018345254718">
        <ele>9.221619531795604</ele>
        <time>2019-05-31T23:25:58Z</time>
      </trkpt>
      <trkpt lat="31.205321038451885" lon="121.61011432088087">
        <ele>9.196613913226521</ele>
        <time>2019-05-31T23:26:02Z</time>
      </trkpt>
      <trkpt lat="31.205128422026927" lon="121.60988172316564">
        <ele>9.025227128032</ele>
        <time>2019-05-31T23:26:26Z</time>
      </trkpt>
      <trkpt lat="31.20503361205191" lon="121.60975403648288">
        <ele>8.88202791705217</ele>
        <time>2019-05-31T23:26:40Z</time>
      </trkpt>
      <trkpt lat="31.20495067527664" lon="121.60970903830348">
        <ele>8.722254669102348</ele>
        <time>2019-05-31T23:26:47Z</time>
      </trkpt>
      <trkpt lat="31.204709511084676" lon="121.6094927074752">
        <ele>8.354967434429199</ele>
        <time>2019-05-31T23:27:14Z</time>
      </trkpt>
      <trkpt lat="31.204632289498555" lon="121.60941517410527">
        <ele>8.558743503595899</ele>
        <time>2019-05-31T23:27:21Z</time>
      </trkpt>
      <trkpt lat="31.204613896100813" lon="121.60934956485615">
        <ele>8.147346686288437</ele>
        <time>2019-05-31T23:27:28Z</time>
      </trkpt>
      <trkpt lat="31.20464299844945" lon="121.60921264679669">
        <ele>8.127141268632315</ele>
        <time>2019-05-31T23:27:36Z</time>
      </trkpt>
      <trkpt lat="31.204638712133782" lon="121.6091340219418">
        <ele>8.134761877311952</ele>
        <time>2019-05-31T23:27:40Z</time>
      </trkpt>
      <trkpt lat="31.204727199572023" lon="121.60898543934005">
        <ele>9.701017533880865</ele>
        <time>2019-05-31T23:27:51Z</time>
      </trkpt>
      <trkpt lat="31.204806716231868" lon="121.60887156052802">
        <ele>10.051788645937773</ele>
        <time>2019-05-31T23:28:05Z</time>
      </trkpt>
      <trkpt lat="31.204854734198758" lon="121.60882980325903">
        <ele>9.980052707911621</ele>
        <time>2019-05-31T23:28:09Z</time>
      </trkpt>
      <trkpt lat="31.205119999651686" lon="121.60868201740345">
        <ele>10.034475899093753</ele>
        <time>2019-05-31T23:28:29Z</time>
      </trkpt>
      <trkpt lat="31.205220092278935" lon="121.60861368492681">
        <ele>9.851047856919923</ele>
        <time>2019-05-31T23:28:37Z</time>
      </trkpt>
      <trkpt lat="31.205257352127013" lon="121.60843338085861">
        <ele>9.353058558460749</ele>
        <time>2019-05-31T23:28:54Z</time>
      </trkpt>
      <trkpt lat="31.20526629720486" lon="121.60843717594462">
        <ele>9.600705578612029</ele>
        <time>2019-05-31T23:29:10Z</time>
      </trkpt>
      <trkpt lat="31.205256248255143" lon="121.60846401866456">
        <ele>9.685446823642273</ele>
        <time>2019-05-31T23:29:13Z</time>
      </trkpt>
      <trkpt lat="31.205277922642246" lon="121.60849004534086">
        <ele>9.727700586735644</ele>
        <time>2019-05-31T23:29:21Z</time>
      </trkpt>
      <trkpt lat="31.20527657724989" lon="121.60847377766326">
        <ele>9.761332149859804</ele>
        <time>2019-05-31T23:29:24Z</time>
      </trkpt>
      <trkpt lat="31.20527657724989" lon="121.60847377766326">
        <ele>9.761332149859804</ele>
        <time>2019-05-31T23:29:28Z</time>
      </trkpt>
      <trkpt lat="31.20527657724989" lon="121.60847377766326">
        <ele>9.069713061346214</ele>
        <time>2019-05-31T23:29:51Z</time>
      </trkpt>
      <trkpt lat="31.20527657724989" lon="121.60847377766326">
        <ele>9.069713061346214</ele>
        <time>2019-05-31T23:29:55Z</time>
      </trkpt>
      <trkpt lat="31.205254896515196" lon="121.60845778278468">
        <ele>9.464482307206339</ele>
        <time>2019-05-31T23:30:01Z</time>
      </trkpt>
      <trkpt lat="31.205254896515196" lon="121.60845778278468">
        <ele>9.464482307206339</ele>
        <time>2019-05-31T23:30:05Z</time>
      </trkpt>
      <trkpt lat="31.205254896515196" lon="121.60845778278468">
        <ele>10.000602091239024</ele>
        <time>2019-05-31T23:30:14Z</time>
      </trkpt>
      <trkpt lat="31.205254896515196" lon="121.60845778278468">
        <ele>10.000602091239024</ele>
        <time>2019-05-31T23:30:18Z</time>
      </trkpt>
      <trkpt lat="31.205259223379972" lon="121.60847567700695">
        <ele>11.235940586215186</ele>
        <time>2019-05-31T23:30:46Z</time>
      </trkpt>
      <trkpt lat="31.205259223379972" lon="121.60847567700695">
        <ele>11.235940586215186</ele>
        <time>2019-05-31T23:31:01Z</time>
      </trkpt>
      <trkpt lat="31.20523699643796" lon="121.60846591816596">
        <ele>14.662797386306188</ele>
        <time>2019-05-31T23:32:36Z</time>
      </trkpt>
      <trkpt lat="31.20523699643796" lon="121.60846591816596">
        <ele>14.662797386306188</ele>
        <time>2019-05-31T23:32:40Z</time>
      </trkpt>
      <trkpt lat="31.20523428388447" lon="121.60846781630015">
        <ele>13.139326153778416</ele>
        <time>2019-05-31T23:33:12Z</time>
      </trkpt>
      <trkpt lat="31.20523428388447" lon="121.60846781630015">
        <ele>13.139326153778416</ele>
        <time>2019-05-31T23:33:16Z</time>
      </trkpt>
      <trkpt lat="31.20523428388447" lon="121.60846781630015">
        <ele>12.883588337139543</ele>
        <time>2019-05-31T23:33:18Z</time>
      </trkpt>
      <trkpt lat="31.20523428388447" lon="121.60846781630015">
        <ele>12.883588337139543</ele>
        <time>2019-05-31T23:33:24Z</time>
      </trkpt>
      <trkpt lat="31.20523428388447" lon="121.60846781630015">
        <ele>12.417344692737405</ele>
        <time>2019-05-31T23:33:33Z</time>
      </trkpt>
      <trkpt lat="31.20523428388447" lon="121.60846781630015">
        <ele>12.417344692737405</ele>
        <time>2019-05-31T23:33:37Z</time>
      </trkpt>
      <trkpt lat="31.20523428388447" lon="121.60846781630015">
        <ele>12.046974933122087</ele>
        <time>2019-05-31T23:33:41Z</time>
      </trkpt>
      <trkpt lat="31.205215571083315" lon="121.60847486722537">
        <ele>14.093516441818355</ele>
        <time>2019-05-31T23:34:19Z</time>
      </trkpt>
      <trkpt lat="31.205215571083315" lon="121.60847486722537">
        <ele>14.093516441818355</ele>
        <time>2019-05-31T23:34:24Z</time>
      </trkpt>
      <trkpt lat="31.205213658217335" lon="121.6084984556722">
        <ele>17.759524106410733</ele>
        <time>2019-05-31T23:35:34Z</time>
      </trkpt>
      <trkpt lat="31.205213658217335" lon="121.6084984556722">
        <ele>17.759524106410733</ele>
        <time>2019-05-31T23:35:39Z</time>
      </trkpt>
      <trkpt lat="31.205217181948765" lon="121.60850008215856">
        <ele>17.166637405052494</ele>
        <time>2019-05-31T23:35:47Z</time>
      </trkpt>
      <trkpt lat="31.205225319787512" lon="121.6084941166341">
        <ele>17.598817120224115</ele>
        <time>2019-05-31T23:36:01Z</time>
      </trkpt>
      <trkpt lat="31.205225319787512" lon="121.6084941166341">
        <ele>16.734855128950933</ele>
        <time>2019-05-31T23:36:21Z</time>
      </trkpt>
      <trkpt lat="31.205225319787512" lon="121.6084941166341">
        <ele>16.734855128950933</ele>
        <time>2019-05-31T23:36:25Z</time>
      </trkpt>
      <trkpt lat="31.205225319787512" lon="121.6084941166341">
        <ele>16.09801381430909</ele>
        <time>2019-05-31T23:36:29Z</time>
      </trkpt>
      <trkpt lat="31.205225319787512" lon="121.6084941166341">
        <ele>16.09801381430909</ele>
        <time>2019-05-31T23:36:34Z</time>
      </trkpt>
      <trkpt lat="31.205225319787512" lon="121.6084941166341">
        <ele>15.421043635203368</ele>
        <time>2019-05-31T23:36:49Z</time>
      </trkpt>
      <trkpt lat="31.205199024964056" lon="121.60848571378631">
        <ele>15.192569731336256</ele>
        <time>2019-05-31T23:37:23Z</time>
      </trkpt>
      <trkpt lat="31.205171920672715" lon="121.60847107501436">
        <ele>15.072998533657682</ele>
        <time>2019-05-31T23:37:53Z</time>
      </trkpt>
      <trkpt lat="31.20520799452824" lon="121.60845073727745">
        <ele>15.619656013009305</ele>
        <time>2019-05-31T23:38:23Z</time>
      </trkpt>
    </trkseg>
  </trk>
</gpx>