<?xml version="1.0" encoding="UTF-8"?>
<gpx xmlns="http://www.topografix.com/GPX/1/1" xmlns:gpxtpx="http://www.garmin.com/xmlschemas/TrackPointExtension/v1" xmlns:xsi="http://www.w3.org/2001/XMLSchema-instance" xsi:schemaLocation="http://www.topografix.com/GPX/1/1 http://www.topografix.com/GPX/1/1/gpx.xsd" version="1.1" creator="gpx.py -- https://github.com/tkrajina/gpxpy">
  <trk>
    <name>gpx from keep</name>
    <type>Run</type>
    <trkseg>
      <trkpt lat="31.204358819079545" lon="121.6104432545525">
        <ele>9.14171314239502</ele>
        <time>2020-03-14T23:40:16Z</time>
      </trkpt>
      <trkpt lat="31.20443706502818" lon="121.61060076020362">
        <ele>8.56011825555699</ele>
        <time>2020-03-14T23:40:24Z</time>
      </trkpt>
      <trkpt lat="31.20455462855346" lon="121.61075283946482">
        <ele>7.910517836221132</ele>
        <time>2020-03-14T23:40:28Z</time>
      </trkpt>
      <trkpt lat="31.204644636879454" lon="121.61076476052838">
        <ele>7.22192548122257</ele>
        <time>2020-03-14T23:40:32Z</time>
      </trkpt>
      <trkpt lat="31.204810128426935" lon="121.6106270264609">
        <ele>7.04396312776953</ele>
        <time>2020-03-14T23:40:39Z</time>
      </trkpt>
      <trkpt lat="31.204876579675975" lon="121.61059475957535">
        <ele>7.201136141084135</ele>
        <time>2020-03-14T23:40:42Z</time>
      </trkpt>
      <trkpt lat="31.204915161656714" lon="121.61048143449439">
        <ele>7.492175908759236</ele>
        <time>2020-03-14T23:40:45Z</time>
      </trkpt>
      <trkpt lat="31.204995736933554" lon="121.61041365131233">
        <ele>7.897376422770321</ele>
        <time>2020-03-14T23:40:49Z</time>
      </trkpt>
      <trkpt lat="31.2051090675122" lon="121.61041933517909">
        <ele>8.26281026005745</ele>
        <time>2020-03-14T23:40:52Z</time>
      </trkpt>
      <trkpt lat="31.205259459704916" lon="121.61015878797924">
        <ele>6.411390943452716</ele>
        <time>2020-03-14T23:41:00Z</time>
      </trkpt>
      <trkpt lat="31.205340023031344" lon="121.61010699933838">
        <ele>7.745306120254099</ele>
        <time>2020-03-14T23:41:04Z</time>
      </trkpt>
      <trkpt lat="31.205567026679716" lon="121.61040330203573">
        <ele>6.6088840970769525</ele>
        <time>2020-03-14T23:41:15Z</time>
      </trkpt>
      <trkpt lat="31.205811162778918" lon="121.6106239615616">
        <ele>7.401953287422657</ele>
        <time>2020-03-14T23:41:26Z</time>
      </trkpt>
      <trkpt lat="31.205859646076583" lon="121.61069363116869">
        <ele>6.366120265796781</ele>
        <time>2020-03-14T23:41:29Z</time>
      </trkpt>
      <trkpt lat="31.20602358242326" lon="121.61083323530787">
        <ele>6.851029547862709</ele>
        <time>2020-03-14T23:41:37Z</time>
      </trkpt>
      <trkpt lat="31.206064456021405" lon="121.61092676174897">
        <ele>7.524300047196448</ele>
        <time>2020-03-14T23:41:40Z</time>
      </trkpt>
      <trkpt lat="31.20614384659731" lon="121.61099832557152">
        <ele>7.0612931521609426</ele>
        <time>2020-03-14T23:41:44Z</time>
      </trkpt>
      <trkpt lat="31.20627925333428" lon="121.61121763283812">
        <ele>6.861877894960344</ele>
        <time>2020-03-14T23:41:52Z</time>
      </trkpt>
      <trkpt lat="31.206393040123995" lon="121.61133934562517">
        <ele>6.2630630396306515</ele>
        <time>2020-03-14T23:41:58Z</time>
      </trkpt>
      <trkpt lat="31.206460199117988" lon="121.61145021785664">
        <ele>5.344023071229458</ele>
        <time>2020-03-14T23:42:02Z</time>
      </trkpt>
      <trkpt lat="31.206482649367363" lon="121.61152232693694">
        <ele>5.863637188449502</ele>
        <time>2020-03-14T23:42:05Z</time>
      </trkpt>
      <trkpt lat="31.206448434700686" lon="121.61159091627363">
        <ele>6.983085417188704</ele>
        <time>2020-03-14T23:42:08Z</time>
      </trkpt>
      <trkpt lat="31.206226969970423" lon="121.6118782908542">
        <ele>7.145343197509646</ele>
        <time>2020-03-14T23:42:23Z</time>
      </trkpt>
      <trkpt lat="31.206152884336014" lon="121.61196396098613">
        <ele>6.924020567908883</ele>
        <time>2020-03-14T23:42:27Z</time>
      </trkpt>
      <trkpt lat="31.20608397859704" lon="121.61201249140687">
        <ele>7.285223399288952</ele>
        <time>2020-03-14T23:42:30Z</time>
      </trkpt>
      <trkpt lat="31.206057897986298" lon="121.61207945209259">
        <ele>6.618361804634333</ele>
        <time>2020-03-14T23:42:34Z</time>
      </trkpt>
      <trkpt lat="31.20604236376658" lon="121.61218219503498">
        <ele>7.016641199588776</ele>
        <time>2020-03-14T23:42:38Z</time>
      </trkpt>
      <trkpt lat="31.20579025049681" lon="121.61247444428112">
        <ele>7.719351231120527</ele>
        <time>2020-03-14T23:42:53Z</time>
      </trkpt>
      <trkpt lat="31.2057075197728" lon="121.61251809530746">
        <ele>7.835472523234785</ele>
        <time>2020-03-14T23:42:57Z</time>
      </trkpt>
      <trkpt lat="31.205658990992735" lon="121.6125124066049">
        <ele>8.462266110815108</ele>
        <time>2020-03-14T23:43:00Z</time>
      </trkpt>
      <trkpt lat="31.20559300669673" lon="121.61263683823337">
        <ele>7.877838878892362</ele>
        <time>2020-03-14T23:43:19Z</time>
      </trkpt>
      <trkpt lat="31.205410123234664" lon="121.61281034407698">
        <ele>9.635871108621359</ele>
        <time>2020-03-14T23:43:40Z</time>
      </trkpt>
      <trkpt lat="31.20528633286998" lon="121.61300037938906">
        <ele>9.096894362010062</ele>
        <time>2020-03-14T23:43:51Z</time>
      </trkpt>
      <trkpt lat="31.205081185745353" lon="121.61320858182538">
        <ele>8.01293115876615</ele>
        <time>2020-03-14T23:44:03Z</time>
      </trkpt>
      <trkpt lat="31.20496555000422" lon="121.61337015071494">
        <ele>7.266125827096403</ele>
        <time>2020-03-14T23:44:10Z</time>
      </trkpt>
      <trkpt lat="31.204746578659798" lon="121.61357049000335">
        <ele>8.159331761300564</ele>
        <time>2020-03-14T23:44:20Z</time>
      </trkpt>
      <trkpt lat="31.204603003880678" lon="121.61374398569049">
        <ele>7.36685891635716</ele>
        <time>2020-03-14T23:44:28Z</time>
      </trkpt>
      <trkpt lat="31.20437321313108" lon="121.61391016846387">
        <ele>7.8192894123494625</ele>
        <time>2020-03-14T23:44:38Z</time>
      </trkpt>
      <trkpt lat="31.204147454201927" lon="121.61411673818792">
        <ele>7.5963698253035545</ele>
        <time>2020-03-14T23:44:49Z</time>
      </trkpt>
      <trkpt lat="31.2040038662451" lon="121.61430161444196">
        <ele>7.570599575527012</ele>
        <time>2020-03-14T23:44:57Z</time>
      </trkpt>
      <trkpt lat="31.203793014255123" lon="121.61451116117647">
        <ele>8.02162251714617</ele>
        <time>2020-03-14T23:45:07Z</time>
      </trkpt>
      <trkpt lat="31.203725175439068" lon="121.61457486549646">
        <ele>8.252329510636628</ele>
        <time>2020-03-14T23:45:11Z</time>
      </trkpt>
      <trkpt lat="31.203692307028323" lon="121.6146453431849">
        <ele>7.174768591299653</ele>
        <time>2020-03-14T23:45:14Z</time>
      </trkpt>
      <trkpt lat="31.203754778682168" lon="121.61482965618897">
        <ele>8.170203604735434</ele>
        <time>2020-03-14T23:45:21Z</time>
      </trkpt>
      <trkpt lat="31.20380594057195" lon="121.61492397894301">
        <ele>6.639787171036005</ele>
        <time>2020-03-14T23:45:25Z</time>
      </trkpt>
      <trkpt lat="31.203788495386274" lon="121.61502914911563">
        <ele>7.290767705067992</ele>
        <time>2020-03-14T23:45:29Z</time>
      </trkpt>
      <trkpt lat="31.203677513937613" lon="121.61512782132294">
        <ele>7.277524852193892</ele>
        <time>2020-03-14T23:45:43Z</time>
      </trkpt>
      <trkpt lat="31.2035960487271" lon="121.61526823244208">
        <ele>6.524178881198168</ele>
        <time>2020-03-14T23:45:50Z</time>
      </trkpt>
      <trkpt lat="31.20337494047435" lon="121.61541732784458">
        <ele>6.419072639197111</ele>
        <time>2020-03-14T23:46:02Z</time>
      </trkpt>
      <trkpt lat="31.20315971957208" lon="121.61565153038288">
        <ele>6.169590442441404</ele>
        <time>2020-03-14T23:46:17Z</time>
      </trkpt>
      <trkpt lat="31.202949938216307" lon="121.61586513091348">
        <ele>11.589949399232864</ele>
        <time>2020-03-14T23:46:30Z</time>
      </trkpt>
      <trkpt lat="31.202894846581177" lon="121.6159212413998">
        <ele>8.446733012795448</ele>
        <time>2020-03-14T23:46:34Z</time>
      </trkpt>
      <trkpt lat="31.20283625490389" lon="121.61595024781094">
        <ele>7.110759646631777</ele>
        <time>2020-03-14T23:46:37Z</time>
      </trkpt>
      <trkpt lat="31.202720384081903" lon="121.61605515061703">
        <ele>5.164322164840996</ele>
        <time>2020-03-14T23:46:44Z</time>
      </trkpt>
      <trkpt lat="31.202673119753243" lon="121.61614947672814">
        <ele>5.336058273911476</ele>
        <time>2020-03-14T23:46:48Z</time>
      </trkpt>
      <trkpt lat="31.202459813668984" lon="121.61635900761246">
        <ele>4.974960182793438</ele>
        <time>2020-03-14T23:47:01Z</time>
      </trkpt>
      <trkpt lat="31.202213604780347" lon="121.61666855137197">
        <ele>4.998331353999674</ele>
        <time>2020-03-14T23:47:16Z</time>
      </trkpt>
      <trkpt lat="31.201980204664082" lon="121.6169057247546">
        <ele>6.0989244086667895</ele>
        <time>2020-03-14T23:47:30Z</time>
      </trkpt>
      <trkpt lat="31.201885470047227" lon="121.61701983676735">
        <ele>5.288254880346358</ele>
        <time>2020-03-14T23:47:36Z</time>
      </trkpt>
      <trkpt lat="31.201778051283277" lon="121.61707161245678">
        <ele>5.877440119162202</ele>
        <time>2020-03-14T23:47:43Z</time>
      </trkpt>
      <trkpt lat="31.201592090135748" lon="121.61731528270253">
        <ele>6.218828020617366</ele>
        <time>2020-03-14T23:47:53Z</time>
      </trkpt>
      <trkpt lat="31.20148002173498" lon="121.61740825420908">
        <ele>5.289739695377648</ele>
        <time>2020-03-14T23:47:59Z</time>
      </trkpt>
      <trkpt lat="31.201361678760865" lon="121.6175405245396">
        <ele>5.571768726222217</ele>
        <time>2020-03-14T23:48:06Z</time>
      </trkpt>
      <trkpt lat="31.201308721472987" lon="121.61762888290636">
        <ele>4.874773855321109</ele>
        <time>2020-03-14T23:48:10Z</time>
      </trkpt>
      <trkpt lat="31.201169482852812" lon="121.61777877025492">
        <ele>5.14192371815443</ele>
        <time>2020-03-14T23:48:22Z</time>
      </trkpt>
      <trkpt lat="31.201019086294476" lon="121.61796985274891">
        <ele>4.736409928649664</ele>
        <time>2020-03-14T23:48:39Z</time>
      </trkpt>
      <trkpt lat="31.200779730216784" lon="121.61818722990078">
        <ele>6.42246128898114</ele>
        <time>2020-03-14T23:49:01Z</time>
      </trkpt>
      <trkpt lat="31.20056009596713" lon="121.61847371243083">
        <ele>3.9667715402320027</ele>
        <time>2020-03-14T23:49:18Z</time>
      </trkpt>
      <trkpt lat="31.20036574720207" lon="121.61868837138461">
        <ele>3.9458042979240417</ele>
        <time>2020-03-14T23:49:29Z</time>
      </trkpt>
      <trkpt lat="31.200256316599678" lon="121.61884936139968">
        <ele>3.6018986124545336</ele>
        <time>2020-03-14T23:49:36Z</time>
      </trkpt>
      <trkpt lat="31.200051633894482" lon="121.61909138987875">
        <ele>3.660035215318203</ele>
        <time>2020-03-14T23:49:48Z</time>
      </trkpt>
      <trkpt lat="31.19984341042819" lon="121.61934696663364">
        <ele>4.47871177457273</ele>
        <time>2020-03-14T23:50:02Z</time>
      </trkpt>
      <trkpt lat="31.19960431306269" lon="121.61956649998343">
        <ele>5.392041420564055</ele>
        <time>2020-03-14T23:50:15Z</time>
      </trkpt>
      <trkpt lat="31.19946154576089" lon="121.61971068511698">
        <ele>5.528301688842475</ele>
        <time>2020-03-14T23:50:23Z</time>
      </trkpt>
      <trkpt lat="31.19928597481309" lon="121.6198508071534">
        <ele>5.7020916743204</ele>
        <time>2020-03-14T23:50:37Z</time>
      </trkpt>
      <trkpt lat="31.199224327939696" lon="121.61994512016837">
        <ele>6.890424094162881</ele>
        <time>2020-03-14T23:50:44Z</time>
      </trkpt>
      <trkpt lat="31.198939699592408" lon="121.62014215942908">
        <ele>6.0623619221150875</ele>
        <time>2020-03-14T23:51:11Z</time>
      </trkpt>
      <trkpt lat="31.198855266720024" lon="121.62024568713673">
        <ele>5.804291394539177</ele>
        <time>2020-03-14T23:51:18Z</time>
      </trkpt>
      <trkpt lat="31.198588549019718" lon="121.62042619198952">
        <ele>5.869454832747579</ele>
        <time>2020-03-14T23:51:36Z</time>
      </trkpt>
      <trkpt lat="31.19856082238064" lon="121.62049231679191">
        <ele>6.952408294193447</ele>
        <time>2020-03-14T23:51:39Z</time>
      </trkpt>
      <trkpt lat="31.198332002199386" lon="121.62072809904174">
        <ele>6.048020207323134</ele>
        <time>2020-03-14T23:51:56Z</time>
      </trkpt>
      <trkpt lat="31.19810537436711" lon="121.62094084493944">
        <ele>6.758792967535555</ele>
        <time>2020-03-14T23:52:08Z</time>
      </trkpt>
      <trkpt lat="31.197861364545872" lon="121.62117906328943">
        <ele>5.800437065772712</ele>
        <time>2020-03-14T23:52:22Z</time>
      </trkpt>
      <trkpt lat="31.197626889264132" lon="121.62137500516086">
        <ele>6.230628255754709</ele>
        <time>2020-03-14T23:52:35Z</time>
      </trkpt>
      <trkpt lat="31.197369593247434" lon="121.62161078185581">
        <ele>6.177383326925337</ele>
        <time>2020-03-14T23:52:49Z</time>
      </trkpt>
      <trkpt lat="31.19715733335332" lon="121.6218199967151">
        <ele>5.845159694552422</ele>
        <time>2020-03-14T23:53:00Z</time>
      </trkpt>
      <trkpt lat="31.196882996787934" lon="121.6220164791117">
        <ele>5.869323551654816</ele>
        <time>2020-03-14T23:53:19Z</time>
      </trkpt>
      <trkpt lat="31.196827644647257" lon="121.62205279470524">
        <ele>5.686512039974332</ele>
        <time>2020-03-14T23:53:23Z</time>
      </trkpt>
      <trkpt lat="31.196629731288446" lon="121.62228016026106">
        <ele>6.3976520942524076</ele>
        <time>2020-03-14T23:53:44Z</time>
      </trkpt>
      <trkpt lat="31.19661229567912" lon="121.6223533249149">
        <ele>6.584640356712043</ele>
        <time>2020-03-14T23:53:48Z</time>
      </trkpt>
      <trkpt lat="31.19662631200285" lon="121.6224259448191">
        <ele>5.587145485915244</ele>
        <time>2020-03-14T23:53:52Z</time>
      </trkpt>
      <trkpt lat="31.196665548831437" lon="121.62249395589822">
        <ele>6.05854154471308</ele>
        <time>2020-03-14T23:53:59Z</time>
      </trkpt>
      <trkpt lat="31.196703059135242" lon="121.62264894894446">
        <ele>2.9890252090990543</ele>
        <time>2020-03-14T23:54:10Z</time>
      </trkpt>
      <trkpt lat="31.19671858156212" lon="121.62282589147944">
        <ele>6.655165287666023</ele>
        <time>2020-03-14T23:54:21Z</time>
      </trkpt>
      <trkpt lat="31.196786855270986" lon="121.62310525419535">
        <ele>6.813101573847234</ele>
        <time>2020-03-14T23:54:48Z</time>
      </trkpt>
      <trkpt lat="31.19682386612733" lon="121.62345289952358">
        <ele>5.311130992136896</ele>
        <time>2020-03-14T23:55:10Z</time>
      </trkpt>
      <trkpt lat="31.196863006399763" lon="121.62360111292325">
        <ele>6.246034102514386</ele>
        <time>2020-03-14T23:55:18Z</time>
      </trkpt>
      <trkpt lat="31.196859060695587" lon="121.62372819415643">
        <ele>6.150652879849076</ele>
        <time>2020-03-14T23:55:25Z</time>
      </trkpt>
      <trkpt lat="31.19690710077891" lon="121.62391542345426">
        <ele>5.497051940299571</ele>
        <time>2020-03-14T23:55:36Z</time>
      </trkpt>
      <trkpt lat="31.19693619723004" lon="121.62407176392284">
        <ele>5.664044353179634</ele>
        <time>2020-03-14T23:55:46Z</time>
      </trkpt>
      <trkpt lat="31.196953396385304" lon="121.62397286286124">
        <ele>6.130083301104605</ele>
        <time>2020-03-14T23:55:53Z</time>
      </trkpt>
      <trkpt lat="31.196942940394685" lon="121.6236439182765">
        <ele>6.164299094118178</ele>
        <time>2020-03-14T23:56:07Z</time>
      </trkpt>
      <trkpt lat="31.19689532424045" lon="121.62332472756877">
        <ele>5.980576043017209</ele>
        <time>2020-03-14T23:56:18Z</time>
      </trkpt>
      <trkpt lat="31.196795159441013" lon="121.62295838902145">
        <ele>5.447476673871279</ele>
        <time>2020-03-14T23:56:32Z</time>
      </trkpt>
      <trkpt lat="31.19679200034852" lon="121.6228765566971">
        <ele>5.2165164751932025</ele>
        <time>2020-03-14T23:56:35Z</time>
      </trkpt>
      <trkpt lat="31.196852559926942" lon="121.62279255109159">
        <ele>5.331078703515232</ele>
        <time>2020-03-14T23:56:39Z</time>
      </trkpt>
      <trkpt lat="31.196990176255156" lon="121.62266057695348">
        <ele>4.308367190882564</ele>
        <time>2020-03-14T23:56:47Z</time>
      </trkpt>
      <trkpt lat="31.197024413588032" lon="121.62259554090653">
        <ele>4.9092254573479295</ele>
        <time>2020-03-14T23:56:50Z</time>
      </trkpt>
      <trkpt lat="31.19709499661902" lon="121.6225183079205">
        <ele>3.4870429914444685</ele>
        <time>2020-03-14T23:56:54Z</time>
      </trkpt>
      <trkpt lat="31.197311509538896" lon="121.62238822273181">
        <ele>4.811477045528591</ele>
        <time>2020-03-14T23:57:05Z</time>
      </trkpt>
      <trkpt lat="31.19754143780398" lon="121.62214297099412">
        <ele>6.036443734541535</ele>
        <time>2020-03-14T23:57:18Z</time>
      </trkpt>
      <trkpt lat="31.197623642722004" lon="121.62209744008213">
        <ele>6.133194589987397</ele>
        <time>2020-03-14T23:57:22Z</time>
      </trkpt>
      <trkpt lat="31.19775067886892" lon="121.62196817319526">
        <ele>6.169705367647111</ele>
        <time>2020-03-14T23:57:29Z</time>
      </trkpt>
      <trkpt lat="31.19779495490221" lon="121.6218958182063">
        <ele>7.4609052846208215</ele>
        <time>2020-03-14T23:57:32Z</time>
      </trkpt>
      <trkpt lat="31.197867954267053" lon="121.62183836453143">
        <ele>6.46952466852963</ele>
        <time>2020-03-14T23:57:36Z</time>
      </trkpt>
      <trkpt lat="31.19798863914807" lon="121.62181125656038">
        <ele>5.236946200020611</ele>
        <time>2020-03-14T23:57:42Z</time>
      </trkpt>
      <trkpt lat="31.1981891957566" lon="121.62164214792388">
        <ele>5.437521517276764</ele>
        <time>2020-03-14T23:57:58Z</time>
      </trkpt>
      <trkpt lat="31.198244075631855" lon="121.62154242193179">
        <ele>6.197049101814628</ele>
        <time>2020-03-14T23:58:05Z</time>
      </trkpt>
      <trkpt lat="31.19847154596387" lon="121.62130718906907">
        <ele>6.792395708151162</ele>
        <time>2020-03-14T23:58:31Z</time>
      </trkpt>
      <trkpt lat="31.198493564204565" lon="121.62125597100956">
        <ele>6.400371537543833</ele>
        <time>2020-03-14T23:58:35Z</time>
      </trkpt>
      <trkpt lat="31.198721544398254" lon="121.62104837632116">
        <ele>7.352983795106411</ele>
        <time>2020-03-14T23:58:54Z</time>
      </trkpt>
      <trkpt lat="31.198862650917327" lon="121.62094132425261">
        <ele>6.463930985890329</ele>
        <time>2020-03-14T23:59:05Z</time>
      </trkpt>
      <trkpt lat="31.198889015231142" lon="121.62088224642734">
        <ele>6.418551132082939</ele>
        <time>2020-03-14T23:59:09Z</time>
      </trkpt>
      <trkpt lat="31.199058941783555" lon="121.62070093976568">
        <ele>5.381451574154198</ele>
        <time>2020-03-14T23:59:24Z</time>
      </trkpt>
      <trkpt lat="31.199207610208042" lon="121.62062044290197">
        <ele>6.218531253747642</ele>
        <time>2020-03-14T23:59:35Z</time>
      </trkpt>
      <trkpt lat="31.199323104868146" lon="121.62062829211779">
        <ele>5.57932436466217</ele>
        <time>2020-03-14T23:59:42Z</time>
      </trkpt>
      <trkpt lat="31.199372394213608" lon="121.6206811314501">
        <ele>6.163015138357878</ele>
        <time>2020-03-14T23:59:45Z</time>
      </trkpt>
      <trkpt lat="31.199565927731204" lon="121.62073314576608">
        <ele>6.622393718920648</ele>
        <time>2020-03-14T23:59:59Z</time>
      </trkpt>
      <trkpt lat="31.199862264239535" lon="121.62074531583767">
        <ele>5.321831906214356</ele>
        <time>2020-03-15T00:00:21Z</time>
      </trkpt>
      <trkpt lat="31.199934932039255" lon="121.62074178694222">
        <ele>5.3247812651097775</ele>
        <time>2020-03-15T00:00:29Z</time>
      </trkpt>
      <trkpt lat="31.20011464650643" lon="121.62078567256673">
        <ele>4.405058177188039</ele>
        <time>2020-03-15T00:00:43Z</time>
      </trkpt>
      <trkpt lat="31.200354044025325" lon="121.62079866029606">
        <ele>6.4010945269837976</ele>
        <time>2020-03-15T00:01:00Z</time>
      </trkpt>
      <trkpt lat="31.200416366400113" lon="121.62083415485105">
        <ele>5.864169530570507</ele>
        <time>2020-03-15T00:01:04Z</time>
      </trkpt>
      <trkpt lat="31.200621352841175" lon="121.6208260081866">
        <ele>5.642638597637415</ele>
        <time>2020-03-15T00:01:22Z</time>
      </trkpt>
      <trkpt lat="31.200722174226982" lon="121.62086339644614">
        <ele>5.834367549046874</ele>
        <time>2020-03-15T00:01:30Z</time>
      </trkpt>
      <trkpt lat="31.200974303364" lon="121.62088722266218">
        <ele>5.725500173866749</ele>
        <time>2020-03-15T00:01:47Z</time>
      </trkpt>
      <trkpt lat="31.20103686934366" lon="121.62094791904782">
        <ele>5.837517213076353</ele>
        <time>2020-03-15T00:01:51Z</time>
      </trkpt>
      <trkpt lat="31.201340773360283" lon="121.6209825804418">
        <ele>6.4736666195094585</ele>
        <time>2020-03-15T00:02:12Z</time>
      </trkpt>
      <trkpt lat="31.201640872943397" lon="121.62102510075776">
        <ele>5.58903281763196</ele>
        <time>2020-03-15T00:02:34Z</time>
      </trkpt>
      <trkpt lat="31.201776927147705" lon="121.62107576420674">
        <ele>2.6409614998847246</ele>
        <time>2020-03-15T00:02:42Z</time>
      </trkpt>
      <trkpt lat="31.201940125624205" lon="121.62109824265194">
        <ele>4.562566703185439</ele>
        <time>2020-03-15T00:02:49Z</time>
      </trkpt>
      <trkpt lat="31.202117378847007" lon="121.6211610969499">
        <ele>3.9757773615419865</ele>
        <time>2020-03-15T00:02:56Z</time>
      </trkpt>
      <trkpt lat="31.202364625824703" lon="121.62118654921547">
        <ele>4.427588861435652</ele>
        <time>2020-03-15T00:03:07Z</time>
      </trkpt>
      <trkpt lat="31.2024630843436" lon="121.62115320972525">
        <ele>4.6603787541389465</ele>
        <time>2020-03-15T00:03:18Z</time>
      </trkpt>
      <trkpt lat="31.202510801104943" lon="121.62115591564273">
        <ele>4.277654358185828</ele>
        <time>2020-03-15T00:03:58Z</time>
      </trkpt>
      <trkpt lat="31.202457106595052" lon="121.62116486264493">
        <ele>4.459476684220135</ele>
        <time>2020-03-15T00:04:05Z</time>
      </trkpt>
      <trkpt lat="31.2024607192437" lon="121.6210846502">
        <ele>5.06619936414063</ele>
        <time>2020-03-15T00:04:43Z</time>
      </trkpt>
      <trkpt lat="31.202405066868412" lon="121.6209001117434">
        <ele>5.728788168169558</ele>
        <time>2020-03-15T00:04:50Z</time>
      </trkpt>
      <trkpt lat="31.202387347881313" lon="121.62073806110885">
        <ele>5.987167912535369</ele>
        <time>2020-03-15T00:04:57Z</time>
      </trkpt>
      <trkpt lat="31.202438037181803" lon="121.620749980514">
        <ele>5.2518354235216975</ele>
        <time>2020-03-15T00:05:53Z</time>
      </trkpt>
      <trkpt lat="31.202431245305554" lon="121.62076244665226">
        <ele>5.107905988581479</ele>
        <time>2020-03-15T00:06:04Z</time>
      </trkpt>
      <trkpt lat="31.202429073290233" lon="121.62076515673908">
        <ele>4.109200648963451</ele>
        <time>2020-03-15T00:06:11Z</time>
      </trkpt>
      <trkpt lat="31.202403205428194" lon="121.62036381857733">
        <ele>5.051490347832441</ele>
        <time>2020-03-15T00:06:33Z</time>
      </trkpt>
      <trkpt lat="31.202448083034874" lon="121.62023238202151">
        <ele>3.8426233986392617</ele>
        <time>2020-03-15T00:06:41Z</time>
      </trkpt>
      <trkpt lat="31.202435285070564" lon="121.62028360131877">
        <ele>4.6487264186143875</ele>
        <time>2020-03-15T00:07:22Z</time>
      </trkpt>
      <trkpt lat="31.202418420574375" lon="121.62033427886115">
        <ele>4.625211240723729</ele>
        <time>2020-03-15T00:08:10Z</time>
      </trkpt>
      <trkpt lat="31.202484009989874" lon="121.62035785000266">
        <ele>4.201898833736777</ele>
        <time>2020-03-15T00:08:14Z</time>
      </trkpt>
      <trkpt lat="31.202551275781126" lon="121.62033508085227">
        <ele>4.275582516565919</ele>
        <time>2020-03-15T00:08:17Z</time>
      </trkpt>
      <trkpt lat="31.202718291101966" lon="121.62033858996779">
        <ele>4.099191710352898</ele>
        <time>2020-03-15T00:08:24Z</time>
      </trkpt>
      <trkpt lat="31.202812972487283" lon="121.62028682201165">
        <ele>3.4401708552613854</ele>
        <time>2020-03-15T00:08:28Z</time>
      </trkpt>
      <trkpt lat="31.202850199743377" lon="121.62021012704393">
        <ele>4.126333792693913</ele>
        <time>2020-03-15T00:08:32Z</time>
      </trkpt>
      <trkpt lat="31.202803029317753" lon="121.61994780503737">
        <ele>2.9166732197627425</ele>
        <time>2020-03-15T00:08:43Z</time>
      </trkpt>
      <trkpt lat="31.202759510820606" lon="121.61982043869246">
        <ele>5.489514282904565</ele>
        <time>2020-03-15T00:08:47Z</time>
      </trkpt>
      <trkpt lat="31.202693409697172" lon="121.61950797862403">
        <ele>5.563549690879881</ele>
        <time>2020-03-15T00:08:59Z</time>
      </trkpt>
      <trkpt lat="31.202621554946884" lon="121.61925025861015">
        <ele>4.201335065998137</ele>
        <time>2020-03-15T00:09:10Z</time>
      </trkpt>
      <trkpt lat="31.202586228106195" lon="121.61906380832362">
        <ele>4.629733755253255</ele>
        <time>2020-03-15T00:09:17Z</time>
      </trkpt>
      <trkpt lat="31.202552951529736" lon="121.61899253572483">
        <ele>3.5496309297159314</ele>
        <time>2020-03-15T00:09:21Z</time>
      </trkpt>
      <trkpt lat="31.20254490470063" lon="121.61890716831043">
        <ele>3.648683486506343</ele>
        <time>2020-03-15T00:09:24Z</time>
      </trkpt>
      <trkpt lat="31.202505144487894" lon="121.61881231784103">
        <ele>4.586125386878848</ele>
        <time>2020-03-15T00:09:28Z</time>
      </trkpt>
      <trkpt lat="31.202501463572407" lon="121.61869903519111">
        <ele>2.6642070589587092</ele>
        <time>2020-03-15T00:09:32Z</time>
      </trkpt>
      <trkpt lat="31.20260404464573" lon="121.61860796635393">
        <ele>4.696500229649246</ele>
        <time>2020-03-15T00:09:39Z</time>
      </trkpt>
      <trkpt lat="31.202757861750865" lon="121.61852502338085">
        <ele>4.100790809839964</ele>
        <time>2020-03-15T00:09:49Z</time>
      </trkpt>
      <trkpt lat="31.202786975336284" lon="121.61842339039606">
        <ele>4.251292009837925</ele>
        <time>2020-03-15T00:09:53Z</time>
      </trkpt>
      <trkpt lat="31.202833140241424" lon="121.61835156738917">
        <ele>4.121420850977302</ele>
        <time>2020-03-15T00:09:56Z</time>
      </trkpt>
      <trkpt lat="31.202823198970158" lon="121.61826077762478">
        <ele>5.240399892441928</ele>
        <time>2020-03-15T00:10:00Z</time>
      </trkpt>
      <trkpt lat="31.202783682943917" lon="121.61819085836783">
        <ele>5.061301162466407</ele>
        <time>2020-03-15T00:10:04Z</time>
      </trkpt>
      <trkpt lat="31.202760458508806" lon="121.61809708791353">
        <ele>5.371192459948361</ele>
        <time>2020-03-15T00:10:10Z</time>
      </trkpt>
      <trkpt lat="31.202710375329794" lon="121.61801958052212">
        <ele>4.809912812896073</ele>
        <time>2020-03-15T00:10:14Z</time>
      </trkpt>
      <trkpt lat="31.20260113308637" lon="121.61771848478067">
        <ele>5.430431915447116</ele>
        <time>2020-03-15T00:10:26Z</time>
      </trkpt>
      <trkpt lat="31.20254076188457" lon="121.61762444460362">
        <ele>6.65106032975018</ele>
        <time>2020-03-15T00:10:30Z</time>
      </trkpt>
      <trkpt lat="31.202462955855115" lon="121.61733499565918">
        <ele>5.684282054193318</ele>
        <time>2020-03-15T00:10:48Z</time>
      </trkpt>
      <trkpt lat="31.202500162458275" lon="121.61727157213149">
        <ele>6.216750172898173</ele>
        <time>2020-03-15T00:10:55Z</time>
      </trkpt>
      <trkpt lat="31.20256798267788" lon="121.61723362258479">
        <ele>5.948746779002249</ele>
        <time>2020-03-15T00:11:02Z</time>
      </trkpt>
      <trkpt lat="31.202658921809466" lon="121.61712005393335">
        <ele>5.424523318186402</ele>
        <time>2020-03-15T00:11:12Z</time>
      </trkpt>
      <trkpt lat="31.202802190044356" lon="121.61700593837013">
        <ele>5.415478806942701</ele>
        <time>2020-03-15T00:11:23Z</time>
      </trkpt>
      <trkpt lat="31.202862733359495" lon="121.6169216426327">
        <ele>5.310206721536815</ele>
        <time>2020-03-15T00:11:29Z</time>
      </trkpt>
      <trkpt lat="31.202937313491045" lon="121.61690266423395">
        <ele>5.945258324034512</ele>
        <time>2020-03-15T00:11:35Z</time>
      </trkpt>
      <trkpt lat="31.203146534496007" lon="121.61671671830418">
        <ele>5.809097139164805</ele>
        <time>2020-03-15T00:11:56Z</time>
      </trkpt>
      <trkpt lat="31.203196981447004" lon="121.61669991001742">
        <ele>6.62250407692045</ele>
        <time>2020-03-15T00:12:00Z</time>
      </trkpt>
      <trkpt lat="31.203343808874003" lon="121.61654730515042">
        <ele>6.38714687526226</ele>
        <time>2020-03-15T00:12:15Z</time>
      </trkpt>
      <trkpt lat="31.203541061307075" lon="121.61640038695127">
        <ele>6.059673808515072</ele>
        <time>2020-03-15T00:12:29Z</time>
      </trkpt>
      <trkpt lat="31.203590209116914" lon="121.61632259500044">
        <ele>6.870501197874546</ele>
        <time>2020-03-15T00:12:33Z</time>
      </trkpt>
      <trkpt lat="31.203845532334668" lon="121.61612254675289">
        <ele>7.004542123526335</ele>
        <time>2020-03-15T00:12:47Z</time>
      </trkpt>
      <trkpt lat="31.20397442447627" lon="121.61601059607483">
        <ele>7.529321262612939</ele>
        <time>2020-03-15T00:12:54Z</time>
      </trkpt>
      <trkpt lat="31.204101090824764" lon="121.61596017176602">
        <ele>5.333844187669456</ele>
        <time>2020-03-15T00:13:00Z</time>
      </trkpt>
      <trkpt lat="31.204182150326073" lon="121.61597100675445">
        <ele>5.521808275021613</ele>
        <time>2020-03-15T00:13:04Z</time>
      </trkpt>
      <trkpt lat="31.204393162442347" lon="121.6161908035864">
        <ele>5.274343999102712</ele>
        <time>2020-03-15T00:13:15Z</time>
      </trkpt>
      <trkpt lat="31.204522105842777" lon="121.6163170971499">
        <ele>5.383587415330112</ele>
        <time>2020-03-15T00:13:22Z</time>
      </trkpt>
      <trkpt lat="31.204539576002734" lon="121.61619024939601">
        <ele>7.717523920349777</ele>
        <time>2020-03-15T00:13:30Z</time>
      </trkpt>
      <trkpt lat="31.204485649361352" lon="121.6161585421764">
        <ele>6.720283919014037</ele>
        <time>2020-03-15T00:13:33Z</time>
      </trkpt>
      <trkpt lat="31.20443610727323" lon="121.61607642096189">
        <ele>6.676969556137919</ele>
        <time>2020-03-15T00:13:37Z</time>
      </trkpt>
      <trkpt lat="31.204208832058573" lon="121.61585011939601">
        <ele>7.321552445180714</ele>
        <time>2020-03-15T00:13:52Z</time>
      </trkpt>
      <trkpt lat="31.20399835782112" lon="121.61563221675871">
        <ele>6.363181904889643</ele>
        <time>2020-03-15T00:14:14Z</time>
      </trkpt>
      <trkpt lat="31.203951744851327" lon="121.6156075554107">
        <ele>6.713907663710415</ele>
        <time>2020-03-15T00:14:18Z</time>
      </trkpt>
      <trkpt lat="31.203865060019467" lon="121.6155205565523">
        <ele>6.510781843215227</ele>
        <time>2020-03-15T00:14:28Z</time>
      </trkpt>
      <trkpt lat="31.203836601312325" lon="121.61550890386916">
        <ele>6.907676137983799</ele>
        <time>2020-03-15T00:14:48Z</time>
      </trkpt>
      <trkpt lat="31.20384555876444" lon="121.61549779018094">
        <ele>5.418725745752454</ele>
        <time>2020-03-15T00:14:55Z</time>
      </trkpt>
      <trkpt lat="31.20380193425104" lon="121.61546635225166">
        <ele>6.623256240040064</ele>
        <time>2020-03-15T00:15:09Z</time>
      </trkpt>
      <trkpt lat="31.203726101903822" lon="121.61537094946982">
        <ele>6.438390618190169</ele>
        <time>2020-03-15T00:15:27Z</time>
      </trkpt>
      <trkpt lat="31.20365510494603" lon="121.61532569011885">
        <ele>6.447930362075567</ele>
        <time>2020-03-15T00:15:34Z</time>
      </trkpt>
      <trkpt lat="31.20358950693914" lon="121.61530699312186">
        <ele>6.773264485411346</ele>
        <time>2020-03-15T00:15:49Z</time>
      </trkpt>
      <trkpt lat="31.203551557694734" lon="121.61529615426986">
        <ele>6.853278234601021</ele>
        <time>2020-03-15T00:16:01Z</time>
      </trkpt>
      <trkpt lat="31.203668848890747" lon="121.61511508260533">
        <ele>6.576615484431386</ele>
        <time>2020-03-15T00:16:14Z</time>
      </trkpt>
      <trkpt lat="31.20378554872215" lon="121.61498849139986">
        <ele>6.9155158288776875</ele>
        <time>2020-03-15T00:16:22Z</time>
      </trkpt>
      <trkpt lat="31.203842568076563" lon="121.6148963283877">
        <ele>6.525589312426746</ele>
        <time>2020-03-15T00:16:26Z</time>
      </trkpt>
      <trkpt lat="31.203910145049413" lon="121.61482286696184">
        <ele>7.462430248968303</ele>
        <time>2020-03-15T00:16:30Z</time>
      </trkpt>
      <trkpt lat="31.204041417798823" lon="121.61477325295886">
        <ele>6.0954360365867615</ele>
        <time>2020-03-15T00:16:36Z</time>
      </trkpt>
      <trkpt lat="31.204124375474937" lon="121.61478435938035">
        <ele>6.134317451156676</ele>
        <time>2020-03-15T00:16:40Z</time>
      </trkpt>
      <trkpt lat="31.204237347818445" lon="121.6148884351616">
        <ele>5.049823910929263</ele>
        <time>2020-03-15T00:16:47Z</time>
      </trkpt>
      <trkpt lat="31.20430234362507" lon="121.61497570915124">
        <ele>4.839612975716591</ele>
        <time>2020-03-15T00:16:51Z</time>
      </trkpt>
      <trkpt lat="31.20432450480967" lon="121.61505729426376">
        <ele>5.485487308353186</ele>
        <time>2020-03-15T00:16:54Z</time>
      </trkpt>
      <trkpt lat="31.204430231049063" lon="121.61507598813587">
        <ele>3.6321796476840973</ele>
        <time>2020-03-15T00:17:01Z</time>
      </trkpt>
      <trkpt lat="31.204463625665184" lon="121.61502502748702">
        <ele>5.251261536031961</ele>
        <time>2020-03-15T00:17:04Z</time>
      </trkpt>
      <trkpt lat="31.20453495717928" lon="121.6149990004972">
        <ele>6.199287389405072</ele>
        <time>2020-03-15T00:17:08Z</time>
      </trkpt>
      <trkpt lat="31.204600569538975" lon="121.61500170560231">
        <ele>6.071350406855345</ele>
        <time>2020-03-15T00:17:12Z</time>
      </trkpt>
      <trkpt lat="31.204640491272002" lon="121.6149279757331">
        <ele>6.604899133555591</ele>
        <time>2020-03-15T00:17:15Z</time>
      </trkpt>
      <trkpt lat="31.2046532855062" lon="121.61486996905444">
        <ele>7.779691916890442</ele>
        <time>2020-03-15T00:17:18Z</time>
      </trkpt>
      <trkpt lat="31.204704593385937" lon="121.61479759311567">
        <ele>6.571171396411955</ele>
        <time>2020-03-15T00:17:25Z</time>
      </trkpt>
      <trkpt lat="31.204830955953884" lon="121.61478213249953">
        <ele>6.227426175028086</ele>
        <time>2020-03-15T00:17:31Z</time>
      </trkpt>
      <trkpt lat="31.204914490950102" lon="121.61475312262162">
        <ele>6.1410572761669755</ele>
        <time>2020-03-15T00:17:35Z</time>
      </trkpt>
      <trkpt lat="31.205088437538784" lon="121.61458180026054">
        <ele>5.758868090808392</ele>
        <time>2020-03-15T00:17:46Z</time>
      </trkpt>
      <trkpt lat="31.205118887341893" lon="121.61448611411362">
        <ele>6.6214277148246765</ele>
        <time>2020-03-15T00:17:53Z</time>
      </trkpt>
      <trkpt lat="31.205279491600493" lon="121.61437903229307">
        <ele>6.0017450684681535</ele>
        <time>2020-03-15T00:18:04Z</time>
      </trkpt>
      <trkpt lat="31.205399347203674" lon="121.6143630298237">
        <ele>7.062179860658944</ele>
        <time>2020-03-15T00:18:12Z</time>
      </trkpt>
      <trkpt lat="31.20549321462748" lon="121.61429932278581">
        <ele>7.287109836004674</ele>
        <time>2020-03-15T00:18:19Z</time>
      </trkpt>
      <trkpt lat="31.205685104838537" lon="121.61406727747554">
        <ele>6.801428468897939</ele>
        <time>2020-03-15T00:18:40Z</time>
      </trkpt>
      <trkpt lat="31.205762116517814" lon="121.614056428554">
        <ele>6.272970104590058</ele>
        <time>2020-03-15T00:18:47Z</time>
      </trkpt>
      <trkpt lat="31.205923573605716" lon="121.61390055295814">
        <ele>5.917553863488138</ele>
        <time>2020-03-15T00:19:05Z</time>
      </trkpt>
      <trkpt lat="31.206044383875014" lon="121.61371540439428">
        <ele>7.678725365549326</ele>
        <time>2020-03-15T00:19:19Z</time>
      </trkpt>
      <trkpt lat="31.206132850065558" lon="121.61362404705729">
        <ele>7.674401470459998</ele>
        <time>2020-03-15T00:19:27Z</time>
      </trkpt>
      <trkpt lat="31.206239972940175" lon="121.61359476274602">
        <ele>7.104595893062651</ele>
        <time>2020-03-15T00:19:34Z</time>
      </trkpt>
      <trkpt lat="31.206290161778877" lon="121.61356006171584">
        <ele>7.300818981602788</ele>
        <time>2020-03-15T00:19:38Z</time>
      </trkpt>
      <trkpt lat="31.206264728106003" lon="121.61349582024285">
        <ele>6.652440087869763</ele>
        <time>2020-03-15T00:19:42Z</time>
      </trkpt>
      <trkpt lat="31.206081102936192" lon="121.61324617834457">
        <ele>6.668077084235847</ele>
        <time>2020-03-15T00:19:59Z</time>
      </trkpt>
      <trkpt lat="31.206011710552872" lon="121.61322368499708">
        <ele>6.609390734694898</ele>
        <time>2020-03-15T00:20:05Z</time>
      </trkpt>
      <trkpt lat="31.20589707487824" lon="121.61315646816394">
        <ele>6.800062790513039</ele>
        <time>2020-03-15T00:20:24Z</time>
      </trkpt>
      <trkpt lat="31.205851837461115" lon="121.61310442559468">
        <ele>7.550301011651754</ele>
        <time>2020-03-15T00:20:27Z</time>
      </trkpt>
      <trkpt lat="31.20580991242463" lon="121.6129794632301">
        <ele>7.0519944950938225</ele>
        <time>2020-03-15T00:20:34Z</time>
      </trkpt>
      <trkpt lat="31.205918483126016" lon="121.61283442799258">
        <ele>5.9373969323933125</ele>
        <time>2020-03-15T00:20:41Z</time>
      </trkpt>
      <trkpt lat="31.20596844632848" lon="121.61274144393472">
        <ele>8.135122910141945</ele>
        <time>2020-03-15T00:20:45Z</time>
      </trkpt>
      <trkpt lat="31.205976892951803" lon="121.61268939600193">
        <ele>6.516004214063287</ele>
        <time>2020-03-15T00:20:48Z</time>
      </trkpt>
      <trkpt lat="31.205959233763462" lon="121.61273385448206">
        <ele>8.122632229700685</ele>
        <time>2020-03-15T00:21:25Z</time>
      </trkpt>
      <trkpt lat="31.205945665318673" lon="121.61274849387252">
        <ele>7.467225709930062</ele>
        <time>2020-03-15T00:21:33Z</time>
      </trkpt>
      <trkpt lat="31.20594349342462" lon="121.61275201807834">
        <ele>7.935638218186796</ele>
        <time>2020-03-15T00:21:43Z</time>
      </trkpt>
      <trkpt lat="31.205884948862348" lon="121.61272599932845">
        <ele>6.924031430855393</ele>
        <time>2020-03-15T00:21:55Z</time>
      </trkpt>
      <trkpt lat="31.205766826719202" lon="121.61260890257708">
        <ele>6.895130551420152</ele>
        <time>2020-03-15T00:22:02Z</time>
      </trkpt>
      <trkpt lat="31.205744920661306" lon="121.61253815224795">
        <ele>6.270787793211639</ele>
        <time>2020-03-15T00:22:05Z</time>
      </trkpt>
      <trkpt lat="31.205775349337852" lon="121.61246007815468">
        <ele>7.075803418643773</ele>
        <time>2020-03-15T00:22:09Z</time>
      </trkpt>
      <trkpt lat="31.205823935375477" lon="121.61239284562454">
        <ele>6.8411728059872985</ele>
        <time>2020-03-15T00:22:12Z</time>
      </trkpt>
      <trkpt lat="31.205969632833384" lon="121.61226786392959">
        <ele>6.939108205959201</ele>
        <time>2020-03-15T00:22:20Z</time>
      </trkpt>
      <trkpt lat="31.206008185318602" lon="121.61220198709896">
        <ele>6.840113844722509</ele>
        <time>2020-03-15T00:22:23Z</time>
      </trkpt>
      <trkpt lat="31.206249129599076" lon="121.6119742543747">
        <ele>8.101268073543906</ele>
        <time>2020-03-15T00:22:34Z</time>
      </trkpt>
      <trkpt lat="31.20645753607854" lon="121.61174597991541">
        <ele>6.821088206022978</ele>
        <time>2020-03-15T00:22:45Z</time>
      </trkpt>
      <trkpt lat="31.206584534641056" lon="121.61160445964231">
        <ele>7.26207382325083</ele>
        <time>2020-03-15T00:22:52Z</time>
      </trkpt>
      <trkpt lat="31.206606276693975" lon="121.61153641356368">
        <ele>5.829535001888871</ele>
        <time>2020-03-15T00:22:55Z</time>
      </trkpt>
      <trkpt lat="31.20638333516001" lon="121.61126398175965">
        <ele>7.378884803503752</ele>
        <time>2020-03-15T00:23:13Z</time>
      </trkpt>
      <trkpt lat="31.206182311184904" lon="121.61104847574805">
        <ele>7.306025687605143</ele>
        <time>2020-03-15T00:23:27Z</time>
      </trkpt>
      <trkpt lat="31.206008157493475" lon="121.61079202912022">
        <ele>6.126297301612794</ele>
        <time>2020-03-15T00:23:39Z</time>
      </trkpt>
      <trkpt lat="31.205912762721088" lon="121.61072968346728">
        <ele>7.183999605476856</ele>
        <time>2020-03-15T00:23:43Z</time>
      </trkpt>
      <trkpt lat="31.205869974532835" lon="121.61065838687848">
        <ele>8.055362906306982</ele>
        <time>2020-03-15T00:23:46Z</time>
      </trkpt>
      <trkpt lat="31.20569793250016" lon="121.61047757430356">
        <ele>7.7656637178733945</ele>
        <time>2020-03-15T00:24:00Z</time>
      </trkpt>
      <trkpt lat="31.20567521494406" lon="121.61039597321218">
        <ele>10.166097118519247</ele>
        <time>2020-03-15T00:24:04Z</time>
      </trkpt>
      <trkpt lat="31.205589057897562" lon="121.61030515940892">
        <ele>10.60530256666243</ele>
        <time>2020-03-15T00:24:11Z</time>
      </trkpt>
      <trkpt lat="31.205368454089346" lon="121.61016176117374">
        <ele>7.839222542010248</ele>
        <time>2020-03-15T00:24:32Z</time>
      </trkpt>
      <trkpt lat="31.205185903795844" lon="121.61027049091385">
        <ele>7.084197752177715</ele>
        <time>2020-03-15T00:24:49Z</time>
      </trkpt>
      <trkpt lat="31.20493763484944" lon="121.61052508060904">
        <ele>7.665426280349493</ele>
        <time>2020-03-15T00:25:04Z</time>
      </trkpt>
      <trkpt lat="31.204879317165258" lon="121.61055816023536">
        <ele>7.7118004178628325</ele>
        <time>2020-03-15T00:25:07Z</time>
      </trkpt>
      <trkpt lat="31.204774826557742" lon="121.61070266725369">
        <ele>9.819817810319364</ele>
        <time>2020-03-15T00:25:14Z</time>
      </trkpt>
      <trkpt lat="31.20473033733886" lon="121.61073466106805">
        <ele>7.717508992180228</ele>
        <time>2020-03-15T00:25:17Z</time>
      </trkpt>
      <trkpt lat="31.204654679052457" lon="121.61075066237407">
        <ele>4.501388157717884</ele>
        <time>2020-03-15T00:25:25Z</time>
      </trkpt>
      <trkpt lat="31.204603459854987" lon="121.61071542325982">
        <ele>6.703678250312805</ele>
        <time>2020-03-15T00:25:29Z</time>
      </trkpt>
      <trkpt lat="31.204585590256002" lon="121.610680181334">
        <ele>8.330761852674186</ele>
        <time>2020-03-15T00:25:32Z</time>
      </trkpt>
    </trkseg>
  </trk>
</gpx>