<?xml version="1.0" encoding="UTF-8"?>
<gpx xmlns="http://www.topografix.com/GPX/1/1" xmlns:gpxtpx="http://www.garmin.com/xmlschemas/TrackPointExtension/v1" xmlns:xsi="http://www.w3.org/2001/XMLSchema-instance" xsi:schemaLocation="http://www.topografix.com/GPX/1/1 http://www.topografix.com/GPX/1/1/gpx.xsd" version="1.1" creator="gpx.py -- https://github.com/tkrajina/gpxpy">
  <trk>
    <name>gpx from keep</name>
    <type>Run</type>
    <trkseg>
      <trkpt lat="31.204649038064442" lon="121.61067719395226">
        <ele>8.842060754437572</ele>
        <time>2020-07-28T23:33:27Z</time>
      </trkpt>
      <trkpt lat="31.20486035334459" lon="121.61053620230655">
        <ele>8.893117764033377</ele>
        <time>2020-07-28T23:33:37Z</time>
      </trkpt>
      <trkpt lat="31.20511813059037" lon="121.61025531445216">
        <ele>8.641436868347228</ele>
        <time>2020-07-28T23:33:48Z</time>
      </trkpt>
      <trkpt lat="31.2053834406946" lon="121.6100552136497">
        <ele>7.782206776551902</ele>
        <time>2020-07-28T23:33:57Z</time>
      </trkpt>
      <trkpt lat="31.205458564217192" lon="121.61002782523424">
        <ele>7.624724643304944</ele>
        <time>2020-07-28T23:34:00Z</time>
      </trkpt>
      <trkpt lat="31.205505439631544" lon="121.61007255464767">
        <ele>7.622378840111196</ele>
        <time>2020-07-28T23:34:03Z</time>
      </trkpt>
      <trkpt lat="31.20566114939931" lon="121.61034853065317">
        <ele>7.744534673169255</ele>
        <time>2020-07-28T23:34:10Z</time>
      </trkpt>
      <trkpt lat="31.205825619056515" lon="121.61050331877674">
        <ele>7.623716996051371</ele>
        <time>2020-07-28T23:34:18Z</time>
      </trkpt>
      <trkpt lat="31.20586189634956" lon="121.61058030958525">
        <ele>7.700261906720698</ele>
        <time>2020-07-28T23:34:22Z</time>
      </trkpt>
      <trkpt lat="31.205939702974828" lon="121.61059331616497">
        <ele>8.040028350427747</ele>
        <time>2020-07-28T23:34:25Z</time>
      </trkpt>
      <trkpt lat="31.206072201600016" lon="121.61071421742592">
        <ele>9.430288617499173</ele>
        <time>2020-07-28T23:34:31Z</time>
      </trkpt>
      <trkpt lat="31.206206729666405" lon="121.61102624360637">
        <ele>6.753435249440372</ele>
        <time>2020-07-28T23:34:43Z</time>
      </trkpt>
      <trkpt lat="31.206294710272637" lon="121.61121464949386">
        <ele>6.218547601252794</ele>
        <time>2020-07-28T23:34:49Z</time>
      </trkpt>
      <trkpt lat="31.20635027084881" lon="121.61124473664275">
        <ele>4.3654505899176</ele>
        <time>2020-07-28T23:34:52Z</time>
      </trkpt>
      <trkpt lat="31.206402822962723" lon="121.61130979538974">
        <ele>7.853761585429311</ele>
        <time>2020-07-28T23:34:55Z</time>
      </trkpt>
      <trkpt lat="31.206490356677588" lon="121.61136780258704">
        <ele>6.7892075246199965</ele>
        <time>2020-07-28T23:34:58Z</time>
      </trkpt>
      <trkpt lat="31.206639537771192" lon="121.61165406494143">
        <ele>5.311406483873725</ele>
        <time>2020-07-28T23:35:10Z</time>
      </trkpt>
      <trkpt lat="31.206716761004806" lon="121.61172074703452">
        <ele>7.236251967027783</ele>
        <time>2020-07-28T23:35:13Z</time>
      </trkpt>
      <trkpt lat="31.206761179526044" lon="121.61178363638375">
        <ele>5.846569446846843</ele>
        <time>2020-07-28T23:35:16Z</time>
      </trkpt>
      <trkpt lat="31.206732932051306" lon="121.61184842919606">
        <ele>7.449124393053353</ele>
        <time>2020-07-28T23:35:19Z</time>
      </trkpt>
      <trkpt lat="31.206545991769644" lon="121.61201516408121">
        <ele>7.8451569536700845</ele>
        <time>2020-07-28T23:35:28Z</time>
      </trkpt>
      <trkpt lat="31.20649630893453" lon="121.61209947625512">
        <ele>7.701698146760464</ele>
        <time>2020-07-28T23:35:31Z</time>
      </trkpt>
      <trkpt lat="31.206436077170434" lon="121.61215071653372">
        <ele>4.257134691812098</ele>
        <time>2020-07-28T23:35:34Z</time>
      </trkpt>
      <trkpt lat="31.20637038529999" lon="121.61224993920501">
        <ele>5.821967015042901</ele>
        <time>2020-07-28T23:35:37Z</time>
      </trkpt>
      <trkpt lat="31.206156301723514" lon="121.61245137201921">
        <ele>6.309351815842092</ele>
        <time>2020-07-28T23:35:46Z</time>
      </trkpt>
      <trkpt lat="31.20597337615849" lon="121.61267936634358">
        <ele>8.08753579389304</ele>
        <time>2020-07-28T23:35:55Z</time>
      </trkpt>
      <trkpt lat="31.205937777520262" lon="121.61277966858444">
        <ele>6.192880675196648</ele>
        <time>2020-07-28T23:35:58Z</time>
      </trkpt>
      <trkpt lat="31.205792874727507" lon="121.61292497824314">
        <ele>6.348969662562013</ele>
        <time>2020-07-28T23:36:04Z</time>
      </trkpt>
      <trkpt lat="31.205660422325582" lon="121.61309630917665">
        <ele>6.94062468316406</ele>
        <time>2020-07-28T23:36:10Z</time>
      </trkpt>
      <trkpt lat="31.20559126979689" lon="121.61311230831018">
        <ele>6.676171050406992</ele>
        <time>2020-07-28T23:36:13Z</time>
      </trkpt>
      <trkpt lat="31.205523984614693" lon="121.61316598661153">
        <ele>7.22899741306901</ele>
        <time>2020-07-28T23:36:16Z</time>
      </trkpt>
      <trkpt lat="31.2054881318241" lon="121.61324324557357">
        <ele>5.4873132556676865</ele>
        <time>2020-07-28T23:36:19Z</time>
      </trkpt>
      <trkpt lat="31.20540594257331" lon="121.61328635297367">
        <ele>7.645808690227568</ele>
        <time>2020-07-28T23:36:22Z</time>
      </trkpt>
      <trkpt lat="31.205242015627583" lon="121.61348262236656">
        <ele>9.047398438677192</ele>
        <time>2020-07-28T23:36:31Z</time>
      </trkpt>
      <trkpt lat="31.2051598195122" lon="121.61353359035633">
        <ele>9.423047857359052</ele>
        <time>2020-07-28T23:36:34Z</time>
      </trkpt>
      <trkpt lat="31.205108768142434" lon="121.61362765563878">
        <ele>7.694035330787301</ele>
        <time>2020-07-28T23:36:37Z</time>
      </trkpt>
      <trkpt lat="31.205024401098683" lon="121.61368052097194">
        <ele>8.10884015634656</ele>
        <time>2020-07-28T23:36:40Z</time>
      </trkpt>
      <trkpt lat="31.204862951537336" lon="121.61382907922447">
        <ele>8.797697380185127</ele>
        <time>2020-07-28T23:36:46Z</time>
      </trkpt>
      <trkpt lat="31.204661252800918" lon="121.61411994845686">
        <ele>6.503417053259909</ele>
        <time>2020-07-28T23:36:58Z</time>
      </trkpt>
      <trkpt lat="31.20454917316545" lon="121.61423841202978">
        <ele>6.986404940485954</ele>
        <time>2020-07-28T23:37:04Z</time>
      </trkpt>
      <trkpt lat="31.204324808371624" lon="121.61439727227172">
        <ele>5.164896520785987</ele>
        <time>2020-07-28T23:37:13Z</time>
      </trkpt>
      <trkpt lat="31.204133195147048" lon="121.61461955627799">
        <ele>6.123071938753128</ele>
        <time>2020-07-28T23:37:22Z</time>
      </trkpt>
      <trkpt lat="31.20406020755098" lon="121.61467973699644">
        <ele>7.524144944734871</ele>
        <time>2020-07-28T23:37:25Z</time>
      </trkpt>
      <trkpt lat="31.204016766948897" lon="121.61474750468962">
        <ele>3.665058241225779</ele>
        <time>2020-07-28T23:37:28Z</time>
      </trkpt>
      <trkpt lat="31.20393673145681" lon="121.61480551722627">
        <ele>5.495622152462602</ele>
        <time>2020-07-28T23:37:31Z</time>
      </trkpt>
      <trkpt lat="31.203804822926998" lon="121.61496165551486">
        <ele>6.132642977871001</ele>
        <time>2020-07-28T23:37:37Z</time>
      </trkpt>
      <trkpt lat="31.203799618140717" lon="121.61502210082104">
        <ele>6.0375947104766965</ele>
        <time>2020-07-28T23:37:41Z</time>
      </trkpt>
      <trkpt lat="31.203782228661698" lon="121.61506384437152">
        <ele>7.12411040533334</ele>
        <time>2020-07-28T23:37:53Z</time>
      </trkpt>
      <trkpt lat="31.203729061027435" lon="121.61509230925822">
        <ele>6.406435316428542</ele>
        <time>2020-07-28T23:38:18Z</time>
      </trkpt>
      <trkpt lat="31.203618578994572" lon="121.61523895714588">
        <ele>6.49302975833416</ele>
        <time>2020-07-28T23:38:24Z</time>
      </trkpt>
      <trkpt lat="31.203424334845568" lon="121.61536392715293">
        <ele>6.08045191783458</ele>
        <time>2020-07-28T23:38:33Z</time>
      </trkpt>
      <trkpt lat="31.20319203606378" lon="121.61559460801702">
        <ele>6.3320387452840805</ele>
        <time>2020-07-28T23:38:45Z</time>
      </trkpt>
      <trkpt lat="31.202949931786513" lon="121.61587217804275">
        <ele>6.977453640662134</ele>
        <time>2020-07-28T23:38:57Z</time>
      </trkpt>
      <trkpt lat="31.202711924777017" lon="121.61611396721531">
        <ele>4.6240896852687</ele>
        <time>2020-07-28T23:39:09Z</time>
      </trkpt>
      <trkpt lat="31.202464947073413" lon="121.61637852191322">
        <ele>4.569488786160946</ele>
        <time>2020-07-28T23:39:21Z</time>
      </trkpt>
      <trkpt lat="31.202341705345674" lon="121.61653546245766">
        <ele>5.543995175510645</ele>
        <time>2020-07-28T23:39:27Z</time>
      </trkpt>
      <trkpt lat="31.202103963823156" lon="121.61677724505014">
        <ele>5.340173225849867</ele>
        <time>2020-07-28T23:39:39Z</time>
      </trkpt>
      <trkpt lat="31.201887128631615" lon="121.61698649983502">
        <ele>5.841818876564503</ele>
        <time>2020-07-28T23:39:49Z</time>
      </trkpt>
      <trkpt lat="31.201678939329792" lon="121.61722583630329">
        <ele>4.406626183539629</ele>
        <time>2020-07-28T23:40:01Z</time>
      </trkpt>
      <trkpt lat="31.20157124411115" lon="121.61728276111324">
        <ele>4.172595104202628</ele>
        <time>2020-07-28T23:40:04Z</time>
      </trkpt>
      <trkpt lat="31.201364156101505" lon="121.61750230978338">
        <ele>5.208385370671749</ele>
        <time>2020-07-28T23:40:13Z</time>
      </trkpt>
      <trkpt lat="31.201322068328814" lon="121.61756600415113">
        <ele>5.758270653896034</ele>
        <time>2020-07-28T23:40:16Z</time>
      </trkpt>
      <trkpt lat="31.201175253913778" lon="121.61769990213811">
        <ele>4.559667523019016</ele>
        <time>2020-07-28T23:40:22Z</time>
      </trkpt>
      <trkpt lat="31.200997945294198" lon="121.61796226592777">
        <ele>4.459440251812339</ele>
        <time>2020-07-28T23:40:31Z</time>
      </trkpt>
      <trkpt lat="31.200933895411435" lon="121.61802514787975">
        <ele>4.9815610740333796</ele>
        <time>2020-07-28T23:40:34Z</time>
      </trkpt>
      <trkpt lat="31.200698788586386" lon="121.6183311467255">
        <ele>4.480726581066847</ele>
        <time>2020-07-28T23:40:46Z</time>
      </trkpt>
      <trkpt lat="31.200532633109155" lon="121.61855149585442">
        <ele>4.580392594449222</ele>
        <time>2020-07-28T23:40:55Z</time>
      </trkpt>
      <trkpt lat="31.200462620556728" lon="121.61861085365334">
        <ele>3.6598984356969595</ele>
        <time>2020-07-28T23:40:58Z</time>
      </trkpt>
      <trkpt lat="31.200411832636423" lon="121.61869568491059">
        <ele>5.37237299233675</ele>
        <time>2020-07-28T23:41:01Z</time>
      </trkpt>
      <trkpt lat="31.20020770370106" lon="121.61892768743915">
        <ele>4.342616722919047</ele>
        <time>2020-07-28T23:41:11Z</time>
      </trkpt>
      <trkpt lat="31.199989437402476" lon="121.61919519098434">
        <ele>5.993583185598254</ele>
        <time>2020-07-28T23:41:23Z</time>
      </trkpt>
      <trkpt lat="31.199865427530767" lon="121.61929357665974">
        <ele>5.269237886182964</ele>
        <time>2020-07-28T23:41:29Z</time>
      </trkpt>
      <trkpt lat="31.1997025455072" lon="121.61948790079477">
        <ele>5.835561610758305</ele>
        <time>2020-07-28T23:41:38Z</time>
      </trkpt>
      <trkpt lat="31.19942356453541" lon="121.61973209738676">
        <ele>6.601895024068654</ele>
        <time>2020-07-28T23:41:51Z</time>
      </trkpt>
      <trkpt lat="31.199324254610833" lon="121.6198033788989">
        <ele>6.019625757820904</ele>
        <time>2020-07-28T23:41:55Z</time>
      </trkpt>
      <trkpt lat="31.19927863164717" lon="121.61987221677177">
        <ele>5.665614542551339</ele>
        <time>2020-07-28T23:41:58Z</time>
      </trkpt>
      <trkpt lat="31.199211619527027" lon="121.61991205928915">
        <ele>4.082440999336541</ele>
        <time>2020-07-28T23:42:01Z</time>
      </trkpt>
      <trkpt lat="31.199164913781136" lon="121.61997899996945">
        <ele>4.419036841019988</ele>
        <time>2020-07-28T23:42:04Z</time>
      </trkpt>
      <trkpt lat="31.19902298925605" lon="121.62009364399434">
        <ele>6.451759519055486</ele>
        <time>2020-07-28T23:42:10Z</time>
      </trkpt>
      <trkpt lat="31.198751816985354" lon="121.62038390334584">
        <ele>4.126348910853267</ele>
        <time>2020-07-28T23:42:22Z</time>
      </trkpt>
      <trkpt lat="31.198525984782147" lon="121.62061535045214">
        <ele>6.50380287412554</ele>
        <time>2020-07-28T23:42:31Z</time>
      </trkpt>
      <trkpt lat="31.198459999703868" lon="121.62070749311907">
        <ele>6.23626078478992</ele>
        <time>2020-07-28T23:42:34Z</time>
      </trkpt>
      <trkpt lat="31.198323774482667" lon="121.62081454573872">
        <ele>6.214680079370737</ele>
        <time>2020-07-28T23:42:40Z</time>
      </trkpt>
      <trkpt lat="31.198062414836713" lon="121.62105114074245">
        <ele>6.879447668790817</ele>
        <time>2020-07-28T23:42:52Z</time>
      </trkpt>
      <trkpt lat="31.197876001905342" lon="121.62118258490166">
        <ele>6.116743718273938</ele>
        <time>2020-07-28T23:43:01Z</time>
      </trkpt>
      <trkpt lat="31.197822792089692" lon="121.62124410314657">
        <ele>6.466070585884154</ele>
        <time>2020-07-28T23:43:04Z</time>
      </trkpt>
      <trkpt lat="31.19775144424112" lon="121.62128015013363">
        <ele>5.947346172295511</ele>
        <time>2020-07-28T23:43:07Z</time>
      </trkpt>
      <trkpt lat="31.197490368991858" lon="121.62150156588362">
        <ele>6.218181132338941</ele>
        <time>2020-07-28T23:43:19Z</time>
      </trkpt>
      <trkpt lat="31.197228469393842" lon="121.6217313802583">
        <ele>6.681572160683572</ele>
        <time>2020-07-28T23:43:31Z</time>
      </trkpt>
      <trkpt lat="31.196947313962003" lon="121.62196444598332">
        <ele>5.742859802208841</ele>
        <time>2020-07-28T23:43:43Z</time>
      </trkpt>
      <trkpt lat="31.196814079113413" lon="121.6220606541749">
        <ele>5.717835723422468</ele>
        <time>2020-07-28T23:43:49Z</time>
      </trkpt>
      <trkpt lat="31.196643320220517" lon="121.6222517067228">
        <ele>5.562207347713411</ele>
        <time>2020-07-28T23:43:59Z</time>
      </trkpt>
      <trkpt lat="31.19661991789496" lon="121.62232649779655">
        <ele>5.000943158753216</ele>
        <time>2020-07-28T23:44:03Z</time>
      </trkpt>
      <trkpt lat="31.196704333970864" lon="121.6227194013407">
        <ele>5.462263653054833</ele>
        <time>2020-07-28T23:44:27Z</time>
      </trkpt>
      <trkpt lat="31.196777620996414" lon="121.62311880330415">
        <ele>4.945153269916773</ele>
        <time>2020-07-28T23:44:51Z</time>
      </trkpt>
      <trkpt lat="31.196827206356616" lon="121.6233789261091">
        <ele>5.118386873975396</ele>
        <time>2020-07-28T23:45:06Z</time>
      </trkpt>
      <trkpt lat="31.196791521429994" lon="121.62352091395763">
        <ele>9.343244147486985</ele>
        <time>2020-07-28T23:45:18Z</time>
      </trkpt>
      <trkpt lat="31.196848295284838" lon="121.62366045476529">
        <ele>5.3013423243537545</ele>
        <time>2020-07-28T23:45:27Z</time>
      </trkpt>
      <trkpt lat="31.19684653859751" lon="121.62377046504477">
        <ele>6.7838701996952295</ele>
        <time>2020-07-28T23:45:33Z</time>
      </trkpt>
      <trkpt lat="31.196883508616953" lon="121.62391840595565">
        <ele>5.0336388209834695</ele>
        <time>2020-07-28T23:45:39Z</time>
      </trkpt>
      <trkpt lat="31.196918627443694" lon="121.62379809702216">
        <ele>5.7879259353503585</ele>
        <time>2020-07-28T23:45:45Z</time>
      </trkpt>
      <trkpt lat="31.196853939549126" lon="121.62370245329271">
        <ele>5.247992034070194</ele>
        <time>2020-07-28T23:45:48Z</time>
      </trkpt>
      <trkpt lat="31.196867608973033" lon="121.62360680274466">
        <ele>5.174154718406498</ele>
        <time>2020-07-28T23:45:51Z</time>
      </trkpt>
      <trkpt lat="31.196840891285376" lon="121.6235008586136">
        <ele>5.622041556984186</ele>
        <time>2020-07-28T23:45:54Z</time>
      </trkpt>
      <trkpt lat="31.196830806469897" lon="121.62331443624569">
        <ele>5.637692519463599</ele>
        <time>2020-07-28T23:46:00Z</time>
      </trkpt>
      <trkpt lat="31.196780259254272" lon="121.62318166731595">
        <ele>5.532259366475046</ele>
        <time>2020-07-28T23:46:04Z</time>
      </trkpt>
      <trkpt lat="31.196794059865134" lon="121.62297139559345">
        <ele>2.8697211164981127</ele>
        <time>2020-07-28T23:46:11Z</time>
      </trkpt>
      <trkpt lat="31.196741909972626" lon="121.62281640560596">
        <ele>4.335870197974145</ele>
        <time>2020-07-28T23:46:15Z</time>
      </trkpt>
      <trkpt lat="31.19684852908144" lon="121.62276111887827">
        <ele>4.30990578327328</ele>
        <time>2020-07-28T23:46:19Z</time>
      </trkpt>
      <trkpt lat="31.197060252195776" lon="121.62255272432277">
        <ele>4.908535461872816</ele>
        <time>2020-07-28T23:46:28Z</time>
      </trkpt>
      <trkpt lat="31.197211372943926" lon="121.62246572950964">
        <ele>5.134922467172146</ele>
        <time>2020-07-28T23:46:34Z</time>
      </trkpt>
      <trkpt lat="31.197468328270293" lon="121.62229716229065">
        <ele>4.86224455293268</ele>
        <time>2020-07-28T23:46:43Z</time>
      </trkpt>
      <trkpt lat="31.197605167090245" lon="121.62213158469987">
        <ele>7.052672812715173</ele>
        <time>2020-07-28T23:46:49Z</time>
      </trkpt>
      <trkpt lat="31.19769119078055" lon="121.62206573015614">
        <ele>6.685407757759094</ele>
        <time>2020-07-28T23:46:52Z</time>
      </trkpt>
      <trkpt lat="31.197759874571158" lon="121.62198849580474">
        <ele>7.404130408540368</ele>
        <time>2020-07-28T23:46:55Z</time>
      </trkpt>
      <trkpt lat="31.19791236374526" lon="121.62188876303176">
        <ele>6.261111158877611</ele>
        <time>2020-07-28T23:47:01Z</time>
      </trkpt>
      <trkpt lat="31.197991014731144" lon="121.62186897503497">
        <ele>5.790006911382079</ele>
        <time>2020-07-28T23:47:04Z</time>
      </trkpt>
      <trkpt lat="31.198054817627508" lon="121.6217917405185">
        <ele>6.163623562082648</ele>
        <time>2020-07-28T23:47:07Z</time>
      </trkpt>
      <trkpt lat="31.198213298310936" lon="121.62166761819613">
        <ele>5.3091941038146615</ele>
        <time>2020-07-28T23:47:13Z</time>
      </trkpt>
      <trkpt lat="31.198293046073122" lon="121.62163671969506">
        <ele>4.841470171697438</ele>
        <time>2020-07-28T23:47:16Z</time>
      </trkpt>
      <trkpt lat="31.198543091872047" lon="121.62133753346434">
        <ele>5.626918098889291</ele>
        <time>2020-07-28T23:47:28Z</time>
      </trkpt>
      <trkpt lat="31.19872735734507" lon="121.62118712121844">
        <ele>5.393215253949165</ele>
        <time>2020-07-28T23:47:37Z</time>
      </trkpt>
      <trkpt lat="31.19877921942963" lon="121.62111828630312">
        <ele>5.4934760658070445</ele>
        <time>2020-07-28T23:47:43Z</time>
      </trkpt>
      <trkpt lat="31.198844261605085" lon="121.62089742553812">
        <ele>6.080970171838999</ele>
        <time>2020-07-28T23:47:55Z</time>
      </trkpt>
      <trkpt lat="31.198900748779195" lon="121.62081341403396">
        <ele>6.018717993982136</ele>
        <time>2020-07-28T23:48:01Z</time>
      </trkpt>
      <trkpt lat="31.19892309218277" lon="121.62071151966846">
        <ele>4.954667183570564</ele>
        <time>2020-07-28T23:48:07Z</time>
      </trkpt>
      <trkpt lat="31.1989651660105" lon="121.62066707358193">
        <ele>5.044880407862365</ele>
        <time>2020-07-28T23:48:11Z</time>
      </trkpt>
      <trkpt lat="31.19916126877858" lon="121.62059958032832">
        <ele>4.639079337008297</ele>
        <time>2020-07-28T23:48:25Z</time>
      </trkpt>
      <trkpt lat="31.19927053787355" lon="121.62059767433948">
        <ele>6.76675952039659</ele>
        <time>2020-07-28T23:48:32Z</time>
      </trkpt>
      <trkpt lat="31.19944592249954" lon="121.62063397278877">
        <ele>5.9215555684641</ele>
        <time>2020-07-28T23:48:41Z</time>
      </trkpt>
      <trkpt lat="31.19976449261216" lon="121.62064559908339">
        <ele>5.995284699834883</ele>
        <time>2020-07-28T23:48:59Z</time>
      </trkpt>
      <trkpt lat="31.199864268846515" lon="121.62064667479463">
        <ele>5.392996386624873</ele>
        <time>2020-07-28T23:49:05Z</time>
      </trkpt>
      <trkpt lat="31.199909525439637" lon="121.62066780841178">
        <ele>5.0372434156015515</ele>
        <time>2020-07-28T23:49:08Z</time>
      </trkpt>
      <trkpt lat="31.199997657839706" lon="121.62065506450512">
        <ele>5.614477881230414</ele>
        <time>2020-07-28T23:49:14Z</time>
      </trkpt>
      <trkpt lat="31.20011311360918" lon="121.62069895559291">
        <ele>5.128048375248909</ele>
        <time>2020-07-28T23:49:20Z</time>
      </trkpt>
      <trkpt lat="31.200239107448695" lon="121.62077617759833">
        <ele>5.5418440122157335</ele>
        <time>2020-07-28T23:49:26Z</time>
      </trkpt>
      <trkpt lat="31.20033670964756" lon="121.62078186032315">
        <ele>5.697839452885091</ele>
        <time>2020-07-28T23:49:29Z</time>
      </trkpt>
      <trkpt lat="31.200536997066802" lon="121.62085636603781">
        <ele>5.343781183473766</ele>
        <time>2020-07-28T23:49:35Z</time>
      </trkpt>
      <trkpt lat="31.20061970219401" lon="121.62084795850973">
        <ele>6.021233563311398</ele>
        <time>2020-07-28T23:49:38Z</time>
      </trkpt>
      <trkpt lat="31.200715092608544" lon="121.62089293489105">
        <ele>5.4987503727898</ele>
        <time>2020-07-28T23:49:41Z</time>
      </trkpt>
      <trkpt lat="31.20089670490936" lon="121.62093682010394">
        <ele>5.800878845155239</ele>
        <time>2020-07-28T23:49:47Z</time>
      </trkpt>
      <trkpt lat="31.20108024525649" lon="121.620953064245">
        <ele>5.9060764368623495</ele>
        <time>2020-07-28T23:49:53Z</time>
      </trkpt>
      <trkpt lat="31.201361889025982" lon="121.62101265839497">
        <ele>5.9376104874536395</ele>
        <time>2020-07-28T23:50:02Z</time>
      </trkpt>
      <trkpt lat="31.201639754936537" lon="121.62105572247755">
        <ele>5.10360458958894</ele>
        <time>2020-07-28T23:50:11Z</time>
      </trkpt>
      <trkpt lat="31.20194041811525" lon="121.62107873153815">
        <ele>5.667785552330315</ele>
        <time>2020-07-28T23:50:23Z</time>
      </trkpt>
      <trkpt lat="31.20225978371667" lon="121.62110715877408">
        <ele>4.6453317468985915</ele>
        <time>2020-07-28T23:50:47Z</time>
      </trkpt>
      <trkpt lat="31.20239884796759" lon="121.62113262004547">
        <ele>5.18239657022059</ele>
        <time>2020-07-28T23:50:56Z</time>
      </trkpt>
      <trkpt lat="31.20241642089623" lon="121.6209310035654">
        <ele>4.893043031916022</ele>
        <time>2020-07-28T23:51:05Z</time>
      </trkpt>
      <trkpt lat="31.20245561541854" lon="121.62079198260736">
        <ele>1.6680406592786312</ele>
        <time>2020-07-28T23:51:11Z</time>
      </trkpt>
      <trkpt lat="31.202408982577836" lon="121.62078981854327">
        <ele>4.4030181327834725</ele>
        <time>2020-07-28T23:51:20Z</time>
      </trkpt>
      <trkpt lat="31.20241305841621" lon="121.62078168849155">
        <ele>3.3338790656998754</ele>
        <time>2020-07-28T23:51:38Z</time>
      </trkpt>
      <trkpt lat="31.20239054129457" lon="121.62079361393533">
        <ele>5.196487545967102</ele>
        <time>2020-07-28T23:51:44Z</time>
      </trkpt>
      <trkpt lat="31.202376954264892" lon="121.620821527056">
        <ele>5.733974256552756</ele>
        <time>2020-07-28T23:51:51Z</time>
      </trkpt>
      <trkpt lat="31.202376954264892" lon="121.620821527056">
        <ele>5.733974256552756</ele>
        <time>2020-07-28T23:52:02Z</time>
      </trkpt>
      <trkpt lat="31.2023832790983" lon="121.62073968739139">
        <ele>5.01032973267138</ele>
        <time>2020-07-28T23:52:09Z</time>
      </trkpt>
      <trkpt lat="31.202387517653335" lon="121.62058088585687">
        <ele>5.380884855054319</ele>
        <time>2020-07-28T23:52:18Z</time>
      </trkpt>
      <trkpt lat="31.2023684028798" lon="121.62045460457868">
        <ele>6.398848311044276</ele>
        <time>2020-07-28T23:52:22Z</time>
      </trkpt>
      <trkpt lat="31.202339201075656" lon="121.6203792705767">
        <ele>4.625267948023975</ele>
        <time>2020-07-28T23:52:29Z</time>
      </trkpt>
      <trkpt lat="31.202339201075656" lon="121.6203792705767">
        <ele>4.625267948023975</ele>
        <time>2020-07-28T23:52:35Z</time>
      </trkpt>
      <trkpt lat="31.202373108302346" lon="121.62036490504745">
        <ele>4.537678345106542</ele>
        <time>2020-07-28T23:52:40Z</time>
      </trkpt>
      <trkpt lat="31.202416252075167" lon="121.62033373705026">
        <ele>5.20122245606035</ele>
        <time>2020-07-28T23:52:49Z</time>
      </trkpt>
      <trkpt lat="31.202416252075167" lon="121.62033373705026">
        <ele>5.20122245606035</ele>
        <time>2020-07-28T23:53:00Z</time>
      </trkpt>
      <trkpt lat="31.202414635405088" lon="121.62032425235105">
        <ele>4.926473309285939</ele>
        <time>2020-07-28T23:53:22Z</time>
      </trkpt>
      <trkpt lat="31.202433563538303" lon="121.6203722169045">
        <ele>5.584716816432774</ele>
        <time>2020-07-28T23:53:58Z</time>
      </trkpt>
      <trkpt lat="31.202439277379526" lon="121.6203535177853">
        <ele>5.972362878732383</ele>
        <time>2020-07-28T23:54:04Z</time>
      </trkpt>
      <trkpt lat="31.20245558429538" lon="121.62031720308418">
        <ele>5.242833556607366</ele>
        <time>2020-07-28T23:54:47Z</time>
      </trkpt>
      <trkpt lat="31.20258623884841" lon="121.62034754373344">
        <ele>6.844325567595661</ele>
        <time>2020-07-28T23:54:53Z</time>
      </trkpt>
      <trkpt lat="31.202813218733503" lon="121.62031012760814">
        <ele>5.03663489036262</ele>
        <time>2020-07-28T23:55:02Z</time>
      </trkpt>
      <trkpt lat="31.202875367062727" lon="121.62025538133184">
        <ele>5.256908493116498</ele>
        <time>2020-07-28T23:55:05Z</time>
      </trkpt>
      <trkpt lat="31.202852149882045" lon="121.62016107647547">
        <ele>5.3774123545736074</ele>
        <time>2020-07-28T23:55:08Z</time>
      </trkpt>
      <trkpt lat="31.20280777267008" lon="121.62007734194535">
        <ele>5.607618858106434</ele>
        <time>2020-07-28T23:55:11Z</time>
      </trkpt>
      <trkpt lat="31.202739388075347" lon="121.61987626641145">
        <ele>5.659715407527983</ele>
        <time>2020-07-28T23:55:17Z</time>
      </trkpt>
      <trkpt lat="31.20273951175084" lon="121.61975865214673">
        <ele>5.807270259596407</ele>
        <time>2020-07-28T23:55:20Z</time>
      </trkpt>
      <trkpt lat="31.202632281525513" lon="121.6193651642546">
        <ele>6.019471857696772</ele>
        <time>2020-07-28T23:55:32Z</time>
      </trkpt>
      <trkpt lat="31.20261827642577" lon="121.61927437845577">
        <ele>6.998920826241374</ele>
        <time>2020-07-28T23:55:35Z</time>
      </trkpt>
      <trkpt lat="31.202573378127383" lon="121.61916760545522">
        <ele>6.785005448386073</ele>
        <time>2020-07-28T23:55:38Z</time>
      </trkpt>
      <trkpt lat="31.20252379375903" lon="121.61887031263858">
        <ele>6.578169393353164</ele>
        <time>2020-07-28T23:55:47Z</time>
      </trkpt>
      <trkpt lat="31.202470841252346" lon="121.61868331899718">
        <ele>6.673743727616966</ele>
        <time>2020-07-28T23:55:53Z</time>
      </trkpt>
      <trkpt lat="31.202603476092644" lon="121.61863398367728">
        <ele>6.698419325053692</ele>
        <time>2020-07-28T23:55:59Z</time>
      </trkpt>
      <trkpt lat="31.202764557323746" lon="121.61860714003348">
        <ele>4.428750084713101</ele>
        <time>2020-07-28T23:56:05Z</time>
      </trkpt>
      <trkpt lat="31.202829678920683" lon="121.61855835217884">
        <ele>3.402186105027795</ele>
        <time>2020-07-28T23:56:08Z</time>
      </trkpt>
      <trkpt lat="31.202794753316603" lon="121.61823720147362">
        <ele>5.621617149561644</ele>
        <time>2020-07-28T23:56:18Z</time>
      </trkpt>
      <trkpt lat="31.202762376070513" lon="121.61807730336494">
        <ele>6.102953719906509</ele>
        <time>2020-07-28T23:56:24Z</time>
      </trkpt>
      <trkpt lat="31.20269909522669" lon="121.61791063127006">
        <ele>5.328322955407202</ele>
        <time>2020-07-28T23:56:30Z</time>
      </trkpt>
      <trkpt lat="31.202490896849053" lon="121.61760005655134">
        <ele>5.7796540996059775</ele>
        <time>2020-07-28T23:56:40Z</time>
      </trkpt>
      <trkpt lat="31.20243442411445" lon="121.61739977343973">
        <ele>6.336520794779062</ele>
        <time>2020-07-28T23:56:47Z</time>
      </trkpt>
      <trkpt lat="31.20244889787295" lon="121.61729244551248">
        <ele>5.709791689179838</ele>
        <time>2020-07-28T23:56:50Z</time>
      </trkpt>
      <trkpt lat="31.202636392173282" lon="121.61714661668054">
        <ele>5.756483405828476</ele>
        <time>2020-07-28T23:56:59Z</time>
      </trkpt>
      <trkpt lat="31.202750406892648" lon="121.61700214822179">
        <ele>5.013526290655136</ele>
        <time>2020-07-28T23:57:05Z</time>
      </trkpt>
      <trkpt lat="31.202894739126883" lon="121.61690917252172">
        <ele>6.063469502143562</ele>
        <time>2020-07-28T23:57:11Z</time>
      </trkpt>
      <trkpt lat="31.203090674042045" lon="121.61672376980786">
        <ele>5.521455146372318</ele>
        <time>2020-07-28T23:57:20Z</time>
      </trkpt>
      <trkpt lat="31.203157392415815" lon="121.6167034367363">
        <ele>5.454008924774826</ele>
        <time>2020-07-28T23:57:23Z</time>
      </trkpt>
      <trkpt lat="31.203216268784388" lon="121.61666087946796">
        <ele>4.507984630763531</ele>
        <time>2020-07-28T23:57:26Z</time>
      </trkpt>
      <trkpt lat="31.203274359169228" lon="121.61658905038394">
        <ele>5.768342297524214</ele>
        <time>2020-07-28T23:57:29Z</time>
      </trkpt>
      <trkpt lat="31.203548670757918" lon="121.61638141368965">
        <ele>6.162398879416287</ele>
        <time>2020-07-28T23:57:41Z</time>
      </trkpt>
      <trkpt lat="31.203694113200793" lon="121.61625862126942">
        <ele>6.429153213277459</ele>
        <time>2020-07-28T23:57:53Z</time>
      </trkpt>
      <trkpt lat="31.203788769225824" lon="121.61622635976947">
        <ele>6.5536656165495515</ele>
        <time>2020-07-28T23:57:59Z</time>
      </trkpt>
      <trkpt lat="31.203833271728364" lon="121.61618705533989">
        <ele>5.501441104337573</ele>
        <time>2020-07-28T23:58:02Z</time>
      </trkpt>
      <trkpt lat="31.203858809962792" lon="121.6161312189517">
        <ele>6.726337808184326</ele>
        <time>2020-07-28T23:58:05Z</time>
      </trkpt>
      <trkpt lat="31.203929089875636" lon="121.61607049999452">
        <ele>6.830153391696513</ele>
        <time>2020-07-28T23:58:08Z</time>
      </trkpt>
      <trkpt lat="31.204004485639203" lon="121.61604853941448">
        <ele>7.183090382255614</ele>
        <time>2020-07-28T23:58:11Z</time>
      </trkpt>
      <trkpt lat="31.204071984601153" lon="121.61606344110406">
        <ele>5.947407071478665</ele>
        <time>2020-07-28T23:58:14Z</time>
      </trkpt>
      <trkpt lat="31.204210837960705" lon="121.61602846527427">
        <ele>6.202979796566069</ele>
        <time>2020-07-28T23:58:20Z</time>
      </trkpt>
      <trkpt lat="31.204289973588306" lon="121.61606748869157">
        <ele>6.248841279186308</ele>
        <time>2020-07-28T23:58:23Z</time>
      </trkpt>
      <trkpt lat="31.204426511330727" lon="121.61619161394736">
        <ele>6.71521123778075</ele>
        <time>2020-07-28T23:58:29Z</time>
      </trkpt>
      <trkpt lat="31.204479042600106" lon="121.61626614543633">
        <ele>6.370925205759704</ele>
        <time>2020-07-28T23:58:32Z</time>
      </trkpt>
      <trkpt lat="31.20454895276851" lon="121.61631221623719">
        <ele>6.297978321090341</ele>
        <time>2020-07-28T23:58:35Z</time>
      </trkpt>
      <trkpt lat="31.20443742027434" lon="121.6161227688359">
        <ele>7.956556549295783</ele>
        <time>2020-07-28T23:58:47Z</time>
      </trkpt>
      <trkpt lat="31.20424615834627" lon="121.61594904702666">
        <ele>8.548993948847055</ele>
        <time>2020-07-28T23:58:55Z</time>
      </trkpt>
      <trkpt lat="31.204193898853227" lon="121.61587288828416">
        <ele>8.202462601475418</ele>
        <time>2020-07-28T23:58:58Z</time>
      </trkpt>
      <trkpt lat="31.2040549066882" lon="121.6157628559263">
        <ele>8.806084837764502</ele>
        <time>2020-07-28T23:59:04Z</time>
      </trkpt>
      <trkpt lat="31.203840902880316" lon="121.61554956059439">
        <ele>7.379027828574181</ele>
        <time>2020-07-28T23:59:22Z</time>
      </trkpt>
      <trkpt lat="31.203810028117427" lon="121.61551107444635">
        <ele>8.155073383823037</ele>
        <time>2020-07-28T23:59:25Z</time>
      </trkpt>
      <trkpt lat="31.20373224035023" lon="121.61547991040763">
        <ele>6.922359746880829</ele>
        <time>2020-07-28T23:59:31Z</time>
      </trkpt>
      <trkpt lat="31.203674837237156" lon="121.61539345076487">
        <ele>6.232444238848984</ele>
        <time>2020-07-28T23:59:37Z</time>
      </trkpt>
      <trkpt lat="31.203587050034802" lon="121.61532569574733">
        <ele>6.639063898473978</ele>
        <time>2020-07-28T23:59:46Z</time>
      </trkpt>
      <trkpt lat="31.20352740346016" lon="121.61532217703673">
        <ele>6.182638962753117</ele>
        <time>2020-07-28T23:59:52Z</time>
      </trkpt>
      <trkpt lat="31.203320203935952" lon="121.61507580888659">
        <ele>6.60784902330488</ele>
        <time>2020-07-29T00:00:10Z</time>
      </trkpt>
      <trkpt lat="31.203287158245498" lon="121.61503867742454">
        <ele>8.357575355097651</ele>
        <time>2020-07-29T00:00:13Z</time>
      </trkpt>
      <trkpt lat="31.203287814741536" lon="121.61490884276246">
        <ele>6.921677471138537</ele>
        <time>2020-07-29T00:00:25Z</time>
      </trkpt>
      <trkpt lat="31.203402553798785" lon="121.61485299604443">
        <ele>8.252053273841739</ele>
        <time>2020-07-29T00:00:47Z</time>
      </trkpt>
      <trkpt lat="31.203433506570352" lon="121.61480339040014">
        <ele>7.056711818091571</ele>
        <time>2020-07-29T00:00:51Z</time>
      </trkpt>
      <trkpt lat="31.203591109794104" lon="121.6147188079362">
        <ele>7.439926671795547</ele>
        <time>2020-07-29T00:00:57Z</time>
      </trkpt>
      <trkpt lat="31.203691544128553" lon="121.61458706588361">
        <ele>3.3306874176487327</ele>
        <time>2020-07-29T00:01:03Z</time>
      </trkpt>
      <trkpt lat="31.20377859984448" lon="121.61456239240812">
        <ele>2.577731639146805</ele>
        <time>2020-07-29T00:01:06Z</time>
      </trkpt>
      <trkpt lat="31.2038282714103" lon="121.61450004485143">
        <ele>5.773247146047652</ele>
        <time>2020-07-29T00:01:09Z</time>
      </trkpt>
      <trkpt lat="31.203976699813214" lon="121.61436341853593">
        <ele>6.990915935486555</ele>
        <time>2020-07-29T00:01:15Z</time>
      </trkpt>
      <trkpt lat="31.204131696144746" lon="121.6141546883081">
        <ele>8.668200764805079</ele>
        <time>2020-07-29T00:01:24Z</time>
      </trkpt>
      <trkpt lat="31.204359086965145" lon="121.61394242641151">
        <ele>6.6893967762589455</ele>
        <time>2020-07-29T00:01:33Z</time>
      </trkpt>
      <trkpt lat="31.20457239880538" lon="121.61370414127053">
        <ele>8.427517838776112</ele>
        <time>2020-07-29T00:01:42Z</time>
      </trkpt>
      <trkpt lat="31.20463750534226" lon="121.61366320459506">
        <ele>7.133660515770316</ele>
        <time>2020-07-29T00:01:45Z</time>
      </trkpt>
      <trkpt lat="31.204695061596237" lon="121.6135721206801">
        <ele>6.423223310150206</ele>
        <time>2020-07-29T00:01:48Z</time>
      </trkpt>
      <trkpt lat="31.204961255593677" lon="121.61331674987167">
        <ele>8.119005882181227</ele>
        <time>2020-07-29T00:02:00Z</time>
      </trkpt>
      <trkpt lat="31.205036391799013" lon="121.61327798027612">
        <ele>7.338295086286962</ele>
        <time>2020-07-29T00:02:03Z</time>
      </trkpt>
      <trkpt lat="31.205068170582326" lon="121.61320939612247">
        <ele>7.728500169701874</ele>
        <time>2020-07-29T00:02:06Z</time>
      </trkpt>
      <trkpt lat="31.20514793752307" lon="121.6131440606929">
        <ele>6.925549162551761</ele>
        <time>2020-07-29T00:02:09Z</time>
      </trkpt>
      <trkpt lat="31.2052190928029" lon="121.61299848741672">
        <ele>7.981995376758277</ele>
        <time>2020-07-29T00:02:15Z</time>
      </trkpt>
      <trkpt lat="31.20528014151445" lon="121.61294480924691">
        <ele>7.308774461038411</ele>
        <time>2020-07-29T00:02:21Z</time>
      </trkpt>
      <trkpt lat="31.205265825763053" lon="121.61287704116144">
        <ele>7.967248120345175</ele>
        <time>2020-07-29T00:02:24Z</time>
      </trkpt>
      <trkpt lat="31.205282694968567" lon="121.6128035776566">
        <ele>7.859423873946071</ele>
        <time>2020-07-29T00:02:30Z</time>
      </trkpt>
      <trkpt lat="31.205282694968567" lon="121.6128035776566">
        <ele>7.859423873946071</ele>
        <time>2020-07-29T00:02:38Z</time>
      </trkpt>
      <trkpt lat="31.205326642296114" lon="121.61277429754547">
        <ele>10.093903258442879</ele>
        <time>2020-07-29T00:02:47Z</time>
      </trkpt>
      <trkpt lat="31.20537679781947" lon="121.61277998604947">
        <ele>8.922904539853334</ele>
        <time>2020-07-29T00:02:51Z</time>
      </trkpt>
      <trkpt lat="31.205428336270565" lon="121.61275151851785">
        <ele>6.962535838596523</ele>
        <time>2020-07-29T00:03:03Z</time>
      </trkpt>
      <trkpt lat="31.205511408433136" lon="121.61261976691775">
        <ele>7.94270028732717</ele>
        <time>2020-07-29T00:03:09Z</time>
      </trkpt>
      <trkpt lat="31.205622344479" lon="121.61256716807617">
        <ele>8.118741539306939</ele>
        <time>2020-07-29T00:03:15Z</time>
      </trkpt>
      <trkpt lat="31.205761310061167" lon="121.61238390505854">
        <ele>8.009127770550549</ele>
        <time>2020-07-29T00:03:24Z</time>
      </trkpt>
      <trkpt lat="31.205977249947704" lon="121.61223533312914">
        <ele>5.651048788800836</ele>
        <time>2020-07-29T00:03:33Z</time>
      </trkpt>
      <trkpt lat="31.20618132714255" lon="121.61199838680058">
        <ele>6.224623369053006</ele>
        <time>2020-07-29T00:03:48Z</time>
      </trkpt>
      <trkpt lat="31.206378299902248" lon="121.61183083769525">
        <ele>5.625604623928666</ele>
        <time>2020-07-29T00:04:00Z</time>
      </trkpt>
      <trkpt lat="31.206411149421953" lon="121.61177553261653">
        <ele>6.948638736270368</ele>
        <time>2020-07-29T00:04:03Z</time>
      </trkpt>
      <trkpt lat="31.20654976169086" lon="121.61169392281958">
        <ele>6.1514666974544525</ele>
        <time>2020-07-29T00:04:09Z</time>
      </trkpt>
      <trkpt lat="31.206546581964933" lon="121.61159605891585">
        <ele>5.919822076335549</ele>
        <time>2020-07-29T00:04:12Z</time>
      </trkpt>
      <trkpt lat="31.20646612879192" lon="121.61149738770382">
        <ele>7.29538915399462</ele>
        <time>2020-07-29T00:04:15Z</time>
      </trkpt>
      <trkpt lat="31.20638754588411" lon="121.6114353136793">
        <ele>7.340262942947447</ele>
        <time>2020-07-29T00:04:18Z</time>
      </trkpt>
      <trkpt lat="31.206323303519213" lon="121.6114128181489">
        <ele>8.59494571853429</ele>
        <time>2020-07-29T00:04:21Z</time>
      </trkpt>
      <trkpt lat="31.20626237606906" lon="121.61130790933078">
        <ele>7.817036468535662</ele>
        <time>2020-07-29T00:04:24Z</time>
      </trkpt>
      <trkpt lat="31.206068398223366" lon="121.61109755401914">
        <ele>10.02044368814677</ele>
        <time>2020-07-29T00:04:33Z</time>
      </trkpt>
      <trkpt lat="31.206020487195396" lon="121.61098830508574">
        <ele>10.085520001128316</ele>
        <time>2020-07-29T00:04:36Z</time>
      </trkpt>
      <trkpt lat="31.205930768780018" lon="121.61095062962185">
        <ele>6.513402310200036</ele>
        <time>2020-07-29T00:04:39Z</time>
      </trkpt>
      <trkpt lat="31.205806697457575" lon="121.61080072103711">
        <ele>7.996442859992385</ele>
        <time>2020-07-29T00:04:45Z</time>
      </trkpt>
      <trkpt lat="31.20570355083895" lon="121.61058357592961">
        <ele>8.852982859127223</ele>
        <time>2020-07-29T00:04:51Z</time>
      </trkpt>
      <trkpt lat="31.205554571885067" lon="121.61037863235035">
        <ele>9.647479699924588</ele>
        <time>2020-07-29T00:05:01Z</time>
      </trkpt>
    </trkseg>
  </trk>
</gpx>