<?xml version="1.0" encoding="UTF-8"?>
<gpx xmlns="http://www.topografix.com/GPX/1/1" xmlns:gpxtpx="http://www.garmin.com/xmlschemas/TrackPointExtension/v1" xmlns:xsi="http://www.w3.org/2001/XMLSchema-instance" xsi:schemaLocation="http://www.topografix.com/GPX/1/1 http://www.topografix.com/GPX/1/1/gpx.xsd" version="1.1" creator="gpx.py -- https://github.com/tkrajina/gpxpy">
  <trk>
    <name>gpx from keep</name>
    <type>Run</type>
    <trkseg>
      <trkpt lat="31.20486200428145" lon="121.61050231401654">
        <ele>8.831456284019623</ele>
        <time>2020-05-17T22:26:24Z</time>
      </trkpt>
      <trkpt lat="31.204906993267006" lon="121.61052969192937">
        <ele>8.271302712303285</ele>
        <time>2020-05-17T22:26:32Z</time>
      </trkpt>
      <trkpt lat="31.20501686955951" lon="121.61043615139278">
        <ele>7.880287571810186</ele>
        <time>2020-05-17T22:26:40Z</time>
      </trkpt>
      <trkpt lat="31.20515769046844" lon="121.61029218189182">
        <ele>7.604969865642488</ele>
        <time>2020-05-17T22:26:48Z</time>
      </trkpt>
      <trkpt lat="31.205223918800797" lon="121.61019051071098">
        <ele>7.606940739788115</ele>
        <time>2020-05-17T22:26:52Z</time>
      </trkpt>
      <trkpt lat="31.205369273171886" lon="121.61015362781951">
        <ele>9.386201092042029</ele>
        <time>2020-05-17T22:26:58Z</time>
      </trkpt>
      <trkpt lat="31.20542255757981" lon="121.61033797719145">
        <ele>7.460860605351627</ele>
        <time>2020-05-17T22:27:05Z</time>
      </trkpt>
      <trkpt lat="31.205691931845223" lon="121.61052772930309">
        <ele>10.216938656754792</ele>
        <time>2020-05-17T22:27:16Z</time>
      </trkpt>
      <trkpt lat="31.205919017176683" lon="121.61070419928058">
        <ele>7.47709275316447</ele>
        <time>2020-05-17T22:27:27Z</time>
      </trkpt>
      <trkpt lat="31.206037693641072" lon="121.61081642584301">
        <ele>10.282755956053734</ele>
        <time>2020-05-17T22:27:34Z</time>
      </trkpt>
      <trkpt lat="31.20610835433142" lon="121.61096200114092">
        <ele>9.726497893221676</ele>
        <time>2020-05-17T22:27:40Z</time>
      </trkpt>
      <trkpt lat="31.206167142468175" lon="121.61102814457354">
        <ele>9.618524597026408</ele>
        <time>2020-05-17T22:27:43Z</time>
      </trkpt>
      <trkpt lat="31.206215873521604" lon="121.61112817591895">
        <ele>7.659538011997938</ele>
        <time>2020-05-17T22:27:47Z</time>
      </trkpt>
      <trkpt lat="31.20628794128879" lon="121.61120190849293">
        <ele>7.420328821055591</ele>
        <time>2020-05-17T22:27:51Z</time>
      </trkpt>
      <trkpt lat="31.20633829970142" lon="121.61130031236836">
        <ele>6.136730092577636</ele>
        <time>2020-05-17T22:27:55Z</time>
      </trkpt>
      <trkpt lat="31.206574807628122" lon="121.61155945907213">
        <ele>9.494569362141192</ele>
        <time>2020-05-17T22:28:08Z</time>
      </trkpt>
      <trkpt lat="31.20654194158427" lon="121.61163726531515">
        <ele>8.426491591148078</ele>
        <time>2020-05-17T22:28:12Z</time>
      </trkpt>
      <trkpt lat="31.20640846380115" lon="121.61174164652142">
        <ele>8.100660234689713</ele>
        <time>2020-05-17T22:28:19Z</time>
      </trkpt>
      <trkpt lat="31.206365281460684" lon="121.61183598947514">
        <ele>6.793233823031187</ele>
        <time>2020-05-17T22:28:23Z</time>
      </trkpt>
      <trkpt lat="31.206163660549464" lon="121.61205396117727">
        <ele>8.824481251649559</ele>
        <time>2020-05-17T22:28:34Z</time>
      </trkpt>
      <trkpt lat="31.205927879001802" lon="121.61226651195913">
        <ele>8.622811377979815</ele>
        <time>2020-05-17T22:28:46Z</time>
      </trkpt>
      <trkpt lat="31.205782643978857" lon="121.61249314957111">
        <ele>7.530663069337606</ele>
        <time>2020-05-17T22:28:56Z</time>
      </trkpt>
      <trkpt lat="31.205668130578033" lon="121.61261243478532">
        <ele>8.648321469314396</ele>
        <time>2020-05-17T22:29:03Z</time>
      </trkpt>
      <trkpt lat="31.205588943961292" lon="121.61263141696345">
        <ele>10.069062030874193</ele>
        <time>2020-05-17T22:29:07Z</time>
      </trkpt>
      <trkpt lat="31.205542037297253" lon="121.61263169192235">
        <ele>7.755313315428793</ele>
        <time>2020-05-17T22:29:26Z</time>
      </trkpt>
      <trkpt lat="31.205550118422657" lon="121.61269837691769">
        <ele>8.154306585900486</ele>
        <time>2020-05-17T22:29:47Z</time>
      </trkpt>
      <trkpt lat="31.205405991940584" lon="121.61289058344092">
        <ele>6.574727354571223</ele>
        <time>2020-05-17T22:30:04Z</time>
      </trkpt>
      <trkpt lat="31.205143629262388" lon="121.61310719490498">
        <ele>7.059693173505366</ele>
        <time>2020-05-17T22:30:18Z</time>
      </trkpt>
      <trkpt lat="31.205095012548846" lon="121.61320993605014">
        <ele>9.659528722055256</ele>
        <time>2020-05-17T22:30:22Z</time>
      </trkpt>
      <trkpt lat="31.204982954632694" lon="121.61330671839713">
        <ele>7.3051628563553095</ele>
        <time>2020-05-17T22:30:28Z</time>
      </trkpt>
      <trkpt lat="31.204880967097733" lon="121.6133563330451">
        <ele>6.533063068985939</ele>
        <time>2020-05-17T22:30:32Z</time>
      </trkpt>
      <trkpt lat="31.204615282608103" lon="121.6136507372834">
        <ele>9.73981927614659</ele>
        <time>2020-05-17T22:30:45Z</time>
      </trkpt>
      <trkpt lat="31.204502903313625" lon="121.61380579726905">
        <ele>9.815497345291078</ele>
        <time>2020-05-17T22:30:52Z</time>
      </trkpt>
      <trkpt lat="31.204412279836255" lon="121.61388251653017">
        <ele>7.989858125336468</ele>
        <time>2020-05-17T22:30:56Z</time>
      </trkpt>
      <trkpt lat="31.204343054358077" lon="121.61398471386904">
        <ele>8.59786554146558</ele>
        <time>2020-05-17T22:31:00Z</time>
      </trkpt>
      <trkpt lat="31.204281469587315" lon="121.6140286314033">
        <ele>7.477925481274724</ele>
        <time>2020-05-17T22:31:03Z</time>
      </trkpt>
      <trkpt lat="31.20414087947562" lon="121.61419616011507">
        <ele>9.227770254015923</ele>
        <time>2020-05-17T22:31:10Z</time>
      </trkpt>
      <trkpt lat="31.203919991619294" lon="121.614411129805">
        <ele>8.12635370530188</ele>
        <time>2020-05-17T22:31:21Z</time>
      </trkpt>
      <trkpt lat="31.203823415739908" lon="121.6144713129999">
        <ele>6.7450610511004925</ele>
        <time>2020-05-17T22:31:25Z</time>
      </trkpt>
      <trkpt lat="31.203589209960874" lon="121.61472097654398">
        <ele>5.627404440194368</ele>
        <time>2020-05-17T22:31:37Z</time>
      </trkpt>
      <trkpt lat="31.20352844547638" lon="121.61475567675303">
        <ele>6.71122738160193</ele>
        <time>2020-05-17T22:31:40Z</time>
      </trkpt>
      <trkpt lat="31.203473668627772" lon="121.61476435507115">
        <ele>6.677199320867658</ele>
        <time>2020-05-17T22:31:43Z</time>
      </trkpt>
      <trkpt lat="31.20334177061359" lon="121.6149088383003">
        <ele>7.7335009993985295</ele>
        <time>2020-05-17T22:31:50Z</time>
      </trkpt>
      <trkpt lat="31.20330747471395" lon="121.61505981784778">
        <ele>6.730905518867075</ele>
        <time>2020-05-17T22:31:58Z</time>
      </trkpt>
      <trkpt lat="31.20342363359393" lon="121.6152381601172">
        <ele>6.548265779390931</ele>
        <time>2020-05-17T22:32:55Z</time>
      </trkpt>
      <trkpt lat="31.20344147588704" lon="121.61529724757338">
        <ele>5.8795914417132735</ele>
        <time>2020-05-17T22:32:58Z</time>
      </trkpt>
      <trkpt lat="31.203472077868604" lon="121.61533790248019">
        <ele>6.911581017076969</ele>
        <time>2020-05-17T22:33:01Z</time>
      </trkpt>
      <trkpt lat="31.203243582271327" lon="121.61556072292059">
        <ele>7.182474110275507</ele>
        <time>2020-05-17T22:33:13Z</time>
      </trkpt>
      <trkpt lat="31.203148899165242" lon="121.61562388458644">
        <ele>5.467208536341786</ele>
        <time>2020-05-17T22:33:17Z</time>
      </trkpt>
      <trkpt lat="31.203082104983626" lon="121.61572878474307">
        <ele>5.961837938055396</ele>
        <time>2020-05-17T22:33:21Z</time>
      </trkpt>
      <trkpt lat="31.202955919746096" lon="121.6158469705007">
        <ele>3.1931977001950145</ele>
        <time>2020-05-17T22:33:28Z</time>
      </trkpt>
      <trkpt lat="31.202892119366137" lon="121.61593858836005">
        <ele>5.459746687673032</ele>
        <time>2020-05-17T22:33:32Z</time>
      </trkpt>
      <trkpt lat="31.202747482370707" lon="121.61607168189155">
        <ele>6.522644684650004</ele>
        <time>2020-05-17T22:33:39Z</time>
      </trkpt>
      <trkpt lat="31.202505665187033" lon="121.61632702131978">
        <ele>5.3521854085847735</ele>
        <time>2020-05-17T22:33:53Z</time>
      </trkpt>
      <trkpt lat="31.20228041593087" lon="121.61654929035957">
        <ele>5.630276475101709</ele>
        <time>2020-05-17T22:34:04Z</time>
      </trkpt>
      <trkpt lat="31.20220603289638" lon="121.61664741129523">
        <ele>5.313341564498842</ele>
        <time>2020-05-17T22:34:08Z</time>
      </trkpt>
      <trkpt lat="31.20214606388735" lon="121.61669864177382">
        <ele>5.483389755710959</ele>
        <time>2020-05-17T22:34:11Z</time>
      </trkpt>
      <trkpt lat="31.20200057243817" lon="121.61687130199128">
        <ele>5.630830113776028</ele>
        <time>2020-05-17T22:34:19Z</time>
      </trkpt>
      <trkpt lat="31.20189629733421" lon="121.61703880801151">
        <ele>5.138545787893236</ele>
        <time>2020-05-17T22:34:26Z</time>
      </trkpt>
      <trkpt lat="31.201766888617108" lon="121.61711985669153">
        <ele>5.442485091276467</ele>
        <time>2020-05-17T22:34:32Z</time>
      </trkpt>
      <trkpt lat="31.2017670856973" lon="121.61719709998343">
        <ele>7.829603094607592</ele>
        <time>2020-05-17T22:34:36Z</time>
      </trkpt>
      <trkpt lat="31.201682172098344" lon="121.61724751829952">
        <ele>4.968875877559185</ele>
        <time>2020-05-17T22:34:39Z</time>
      </trkpt>
      <trkpt lat="31.201613771759003" lon="121.6173247668675">
        <ele>5.749023928306997</ele>
        <time>2020-05-17T22:34:42Z</time>
      </trkpt>
      <trkpt lat="31.201374984375548" lon="121.61751992553208">
        <ele>5.411563334055245</ele>
        <time>2020-05-17T22:34:53Z</time>
      </trkpt>
      <trkpt lat="31.201149715799996" lon="121.61775248270466">
        <ele>5.967378688976169</ele>
        <time>2020-05-17T22:35:05Z</time>
      </trkpt>
      <trkpt lat="31.200911910447562" lon="121.61804845738335">
        <ele>6.060474822297692</ele>
        <time>2020-05-17T22:35:19Z</time>
      </trkpt>
      <trkpt lat="31.200858157840795" lon="121.61811702966118">
        <ele>5.112793437205255</ele>
        <time>2020-05-17T22:35:22Z</time>
      </trkpt>
      <trkpt lat="31.200807892311637" lon="121.61822327293486">
        <ele>6.150795357301831</ele>
        <time>2020-05-17T22:35:26Z</time>
      </trkpt>
      <trkpt lat="31.200722136489986" lon="121.61830079093708">
        <ele>5.392714395187795</ele>
        <time>2020-05-17T22:35:30Z</time>
      </trkpt>
      <trkpt lat="31.200661037132484" lon="121.61839483862585">
        <ele>5.320469286292791</ele>
        <time>2020-05-17T22:35:34Z</time>
      </trkpt>
      <trkpt lat="31.200425153334752" lon="121.61866099418442">
        <ele>5.057587124407291</ele>
        <time>2020-05-17T22:35:47Z</time>
      </trkpt>
      <trkpt lat="31.200233506802977" lon="121.61888323962164">
        <ele>5.417788623832166</ele>
        <time>2020-05-17T22:35:58Z</time>
      </trkpt>
      <trkpt lat="31.20004456408699" lon="121.61911117406042">
        <ele>4.654529240913689</ele>
        <time>2020-05-17T22:36:09Z</time>
      </trkpt>
      <trkpt lat="31.199824695148937" lon="121.61935374332033">
        <ele>4.479221023619175</ele>
        <time>2020-05-17T22:36:21Z</time>
      </trkpt>
      <trkpt lat="31.19958908655762" lon="121.61960769370332">
        <ele>7.134458540938795</ele>
        <time>2020-05-17T22:36:35Z</time>
      </trkpt>
      <trkpt lat="31.19931988027053" lon="121.61983779633282">
        <ele>4.241260568611324</ele>
        <time>2020-05-17T22:36:48Z</time>
      </trkpt>
      <trkpt lat="31.199185549465277" lon="121.61995108535992">
        <ele>5.21682046726346</ele>
        <time>2020-05-17T22:36:55Z</time>
      </trkpt>
      <trkpt lat="31.19910389198975" lon="121.61999472295004">
        <ele>3.404552787542343</ele>
        <time>2020-05-17T22:36:59Z</time>
      </trkpt>
      <trkpt lat="31.198989443300437" lon="121.62002318727149">
        <ele>3.876231945119798</ele>
        <time>2020-05-17T22:37:02Z</time>
      </trkpt>
      <trkpt lat="31.198915867716114" lon="121.62011587465977">
        <ele>6.004042153246701</ele>
        <time>2020-05-17T22:37:06Z</time>
      </trkpt>
      <trkpt lat="31.198757197576647" lon="121.62016927423491">
        <ele>5.3194484943524</ele>
        <time>2020-05-17T22:37:12Z</time>
      </trkpt>
      <trkpt lat="31.198564679639514" lon="121.62043513677264">
        <ele>5.9451517183333635</ele>
        <time>2020-05-17T22:37:22Z</time>
      </trkpt>
      <trkpt lat="31.198542575944966" lon="121.62056711241189">
        <ele>6.951430379413068</ele>
        <time>2020-05-17T22:37:26Z</time>
      </trkpt>
      <trkpt lat="31.198341711061943" lon="121.62077606361801">
        <ele>7.298709926195443</ele>
        <time>2020-05-17T22:37:37Z</time>
      </trkpt>
      <trkpt lat="31.19826112254253" lon="121.62083297825008">
        <ele>6.228133170865476</ele>
        <time>2020-05-17T22:37:41Z</time>
      </trkpt>
      <trkpt lat="31.19800546961549" lon="121.62105764916001">
        <ele>7.163589525967836</ele>
        <time>2020-05-17T22:37:54Z</time>
      </trkpt>
      <trkpt lat="31.19770480057624" lon="121.62128801256894">
        <ele>5.613992224447429</ele>
        <time>2020-05-17T22:38:09Z</time>
      </trkpt>
      <trkpt lat="31.19751481875252" lon="121.6214584775072">
        <ele>5.8354277443140745</ele>
        <time>2020-05-17T22:38:19Z</time>
      </trkpt>
      <trkpt lat="31.197312652758892" lon="121.62161295442395">
        <ele>5.0362276416271925</ele>
        <time>2020-05-17T22:38:29Z</time>
      </trkpt>
      <trkpt lat="31.1972366251716" lon="121.62171186895952">
        <ele>5.642457941547036</ele>
        <time>2020-05-17T22:38:33Z</time>
      </trkpt>
      <trkpt lat="31.197164176828185" lon="121.62176173540972">
        <ele>5.359196511097252</ele>
        <time>2020-05-17T22:38:36Z</time>
      </trkpt>
      <trkpt lat="31.19708762197444" lon="121.6218468294793">
        <ele>5.154452407732606</ele>
        <time>2020-05-17T22:38:40Z</time>
      </trkpt>
      <trkpt lat="31.19693593091735" lon="121.62196038224879">
        <ele>3.7239274131134152</ele>
        <time>2020-05-17T22:38:47Z</time>
      </trkpt>
      <trkpt lat="31.196885965531738" lon="121.62202867286831">
        <ele>7.401792546734214</ele>
        <time>2020-05-17T22:38:50Z</time>
      </trkpt>
      <trkpt lat="31.196665053256115" lon="121.62221431027758">
        <ele>7.179598572663963</ele>
        <time>2020-05-17T22:39:01Z</time>
      </trkpt>
      <trkpt lat="31.19668229226645" lon="121.62255248463207">
        <ele>5.86959510948509</ele>
        <time>2020-05-17T22:39:12Z</time>
      </trkpt>
      <trkpt lat="31.196712434665283" lon="121.62274839453111">
        <ele>5.681777064688504</ele>
        <time>2020-05-17T22:39:19Z</time>
      </trkpt>
      <trkpt lat="31.196706387106143" lon="121.62282020212356">
        <ele>4.322182125411928</ele>
        <time>2020-05-17T22:39:23Z</time>
      </trkpt>
      <trkpt lat="31.19676023349934" lon="121.62314888204398">
        <ele>5.24036676902324</ele>
        <time>2020-05-17T22:39:43Z</time>
      </trkpt>
      <trkpt lat="31.19683709732334" lon="121.62349923314939">
        <ele>5.435046059079468</ele>
        <time>2020-05-17T22:40:05Z</time>
      </trkpt>
      <trkpt lat="31.196890933002095" lon="121.62383088546844">
        <ele>5.098488945513964</ele>
        <time>2020-05-17T22:40:23Z</time>
      </trkpt>
      <trkpt lat="31.19692031164097" lon="121.62397828476747">
        <ele>6.319704977795482</ele>
        <time>2020-05-17T22:40:30Z</time>
      </trkpt>
      <trkpt lat="31.19693840448369" lon="121.62381137242716">
        <ele>6.568863330408931</ele>
        <time>2020-05-17T22:40:40Z</time>
      </trkpt>
      <trkpt lat="31.19689489645913" lon="121.6234585838771">
        <ele>4.256105086766183</ele>
        <time>2020-05-17T22:40:51Z</time>
      </trkpt>
      <trkpt lat="31.19679693060534" lon="121.62306785989576">
        <ele>5.944671136327088</ele>
        <time>2020-05-17T22:41:05Z</time>
      </trkpt>
      <trkpt lat="31.196757610435274" lon="121.62283835285436">
        <ele>4.850149344652891</ele>
        <time>2020-05-17T22:41:13Z</time>
      </trkpt>
      <trkpt lat="31.196786159319462" lon="121.62276898218062">
        <ele>3.997881395742297</ele>
        <time>2020-05-17T22:41:16Z</time>
      </trkpt>
      <trkpt lat="31.196940573712595" lon="121.62264757442875">
        <ele>6.37487864214927</ele>
        <time>2020-05-17T22:41:24Z</time>
      </trkpt>
      <trkpt lat="31.19706598562826" lon="121.62251803934878">
        <ele>6.0915942788124084</ele>
        <time>2020-05-17T22:41:31Z</time>
      </trkpt>
      <trkpt lat="31.197230122855554" lon="121.62242914653051">
        <ele>5.242176009342074</ele>
        <time>2020-05-17T22:41:39Z</time>
      </trkpt>
      <trkpt lat="31.19746516280885" lon="121.62221939260091">
        <ele>5.291302930563688</ele>
        <time>2020-05-17T22:41:50Z</time>
      </trkpt>
      <trkpt lat="31.197535218559256" lon="121.62212806779132">
        <ele>6.1252573458477855</ele>
        <time>2020-05-17T22:41:54Z</time>
      </trkpt>
      <trkpt lat="31.197717034517918" lon="121.62198931228471">
        <ele>6.513309546746314</ele>
        <time>2020-05-17T22:42:02Z</time>
      </trkpt>
      <trkpt lat="31.197788450425804" lon="121.62189337993249">
        <ele>6.185620781034231</ele>
        <time>2020-05-17T22:42:06Z</time>
      </trkpt>
      <trkpt lat="31.198070626007485" lon="121.62171776152128">
        <ele>5.011008275672793</ele>
        <time>2020-05-17T22:42:23Z</time>
      </trkpt>
      <trkpt lat="31.198314368414618" lon="121.6214800900177">
        <ele>6.19436318334192</ele>
        <time>2020-05-17T22:42:48Z</time>
      </trkpt>
      <trkpt lat="31.1984857251623" lon="121.62123429279765">
        <ele>4.803609098307788</ele>
        <time>2020-05-17T22:43:09Z</time>
      </trkpt>
      <trkpt lat="31.198520485682447" lon="121.6211838865013">
        <ele>5.4803411131724715</ele>
        <time>2020-05-17T22:43:13Z</time>
      </trkpt>
      <trkpt lat="31.19861760544877" lon="121.62113482988268">
        <ele>5.810844286344945</ele>
        <time>2020-05-17T22:43:20Z</time>
      </trkpt>
      <trkpt lat="31.198698238425507" lon="121.62103780972416">
        <ele>5.580482124350965</ele>
        <time>2020-05-17T22:43:26Z</time>
      </trkpt>
      <trkpt lat="31.198835783244764" lon="121.62096463150978">
        <ele>3.613158822990954</ele>
        <time>2020-05-17T22:43:34Z</time>
      </trkpt>
      <trkpt lat="31.198877330815616" lon="121.6209058234698">
        <ele>5.128941738978028</ele>
        <time>2020-05-17T22:43:37Z</time>
      </trkpt>
      <trkpt lat="31.199098759198822" lon="121.62073724928953">
        <ele>5.6328052105382085</ele>
        <time>2020-05-17T22:43:48Z</time>
      </trkpt>
      <trkpt lat="31.199268786684442" lon="121.62071284601885">
        <ele>5.339821971021593</ele>
        <time>2020-05-17T22:43:55Z</time>
      </trkpt>
      <trkpt lat="31.1995816394296" lon="121.62074615203245">
        <ele>6.9700679844245315</ele>
        <time>2020-05-17T22:44:06Z</time>
      </trkpt>
      <trkpt lat="31.199901286729823" lon="121.62076455295598">
        <ele>5.611037497408688</ele>
        <time>2020-05-17T22:44:19Z</time>
      </trkpt>
      <trkpt lat="31.20000323380741" lon="121.6207640025382">
        <ele>5.907211115583777</ele>
        <time>2020-05-17T22:44:23Z</time>
      </trkpt>
      <trkpt lat="31.20027567355094" lon="121.62081031936418">
        <ele>5.548120700754225</ele>
        <time>2020-05-17T22:44:34Z</time>
      </trkpt>
      <trkpt lat="31.200358068388045" lon="121.620837953535">
        <ele>4.906434345990419</ele>
        <time>2020-05-17T22:44:37Z</time>
      </trkpt>
      <trkpt lat="31.200407171367292" lon="121.62081247640403">
        <ele>5.063564877957106</ele>
        <time>2020-05-17T22:44:40Z</time>
      </trkpt>
      <trkpt lat="31.200670721368915" lon="121.62080567983791">
        <ele>5.724156569689512</ele>
        <time>2020-05-17T22:44:58Z</time>
      </trkpt>
      <trkpt lat="31.200848531136185" lon="121.62085579827715">
        <ele>4.92961563449353</ele>
        <time>2020-05-17T22:45:10Z</time>
      </trkpt>
      <trkpt lat="31.20094507650768" lon="121.62083600802737">
        <ele>5.754830534569919</ele>
        <time>2020-05-17T22:45:17Z</time>
      </trkpt>
      <trkpt lat="31.20123996476899" lon="121.62093353982931">
        <ele>5.683374838903546</ele>
        <time>2020-05-17T22:45:38Z</time>
      </trkpt>
      <trkpt lat="31.201519737279654" lon="121.62096874521636">
        <ele>6.014590851962566</ele>
        <time>2020-05-17T22:45:58Z</time>
      </trkpt>
      <trkpt lat="31.201603249409004" lon="121.6209662994075">
        <ele>5.118538238108158</ele>
        <time>2020-05-17T22:46:04Z</time>
      </trkpt>
      <trkpt lat="31.201718987544776" lon="121.6209996214077">
        <ele>4.622672813013196</ele>
        <time>2020-05-17T22:46:12Z</time>
      </trkpt>
      <trkpt lat="31.201814161144352" lon="121.62099473574176">
        <ele>4.1954524060711265</ele>
        <time>2020-05-17T22:46:19Z</time>
      </trkpt>
      <trkpt lat="31.2020705989491" lon="121.62104566027381">
        <ele>4.048693157732487</ele>
        <time>2020-05-17T22:46:37Z</time>
      </trkpt>
      <trkpt lat="31.202167932182988" lon="121.62104944604718">
        <ele>4.45737343467772</ele>
        <time>2020-05-17T22:46:44Z</time>
      </trkpt>
      <trkpt lat="31.202363628052137" lon="121.62110742116674">
        <ele>5.045692532323301</ele>
        <time>2020-05-17T22:46:58Z</time>
      </trkpt>
      <trkpt lat="31.20241731957349" lon="121.62110118401766">
        <ele>4.504025076515973</ele>
        <time>2020-05-17T22:47:02Z</time>
      </trkpt>
      <trkpt lat="31.20246636470004" lon="121.62112882064068">
        <ele>5.622600509785116</ele>
        <time>2020-05-17T22:47:06Z</time>
      </trkpt>
      <trkpt lat="31.20246636470004" lon="121.62112882064068">
        <ele>5.622600509785116</ele>
        <time>2020-05-17T22:47:14Z</time>
      </trkpt>
      <trkpt lat="31.20245843133592" lon="121.62119304512315">
        <ele>13.747097837738693</ele>
        <time>2020-05-17T22:47:18Z</time>
      </trkpt>
      <trkpt lat="31.202425940059324" lon="121.6211521288527">
        <ele>6.394522527232766</ele>
        <time>2020-05-17T22:47:28Z</time>
      </trkpt>
      <trkpt lat="31.202464681420103" lon="121.62118030824779">
        <ele>6.220013434998691</ele>
        <time>2020-05-17T22:47:32Z</time>
      </trkpt>
      <trkpt lat="31.202433555602333" lon="121.62113044927766">
        <ele>5.083810546435416</ele>
        <time>2020-05-17T22:47:47Z</time>
      </trkpt>
      <trkpt lat="31.20243179224156" lon="121.62100742107374">
        <ele>3.6186210438609123</ele>
        <time>2020-05-17T22:48:42Z</time>
      </trkpt>
      <trkpt lat="31.202379612324506" lon="121.620870576">
        <ele>4.231463079340756</ele>
        <time>2020-05-17T22:48:46Z</time>
      </trkpt>
      <trkpt lat="31.20240193424781" lon="121.62078873516482">
        <ele>6.149025206454098</ele>
        <time>2020-05-17T22:48:50Z</time>
      </trkpt>
      <trkpt lat="31.20238248327208" lon="121.62047194701847">
        <ele>4.392912655137479</ele>
        <time>2020-05-17T22:49:00Z</time>
      </trkpt>
      <trkpt lat="31.20235764143474" lon="121.62037628810876">
        <ele>3.1379426987841725</ele>
        <time>2020-05-17T22:49:03Z</time>
      </trkpt>
      <trkpt lat="31.202392149746007" lon="121.62030691050829">
        <ele>3.8225252460688353</ele>
        <time>2020-05-17T22:49:07Z</time>
      </trkpt>
      <trkpt lat="31.202392149746007" lon="121.62030691050829">
        <ele>3.8225252460688353</ele>
        <time>2020-05-17T22:49:13Z</time>
      </trkpt>
      <trkpt lat="31.202348140980014" lon="121.62038631569823">
        <ele>3.3804737674072385</ele>
        <time>2020-05-17T22:49:18Z</time>
      </trkpt>
      <trkpt lat="31.202385608334108" lon="121.62033888849405">
        <ele>3.2709990041330457</ele>
        <time>2020-05-17T22:49:25Z</time>
      </trkpt>
      <trkpt lat="31.202532808174162" lon="121.6203635368572">
        <ele>4.704427211545408</ele>
        <time>2020-05-17T22:50:20Z</time>
      </trkpt>
      <trkpt lat="31.202623383166966" lon="121.62034862463969">
        <ele>4.220530725084245</ele>
        <time>2020-05-17T22:50:24Z</time>
      </trkpt>
      <trkpt lat="31.20268577779846" lon="121.62031718403459">
        <ele>4.107068547047675</ele>
        <time>2020-05-17T22:50:27Z</time>
      </trkpt>
      <trkpt lat="31.202774722496414" lon="121.6203055238713">
        <ele>2.9700563326478004</ele>
        <time>2020-05-17T22:50:31Z</time>
      </trkpt>
      <trkpt lat="31.2028249599446" lon="121.62023289282594">
        <ele>4.780207402072847</ele>
        <time>2020-05-17T22:50:35Z</time>
      </trkpt>
      <trkpt lat="31.20272859944617" lon="121.61982233825418">
        <ele>4.401878242380917</ele>
        <time>2020-05-17T22:50:49Z</time>
      </trkpt>
      <trkpt lat="31.20271896403576" lon="121.61970282753815">
        <ele>6.043957158923149</ele>
        <time>2020-05-17T22:50:53Z</time>
      </trkpt>
      <trkpt lat="31.202682740227445" lon="121.61959930764192">
        <ele>5.4513582829386</ele>
        <time>2020-05-17T22:50:57Z</time>
      </trkpt>
      <trkpt lat="31.202604492742278" lon="121.61923156056098">
        <ele>5.2439282881096005</ele>
        <time>2020-05-17T22:51:10Z</time>
      </trkpt>
      <trkpt lat="31.20249616146588" lon="121.61884727901104">
        <ele>6.6282302513718605</ele>
        <time>2020-05-17T22:51:23Z</time>
      </trkpt>
      <trkpt lat="31.202448644390106" lon="121.61864754714155">
        <ele>5.3644505105912685</ele>
        <time>2020-05-17T22:51:30Z</time>
      </trkpt>
      <trkpt lat="31.202518915685737" lon="121.61860065603332">
        <ele>5.778966733254492</ele>
        <time>2020-05-17T22:51:34Z</time>
      </trkpt>
      <trkpt lat="31.202734538963647" lon="121.61853017458209">
        <ele>5.95086208358407</ele>
        <time>2020-05-17T22:51:44Z</time>
      </trkpt>
      <trkpt lat="31.2027644678752" lon="121.61842664444298">
        <ele>5.781886440701783</ele>
        <time>2020-05-17T22:51:48Z</time>
      </trkpt>
      <trkpt lat="31.202700657343986" lon="121.61824940503935">
        <ele>5.144444013014436</ele>
        <time>2020-05-17T22:51:54Z</time>
      </trkpt>
      <trkpt lat="31.20267128924641" lon="121.61806267586233">
        <ele>5.553503043949604</ele>
        <time>2020-05-17T22:52:01Z</time>
      </trkpt>
      <trkpt lat="31.202711789118514" lon="121.61796076904567">
        <ele>4.655039269477129</ele>
        <time>2020-05-17T22:52:05Z</time>
      </trkpt>
      <trkpt lat="31.20263170095455" lon="121.61779030325332">
        <ele>5.434580698609352</ele>
        <time>2020-05-17T22:52:15Z</time>
      </trkpt>
      <trkpt lat="31.202560214254923" lon="121.61769545119694">
        <ele>5.856989846564829</ele>
        <time>2020-05-17T22:52:23Z</time>
      </trkpt>
      <trkpt lat="31.20248640376455" lon="121.61748053490831">
        <ele>6.176944987848401</ele>
        <time>2020-05-17T22:52:37Z</time>
      </trkpt>
      <trkpt lat="31.20243711264488" lon="121.61742335251246">
        <ele>5.802754203788936</ele>
        <time>2020-05-17T22:52:41Z</time>
      </trkpt>
      <trkpt lat="31.20238705797071" lon="121.6173144038605">
        <ele>6.064316606149077</ele>
        <time>2020-05-17T22:52:48Z</time>
      </trkpt>
      <trkpt lat="31.202422920841904" lon="121.6172385130938">
        <ele>5.331683741882443</ele>
        <time>2020-05-17T22:52:52Z</time>
      </trkpt>
      <trkpt lat="31.20254661898467" lon="121.61717535319342">
        <ele>5.1418731631711125</ele>
        <time>2020-05-17T22:52:59Z</time>
      </trkpt>
      <trkpt lat="31.20258436594414" lon="121.61711355539006">
        <ele>3.327369626611471</ele>
        <time>2020-05-17T22:53:02Z</time>
      </trkpt>
      <trkpt lat="31.20285979719276" lon="121.6168728571128">
        <ele>5.767343326471746</ele>
        <time>2020-05-17T22:53:16Z</time>
      </trkpt>
      <trkpt lat="31.20296185065171" lon="121.61676009898295">
        <ele>4.689463833346963</ele>
        <time>2020-05-17T22:53:22Z</time>
      </trkpt>
      <trkpt lat="31.20304460000564" lon="121.61670371710031">
        <ele>5.0891707157716155</ele>
        <time>2020-05-17T22:53:26Z</time>
      </trkpt>
      <trkpt lat="31.2031370879252" lon="121.61667091429639">
        <ele>4.623558226041496</ele>
        <time>2020-05-17T22:53:30Z</time>
      </trkpt>
      <trkpt lat="31.203418493352267" lon="121.61641638829666">
        <ele>5.307740659452975</ele>
        <time>2020-05-17T22:53:43Z</time>
      </trkpt>
      <trkpt lat="31.203500940131434" lon="121.61639307225637">
        <ele>4.742824400775135</ele>
        <time>2020-05-17T22:53:46Z</time>
      </trkpt>
      <trkpt lat="31.203558480772" lon="121.61632856046803">
        <ele>6.042866944335401</ele>
        <time>2020-05-17T22:53:49Z</time>
      </trkpt>
      <trkpt lat="31.203780660489027" lon="121.61619898544267">
        <ele>6.804002075456083</ele>
        <time>2020-05-17T22:54:00Z</time>
      </trkpt>
      <trkpt lat="31.203919920584866" lon="121.6160168345442">
        <ele>7.725172591395676</ele>
        <time>2020-05-17T22:54:07Z</time>
      </trkpt>
      <trkpt lat="31.204075549447168" lon="121.61601980313084">
        <ele>6.171193581074476</ele>
        <time>2020-05-17T22:54:14Z</time>
      </trkpt>
      <trkpt lat="31.204134949444438" lon="121.61599648861832">
        <ele>5.462833720259368</ele>
        <time>2020-05-17T22:54:17Z</time>
      </trkpt>
      <trkpt lat="31.204220841327267" lon="121.61605963421394">
        <ele>5.1863740077242255</ele>
        <time>2020-05-17T22:54:21Z</time>
      </trkpt>
      <trkpt lat="31.204283662333356" lon="121.61614907247572">
        <ele>5.566733222454786</ele>
        <time>2020-05-17T22:54:25Z</time>
      </trkpt>
      <trkpt lat="31.20436033954078" lon="121.61620761076443">
        <ele>5.672836289741099</ele>
        <time>2020-05-17T22:54:29Z</time>
      </trkpt>
      <trkpt lat="31.204402028620333" lon="121.61627861959671">
        <ele>5.023131971247494</ele>
        <time>2020-05-17T22:54:32Z</time>
      </trkpt>
      <trkpt lat="31.20447760968359" lon="121.61634935438093">
        <ele>5.80017876625061</ele>
        <time>2020-05-17T22:54:36Z</time>
      </trkpt>
      <trkpt lat="31.204523698148655" lon="121.6163542292532">
        <ele>6.474391765892506</ele>
        <time>2020-05-17T22:54:39Z</time>
      </trkpt>
      <trkpt lat="31.204422518572066" lon="121.61611111532092">
        <ele>6.853794727474451</ele>
        <time>2020-05-17T22:54:58Z</time>
      </trkpt>
      <trkpt lat="31.204247504593184" lon="121.61595934652856">
        <ele>6.964229704812169</ele>
        <time>2020-05-17T22:55:14Z</time>
      </trkpt>
      <trkpt lat="31.204027844824605" lon="121.61570593873378">
        <ele>8.14879870787263</ele>
        <time>2020-05-17T22:55:34Z</time>
      </trkpt>
      <trkpt lat="31.203826864322767" lon="121.61548234201129">
        <ele>8.336002401076257</ele>
        <time>2020-05-17T22:55:53Z</time>
      </trkpt>
      <trkpt lat="31.2036198716526" lon="121.61530970110744">
        <ele>7.067122069187462</ele>
        <time>2020-05-17T22:56:12Z</time>
      </trkpt>
      <trkpt lat="31.20356109859501" lon="121.61523869084927">
        <ele>5.79982968326658</ele>
        <time>2020-05-17T22:56:19Z</time>
      </trkpt>
      <trkpt lat="31.203636043461124" lon="121.61511291690343">
        <ele>6.7551511796191335</ele>
        <time>2020-05-17T22:56:25Z</time>
      </trkpt>
      <trkpt lat="31.203759798995307" lon="121.61497927771569">
        <ele>5.65250308252871</ele>
        <time>2020-05-17T22:56:32Z</time>
      </trkpt>
      <trkpt lat="31.203820623474105" lon="121.614876543228">
        <ele>4.55460509005934</ele>
        <time>2020-05-17T22:56:36Z</time>
      </trkpt>
      <trkpt lat="31.20404666374169" lon="121.61466482998861">
        <ele>6.508263643831015</ele>
        <time>2020-05-17T22:56:47Z</time>
      </trkpt>
      <trkpt lat="31.20409119525076" lon="121.61458947235332">
        <ele>6.30794224049896</ele>
        <time>2020-05-17T22:56:50Z</time>
      </trkpt>
      <trkpt lat="31.204356329757555" lon="121.61431595152742">
        <ele>7.4954343140125275</ele>
        <time>2020-05-17T22:57:04Z</time>
      </trkpt>
      <trkpt lat="31.204421732408186" lon="121.6142468254833">
        <ele>5.884152940474451</ele>
        <time>2020-05-17T22:57:08Z</time>
      </trkpt>
      <trkpt lat="31.20459537243314" lon="121.6141134483883">
        <ele>6.8981572994962335</ele>
        <time>2020-05-17T22:57:16Z</time>
      </trkpt>
      <trkpt lat="31.204686593760147" lon="121.61397167435058">
        <ele>7.525879803113639</ele>
        <time>2020-05-17T22:57:22Z</time>
      </trkpt>
      <trkpt lat="31.204768260252436" lon="121.61390661194302">
        <ele>7.565450299531221</ele>
        <time>2020-05-17T22:57:26Z</time>
      </trkpt>
      <trkpt lat="31.204905319581428" lon="121.6137442317583">
        <ele>6.699084708467126</ele>
        <time>2020-05-17T22:57:33Z</time>
      </trkpt>
      <trkpt lat="31.204973692685833" lon="121.61368784400527">
        <ele>7.730553305707872</ele>
        <time>2020-05-17T22:57:37Z</time>
      </trkpt>
      <trkpt lat="31.205022282913255" lon="121.61361925965632">
        <ele>7.178298047743738</ele>
        <time>2020-05-17T22:57:41Z</time>
      </trkpt>
      <trkpt lat="31.205052441138363" lon="121.61354417095876">
        <ele>9.538818813860416</ele>
        <time>2020-05-17T22:57:45Z</time>
      </trkpt>
      <trkpt lat="31.205180533028543" lon="121.61340347474103">
        <ele>7.717105709016323</ele>
        <time>2020-05-17T22:57:56Z</time>
      </trkpt>
      <trkpt lat="31.205258643190753" lon="121.61337527684154">
        <ele>7.646669012494385</ele>
        <time>2020-05-17T22:58:03Z</time>
      </trkpt>
      <trkpt lat="31.20548577410168" lon="121.61314186416199">
        <ele>7.287839618511498</ele>
        <time>2020-05-17T22:58:24Z</time>
      </trkpt>
      <trkpt lat="31.205520508693972" lon="121.61310580836675">
        <ele>7.4075941033661366</ele>
        <time>2020-05-17T22:58:28Z</time>
      </trkpt>
      <trkpt lat="31.205461486403557" lon="121.61300036490574">
        <ele>8.367305473424494</ele>
        <time>2020-05-17T22:58:42Z</time>
      </trkpt>
      <trkpt lat="31.205402157501183" lon="121.612938564393">
        <ele>8.894917220808566</ele>
        <time>2020-05-17T22:58:46Z</time>
      </trkpt>
      <trkpt lat="31.205299799450238" lon="121.61277484192235">
        <ele>7.407894670963287</ele>
        <time>2020-05-17T22:58:58Z</time>
      </trkpt>
      <trkpt lat="31.205118514633494" lon="121.6126431123125">
        <ele>6.065643219277263</ele>
        <time>2020-05-17T22:59:09Z</time>
      </trkpt>
      <trkpt lat="31.20498334505175" lon="121.6124823723812">
        <ele>7.6199622536078095</ele>
        <time>2020-05-17T22:59:16Z</time>
      </trkpt>
      <trkpt lat="31.204761434035913" lon="121.61229236142556">
        <ele>6.827172298915684</ele>
        <time>2020-05-17T22:59:27Z</time>
      </trkpt>
      <trkpt lat="31.20470832951086" lon="121.61224357059409">
        <ele>4.7091666124761105</ele>
        <time>2020-05-17T22:59:30Z</time>
      </trkpt>
      <trkpt lat="31.20463223824109" lon="121.61211752208557">
        <ele>7.357426049187779</ele>
        <time>2020-05-17T22:59:34Z</time>
      </trkpt>
      <trkpt lat="31.204510585431226" lon="121.61200475995588">
        <ele>7.573609187267721</ele>
        <time>2020-05-17T22:59:41Z</time>
      </trkpt>
      <trkpt lat="31.204313671148086" lon="121.61174154862589">
        <ele>8.21901892311871</ele>
        <time>2020-05-17T22:59:56Z</time>
      </trkpt>
      <trkpt lat="31.204088285261765" lon="121.6114780655473">
        <ele>7.251450651325285</ele>
        <time>2020-05-17T23:00:08Z</time>
      </trkpt>
      <trkpt lat="31.204020024204876" lon="121.61139104989971">
        <ele>7.840754758566618</ele>
        <time>2020-05-17T23:00:12Z</time>
      </trkpt>
      <trkpt lat="31.20376914714059" lon="121.6111289203933">
        <ele>8.019165880978107</ele>
        <time>2020-05-17T23:00:31Z</time>
      </trkpt>
      <trkpt lat="31.20361607510352" lon="121.61096600258031">
        <ele>6.800165609456599</ele>
        <time>2020-05-17T23:00:46Z</time>
      </trkpt>
      <trkpt lat="31.203772729949247" lon="121.61067591087756">
        <ele>7.549683538265526</ele>
        <time>2020-05-17T23:01:04Z</time>
      </trkpt>
      <trkpt lat="31.203940441274295" lon="121.61046606204206">
        <ele>8.137478578835726</ele>
        <time>2020-05-17T23:01:19Z</time>
      </trkpt>
      <trkpt lat="31.204000657701723" lon="121.61043162659318">
        <ele>8.09611564874649</ele>
        <time>2020-05-17T23:01:23Z</time>
      </trkpt>
      <trkpt lat="31.20407692978613" lon="121.61031395985879">
        <ele>7.382147025316954</ele>
        <time>2020-05-17T23:01:31Z</time>
      </trkpt>
      <trkpt lat="31.204270106427902" lon="121.61013067435466">
        <ele>8.181674808263779</ele>
        <time>2020-05-17T23:01:48Z</time>
      </trkpt>
      <trkpt lat="31.20437369803245" lon="121.61010491033838">
        <ele>9.231579402461648</ele>
        <time>2020-05-17T23:01:55Z</time>
      </trkpt>
      <trkpt lat="31.20446078197367" lon="121.61003360104836">
        <ele>9.67531007155776</ele>
        <time>2020-05-17T23:02:02Z</time>
      </trkpt>
      <trkpt lat="31.20446078197367" lon="121.61003360104836">
        <ele>9.67531007155776</ele>
        <time>2020-05-17T23:02:04Z</time>
      </trkpt>
    </trkseg>
  </trk>
</gpx>