<?xml version="1.0" encoding="UTF-8"?>
<gpx xmlns="http://www.topografix.com/GPX/1/1" xmlns:gpxtpx="http://www.garmin.com/xmlschemas/TrackPointExtension/v1" xmlns:xsi="http://www.w3.org/2001/XMLSchema-instance" xsi:schemaLocation="http://www.topografix.com/GPX/1/1 http://www.topografix.com/GPX/1/1/gpx.xsd" version="1.1" creator="gpx.py -- https://github.com/tkrajina/gpxpy">
  <trk>
    <name>gpx from keep</name>
    <type>Run</type>
    <trkseg>
      <trkpt lat="31.205690356676826" lon="121.61045507314367">
        <ele>8.505431175231934</ele>
        <time>2018-08-28T21:55:23Z</time>
      </trkpt>
      <trkpt lat="31.205919585543523" lon="121.61066787139987">
        <ele>8.46823787689209</ele>
        <time>2018-08-28T21:55:42Z</time>
      </trkpt>
      <trkpt lat="31.206102744217635" lon="121.61084678383342">
        <ele>8.462423324584961</ele>
        <time>2018-08-28T21:55:49Z</time>
      </trkpt>
      <trkpt lat="31.206298072422808" lon="121.61106717199569">
        <ele>8.457939147949219</ele>
        <time>2018-08-28T21:55:55Z</time>
      </trkpt>
      <trkpt lat="31.206661478429712" lon="121.61132061783505">
        <ele>8.454363822937012</ele>
        <time>2018-08-28T21:56:02Z</time>
      </trkpt>
      <trkpt lat="31.206839951514063" lon="121.61159522138219">
        <ele>8.451438903808594</ele>
        <time>2018-08-28T21:56:08Z</time>
      </trkpt>
      <trkpt lat="31.206795985384257" lon="121.61165106999636">
        <ele>8.44899845123291</ele>
        <time>2018-08-28T21:56:15Z</time>
      </trkpt>
      <trkpt lat="31.20673688146165" lon="121.61164619523026">
        <ele>8.446928024291992</ele>
        <time>2018-08-28T21:56:21Z</time>
      </trkpt>
      <trkpt lat="31.20688579612025" lon="121.61156512630893">
        <ele>8.445149421691895</ele>
        <time>2018-08-28T21:56:28Z</time>
      </trkpt>
      <trkpt lat="31.206850458079153" lon="121.6113233131671">
        <ele>8.442254066467285</ele>
        <time>2018-08-28T21:56:41Z</time>
      </trkpt>
      <trkpt lat="31.20693333838728" lon="121.611440419345">
        <ele>8.441061019897461</ele>
        <time>2018-08-28T21:56:47Z</time>
      </trkpt>
      <trkpt lat="31.207230859302022" lon="121.61132653486311">
        <ele>8.44000244140625</ele>
        <time>2018-08-28T21:56:54Z</time>
      </trkpt>
      <trkpt lat="31.207434935061926" lon="121.61108063293312">
        <ele>8.439059257507324</ele>
        <time>2018-08-28T21:57:00Z</time>
      </trkpt>
      <trkpt lat="31.207596931122797" lon="121.61090548920994">
        <ele>8.438215255737305</ele>
        <time>2018-08-28T21:57:07Z</time>
      </trkpt>
      <trkpt lat="31.20755467698976" lon="121.61084612159026">
        <ele>8.437457084655762</ele>
        <time>2018-08-28T21:57:13Z</time>
      </trkpt>
      <trkpt lat="31.207729950144913" lon="121.6106807346898">
        <ele>8.436775207519531</ele>
        <time>2018-08-28T21:57:19Z</time>
      </trkpt>
      <trkpt lat="31.207938349985024" lon="121.61044621190109">
        <ele>8.43616008758545</ele>
        <time>2018-08-28T21:57:26Z</time>
      </trkpt>
      <trkpt lat="31.207937048784427" lon="121.61036921774813">
        <ele>8.435604095458984</ele>
        <time>2018-08-28T21:57:32Z</time>
      </trkpt>
      <trkpt lat="31.20804532820466" lon="121.61023257045056">
        <ele>8.435100555419922</ele>
        <time>2018-08-28T21:57:39Z</time>
      </trkpt>
      <trkpt lat="31.20799872201963" lon="121.61019082353378">
        <ele>8.43464469909668</ele>
        <time>2018-08-28T21:57:45Z</time>
      </trkpt>
      <trkpt lat="31.208249919871015" lon="121.61000997224309">
        <ele>8.43423080444336</ele>
        <time>2018-08-28T21:57:52Z</time>
      </trkpt>
      <trkpt lat="31.208641067665635" lon="121.60976349837603">
        <ele>8.433855056762695</ele>
        <time>2018-08-28T21:57:58Z</time>
      </trkpt>
      <trkpt lat="31.208866311136543" lon="121.6094674210193">
        <ele>8.433513641357422</ele>
        <time>2018-08-28T21:58:05Z</time>
      </trkpt>
      <trkpt lat="31.208879417541784" lon="121.60932996276851">
        <ele>8.433202743530273</ele>
        <time>2018-08-28T21:58:11Z</time>
      </trkpt>
      <trkpt lat="31.208727082717402" lon="121.60926409322599">
        <ele>8.4329195022583</ele>
        <time>2018-08-28T21:58:18Z</time>
      </trkpt>
      <trkpt lat="31.20849838644029" lon="121.60904748596381">
        <ele>8.436893463134766</ele>
        <time>2018-08-28T21:58:24Z</time>
      </trkpt>
      <trkpt lat="31.208332282041425" lon="121.60889079009488">
        <ele>8.438436508178711</ele>
        <time>2018-08-28T21:58:31Z</time>
      </trkpt>
      <trkpt lat="31.208001081757427" lon="121.60869208208963">
        <ele>8.442934036254883</ele>
        <time>2018-08-28T21:58:50Z</time>
      </trkpt>
      <trkpt lat="31.207855246431983" lon="121.60863597073461">
        <ele>8.445354461669922</ele>
        <time>2018-08-28T21:58:57Z</time>
      </trkpt>
      <trkpt lat="31.207658775262498" lon="121.60847466527319">
        <ele>8.4465970993042</ele>
        <time>2018-08-28T21:59:06Z</time>
      </trkpt>
      <trkpt lat="31.207472480642352" lon="121.60851290995508">
        <ele>8.445114135742188</ele>
        <time>2018-08-28T21:59:14Z</time>
      </trkpt>
      <trkpt lat="31.207375053636923" lon="121.6082230787575">
        <ele>8.443767547607422</ele>
        <time>2018-08-28T21:59:20Z</time>
      </trkpt>
      <trkpt lat="31.20737203498469" lon="121.60828110138651">
        <ele>8.452926635742188</ele>
        <time>2018-08-28T21:59:26Z</time>
      </trkpt>
      <trkpt lat="31.206928382719443" lon="121.60796201308986">
        <ele>8.459465980529785</ele>
        <time>2018-08-28T21:59:39Z</time>
      </trkpt>
      <trkpt lat="31.206746221963385" lon="121.60789234604165">
        <ele>8.457097053527832</ele>
        <time>2018-08-28T21:59:46Z</time>
      </trkpt>
      <trkpt lat="31.206666044180626" lon="121.60776301993012">
        <ele>8.454886436462402</ele>
        <time>2018-08-28T21:59:52Z</time>
      </trkpt>
      <trkpt lat="31.20649632430968" lon="121.607744596525">
        <ele>8.452831268310547</ele>
        <time>2018-08-28T21:59:59Z</time>
      </trkpt>
      <trkpt lat="31.20654109435116" lon="121.60769036499029">
        <ele>8.450926780700684</ele>
        <time>2018-08-28T22:00:05Z</time>
      </trkpt>
      <trkpt lat="31.206416175237624" lon="121.60756592193124">
        <ele>8.449166297912598</ele>
        <time>2018-08-28T22:00:12Z</time>
      </trkpt>
      <trkpt lat="31.206457495303823" lon="121.60738452441535">
        <ele>8.447543144226074</ele>
        <time>2018-08-28T22:00:18Z</time>
      </trkpt>
      <trkpt lat="31.206447401454387" lon="121.60748918630337">
        <ele>8.446048736572266</ele>
        <time>2018-08-28T22:00:24Z</time>
      </trkpt>
      <trkpt lat="31.206295730995382" lon="121.60766625384134">
        <ele>8.427169799804688</ele>
        <time>2018-08-28T22:00:31Z</time>
      </trkpt>
      <trkpt lat="31.2060577577259" lon="121.60752582264536">
        <ele>8.426541328430176</ele>
        <time>2018-08-28T22:00:37Z</time>
      </trkpt>
      <trkpt lat="31.206050274662058" lon="121.60734171739401">
        <ele>8.426824569702148</ele>
        <time>2018-08-28T22:00:44Z</time>
      </trkpt>
      <trkpt lat="31.205893923727235" lon="121.60718012801665">
        <ele>8.427095413208008</ele>
        <time>2018-08-28T22:00:52Z</time>
      </trkpt>
      <trkpt lat="31.206207949343572" lon="121.60709279294245">
        <ele>8.42734432220459</ele>
        <time>2018-08-28T22:00:59Z</time>
      </trkpt>
      <trkpt lat="31.206521698157584" lon="121.60701494771979">
        <ele>8.427572250366211</ele>
        <time>2018-08-28T22:01:05Z</time>
      </trkpt>
      <trkpt lat="31.20610149331675" lon="121.60691791130819">
        <ele>5.918300628662109</ele>
        <time>2018-08-28T22:01:12Z</time>
      </trkpt>
      <trkpt lat="31.206197472718838" lon="121.60692251290884">
        <ele>5.823451995849609</ele>
        <time>2018-08-28T22:01:16Z</time>
      </trkpt>
      <trkpt lat="31.20650826122849" lon="121.60680453709689">
        <ele>4.806056976318359</ele>
        <time>2018-08-28T22:01:28Z</time>
      </trkpt>
      <trkpt lat="31.20670459047166" lon="121.60675679834004">
        <ele>4.334980086622515</ele>
        <time>2018-08-28T22:01:36Z</time>
      </trkpt>
      <trkpt lat="31.206762114081993" lon="121.60668060001154">
        <ele>4.215356616205163</ele>
        <time>2018-08-28T22:01:39Z</time>
      </trkpt>
      <trkpt lat="31.20677202471244" lon="121.6064108013015">
        <ele>4.012575203357876</ele>
        <time>2018-08-28T22:01:49Z</time>
      </trkpt>
      <trkpt lat="31.206893558848286" lon="121.60629148258174">
        <ele>3.8382896576514938</ele>
        <time>2018-08-28T22:01:57Z</time>
      </trkpt>
      <trkpt lat="31.206930200200656" lon="121.60622152098051">
        <ele>3.846324184391875</ele>
        <time>2018-08-28T22:02:00Z</time>
      </trkpt>
      <trkpt lat="31.20697775922417" lon="121.60601652086508">
        <ele>3.833567932021829</ele>
        <time>2018-08-28T22:02:07Z</time>
      </trkpt>
      <trkpt lat="31.207038805772736" lon="121.60593950617087">
        <ele>3.785256162067064</ele>
        <time>2018-08-28T22:02:11Z</time>
      </trkpt>
      <trkpt lat="31.207108765733853" lon="121.60592648464664">
        <ele>3.556795037464049</ele>
        <time>2018-08-28T22:02:14Z</time>
      </trkpt>
      <trkpt lat="31.207267622431566" lon="121.60598097488653">
        <ele>3.7887359077696914</ele>
        <time>2018-08-28T22:02:21Z</time>
      </trkpt>
      <trkpt lat="31.207335673943607" lon="121.60598774827868">
        <ele>3.528209373607467</ele>
        <time>2018-08-28T22:02:25Z</time>
      </trkpt>
      <trkpt lat="31.207404008862618" lon="121.6059714729881">
        <ele>3.592522590258149</ele>
        <time>2018-08-28T22:02:28Z</time>
      </trkpt>
      <trkpt lat="31.20747914833965" lon="121.60590584576117">
        <ele>3.4794675029830984</ele>
        <time>2018-08-28T22:02:32Z</time>
      </trkpt>
      <trkpt lat="31.207506312975973" lon="121.60580903859548">
        <ele>3.4972981819894855</ele>
        <time>2018-08-28T22:02:36Z</time>
      </trkpt>
      <trkpt lat="31.207476267964374" lon="121.60571142223309">
        <ele>3.370007681109641</ele>
        <time>2018-08-28T22:02:39Z</time>
      </trkpt>
      <trkpt lat="31.2073648941118" lon="121.60558994959261">
        <ele>3.4058647912146753</ele>
        <time>2018-08-28T22:02:47Z</time>
      </trkpt>
      <trkpt lat="31.20736711508176" lon="121.6054890755725">
        <ele>3.3929419685461255</ele>
        <time>2018-08-28T22:02:50Z</time>
      </trkpt>
      <trkpt lat="31.207443617101124" lon="121.6054074478708">
        <ele>3.2907661764473204</ele>
        <time>2018-08-28T22:02:54Z</time>
      </trkpt>
      <trkpt lat="31.207605225045494" lon="121.60538601224121">
        <ele>3.4451767962546</ele>
        <time>2018-08-28T22:03:01Z</time>
      </trkpt>
      <trkpt lat="31.207643236227213" lon="121.60528296495498">
        <ele>3.108352457008472</ele>
        <time>2018-08-28T22:03:05Z</time>
      </trkpt>
      <trkpt lat="31.20761589384057" lon="121.60519863335068">
        <ele>3.399875601305972</ele>
        <time>2018-08-28T22:03:08Z</time>
      </trkpt>
      <trkpt lat="31.207555188078906" lon="121.60514115014249">
        <ele>3.32608095267787</ele>
        <time>2018-08-28T22:03:11Z</time>
      </trkpt>
      <trkpt lat="31.207304452466726" lon="121.60500965241292">
        <ele>3.0705680799761694</ele>
        <time>2018-08-28T22:03:22Z</time>
      </trkpt>
      <trkpt lat="31.207234217293042" lon="121.60503189438305">
        <ele>3.030928914791282</ele>
        <time>2018-08-28T22:03:26Z</time>
      </trkpt>
      <trkpt lat="31.207142002096752" lon="121.60509047520853">
        <ele>3.3152720071256425</ele>
        <time>2018-08-28T22:03:30Z</time>
      </trkpt>
      <trkpt lat="31.207039548003564" lon="121.60501916535424">
        <ele>3.2775364655610204</ele>
        <time>2018-08-28T22:03:38Z</time>
      </trkpt>
      <trkpt lat="31.206743653545185" lon="121.60519084148858">
        <ele>3.2359215954846974</ele>
        <time>2018-08-28T22:03:52Z</time>
      </trkpt>
      <trkpt lat="31.2066782760893" lon="121.60525809709814">
        <ele>3.1989679553427237</ele>
        <time>2018-08-28T22:03:56Z</time>
      </trkpt>
      <trkpt lat="31.206660886607597" lon="121.60533104307866">
        <ele>3.2380718085143414</ele>
        <time>2018-08-28T22:03:59Z</time>
      </trkpt>
      <trkpt lat="31.206722931553127" lon="121.60541998114981">
        <ele>3.195405425269314</ele>
        <time>2018-08-28T22:04:04Z</time>
      </trkpt>
      <trkpt lat="31.206873349326013" lon="121.60554226501858">
        <ele>3.2089933779713604</ele>
        <time>2018-08-28T22:04:11Z</time>
      </trkpt>
      <trkpt lat="31.20702784958576" lon="121.60563363506421">
        <ele>3.5919342503186016</ele>
        <time>2018-08-28T22:04:18Z</time>
      </trkpt>
      <trkpt lat="31.20701342945914" lon="121.6057296284697">
        <ele>3.4029125119916728</ele>
        <time>2018-08-28T22:04:23Z</time>
      </trkpt>
      <trkpt lat="31.206851149770667" lon="121.60599592313969">
        <ele>3.378505563535647</ele>
        <time>2018-08-28T22:04:33Z</time>
      </trkpt>
      <trkpt lat="31.206674480070106" lon="121.60629339878561">
        <ele>3.595494103238103</ele>
        <time>2018-08-28T22:04:48Z</time>
      </trkpt>
      <trkpt lat="31.20660588714628" lon="121.60628526974905">
        <ele>3.841384018938591</ele>
        <time>2018-08-28T22:04:51Z</time>
      </trkpt>
      <trkpt lat="31.20632428627836" lon="121.6060832801918">
        <ele>4.13981159180657</ele>
        <time>2018-08-28T22:05:04Z</time>
      </trkpt>
      <trkpt lat="31.206234016679748" lon="121.60604857921825">
        <ele>4.2351599213225555</ele>
        <time>2018-08-28T22:05:07Z</time>
      </trkpt>
      <trkpt lat="31.20616513703648" lon="121.6060694642096">
        <ele>4.28169601827932</ele>
        <time>2018-08-28T22:05:11Z</time>
      </trkpt>
      <trkpt lat="31.205929925283343" lon="121.60632301639099">
        <ele>5.431318393152374</ele>
        <time>2018-08-28T22:05:25Z</time>
      </trkpt>
      <trkpt lat="31.205826832944435" lon="121.60643392760956">
        <ele>5.7554834121238585</ele>
        <time>2018-08-28T22:05:33Z</time>
      </trkpt>
      <trkpt lat="31.20579615721084" lon="121.60650171880225">
        <ele>5.881343349875394</ele>
        <time>2018-08-28T22:05:36Z</time>
      </trkpt>
      <trkpt lat="31.20583433917508" lon="121.60658848482069">
        <ele>5.9647959279219265</ele>
        <time>2018-08-28T22:05:40Z</time>
      </trkpt>
      <trkpt lat="31.206017252999374" lon="121.60677176844928">
        <ele>6.063859070844984</ele>
        <time>2018-08-28T22:05:50Z</time>
      </trkpt>
      <trkpt lat="31.20607712642074" lon="121.60685582010365">
        <ele>6.029326669519271</ele>
        <time>2018-08-28T22:05:53Z</time>
      </trkpt>
      <trkpt lat="31.20616630123113" lon="121.60690651768924">
        <ele>5.926792020606548</ele>
        <time>2018-08-28T22:05:58Z</time>
      </trkpt>
      <trkpt lat="31.206444264600904" lon="121.6068197268058">
        <ele>5.408101220813116</ele>
        <time>2018-08-28T22:06:08Z</time>
      </trkpt>
      <trkpt lat="31.20659638617721" lon="121.60679422609411">
        <ele>5.1723657641001</ele>
        <time>2018-08-28T22:06:14Z</time>
      </trkpt>
      <trkpt lat="31.20669401617536" lon="121.606756799214">
        <ele>4.995758084161487</ele>
        <time>2018-08-28T22:06:18Z</time>
      </trkpt>
      <trkpt lat="31.20675642402804" lon="121.60667382168121">
        <ele>4.903748657921113</ele>
        <time>2018-08-28T22:06:22Z</time>
      </trkpt>
      <trkpt lat="31.206756859413893" lon="121.60637745042284">
        <ele>4.878863470716638</ele>
        <time>2018-08-28T22:06:33Z</time>
      </trkpt>
      <trkpt lat="31.20671298489876" lon="121.60628688783913">
        <ele>4.817191989922719</ele>
        <time>2018-08-28T22:06:38Z</time>
      </trkpt>
      <trkpt lat="31.206385280026026" lon="121.60610523905306">
        <ele>5.173120719434536</ele>
        <time>2018-08-28T22:06:52Z</time>
      </trkpt>
      <trkpt lat="31.206232941994053" lon="121.60603014042903">
        <ele>5.303433528314407</ele>
        <time>2018-08-28T22:06:59Z</time>
      </trkpt>
      <trkpt lat="31.20616840372846" lon="121.60604505956235">
        <ele>5.342533891902129</ele>
        <time>2018-08-28T22:07:03Z</time>
      </trkpt>
      <trkpt lat="31.206101669899525" lon="121.60610932987869">
        <ele>5.433801079876957</ele>
        <time>2018-08-28T22:07:07Z</time>
      </trkpt>
      <trkpt lat="31.205983363540508" lon="121.60627799996023">
        <ele>6.013406428564984</ele>
        <time>2018-08-28T22:07:14Z</time>
      </trkpt>
      <trkpt lat="31.20583958601438" lon="121.60641630147009">
        <ele>6.489970970901986</ele>
        <time>2018-08-28T22:07:23Z</time>
      </trkpt>
      <trkpt lat="31.20580157557118" lon="121.60650958182508">
        <ele>6.683627982832185</ele>
        <time>2018-08-28T22:07:27Z</time>
      </trkpt>
      <trkpt lat="31.20585059794638" lon="121.60660529496452">
        <ele>6.668617851807717</ele>
        <time>2018-08-28T22:07:30Z</time>
      </trkpt>
      <trkpt lat="31.2060730447548" lon="121.6068815796578">
        <ele>6.374818190499219</ele>
        <time>2018-08-28T22:07:44Z</time>
      </trkpt>
      <trkpt lat="31.206156800510925" lon="121.60692577005788">
        <ele>6.380753902149962</ele>
        <time>2018-08-28T22:07:47Z</time>
      </trkpt>
      <trkpt lat="31.206459440064187" lon="121.60683409651045">
        <ele>5.877996233879912</ele>
        <time>2018-08-28T22:08:06Z</time>
      </trkpt>
      <trkpt lat="31.20664383861548" lon="121.6067877145575">
        <ele>5.475413611992707</ele>
        <time>2018-08-28T22:08:20Z</time>
      </trkpt>
      <trkpt lat="31.206727648313876" lon="121.6067367312484">
        <ele>5.416015039888961</ele>
        <time>2018-08-28T22:08:27Z</time>
      </trkpt>
      <trkpt lat="31.206752080841007" lon="121.60668277005654">
        <ele>5.29670138526776</ele>
        <time>2018-08-28T22:08:30Z</time>
      </trkpt>
      <trkpt lat="31.2067589374192" lon="121.60654258347856">
        <ele>5.3799762698763445</ele>
        <time>2018-08-28T22:08:40Z</time>
      </trkpt>
      <trkpt lat="31.206734077015444" lon="121.60639019662239">
        <ele>5.27972397544729</ele>
        <time>2018-08-28T22:08:50Z</time>
      </trkpt>
      <trkpt lat="31.20670889108535" lon="121.60633596751761">
        <ele>5.2145439492020245</ele>
        <time>2018-08-28T22:08:55Z</time>
      </trkpt>
      <trkpt lat="31.206409123927926" lon="121.60613506456828">
        <ele>5.932574188435822</ele>
        <time>2018-08-28T22:09:19Z</time>
      </trkpt>
      <trkpt lat="31.20628795671022" lon="121.60607840232407">
        <ele>5.983838232001652</ele>
        <time>2018-08-28T22:09:29Z</time>
      </trkpt>
      <trkpt lat="31.206199841822986" lon="121.60607054597982">
        <ele>6.369359592813979</ele>
        <time>2018-08-28T22:09:36Z</time>
      </trkpt>
      <trkpt lat="31.206102728163835" lon="121.60615813837396">
        <ele>6.5129303079983885</ele>
        <time>2018-08-28T22:09:47Z</time>
      </trkpt>
      <trkpt lat="31.20590658002893" lon="121.60637345335842">
        <ele>7.295481171740754</ele>
        <time>2018-08-28T22:10:09Z</time>
      </trkpt>
      <trkpt lat="31.205839308763988" lon="121.60642741885628">
        <ele>7.5629187549658425</ele>
        <time>2018-08-28T22:10:13Z</time>
      </trkpt>
      <trkpt lat="31.205824877004957" lon="121.60653886452359">
        <ele>7.601425103033847</ele>
        <time>2018-08-28T22:10:18Z</time>
      </trkpt>
      <trkpt lat="31.20602863457601" lon="121.60678261354003">
        <ele>7.516685049414058</ele>
        <time>2018-08-28T22:10:28Z</time>
      </trkpt>
      <trkpt lat="31.20607930411817" lon="121.60684063552903">
        <ele>7.47858736178474</ele>
        <time>2018-08-28T22:10:31Z</time>
      </trkpt>
      <trkpt lat="31.20616658070131" lon="121.60689187560543">
        <ele>7.310155954763289</ele>
        <time>2018-08-28T22:10:36Z</time>
      </trkpt>
      <trkpt lat="31.206527772724684" lon="121.60682270255656">
        <ele>6.47786494039287</ele>
        <time>2018-08-28T22:10:50Z</time>
      </trkpt>
      <trkpt lat="31.2066915695332" lon="121.6067681877568">
        <ele>6.234257609476636</ele>
        <time>2018-08-28T22:10:56Z</time>
      </trkpt>
      <trkpt lat="31.206740427015028" lon="121.60667382300335">
        <ele>6.048094625928805</ele>
        <time>2018-08-28T22:11:01Z</time>
      </trkpt>
      <trkpt lat="31.20674250095042" lon="121.60635603029453">
        <ele>5.8289942182737775</ele>
        <time>2018-08-28T22:11:12Z</time>
      </trkpt>
      <trkpt lat="31.20669211718149" lon="121.60626899320228">
        <ele>5.735870476225266</ele>
        <time>2018-08-28T22:11:15Z</time>
      </trkpt>
      <trkpt lat="31.206436254272923" lon="121.60610387904453">
        <ele>5.940550972758508</ele>
        <time>2018-08-28T22:11:28Z</time>
      </trkpt>
      <trkpt lat="31.20625842164827" lon="121.60604342516346">
        <ele>6.068879572215685</ele>
        <time>2018-08-28T22:11:35Z</time>
      </trkpt>
      <trkpt lat="31.20619524645129" lon="121.60604451502417">
        <ele>6.398386608761172</ele>
        <time>2018-08-28T22:11:38Z</time>
      </trkpt>
      <trkpt lat="31.2061152272658" lon="121.60610824412184">
        <ele>6.205482280214291</ele>
        <time>2018-08-28T22:11:45Z</time>
      </trkpt>
      <trkpt lat="31.20591146685774" lon="121.60636179325182">
        <ele>7.393092417044095</ele>
        <time>2018-08-28T22:12:10Z</time>
      </trkpt>
      <trkpt lat="31.20584581004813" lon="121.6064382645216">
        <ele>7.4545639549087</ele>
        <time>2018-08-28T22:12:18Z</time>
      </trkpt>
      <trkpt lat="31.205824632896697" lon="121.6064900568148">
        <ele>7.650697098440801</ele>
        <time>2018-08-28T22:12:21Z</time>
      </trkpt>
      <trkpt lat="31.205856575011754" lon="121.60658360222612">
        <ele>7.2842180846816476</ele>
        <time>2018-08-28T22:12:28Z</time>
      </trkpt>
      <trkpt lat="31.20607902975404" lon="121.60684632970091">
        <ele>7.056079871723682</ele>
        <time>2018-08-28T22:12:54Z</time>
      </trkpt>
      <trkpt lat="31.206125652623857" lon="121.60686828898075">
        <ele>7.049988349543327</ele>
        <time>2018-08-28T22:12:57Z</time>
      </trkpt>
      <trkpt lat="31.206406578727993" lon="121.60681620496686">
        <ele>6.471695640219224</ele>
        <time>2018-08-28T22:13:20Z</time>
      </trkpt>
      <trkpt lat="31.206692100787055" lon="121.60678771056865">
        <ele>6.608148137923884</ele>
        <time>2018-08-28T22:13:44Z</time>
      </trkpt>
      <trkpt lat="31.20673498026325" lon="121.60671666543804">
        <ele>6.406185745471689</ele>
        <time>2018-08-28T22:13:51Z</time>
      </trkpt>
      <trkpt lat="31.20675521131075" lon="121.60641622579715">
        <ele>5.879277164337999</ele>
        <time>2018-08-28T22:14:12Z</time>
      </trkpt>
      <trkpt lat="31.206717572172135" lon="121.60632728979779">
        <ele>5.68919798794883</ele>
        <time>2018-08-28T22:14:19Z</time>
      </trkpt>
      <trkpt lat="31.206676376838683" lon="121.60629556788315">
        <ele>5.606056343451549</ele>
        <time>2018-08-28T22:14:23Z</time>
      </trkpt>
      <trkpt lat="31.206503704311583" lon="121.60622020044033">
        <ele>5.750267800613074</ele>
        <time>2018-08-28T22:14:37Z</time>
      </trkpt>
      <trkpt lat="31.206427003832328" lon="121.60616299242652">
        <ele>6.010345285146258</ele>
        <time>2018-08-28T22:14:45Z</time>
      </trkpt>
      <trkpt lat="31.206219904701648" lon="121.6060727135983">
        <ele>6.5706712737186805</ele>
        <time>2018-08-28T22:15:04Z</time>
      </trkpt>
      <trkpt lat="31.206177053627524" lon="121.6060944098932">
        <ele>6.6890707659811</ele>
        <time>2018-08-28T22:15:07Z</time>
      </trkpt>
      <trkpt lat="31.20592638762764" lon="121.60634660728022">
        <ele>7.629441624715085</ele>
        <time>2018-08-28T22:15:39Z</time>
      </trkpt>
      <trkpt lat="31.205794002363934" lon="121.60647595931533">
        <ele>7.839021086516226</ele>
        <time>2018-08-28T22:15:53Z</time>
      </trkpt>
      <trkpt lat="31.205710192664483" lon="121.60652802784917">
        <ele>7.953682470630241</ele>
        <time>2018-08-28T22:16:01Z</time>
      </trkpt>
      <trkpt lat="31.205691431675053" lon="121.60662266189894">
        <ele>7.9859340151069915</ele>
        <time>2018-08-28T22:16:08Z</time>
      </trkpt>
      <trkpt lat="31.205728523949727" lon="121.6067178332254">
        <ele>7.4818990045606455</ele>
        <time>2018-08-28T22:16:16Z</time>
      </trkpt>
      <trkpt lat="31.20582228013276" lon="121.60681842246018">
        <ele>7.134467521123696</ele>
        <time>2018-08-28T22:16:26Z</time>
      </trkpt>
      <trkpt lat="31.20584123164588" lon="121.60686777018819">
        <ele>7.541284837492761</ele>
        <time>2018-08-28T22:16:31Z</time>
      </trkpt>
      <trkpt lat="31.205739479672506" lon="121.60700118382522">
        <ele>7.377998296982341</ele>
        <time>2018-08-28T22:16:47Z</time>
      </trkpt>
    </trkseg>
  </trk>
</gpx>