<?xml version="1.0" encoding="UTF-8"?>
<gpx xmlns="http://www.topografix.com/GPX/1/1" xmlns:gpxtpx="http://www.garmin.com/xmlschemas/TrackPointExtension/v1" xmlns:xsi="http://www.w3.org/2001/XMLSchema-instance" xsi:schemaLocation="http://www.topografix.com/GPX/1/1 http://www.topografix.com/GPX/1/1/gpx.xsd" version="1.1" creator="gpx.py -- https://github.com/tkrajina/gpxpy">
  <trk>
    <name>gpx from keep</name>
    <type>Run</type>
    <trkseg>
      <trkpt lat="31.204442142926005" lon="121.61070350806533">
        <ele>8.798230129243795</ele>
        <time>2020-07-17T23:19:42Z</time>
      </trkpt>
      <trkpt lat="31.204499841032817" lon="121.61077805650751">
        <ele>8.275193568482194</ele>
        <time>2020-07-17T23:19:46Z</time>
      </trkpt>
      <trkpt lat="31.204596313047272" lon="121.61085016158877">
        <ele>8.205983645282686</ele>
        <time>2020-07-17T23:19:53Z</time>
      </trkpt>
      <trkpt lat="31.204745015499824" lon="121.610683421394">
        <ele>8.151621440425515</ele>
        <time>2020-07-17T23:20:00Z</time>
      </trkpt>
      <trkpt lat="31.204837302973072" lon="121.61054162631197">
        <ele>8.40244345087558</ele>
        <time>2020-07-17T23:20:06Z</time>
      </trkpt>
      <trkpt lat="31.20492005749279" lon="121.61045974562492">
        <ele>8.51514304522425</ele>
        <time>2020-07-17T23:20:09Z</time>
      </trkpt>
      <trkpt lat="31.205078200614974" lon="121.61035915202552">
        <ele>8.883973736315966</ele>
        <time>2020-07-17T23:20:15Z</time>
      </trkpt>
      <trkpt lat="31.2051379122495" lon="121.61027130820577">
        <ele>8.453279118984938</ele>
        <time>2020-07-17T23:20:18Z</time>
      </trkpt>
      <trkpt lat="31.205337575451686" lon="121.61011757283443">
        <ele>9.129777780734003</ele>
        <time>2020-07-17T23:20:27Z</time>
      </trkpt>
      <trkpt lat="31.20538804792864" lon="121.61005819548721">
        <ele>9.393832764588296</ele>
        <time>2020-07-17T23:20:30Z</time>
      </trkpt>
      <trkpt lat="31.205509156188977" lon="121.61018642049348">
        <ele>9.145853599533439</ele>
        <time>2020-07-17T23:20:36Z</time>
      </trkpt>
      <trkpt lat="31.20562805861763" lon="121.61036588424712">
        <ele>8.819761106744409</ele>
        <time>2020-07-17T23:20:42Z</time>
      </trkpt>
      <trkpt lat="31.205805486194436" lon="121.61059983376417">
        <ele>8.11354487016797</ele>
        <time>2020-07-17T23:20:51Z</time>
      </trkpt>
      <trkpt lat="31.205933655186232" lon="121.6107088068213">
        <ele>9.208789356984198</ele>
        <time>2020-07-17T23:20:57Z</time>
      </trkpt>
      <trkpt lat="31.206151152997002" lon="121.61101784412475">
        <ele>9.45723098795861</ele>
        <time>2020-07-17T23:21:09Z</time>
      </trkpt>
      <trkpt lat="31.20631042893291" lon="121.61122440768267">
        <ele>7.931713069789112</ele>
        <time>2020-07-17T23:21:18Z</time>
      </trkpt>
      <trkpt lat="31.20643152728318" lon="121.61135831911898">
        <ele>7.115589682944119</ele>
        <time>2020-07-17T23:21:24Z</time>
      </trkpt>
      <trkpt lat="31.206688394350074" lon="121.61158493239742">
        <ele>7.719724317081273</ele>
        <time>2020-07-17T23:21:36Z</time>
      </trkpt>
      <trkpt lat="31.2068229520388" lon="121.61184462649982">
        <ele>7.567105480469763</ele>
        <time>2020-07-17T23:21:45Z</time>
      </trkpt>
      <trkpt lat="31.20679903511533" lon="121.61191917797612">
        <ele>9.342304982244968</ele>
        <time>2020-07-17T23:21:48Z</time>
      </trkpt>
      <trkpt lat="31.206705984597292" lon="121.61198560229339">
        <ele>8.017934109084308</ele>
        <time>2020-07-17T23:21:52Z</time>
      </trkpt>
      <trkpt lat="31.206619690779984" lon="121.61207994781455">
        <ele>9.248442099429667</ele>
        <time>2020-07-17T23:21:56Z</time>
      </trkpt>
      <trkpt lat="31.20655941115586" lon="121.6121929957029">
        <ele>8.605489111505449</ele>
        <time>2020-07-17T23:22:00Z</time>
      </trkpt>
      <trkpt lat="31.206387106869" lon="121.61236379314768">
        <ele>7.584765172563493</ele>
        <time>2020-07-17T23:22:08Z</time>
      </trkpt>
      <trkpt lat="31.206209712470834" lon="121.6124551627564">
        <ele>8.783352529630065</ele>
        <time>2020-07-17T23:22:16Z</time>
      </trkpt>
      <trkpt lat="31.206140771192693" lon="121.61254760736361">
        <ele>7.5020404336974025</ele>
        <time>2020-07-17T23:22:19Z</time>
      </trkpt>
      <trkpt lat="31.205996581465392" lon="121.61282032547636">
        <ele>6.869692783802748</ele>
        <time>2020-07-17T23:22:28Z</time>
      </trkpt>
      <trkpt lat="31.205736633807224" lon="121.61306865321576">
        <ele>7.202488677576184</ele>
        <time>2020-07-17T23:22:40Z</time>
      </trkpt>
      <trkpt lat="31.205673736274267" lon="121.613061339384">
        <ele>7.737569241784513</ele>
        <time>2020-07-17T23:22:43Z</time>
      </trkpt>
      <trkpt lat="31.20560618115338" lon="121.61311366245083">
        <ele>8.379708271473646</ele>
        <time>2020-07-17T23:22:46Z</time>
      </trkpt>
      <trkpt lat="31.205438459550948" lon="121.61330993360049">
        <ele>5.532972386106849</ele>
        <time>2020-07-17T23:22:55Z</time>
      </trkpt>
      <trkpt lat="31.205306064519554" lon="121.61340861471618">
        <ele>7.852558888494968</ele>
        <time>2020-07-17T23:23:01Z</time>
      </trkpt>
      <trkpt lat="31.20508863198378" lon="121.61371439915997">
        <ele>7.1521870624274015</ele>
        <time>2020-07-17T23:23:13Z</time>
      </trkpt>
      <trkpt lat="31.204944020793196" lon="121.61382934358691">
        <ele>8.534557867795229</ele>
        <time>2020-07-17T23:23:19Z</time>
      </trkpt>
      <trkpt lat="31.20479477425458" lon="121.61397464711769">
        <ele>7.07833556830883</ele>
        <time>2020-07-17T23:23:25Z</time>
      </trkpt>
      <trkpt lat="31.204741016656634" lon="121.61406085001876">
        <ele>6.8976786788553</ele>
        <time>2020-07-17T23:23:28Z</time>
      </trkpt>
      <trkpt lat="31.204659079118766" lon="121.61412536989916">
        <ele>8.55890800151974</ele>
        <time>2020-07-17T23:23:31Z</time>
      </trkpt>
      <trkpt lat="31.204545885535794" lon="121.61427825835362">
        <ele>6.491106401197612</ele>
        <time>2020-07-17T23:23:37Z</time>
      </trkpt>
      <trkpt lat="31.204416452326853" lon="121.61439699363291">
        <ele>7.268376181833446</ele>
        <time>2020-07-17T23:23:43Z</time>
      </trkpt>
      <trkpt lat="31.204281348148566" lon="121.61448862290916">
        <ele>6.5752891935408115</ele>
        <time>2020-07-17T23:23:49Z</time>
      </trkpt>
      <trkpt lat="31.20423301351696" lon="121.61457265503482">
        <ele>6.238095071166754</ele>
        <time>2020-07-17T23:23:52Z</time>
      </trkpt>
      <trkpt lat="31.203960012346357" lon="121.61484752884508">
        <ele>6.62000226136297</ele>
        <time>2020-07-17T23:24:04Z</time>
      </trkpt>
      <trkpt lat="31.203880225892153" lon="121.6149304780951">
        <ele>5.264279102906585</ele>
        <time>2020-07-17T23:24:08Z</time>
      </trkpt>
      <trkpt lat="31.203776784165814" lon="121.61508851058136">
        <ele>3.65151780936867</ele>
        <time>2020-07-17T23:24:16Z</time>
      </trkpt>
      <trkpt lat="31.20361882383423" lon="121.6152685016086">
        <ele>5.213210864923894</ele>
        <time>2020-07-17T23:24:24Z</time>
      </trkpt>
      <trkpt lat="31.20345091068557" lon="121.61535877502222">
        <ele>7.1349819004535675</ele>
        <time>2020-07-17T23:24:31Z</time>
      </trkpt>
      <trkpt lat="31.20322158317465" lon="121.61560192382704">
        <ele>6.26595513895154</ele>
        <time>2020-07-17T23:24:43Z</time>
      </trkpt>
      <trkpt lat="31.203158337648976" lon="121.61568053238456">
        <ele>6.912258761934936</ele>
        <time>2020-07-17T23:24:46Z</time>
      </trkpt>
      <trkpt lat="31.202913814872804" lon="121.61593343675509">
        <ele>6.7459175838157535</ele>
        <time>2020-07-17T23:24:58Z</time>
      </trkpt>
      <trkpt lat="31.2027973699483" lon="121.61607303297109">
        <ele>7.2327468460425735</ele>
        <time>2020-07-17T23:25:04Z</time>
      </trkpt>
      <trkpt lat="31.20265549823579" lon="121.61614703882292">
        <ele>5.864589819684625</ele>
        <time>2020-07-17T23:25:10Z</time>
      </trkpt>
      <trkpt lat="31.20259362566643" lon="121.61620531753805">
        <ele>6.664004632271826</ele>
        <time>2020-07-17T23:25:13Z</time>
      </trkpt>
      <trkpt lat="31.202539854350103" lon="121.61629883049096">
        <ele>6.929852237924933</ele>
        <time>2020-07-17T23:25:16Z</time>
      </trkpt>
      <trkpt lat="31.20235283633616" lon="121.6165200124797">
        <ele>5.7861490016803145</ele>
        <time>2020-07-17T23:25:25Z</time>
      </trkpt>
      <trkpt lat="31.20217725664257" lon="121.61668562954841">
        <ele>5.876678055152297</ele>
        <time>2020-07-17T23:25:34Z</time>
      </trkpt>
      <trkpt lat="31.20212864656289" lon="121.6167672147729">
        <ele>5.729153625667095</ele>
        <time>2020-07-17T23:25:37Z</time>
      </trkpt>
      <trkpt lat="31.201924016375262" lon="121.6169724031658">
        <ele>4.560599536634982</ele>
        <time>2020-07-17T23:25:46Z</time>
      </trkpt>
      <trkpt lat="31.201786498641425" lon="121.61702743381159">
        <ele>4.495022902265191</ele>
        <time>2020-07-17T23:25:52Z</time>
      </trkpt>
      <trkpt lat="31.201718934078247" lon="121.61708191648857">
        <ele>5.494779735803604</ele>
        <time>2020-07-17T23:25:55Z</time>
      </trkpt>
      <trkpt lat="31.201684396645124" lon="121.61718978904655">
        <ele>5.5549060283228755</ele>
        <time>2020-07-17T23:25:58Z</time>
      </trkpt>
      <trkpt lat="31.201592636324992" lon="121.61731121724549">
        <ele>5.343353713862598</ele>
        <time>2020-07-17T23:26:02Z</time>
      </trkpt>
      <trkpt lat="31.20135215107747" lon="121.61757955289401">
        <ele>5.247595331631601</ele>
        <time>2020-07-17T23:26:14Z</time>
      </trkpt>
      <trkpt lat="31.20115836872815" lon="121.61777633197269">
        <ele>5.844252257607877</ele>
        <time>2020-07-17T23:26:22Z</time>
      </trkpt>
      <trkpt lat="31.20092570554782" lon="121.61808152059521">
        <ele>5.19855722039938</ele>
        <time>2020-07-17T23:26:34Z</time>
      </trkpt>
      <trkpt lat="31.20086488019269" lon="121.61817340093657">
        <ele>5.403235899284482</ele>
        <time>2020-07-17T23:26:38Z</time>
      </trkpt>
      <trkpt lat="31.20069036254054" lon="121.61835201567796">
        <ele>4.098691209219396</ele>
        <time>2020-07-17T23:26:47Z</time>
      </trkpt>
      <trkpt lat="31.200463941723832" lon="121.61864500121085">
        <ele>3.8647900857031345</ele>
        <time>2020-07-17T23:26:59Z</time>
      </trkpt>
      <trkpt lat="31.20023155328469" lon="121.61893771283493">
        <ele>3.9304396491497755</ele>
        <time>2020-07-17T23:27:11Z</time>
      </trkpt>
      <trkpt lat="31.199989141970434" lon="121.61921876862225">
        <ele>3.9587558759376407</ele>
        <time>2020-07-17T23:27:23Z</time>
      </trkpt>
      <trkpt lat="31.199872711722396" lon="121.61932880683">
        <ele>5.272245436906815</ele>
        <time>2020-07-17T23:27:29Z</time>
      </trkpt>
      <trkpt lat="31.199834121636616" lon="121.61941471870401">
        <ele>5.568435342982411</ele>
        <time>2020-07-17T23:27:32Z</time>
      </trkpt>
      <trkpt lat="31.199751653768825" lon="121.61945618923536">
        <ele>4.178477678447962</ele>
        <time>2020-07-17T23:27:35Z</time>
      </trkpt>
      <trkpt lat="31.199702239115222" lon="121.61952177630705">
        <ele>6.209529623389244</ele>
        <time>2020-07-17T23:27:38Z</time>
      </trkpt>
      <trkpt lat="31.19957278905812" lon="121.61963587932844">
        <ele>5.260907084681094</ele>
        <time>2020-07-17T23:27:44Z</time>
      </trkpt>
      <trkpt lat="31.199518747972682" lon="121.61971745542635">
        <ele>5.377245666459203</ele>
        <time>2020-07-17T23:27:47Z</time>
      </trkpt>
      <trkpt lat="31.1992601828199" lon="121.61988332929683">
        <ele>3.9677267177030444</ele>
        <time>2020-07-17T23:27:59Z</time>
      </trkpt>
      <trkpt lat="31.199047925827493" lon="121.62010095886797">
        <ele>6.075397223234177</ele>
        <time>2020-07-17T23:28:09Z</time>
      </trkpt>
      <trkpt lat="31.198993876262005" lon="121.62018930841525">
        <ele>5.405844177119434</ele>
        <time>2020-07-17T23:28:12Z</time>
      </trkpt>
      <trkpt lat="31.198896205649177" lon="121.62024785171812">
        <ele>5.988024634309113</ele>
        <time>2020-07-17T23:28:16Z</time>
      </trkpt>
      <trkpt lat="31.19880827229743" lon="121.62032834470777">
        <ele>6.494562825188041</ele>
        <time>2020-07-17T23:28:20Z</time>
      </trkpt>
      <trkpt lat="31.19870382655567" lon="121.62038363632209">
        <ele>7.433431150391698</ele>
        <time>2020-07-17T23:28:24Z</time>
      </trkpt>
      <trkpt lat="31.198644849156253" lon="121.62051534427995">
        <ele>6.217723544687033</ele>
        <time>2020-07-17T23:28:28Z</time>
      </trkpt>
      <trkpt lat="31.198540379427186" lon="121.62059258590102">
        <ele>6.074908044189215</ele>
        <time>2020-07-17T23:28:32Z</time>
      </trkpt>
      <trkpt lat="31.198410341714197" lon="121.62074489400179">
        <ele>7.292425474151969</ele>
        <time>2020-07-17T23:28:38Z</time>
      </trkpt>
      <trkpt lat="31.198212494389924" lon="121.62092051190048">
        <ele>6.128819203004241</ele>
        <time>2020-07-17T23:28:47Z</time>
      </trkpt>
      <trkpt lat="31.198182884684726" lon="121.62097200222979">
        <ele>3.4758053747937083</ele>
        <time>2020-07-17T23:28:50Z</time>
      </trkpt>
      <trkpt lat="31.198029543290573" lon="121.62110994773988">
        <ele>5.049613576382399</ele>
        <time>2020-07-17T23:29:02Z</time>
      </trkpt>
      <trkpt lat="31.19794871482005" lon="121.62113786609015">
        <ele>5.931139541789889</ele>
        <time>2020-07-17T23:29:08Z</time>
      </trkpt>
      <trkpt lat="31.197783733023048" lon="121.62125846862071">
        <ele>7.6917635798454285</ele>
        <time>2020-07-17T23:29:26Z</time>
      </trkpt>
      <trkpt lat="31.19766729776937" lon="121.62136633031382">
        <ele>6.755481889471412</ele>
        <time>2020-07-17T23:29:35Z</time>
      </trkpt>
      <trkpt lat="31.197585106828132" lon="121.62140021015827">
        <ele>7.453593488782644</ele>
        <time>2020-07-17T23:29:41Z</time>
      </trkpt>
      <trkpt lat="31.197402169950248" lon="121.62157419656248">
        <ele>6.106834730133414</ele>
        <time>2020-07-17T23:29:56Z</time>
      </trkpt>
      <trkpt lat="31.19710337078108" lon="121.62182623371748">
        <ele>5.958968377672136</ele>
        <time>2020-07-17T23:30:15Z</time>
      </trkpt>
      <trkpt lat="31.196853380657096" lon="121.62207203197254">
        <ele>5.599998288787901</ele>
        <time>2020-07-17T23:30:26Z</time>
      </trkpt>
      <trkpt lat="31.196760012832527" lon="121.622158752304">
        <ele>5.893777017481625</ele>
        <time>2020-07-17T23:30:30Z</time>
      </trkpt>
      <trkpt lat="31.196692652400323" lon="121.62226416751068">
        <ele>7.0046575628221035</ele>
        <time>2020-07-17T23:30:34Z</time>
      </trkpt>
      <trkpt lat="31.19668304305385" lon="121.62236957752395">
        <ele>4.08704175055027</ele>
        <time>2020-07-17T23:30:37Z</time>
      </trkpt>
      <trkpt lat="31.196728498454355" lon="121.62269013447764">
        <ele>4.486379186622798</ele>
        <time>2020-07-17T23:30:46Z</time>
      </trkpt>
      <trkpt lat="31.196779408934468" lon="121.62297979682178">
        <ele>4.180364531464875</ele>
        <time>2020-07-17T23:30:55Z</time>
      </trkpt>
      <trkpt lat="31.19675616460579" lon="121.62315050817985">
        <ele>5.095371569506824</ele>
        <time>2020-07-17T23:31:01Z</time>
      </trkpt>
      <trkpt lat="31.196758128744417" lon="121.62332636471366">
        <ele>4.435458105057478</ele>
        <time>2020-07-17T23:31:07Z</time>
      </trkpt>
      <trkpt lat="31.19679867896382" lon="121.62342878584549">
        <ele>4.184651444666088</ele>
        <time>2020-07-17T23:31:10Z</time>
      </trkpt>
      <trkpt lat="31.196793143457832" lon="121.62352497826564">
        <ele>5.288887081667781</ele>
        <time>2020-07-17T23:31:13Z</time>
      </trkpt>
      <trkpt lat="31.196840362077204" lon="121.62372006687922">
        <ele>4.908536029048264</ele>
        <time>2020-07-17T23:31:19Z</time>
      </trkpt>
      <trkpt lat="31.196848109936106" lon="121.62381734102071">
        <ele>5.679710526950657</ele>
        <time>2020-07-17T23:31:22Z</time>
      </trkpt>
      <trkpt lat="31.196927332108444" lon="121.62400267042638">
        <ele>7.1764530427753925</ele>
        <time>2020-07-17T23:31:28Z</time>
      </trkpt>
      <trkpt lat="31.196947197986685" lon="121.62394116122394">
        <ele>5.159724164754152</ele>
        <time>2020-07-17T23:31:34Z</time>
      </trkpt>
      <trkpt lat="31.196948552064114" lon="121.6237135548615">
        <ele>6.299834607169032</ele>
        <time>2020-07-17T23:31:49Z</time>
      </trkpt>
      <trkpt lat="31.196980606569866" lon="121.6236620695814">
        <ele>6.097888278774917</ele>
        <time>2020-07-17T23:31:52Z</time>
      </trkpt>
      <trkpt lat="31.196961545104433" lon="121.62350139055233">
        <ele>6.332828287966549</ele>
        <time>2020-07-17T23:32:01Z</time>
      </trkpt>
      <trkpt lat="31.196929661561267" lon="121.62340736885886">
        <ele>6.424983971752226</ele>
        <time>2020-07-17T23:32:07Z</time>
      </trkpt>
      <trkpt lat="31.19687013349649" lon="121.6233035943931">
        <ele>6.553635148331523</ele>
        <time>2020-07-17T23:32:13Z</time>
      </trkpt>
      <trkpt lat="31.196837164506963" lon="121.62320984307568">
        <ele>7.216566759161651</ele>
        <time>2020-07-17T23:32:20Z</time>
      </trkpt>
      <trkpt lat="31.19687532402491" lon="121.6230369631141">
        <ele>10.395878803916276</ele>
        <time>2020-07-17T23:32:32Z</time>
      </trkpt>
      <trkpt lat="31.196847611170007" lon="121.62285189388263">
        <ele>5.5879743453115225</ele>
        <time>2020-07-17T23:32:43Z</time>
      </trkpt>
      <trkpt lat="31.19698912401894" lon="121.6226323960007">
        <ele>5.884707263670862</ele>
        <time>2020-07-17T23:32:58Z</time>
      </trkpt>
      <trkpt lat="31.197087143334283" lon="121.62250990841166">
        <ele>5.407573699019849</ele>
        <time>2020-07-17T23:33:10Z</time>
      </trkpt>
      <trkpt lat="31.1973655319847" lon="121.6223294168099">
        <ele>5.411284762434661</ele>
        <time>2020-07-17T23:33:25Z</time>
      </trkpt>
      <trkpt lat="31.197635852911077" lon="121.62208930975835">
        <ele>5.717994263395667</ele>
        <time>2020-07-17T23:33:37Z</time>
      </trkpt>
      <trkpt lat="31.19783293490147" lon="121.62187684651856">
        <ele>6.427400179207325</ele>
        <time>2020-07-17T23:33:46Z</time>
      </trkpt>
      <trkpt lat="31.197994843688015" lon="121.62183943794892">
        <ele>6.2329243421554565</ele>
        <time>2020-07-17T23:33:52Z</time>
      </trkpt>
      <trkpt lat="31.198060230608977" lon="121.62180041143452">
        <ele>6.701699985191226</ele>
        <time>2020-07-17T23:33:55Z</time>
      </trkpt>
      <trkpt lat="31.198331940457063" lon="121.62152669765848">
        <ele>6.703469257801771</ele>
        <time>2020-07-17T23:34:07Z</time>
      </trkpt>
      <trkpt lat="31.19849299091793" lon="121.62128415354914">
        <ele>7.585736688226461</ele>
        <time>2020-07-17T23:34:16Z</time>
      </trkpt>
      <trkpt lat="31.19874023279086" lon="121.62106653094976">
        <ele>5.789847916923463</ele>
        <time>2020-07-17T23:34:26Z</time>
      </trkpt>
      <trkpt lat="31.198860672276897" lon="121.62101530427792">
        <ele>6.375046340748668</ele>
        <time>2020-07-17T23:34:30Z</time>
      </trkpt>
      <trkpt lat="31.19895296305557" lon="121.62091882469205">
        <ele>7.215095437131822</ele>
        <time>2020-07-17T23:34:34Z</time>
      </trkpt>
      <trkpt lat="31.19905086103995" lon="121.62090174427091">
        <ele>5.268086738884449</ele>
        <time>2020-07-17T23:34:38Z</time>
      </trkpt>
      <trkpt lat="31.19920888011355" lon="121.62069984339291">
        <ele>7.237548406235874</ele>
        <time>2020-07-17T23:34:46Z</time>
      </trkpt>
      <trkpt lat="31.1992748002716" lon="121.62066786093528">
        <ele>7.264616957865655</ele>
        <time>2020-07-17T23:34:49Z</time>
      </trkpt>
      <trkpt lat="31.199447247446894" lon="121.62066242683055">
        <ele>5.751622048206627</ele>
        <time>2020-07-17T23:34:55Z</time>
      </trkpt>
      <trkpt lat="31.199519882706802" lon="121.62068897799999">
        <ele>5.483038878068328</ele>
        <time>2020-07-17T23:34:58Z</time>
      </trkpt>
      <trkpt lat="31.19958794969235" lon="121.6206775907222">
        <ele>5.418825292959809</ele>
        <time>2020-07-17T23:35:01Z</time>
      </trkpt>
      <trkpt lat="31.199744355749036" lon="121.62071307765662">
        <ele>6.137799448333681</ele>
        <time>2020-07-17T23:35:07Z</time>
      </trkpt>
      <trkpt lat="31.200023036594125" lon="121.62075478721353">
        <ele>4.4623689241707325</ele>
        <time>2020-07-17T23:35:16Z</time>
      </trkpt>
      <trkpt lat="31.20019651084938" lon="121.62080246719721">
        <ele>5.6516118897125125</ele>
        <time>2020-07-17T23:35:22Z</time>
      </trkpt>
      <trkpt lat="31.200495536466175" lon="121.6208352322593">
        <ele>4.17062502913177</ele>
        <time>2020-07-17T23:35:31Z</time>
      </trkpt>
      <trkpt lat="31.200847915755446" lon="121.6209230037028">
        <ele>4.897879533469677</ele>
        <time>2020-07-17T23:35:43Z</time>
      </trkpt>
      <trkpt lat="31.201020598614154" lon="121.6209503592935">
        <ele>5.898811602033675</ele>
        <time>2020-07-17T23:35:49Z</time>
      </trkpt>
      <trkpt lat="31.201111196218562" lon="121.62091485224123">
        <ele>7.07107927557081</ele>
        <time>2020-07-17T23:35:55Z</time>
      </trkpt>
      <trkpt lat="31.201292015226578" lon="121.62094031024475">
        <ele>6.723622201010585</ele>
        <time>2020-07-17T23:36:07Z</time>
      </trkpt>
      <trkpt lat="31.201433208966414" lon="121.62100208395303">
        <ele>5.579546421766281</ele>
        <time>2020-07-17T23:36:19Z</time>
      </trkpt>
      <trkpt lat="31.201741986631674" lon="121.62104297759207">
        <ele>5.5594357922673225</ele>
        <time>2020-07-17T23:36:41Z</time>
      </trkpt>
      <trkpt lat="31.202019337296008" lon="121.62106138180378">
        <ele>5.242109024897218</ele>
        <time>2020-07-17T23:37:00Z</time>
      </trkpt>
      <trkpt lat="31.202319430405815" lon="121.621109863709">
        <ele>5.184290966019034</ele>
        <time>2020-07-17T23:37:21Z</time>
      </trkpt>
      <trkpt lat="31.202435730323522" lon="121.62112530034567">
        <ele>5.57298672478646</ele>
        <time>2020-07-17T23:37:30Z</time>
      </trkpt>
      <trkpt lat="31.2024623596929" lon="121.62107218464122">
        <ele>5.355167353525758</ele>
        <time>2020-07-17T23:37:33Z</time>
      </trkpt>
      <trkpt lat="31.202416695868266" lon="121.6209274806857">
        <ele>4.596667656674981</ele>
        <time>2020-07-17T23:37:39Z</time>
      </trkpt>
      <trkpt lat="31.20240082060126" lon="121.62081556329773">
        <ele>5.367841638624668</ele>
        <time>2020-07-17T23:37:42Z</time>
      </trkpt>
      <trkpt lat="31.20241421164314" lon="121.62071827653703">
        <ele>5.111849793232977</ele>
        <time>2020-07-17T23:37:45Z</time>
      </trkpt>
      <trkpt lat="31.202383441577986" lon="121.62058928696362">
        <ele>4.927375806495547</ele>
        <time>2020-07-17T23:37:49Z</time>
      </trkpt>
      <trkpt lat="31.202377042820267" lon="121.6204884780815">
        <ele>4.883719342760742</ele>
        <time>2020-07-17T23:37:52Z</time>
      </trkpt>
      <trkpt lat="31.202348661767328" lon="121.62040636925006">
        <ele>5.263772830367088</ele>
        <time>2020-07-17T23:37:55Z</time>
      </trkpt>
      <trkpt lat="31.202348661767328" lon="121.62040636925006">
        <ele>5.263772830367088</ele>
        <time>2020-07-17T23:38:01Z</time>
      </trkpt>
      <trkpt lat="31.202481895377435" lon="121.62030690308146">
        <ele>4.874960976652801</ele>
        <time>2020-07-17T23:38:39Z</time>
      </trkpt>
      <trkpt lat="31.202590101047925" lon="121.62028548547694">
        <ele>5.930438455194235</ele>
        <time>2020-07-17T23:38:46Z</time>
      </trkpt>
      <trkpt lat="31.20279946835192" lon="121.62023750187097">
        <ele>6.3736610896885395</ele>
        <time>2020-07-17T23:39:00Z</time>
      </trkpt>
      <trkpt lat="31.202876235911035" lon="121.62020334997675">
        <ele>7.165654898621142</ele>
        <time>2020-07-17T23:39:06Z</time>
      </trkpt>
      <trkpt lat="31.20283598075859" lon="121.6200678546843">
        <ele>4.775752973742783</ele>
        <time>2020-07-17T23:39:15Z</time>
      </trkpt>
      <trkpt lat="31.202710724202504" lon="121.61980364068964">
        <ele>4.8980089807882905</ele>
        <time>2020-07-17T23:39:33Z</time>
      </trkpt>
      <trkpt lat="31.20262408227388" lon="121.61942803809988">
        <ele>5.51620202884078</ele>
        <time>2020-07-17T23:39:57Z</time>
      </trkpt>
      <trkpt lat="31.202518681318335" lon="121.619097147944">
        <ele>4.740354825742543</ele>
        <time>2020-07-17T23:40:18Z</time>
      </trkpt>
      <trkpt lat="31.202488034317454" lon="121.61884050441071">
        <ele>3.1729005947709084</ele>
        <time>2020-07-17T23:40:36Z</time>
      </trkpt>
      <trkpt lat="31.202426909724718" lon="121.61869091098433">
        <ele>4.00351532921195</ele>
        <time>2020-07-17T23:40:46Z</time>
      </trkpt>
      <trkpt lat="31.202442697230513" lon="121.61862993178175">
        <ele>3.324980126693845</ele>
        <time>2020-07-17T23:40:50Z</time>
      </trkpt>
      <trkpt lat="31.202623893811943" lon="121.61855213588255">
        <ele>5.840846172533929</ele>
        <time>2020-07-17T23:41:02Z</time>
      </trkpt>
      <trkpt lat="31.202668619320804" lon="121.61856378578292">
        <ele>5.342487348243594</ele>
        <time>2020-07-17T23:41:05Z</time>
      </trkpt>
      <trkpt lat="31.20274482352506" lon="121.61854860269474">
        <ele>5.232977491803467</ele>
        <time>2020-07-17T23:41:11Z</time>
      </trkpt>
      <trkpt lat="31.20284742319276" lon="121.61843856225366">
        <ele>7.112997068092227</ele>
        <time>2020-07-17T23:41:20Z</time>
      </trkpt>
      <trkpt lat="31.202862973219787" lon="121.61834343443402">
        <ele>5.7979018073529005</ele>
        <time>2020-07-17T23:41:26Z</time>
      </trkpt>
      <trkpt lat="31.20283945083841" lon="121.61827703730495">
        <ele>5.3685687175020576</ele>
        <time>2020-07-17T23:41:32Z</time>
      </trkpt>
      <trkpt lat="31.202790708436904" lon="121.61821497836995">
        <ele>6.955573129467666</ele>
        <time>2020-07-17T23:41:38Z</time>
      </trkpt>
      <trkpt lat="31.202719595524886" lon="121.61801795364066">
        <ele>5.551693109795451</ele>
        <time>2020-07-17T23:41:53Z</time>
      </trkpt>
      <trkpt lat="31.20249975091638" lon="121.61769572722207">
        <ele>5.492639918811619</ele>
        <time>2020-07-17T23:42:14Z</time>
      </trkpt>
      <trkpt lat="31.202410535395416" lon="121.61742958831401">
        <ele>6.146169084124267</ele>
        <time>2020-07-17T23:42:32Z</time>
      </trkpt>
      <trkpt lat="31.20240034253191" lon="121.61731548687133">
        <ele>6.341274709440768</ele>
        <time>2020-07-17T23:42:38Z</time>
      </trkpt>
      <trkpt lat="31.20241286747412" lon="121.6172607382338">
        <ele>6.173264894634485</ele>
        <time>2020-07-17T23:42:41Z</time>
      </trkpt>
      <trkpt lat="31.20249833044612" lon="121.61720300212673">
        <ele>5.675262684933841</ele>
        <time>2020-07-17T23:42:47Z</time>
      </trkpt>
      <trkpt lat="31.202615865535392" lon="121.61706341225">
        <ele>7.091631966643035</ele>
        <time>2020-07-17T23:42:57Z</time>
      </trkpt>
      <trkpt lat="31.20270078636359" lon="121.61700513366566">
        <ele>6.511494782753289</ele>
        <time>2020-07-17T23:43:03Z</time>
      </trkpt>
      <trkpt lat="31.20276402375874" lon="121.61693899682354">
        <ele>8.010306150652468</ele>
        <time>2020-07-17T23:43:09Z</time>
      </trkpt>
      <trkpt lat="31.202810677256167" lon="121.6169197497164">
        <ele>7.133996202610433</ele>
        <time>2020-07-17T23:43:12Z</time>
      </trkpt>
      <trkpt lat="31.202840815947944" lon="121.61687475590878">
        <ele>7.892706660553813</ele>
        <time>2020-07-17T23:43:15Z</time>
      </trkpt>
      <trkpt lat="31.202917594140995" lon="121.6168251506038">
        <ele>6.6196994967758656</ele>
        <time>2020-07-17T23:43:21Z</time>
      </trkpt>
      <trkpt lat="31.203070698092663" lon="121.61663026457803">
        <ele>7.539917942136526</ele>
        <time>2020-07-17T23:43:36Z</time>
      </trkpt>
      <trkpt lat="31.20315317859877" lon="121.61657117206381">
        <ele>8.393710743635893</ele>
        <time>2020-07-17T23:43:42Z</time>
      </trkpt>
      <trkpt lat="31.203200637896902" lon="121.61655978463993">
        <ele>5.689758684486151</ele>
        <time>2020-07-17T23:43:45Z</time>
      </trkpt>
      <trkpt lat="31.203275250023303" lon="121.61650638437035">
        <ele>4.561032311990857</ele>
        <time>2020-07-17T23:43:51Z</time>
      </trkpt>
      <trkpt lat="31.203485829911564" lon="121.6163142014435">
        <ele>7.769262181594968</ele>
        <time>2020-07-17T23:44:09Z</time>
      </trkpt>
      <trkpt lat="31.203675749726514" lon="121.61617893717185">
        <ele>7.646620076149702</ele>
        <time>2020-07-17T23:44:24Z</time>
      </trkpt>
      <trkpt lat="31.2038461127914" lon="121.61608107746075">
        <ele>6.364188537932932</ele>
        <time>2020-07-17T23:44:36Z</time>
      </trkpt>
      <trkpt lat="31.20387976818956" lon="121.61604339994301">
        <ele>8.021977914497256</ele>
        <time>2020-07-17T23:44:39Z</time>
      </trkpt>
      <trkpt lat="31.20389148122341" lon="121.61598431186391">
        <ele>7.950054076500237</ele>
        <time>2020-07-17T23:44:42Z</time>
      </trkpt>
      <trkpt lat="31.203921073928306" lon="121.61594175576624">
        <ele>7.952632109634578</ele>
        <time>2020-07-17T23:44:45Z</time>
      </trkpt>
      <trkpt lat="31.203970436894025" lon="121.61592386286559">
        <ele>6.197387056425214</ele>
        <time>2020-07-17T23:44:48Z</time>
      </trkpt>
      <trkpt lat="31.20412470538676" lon="121.61593198138814">
        <ele>7.744132542051375</ele>
        <time>2020-07-17T23:44:58Z</time>
      </trkpt>
      <trkpt lat="31.204218276276958" lon="121.6158999905888">
        <ele>7.500206593424082</ele>
        <time>2020-07-17T23:45:04Z</time>
      </trkpt>
      <trkpt lat="31.20438937230821" lon="121.61618456998325">
        <ele>4.192160479724407</ele>
        <time>2020-07-17T23:45:15Z</time>
      </trkpt>
      <trkpt lat="31.20446521218794" lon="121.61626885697001">
        <ele>4.802310912869871</ele>
        <time>2020-07-17T23:45:18Z</time>
      </trkpt>
      <trkpt lat="31.20455490868468" lon="121.61632197312758">
        <ele>4.995678891427815</ele>
        <time>2020-07-17T23:45:21Z</time>
      </trkpt>
      <trkpt lat="31.20463161983413" lon="121.61634364984165">
        <ele>5.1364126317203045</ele>
        <time>2020-07-17T23:45:24Z</time>
      </trkpt>
      <trkpt lat="31.204620825762944" lon="121.61628835889492">
        <ele>6.00812684558332</ele>
        <time>2020-07-17T23:45:27Z</time>
      </trkpt>
      <trkpt lat="31.204435727175248" lon="121.61619459462281">
        <ele>7.332812802866101</ele>
        <time>2020-07-17T23:45:33Z</time>
      </trkpt>
      <trkpt lat="31.204381841537725" lon="121.61611843678348">
        <ele>6.517769269645214</ele>
        <time>2020-07-17T23:45:36Z</time>
      </trkpt>
      <trkpt lat="31.204306517823458" lon="121.61606206649869">
        <ele>6.353738573379815</ele>
        <time>2020-07-17T23:45:39Z</time>
      </trkpt>
      <trkpt lat="31.20420497380679" lon="121.61591842261006">
        <ele>6.846500169485807</ele>
        <time>2020-07-17T23:45:45Z</time>
      </trkpt>
      <trkpt lat="31.2041353380959" lon="121.61586801434683">
        <ele>6.4470432084053755</ele>
        <time>2020-07-17T23:45:48Z</time>
      </trkpt>
      <trkpt lat="31.204067096934253" lon="121.61577478087709">
        <ele>6.245939864777029</ele>
        <time>2020-07-17T23:45:51Z</time>
      </trkpt>
      <trkpt lat="31.20386500996843" lon="121.61557612118987">
        <ele>6.957010741345584</ele>
        <time>2020-07-17T23:46:00Z</time>
      </trkpt>
      <trkpt lat="31.203749094267884" lon="121.61543139141588">
        <ele>7.197455774061382</ele>
        <time>2020-07-17T23:46:06Z</time>
      </trkpt>
      <trkpt lat="31.203580034611207" lon="121.61528747831872">
        <ele>4.790777885355055</ele>
        <time>2020-07-17T23:46:15Z</time>
      </trkpt>
      <trkpt lat="31.203760061780496" lon="121.61498876456096">
        <ele>6.1584344152361155</ele>
        <time>2020-07-17T23:46:27Z</time>
      </trkpt>
      <trkpt lat="31.2039812843489" lon="121.61470603601727">
        <ele>6.157451061531901</ele>
        <time>2020-07-17T23:46:39Z</time>
      </trkpt>
      <trkpt lat="31.20420410098745" lon="121.61445799961568">
        <ele>7.673775417730212</ele>
        <time>2020-07-17T23:46:51Z</time>
      </trkpt>
      <trkpt lat="31.204276547226588" lon="121.61439619202284">
        <ele>7.4913179045543075</ele>
        <time>2020-07-17T23:46:54Z</time>
      </trkpt>
      <trkpt lat="31.204353631155772" lon="121.61430104339522">
        <ele>7.45045356079936</ele>
        <time>2020-07-17T23:46:58Z</time>
      </trkpt>
      <trkpt lat="31.204439917192108" lon="121.61422486797083">
        <ele>5.958054933696985</ele>
        <time>2020-07-17T23:47:02Z</time>
      </trkpt>
      <trkpt lat="31.20449341451811" lon="121.61412646785143">
        <ele>8.580113866366446</ele>
        <time>2020-07-17T23:47:06Z</time>
      </trkpt>
      <trkpt lat="31.204731911249574" lon="121.61392667379465">
        <ele>6.502427472732961</ele>
        <time>2020-07-17T23:47:16Z</time>
      </trkpt>
      <trkpt lat="31.204843144119547" lon="121.6138464291112">
        <ele>7.395164511166513</ele>
        <time>2020-07-17T23:47:20Z</time>
      </trkpt>
      <trkpt lat="31.205000052282692" lon="121.6136162797366">
        <ele>8.662355505861342</ele>
        <time>2020-07-17T23:47:29Z</time>
      </trkpt>
      <trkpt lat="31.205070582988654" lon="121.61357344497436">
        <ele>7.463593180291355</ele>
        <time>2020-07-17T23:47:32Z</time>
      </trkpt>
      <trkpt lat="31.20520057097549" lon="121.61343518841409">
        <ele>7.609590079635382</ele>
        <time>2020-07-17T23:47:44Z</time>
      </trkpt>
      <trkpt lat="31.205330855089805" lon="121.61326548657323">
        <ele>8.657015862874687</ele>
        <time>2020-07-17T23:47:56Z</time>
      </trkpt>
      <trkpt lat="31.20557071835057" lon="121.61304454122599">
        <ele>6.737401884049177</ele>
        <time>2020-07-17T23:48:17Z</time>
      </trkpt>
      <trkpt lat="31.205610872462575" lon="121.61301227989571">
        <ele>7.3579814322292805</ele>
        <time>2020-07-17T23:48:20Z</time>
      </trkpt>
      <trkpt lat="31.20566429863221" lon="121.61299682414646">
        <ele>6.402049116790295</ele>
        <time>2020-07-17T23:48:23Z</time>
      </trkpt>
      <trkpt lat="31.205768213148914" lon="121.61291034212456">
        <ele>7.847798565402627</ele>
        <time>2020-07-17T23:48:29Z</time>
      </trkpt>
      <trkpt lat="31.205859426465043" lon="121.61277072946773">
        <ele>8.060243222862482</ele>
        <time>2020-07-17T23:48:35Z</time>
      </trkpt>
      <trkpt lat="31.20587467869849" lon="121.61268452501966">
        <ele>8.089977954514325</ele>
        <time>2020-07-17T23:48:38Z</time>
      </trkpt>
      <trkpt lat="31.20601166454294" lon="121.61260590044542">
        <ele>6.697290159761906</ele>
        <time>2020-07-17T23:48:44Z</time>
      </trkpt>
      <trkpt lat="31.20614651760339" lon="121.61248092079332">
        <ele>5.855536893941462</ele>
        <time>2020-07-17T23:48:50Z</time>
      </trkpt>
      <trkpt lat="31.20617995367231" lon="121.61237085844493">
        <ele>6.740156391635537</ele>
        <time>2020-07-17T23:48:53Z</time>
      </trkpt>
      <trkpt lat="31.20625161202797" lon="121.612270280375">
        <ele>7.831152254715562</ele>
        <time>2020-07-17T23:48:56Z</time>
      </trkpt>
      <trkpt lat="31.206337029698197" lon="121.61225753233546">
        <ele>7.508940546773374</ele>
        <time>2020-07-17T23:48:59Z</time>
      </trkpt>
      <trkpt lat="31.206449147639212" lon="121.6120783353953">
        <ele>6.965754517354071</ele>
        <time>2020-07-17T23:49:05Z</time>
      </trkpt>
      <trkpt lat="31.206525395666585" lon="121.61200188249174">
        <ele>7.853816491551697</ele>
        <time>2020-07-17T23:49:09Z</time>
      </trkpt>
      <trkpt lat="31.20655499586939" lon="121.61194142741284">
        <ele>8.129302493296564</ele>
        <time>2020-07-17T23:49:12Z</time>
      </trkpt>
      <trkpt lat="31.20667515963627" lon="121.6118752718158">
        <ele>7.1865450674667954</ele>
        <time>2020-07-17T23:49:20Z</time>
      </trkpt>
      <trkpt lat="31.20672835517888" lon="121.61180586848687">
        <ele>7.277026977390051</ele>
        <time>2020-07-17T23:49:24Z</time>
      </trkpt>
      <trkpt lat="31.206707247188742" lon="121.61175246544417">
        <ele>7.852506865747273</ele>
        <time>2020-07-17T23:49:27Z</time>
      </trkpt>
      <trkpt lat="31.206647383494964" lon="121.6116768359899">
        <ele>8.77089549973607</ele>
        <time>2020-07-17T23:49:30Z</time>
      </trkpt>
      <trkpt lat="31.20663766519583" lon="121.6116204496926">
        <ele>8.367342087440193</ele>
        <time>2020-07-17T23:49:33Z</time>
      </trkpt>
      <trkpt lat="31.206516312457705" lon="121.61146593667377">
        <ele>5.134624592959881</ele>
        <time>2020-07-17T23:49:45Z</time>
      </trkpt>
      <trkpt lat="31.20645913746227" lon="121.61141958428257">
        <ele>6.9092207327485085</ele>
        <time>2020-07-17T23:49:54Z</time>
      </trkpt>
      <trkpt lat="31.20641639845305" lon="121.61128458234116">
        <ele>5.563167475163937</ele>
        <time>2020-07-17T23:50:06Z</time>
      </trkpt>
      <trkpt lat="31.206224808833525" lon="121.61114471215114">
        <ele>7.864038418978453</ele>
        <time>2020-07-17T23:50:18Z</time>
      </trkpt>
      <trkpt lat="31.20609394713585" lon="121.61101269796715">
        <ele>4.933166014961898</ele>
        <time>2020-07-17T23:50:30Z</time>
      </trkpt>
      <trkpt lat="31.206078258667922" lon="121.61096146142916">
        <ele>5.223969877697527</ele>
        <time>2020-07-17T23:50:33Z</time>
      </trkpt>
      <trkpt lat="31.205876206956823" lon="121.61066353733041">
        <ele>6.610605739988387</ele>
        <time>2020-07-17T23:50:54Z</time>
      </trkpt>
      <trkpt lat="31.205738567937036" lon="121.61052664102714">
        <ele>6.996361938305199</ele>
        <time>2020-07-17T23:51:09Z</time>
      </trkpt>
      <trkpt lat="31.205699025512367" lon="121.61046564555825">
        <ele>8.546970430761576</ele>
        <time>2020-07-17T23:51:16Z</time>
      </trkpt>
    </trkseg>
  </trk>
</gpx>