<?xml version="1.0" encoding="UTF-8"?>
<gpx xmlns="http://www.topografix.com/GPX/1/1" xmlns:gpxtpx="http://www.garmin.com/xmlschemas/TrackPointExtension/v1" xmlns:xsi="http://www.w3.org/2001/XMLSchema-instance" xsi:schemaLocation="http://www.topografix.com/GPX/1/1 http://www.topografix.com/GPX/1/1/gpx.xsd" version="1.1" creator="gpx.py -- https://github.com/tkrajina/gpxpy">
  <trk>
    <name>gpx from keep</name>
    <type>Run</type>
    <trkseg>
      <trkpt lat="31.20446496829251" lon="121.61063383259227">
        <ele>5.353664398193359</ele>
        <time>2018-10-24T23:03:25Z</time>
      </trkpt>
      <trkpt lat="31.204541054773756" lon="121.61077642648749">
        <ele>5.179531097412109</ele>
        <time>2018-10-24T23:03:31Z</time>
      </trkpt>
      <trkpt lat="31.204559966565423" lon="121.61086995497892">
        <ele>6.533535003662109</ele>
        <time>2018-10-24T23:03:37Z</time>
      </trkpt>
      <trkpt lat="31.204559966565423" lon="121.61086995497892">
        <ele>6.533535003662109</ele>
        <time>2018-10-24T23:03:43Z</time>
      </trkpt>
      <trkpt lat="31.20451789567937" lon="121.61093176941311">
        <ele>6.603237152099609</ele>
        <time>2018-10-24T23:03:47Z</time>
      </trkpt>
      <trkpt lat="31.204462564925823" lon="121.610958070703">
        <ele>5.954494476318359</ele>
        <time>2018-10-24T23:03:51Z</time>
      </trkpt>
      <trkpt lat="31.20436033822777" lon="121.61097000755124">
        <ele>5.995388031005859</ele>
        <time>2018-10-24T23:03:54Z</time>
      </trkpt>
      <trkpt lat="31.204234153359078" lon="121.61111614034257">
        <ele>5.621547698974609</ele>
        <time>2018-10-24T23:04:01Z</time>
      </trkpt>
      <trkpt lat="31.204178443154998" lon="121.61128883380614">
        <ele>6.599147796630859</ele>
        <time>2018-10-24T23:04:11Z</time>
      </trkpt>
      <trkpt lat="31.204292437704805" lon="121.61149458538821">
        <ele>6.713432335577124</ele>
        <time>2018-10-24T23:04:21Z</time>
      </trkpt>
      <trkpt lat="31.204326201679986" lon="121.61166455768985">
        <ele>6.4024719926660865</ele>
        <time>2018-10-24T23:04:28Z</time>
      </trkpt>
      <trkpt lat="31.20432343366314" lon="121.61173937909271">
        <ele>6.76090259663237</ele>
        <time>2018-10-24T23:04:31Z</time>
      </trkpt>
      <trkpt lat="31.204504630455943" lon="121.6119917482373">
        <ele>6.3941198417051055</ele>
        <time>2018-10-24T23:04:41Z</time>
      </trkpt>
      <trkpt lat="31.204732190054557" lon="121.61224275536671">
        <ele>6.733614795692397</ele>
        <time>2018-10-24T23:04:52Z</time>
      </trkpt>
      <trkpt lat="31.20497275390844" lon="121.61250378873002">
        <ele>7.176337920694003</ele>
        <time>2018-10-24T23:05:04Z</time>
      </trkpt>
      <trkpt lat="31.205260771725726" lon="121.61275505639908">
        <ele>7.325107877225413</ele>
        <time>2018-10-24T23:05:18Z</time>
      </trkpt>
      <trkpt lat="31.20532551204856" lon="121.61283149516674">
        <ele>7.230102697344705</ele>
        <time>2018-10-24T23:05:22Z</time>
      </trkpt>
      <trkpt lat="31.205313777571902" lon="121.61292583109002">
        <ele>7.572105542150659</ele>
        <time>2018-10-24T23:05:26Z</time>
      </trkpt>
      <trkpt lat="31.205062792629572" lon="121.61315436855755">
        <ele>7.019213916361075</ele>
        <time>2018-10-24T23:05:40Z</time>
      </trkpt>
      <trkpt lat="31.204801479482395" lon="121.61341109608301">
        <ele>6.603224216753226</ele>
        <time>2018-10-24T23:05:53Z</time>
      </trkpt>
      <trkpt lat="31.204555603309856" lon="121.61368625216979">
        <ele>6.410482739925776</ele>
        <time>2018-10-24T23:06:07Z</time>
      </trkpt>
      <trkpt lat="31.204352584281313" lon="121.61393700564484">
        <ele>6.868725208407724</ele>
        <time>2018-10-24T23:06:20Z</time>
      </trkpt>
      <trkpt lat="31.204107284070115" lon="121.6141663460228">
        <ele>6.665539741723222</ele>
        <time>2018-10-24T23:06:33Z</time>
      </trkpt>
      <trkpt lat="31.203859538022527" lon="121.61440002134836">
        <ele>6.704903774514747</ele>
        <time>2018-10-24T23:06:47Z</time>
      </trkpt>
      <trkpt lat="31.203714871131726" lon="121.61457622163847">
        <ele>6.792705161439379</ele>
        <time>2018-10-24T23:06:54Z</time>
      </trkpt>
      <trkpt lat="31.203678735684754" lon="121.61466214984637">
        <ele>6.429746233831736</ele>
        <time>2018-10-24T23:06:58Z</time>
      </trkpt>
      <trkpt lat="31.20382627523213" lon="121.61492451936934">
        <ele>6.649555921596004</ele>
        <time>2018-10-24T23:07:08Z</time>
      </trkpt>
      <trkpt lat="31.203840034236492" lon="121.61500285271397">
        <ele>6.711493530150989</ele>
        <time>2018-10-24T23:07:11Z</time>
      </trkpt>
      <trkpt lat="31.203635124985677" lon="121.61523136636313">
        <ele>7.358262695145704</ele>
        <time>2018-10-24T23:07:28Z</time>
      </trkpt>
      <trkpt lat="31.2033556526973" lon="121.61545879981917">
        <ele>6.979064035957904</ele>
        <time>2018-10-24T23:07:41Z</time>
      </trkpt>
      <trkpt lat="31.203101907426657" lon="121.61571821234895">
        <ele>6.866900263193294</ele>
        <time>2018-10-24T23:07:55Z</time>
      </trkpt>
      <trkpt lat="31.20286335772623" lon="121.61596190039413">
        <ele>7.224591591986574</ele>
        <time>2018-10-24T23:08:08Z</time>
      </trkpt>
      <trkpt lat="31.202740179421028" lon="121.61605243856629">
        <ele>7.182108629394442</ele>
        <time>2018-10-24T23:08:15Z</time>
      </trkpt>
      <trkpt lat="31.202684519667958" lon="121.61613619480764">
        <ele>7.498549485237255</ele>
        <time>2018-10-24T23:08:19Z</time>
      </trkpt>
      <trkpt lat="31.202424011009995" lon="121.61637283350582">
        <ele>7.291741492538939</ele>
        <time>2018-10-24T23:08:33Z</time>
      </trkpt>
      <trkpt lat="31.202220963400872" lon="121.616628166584">
        <ele>7.230138444535854</ele>
        <time>2018-10-24T23:08:45Z</time>
      </trkpt>
      <trkpt lat="31.201993798439457" lon="121.61686669500199">
        <ele>6.532939602457823</ele>
        <time>2018-10-24T23:08:57Z</time>
      </trkpt>
      <trkpt lat="31.201865422875713" lon="121.61700222142564">
        <ele>6.552031714234637</ele>
        <time>2018-10-24T23:09:04Z</time>
      </trkpt>
      <trkpt lat="31.20164915590144" lon="121.61718274521154">
        <ele>5.96893371503203</ele>
        <time>2018-10-24T23:09:14Z</time>
      </trkpt>
      <trkpt lat="31.2013948245559" lon="121.61747113930655">
        <ele>5.820631359887344</ele>
        <time>2018-10-24T23:09:28Z</time>
      </trkpt>
      <trkpt lat="31.20114077579397" lon="121.6177448948082">
        <ele>5.950186283316725</ele>
        <time>2018-10-24T23:09:42Z</time>
      </trkpt>
      <trkpt lat="31.200918169342312" lon="121.61802542020038">
        <ele>6.371494164831084</ele>
        <time>2018-10-24T23:09:56Z</time>
      </trkpt>
      <trkpt lat="31.200706693736976" lon="121.61828886747507">
        <ele>6.420116869991276</ele>
        <time>2018-10-24T23:10:10Z</time>
      </trkpt>
      <trkpt lat="31.20048217560423" lon="121.6185777883777">
        <ele>6.582582324084733</ele>
        <time>2018-10-24T23:10:23Z</time>
      </trkpt>
      <trkpt lat="31.200253592284525" lon="121.61886209913227">
        <ele>6.4695935327378535</ele>
        <time>2018-10-24T23:10:37Z</time>
      </trkpt>
      <trkpt lat="31.200033689191503" lon="121.61913990179931">
        <ele>6.179651222912746</ele>
        <time>2018-10-24T23:10:52Z</time>
      </trkpt>
      <trkpt lat="31.19982333526756" lon="121.61935780851493">
        <ele>6.207290207788731</ele>
        <time>2018-10-24T23:11:03Z</time>
      </trkpt>
      <trkpt lat="31.199581804684055" lon="121.61957056689405">
        <ele>6.103171187189446</ele>
        <time>2018-10-24T23:11:17Z</time>
      </trkpt>
      <trkpt lat="31.19933590853651" lon="121.61980798494696">
        <ele>5.983028715896147</ele>
        <time>2018-10-24T23:11:31Z</time>
      </trkpt>
      <trkpt lat="31.199266693180157" lon="121.61988034775901">
        <ele>6.034461638054978</ele>
        <time>2018-10-24T23:11:35Z</time>
      </trkpt>
      <trkpt lat="31.199232730235902" lon="121.6199478294656">
        <ele>6.3258073041088</ele>
        <time>2018-10-24T23:11:38Z</time>
      </trkpt>
      <trkpt lat="31.19901931805191" lon="121.61971830975315">
        <ele>6.050173127864454</ele>
        <time>2018-10-24T23:11:42Z</time>
      </trkpt>
      <trkpt lat="31.198924985604297" lon="121.61995490090749">
        <ele>5.827737975957568</ele>
        <time>2018-10-24T23:11:49Z</time>
      </trkpt>
      <trkpt lat="31.198846782869104" lon="121.62006466180348">
        <ele>5.795821465299376</ele>
        <time>2018-10-24T23:11:55Z</time>
      </trkpt>
      <trkpt lat="31.198800844677713" lon="121.62017441956426">
        <ele>5.799976997842798</ele>
        <time>2018-10-24T23:11:59Z</time>
      </trkpt>
      <trkpt lat="31.198558686486987" lon="121.62046142368655">
        <ele>5.3187606801016045</ele>
        <time>2018-10-24T23:12:13Z</time>
      </trkpt>
      <trkpt lat="31.19830838508336" lon="121.6207543871189">
        <ele>5.190449582211038</ele>
        <time>2018-10-24T23:12:27Z</time>
      </trkpt>
      <trkpt lat="31.19805353106108" lon="121.62099287904547">
        <ele>5.288119763989094</ele>
        <time>2018-10-24T23:12:41Z</time>
      </trkpt>
      <trkpt lat="31.197832082391216" lon="121.6211787947261">
        <ele>5.1447702344294015</ele>
        <time>2018-10-24T23:12:55Z</time>
      </trkpt>
      <trkpt lat="31.197613062638887" lon="121.62137392236731">
        <ele>5.411947459367795</ele>
        <time>2018-10-24T23:13:06Z</time>
      </trkpt>
      <trkpt lat="31.197363379162606" lon="121.62159100067545">
        <ele>5.417468082296487</ele>
        <time>2018-10-24T23:13:20Z</time>
      </trkpt>
      <trkpt lat="31.197110958277438" lon="121.6218300268068">
        <ele>5.879750768369853</ele>
        <time>2018-10-24T23:13:32Z</time>
      </trkpt>
      <trkpt lat="31.196879982588957" lon="121.6220446610469">
        <ele>6.29071695152448</ele>
        <time>2018-10-24T23:13:46Z</time>
      </trkpt>
      <trkpt lat="31.196636800423825" lon="121.62226281725606">
        <ele>7.098259045073739</ele>
        <time>2018-10-24T23:13:59Z</time>
      </trkpt>
      <trkpt lat="31.196616128487033" lon="121.62232080763967">
        <ele>7.736161947847243</ele>
        <time>2018-10-24T23:14:03Z</time>
      </trkpt>
      <trkpt lat="31.1966970764898" lon="121.62266439481148">
        <ele>7.836670560890525</ele>
        <time>2018-10-24T23:14:17Z</time>
      </trkpt>
      <trkpt lat="31.196763063727655" lon="121.62304645627158">
        <ele>6.719205026095956</ele>
        <time>2018-10-24T23:14:31Z</time>
      </trkpt>
      <trkpt lat="31.196805488082497" lon="121.62340250178569">
        <ele>5.896880244734419</ele>
        <time>2018-10-24T23:14:46Z</time>
      </trkpt>
      <trkpt lat="31.19687796573835" lon="121.62379105542443">
        <ele>5.882195037926486</ele>
        <time>2018-10-24T23:15:00Z</time>
      </trkpt>
      <trkpt lat="31.19693409980835" lon="121.62401161148212">
        <ele>5.703870539750412</ele>
        <time>2018-10-24T23:15:10Z</time>
      </trkpt>
      <trkpt lat="31.19696811581222" lon="121.62390701867433">
        <ele>6.00929456267621</ele>
        <time>2018-10-24T23:15:17Z</time>
      </trkpt>
      <trkpt lat="31.19694437900002" lon="121.62357346804474">
        <ele>6.0549218859416385</ele>
        <time>2018-10-24T23:15:28Z</time>
      </trkpt>
      <trkpt lat="31.196911270450332" lon="121.62336808057889">
        <ele>6.147750127687161</ele>
        <time>2018-10-24T23:15:35Z</time>
      </trkpt>
      <trkpt lat="31.196822911004052" lon="121.62310958668192">
        <ele>5.7784561079432635</ele>
        <time>2018-10-24T23:15:46Z</time>
      </trkpt>
      <trkpt lat="31.196793390699103" lon="121.6228464789802">
        <ele>5.1783993543612254</ele>
        <time>2018-10-24T23:15:57Z</time>
      </trkpt>
      <trkpt lat="31.196826005982874" lon="121.62277764993117">
        <ele>5.286072805642419</ele>
        <time>2018-10-24T23:16:00Z</time>
      </trkpt>
      <trkpt lat="31.197028445534794" lon="121.62262616039689">
        <ele>5.320595481514374</ele>
        <time>2018-10-24T23:16:11Z</time>
      </trkpt>
      <trkpt lat="31.19709089184634" lon="121.62255136692444">
        <ele>5.178839808065852</ele>
        <time>2018-10-24T23:16:15Z</time>
      </trkpt>
      <trkpt lat="31.19736386207359" lon="121.6223673533827">
        <ele>4.704303690400629</ele>
        <time>2018-10-24T23:16:29Z</time>
      </trkpt>
      <trkpt lat="31.197617915578647" lon="121.62212697704012">
        <ele>5.205390432029461</ele>
        <time>2018-10-24T23:16:44Z</time>
      </trkpt>
      <trkpt lat="31.1977715247915" lon="121.62199608222826">
        <ele>5.19549978291257</ele>
        <time>2018-10-24T23:16:52Z</time>
      </trkpt>
      <trkpt lat="31.19790887908899" lon="121.62185299404405">
        <ele>6.060726313785679</ele>
        <time>2018-10-24T23:16:59Z</time>
      </trkpt>
      <trkpt lat="31.198115609131435" lon="121.6217402492056">
        <ele>5.9955928593053684</ele>
        <time>2018-10-24T23:17:09Z</time>
      </trkpt>
      <trkpt lat="31.198345236838396" lon="121.62151694117293">
        <ele>5.240887157688526</ele>
        <time>2018-10-24T23:17:21Z</time>
      </trkpt>
      <trkpt lat="31.19844678607953" lon="121.62138577668607">
        <ele>5.636133207359798</ele>
        <time>2018-10-24T23:17:28Z</time>
      </trkpt>
      <trkpt lat="31.198477779058774" lon="121.62130989840433">
        <ele>6.152802485043814</ele>
        <time>2018-10-24T23:17:32Z</time>
      </trkpt>
      <trkpt lat="31.198588248643734" lon="121.62120257894779">
        <ele>6.3453086971752555</ele>
        <time>2018-10-24T23:17:38Z</time>
      </trkpt>
      <trkpt lat="31.19880720319041" lon="121.6210662544202">
        <ele>6.282658853577168</ele>
        <time>2018-10-24T23:17:49Z</time>
      </trkpt>
      <trkpt lat="31.199047928959658" lon="121.62085540530333">
        <ele>6.502358426066564</ele>
        <time>2018-10-24T23:18:03Z</time>
      </trkpt>
      <trkpt lat="31.19911984716181" lon="121.62079307163013">
        <ele>6.8819477650907075</ele>
        <time>2018-10-24T23:18:07Z</time>
      </trkpt>
      <trkpt lat="31.199295630722794" lon="121.62071121784997">
        <ele>7.779120489441091</ele>
        <time>2018-10-24T23:18:15Z</time>
      </trkpt>
      <trkpt lat="31.19944179342672" lon="121.62069142338522">
        <ele>8.372399945906793</ele>
        <time>2018-10-24T23:18:22Z</time>
      </trkpt>
      <trkpt lat="31.19973836469148" lon="121.62073719636199">
        <ele>8.753054706815611</ele>
        <time>2018-10-24T23:18:35Z</time>
      </trkpt>
      <trkpt lat="31.200008637693852" lon="121.62078134549104">
        <ele>8.936061613226364</ele>
        <time>2018-10-24T23:18:48Z</time>
      </trkpt>
      <trkpt lat="31.200301677737425" lon="121.62083308038206">
        <ele>8.954251130592418</ele>
        <time>2018-10-24T23:19:01Z</time>
      </trkpt>
      <trkpt lat="31.20064923464217" lon="121.62086746732724">
        <ele>8.541637117640533</ele>
        <time>2018-10-24T23:19:15Z</time>
      </trkpt>
      <trkpt lat="31.200935507833833" lon="121.62090863402949">
        <ele>8.637527254856266</ele>
        <time>2018-10-24T23:19:28Z</time>
      </trkpt>
      <trkpt lat="31.201249438829517" lon="121.62094790145602">
        <ele>8.680002990685189</ele>
        <time>2018-10-24T23:19:42Z</time>
      </trkpt>
      <trkpt lat="31.201573097568534" lon="121.62101751870148">
        <ele>8.19318944050984</ele>
        <time>2018-10-24T23:19:58Z</time>
      </trkpt>
      <trkpt lat="31.201882133341552" lon="121.62107033574944">
        <ele>7.724556156453232</ele>
        <time>2018-10-24T23:20:12Z</time>
      </trkpt>
      <trkpt lat="31.202177893886777" lon="121.6211136692426">
        <ele>7.339168823144078</ele>
        <time>2018-10-24T23:20:25Z</time>
      </trkpt>
      <trkpt lat="31.20245956820848" lon="121.62114535140118">
        <ele>6.585925333685388</ele>
        <time>2018-10-24T23:20:44Z</time>
      </trkpt>
      <trkpt lat="31.20240242887486" lon="121.62083263553987">
        <ele>6.8015010903934225</ele>
        <time>2018-10-24T23:20:59Z</time>
      </trkpt>
      <trkpt lat="31.20236184558356" lon="121.62050121603366">
        <ele>6.562715067161562</ele>
        <time>2018-10-24T23:21:12Z</time>
      </trkpt>
      <trkpt lat="31.202372787538913" lon="121.62041124515267">
        <ele>6.5556335239279875</ele>
        <time>2018-10-24T23:21:16Z</time>
      </trkpt>
      <trkpt lat="31.2024189338584" lon="121.62036137832183">
        <ele>6.417974396672449</ele>
        <time>2018-10-24T23:21:30Z</time>
      </trkpt>
      <trkpt lat="31.202428163750152" lon="121.62035080875515">
        <ele>6.209202857167163</ele>
        <time>2018-10-24T23:21:34Z</time>
      </trkpt>
      <trkpt lat="31.202475086597058" lon="121.62033535815245">
        <ele>5.607355277623533</ele>
        <time>2018-10-24T23:21:52Z</time>
      </trkpt>
      <trkpt lat="31.202475086597058" lon="121.62033535815245">
        <ele>5.545347882690294</ele>
        <time>2018-10-24T23:21:55Z</time>
      </trkpt>
      <trkpt lat="31.202497584704414" lon="121.6203410471884">
        <ele>5.556522201251141</ele>
        <time>2018-10-24T23:22:04Z</time>
      </trkpt>
      <trkpt lat="31.202745680653077" lon="121.6203339807836">
        <ele>5.556600998917723</ele>
        <time>2018-10-24T23:22:14Z</time>
      </trkpt>
      <trkpt lat="31.202825962074936" lon="121.62031012655355">
        <ele>5.100779326321636</ele>
        <time>2018-10-24T23:22:18Z</time>
      </trkpt>
      <trkpt lat="31.202874815832427" lon="121.62026378225193">
        <ele>5.2531111366258685</ele>
        <time>2018-10-24T23:22:21Z</time>
      </trkpt>
      <trkpt lat="31.20277031429582" lon="121.61986027484923">
        <ele>4.57366194289181</ele>
        <time>2018-10-24T23:22:36Z</time>
      </trkpt>
      <trkpt lat="31.202682249976586" lon="121.61954944310307">
        <ele>4.946445775997475</ele>
        <time>2018-10-24T23:22:47Z</time>
      </trkpt>
      <trkpt lat="31.202580400846102" lon="121.619193621577">
        <ele>4.954828459899147</ele>
        <time>2018-10-24T23:23:00Z</time>
      </trkpt>
      <trkpt lat="31.202505565529613" lon="121.61893129146466">
        <ele>4.908658983825255</ele>
        <time>2018-10-24T23:23:10Z</time>
      </trkpt>
      <trkpt lat="31.20247619720142" lon="121.61874917453684">
        <ele>4.929888428097861</ele>
        <time>2018-10-24T23:23:18Z</time>
      </trkpt>
      <trkpt lat="31.20249039696393" lon="121.61864971179111">
        <ele>5.19904177630815</ele>
        <time>2018-10-24T23:23:21Z</time>
      </trkpt>
      <trkpt lat="31.20276163853179" lon="121.61854399406393">
        <ele>5.2922936762682795</ele>
        <time>2018-10-24T23:23:34Z</time>
      </trkpt>
      <trkpt lat="31.202795572962124" lon="121.61850171301822">
        <ele>5.188541381077982</ele>
        <time>2018-10-24T23:23:37Z</time>
      </trkpt>
      <trkpt lat="31.20279569404177" lon="121.61838111123441">
        <ele>4.929275906894766</ele>
        <time>2018-10-24T23:23:41Z</time>
      </trkpt>
      <trkpt lat="31.202816675504636" lon="121.61827703918921">
        <ele>5.060403316860679</ele>
        <time>2018-10-24T23:23:45Z</time>
      </trkpt>
      <trkpt lat="31.202679814723385" lon="121.61794098719325">
        <ele>5.044736933922515</ele>
        <time>2018-10-24T23:23:59Z</time>
      </trkpt>
      <trkpt lat="31.202534509390194" lon="121.61764124860692">
        <ele>5.561397445125031</ele>
        <time>2018-10-24T23:24:09Z</time>
      </trkpt>
      <trkpt lat="31.20244002708225" lon="121.61749354797149">
        <ele>5.792703957360864</ele>
        <time>2018-10-24T23:24:16Z</time>
      </trkpt>
      <trkpt lat="31.20240034253191" lon="121.61731548687133">
        <ele>5.1367734134787355</ele>
        <time>2018-10-24T23:24:23Z</time>
      </trkpt>
      <trkpt lat="31.20246467925551" lon="121.61723471524341">
        <ele>5.066656996809783</ele>
        <time>2018-10-24T23:24:27Z</time>
      </trkpt>
      <trkpt lat="31.202536834978982" lon="121.61719947556878">
        <ele>5.3109941355941785</ele>
        <time>2018-10-24T23:24:30Z</time>
      </trkpt>
      <trkpt lat="31.20280142413535" lon="121.616956068712">
        <ele>4.740245219766301</ele>
        <time>2018-10-24T23:24:44Z</time>
      </trkpt>
      <trkpt lat="31.202967753850437" lon="121.6168254174875">
        <ele>4.74656287353298</ele>
        <time>2018-10-24T23:24:54Z</time>
      </trkpt>
      <trkpt lat="31.203065197832753" lon="121.61671265952174">
        <ele>4.72894317900937</ele>
        <time>2018-10-24T23:25:00Z</time>
      </trkpt>
      <trkpt lat="31.20322061637892" lon="121.6166508508254">
        <ele>4.981362965625017</ele>
        <time>2018-10-24T23:25:08Z</time>
      </trkpt>
      <trkpt lat="31.203462693420217" lon="121.61641096389363">
        <ele>4.966523020306269</ele>
        <time>2018-10-24T23:25:21Z</time>
      </trkpt>
      <trkpt lat="31.203784416512626" lon="121.61624208041121">
        <ele>5.060367307622272</ele>
        <time>2018-10-24T23:25:38Z</time>
      </trkpt>
      <trkpt lat="31.203893514014137" lon="121.61613257128359">
        <ele>5.6888597300555475</ele>
        <time>2018-10-24T23:25:44Z</time>
      </trkpt>
      <trkpt lat="31.20393316064213" lon="121.61606643404008">
        <ele>5.505554534392871</ele>
        <time>2018-10-24T23:25:47Z</time>
      </trkpt>
      <trkpt lat="31.203990413243964" lon="121.61601953913099">
        <ele>5.487638754262704</ele>
        <time>2018-10-24T23:25:50Z</time>
      </trkpt>
      <trkpt lat="31.20414008435456" lon="121.61601464799966">
        <ele>5.624031525532665</ele>
        <time>2018-10-24T23:25:57Z</time>
      </trkpt>
      <trkpt lat="31.20422171917962" lon="121.61598943434875">
        <ele>5.2508534592372555</ele>
        <time>2018-10-24T23:26:02Z</time>
      </trkpt>
      <trkpt lat="31.204358525402636" lon="121.61611681246828">
        <ele>5.621186522941947</ele>
        <time>2018-10-24T23:26:09Z</time>
      </trkpt>
      <trkpt lat="31.204547569143635" lon="121.61634230160348">
        <ele>5.177441453560135</ele>
        <time>2018-10-24T23:26:20Z</time>
      </trkpt>
      <trkpt lat="31.204595537662613" lon="121.616366420018">
        <ele>6.156738003606279</ele>
        <time>2018-10-24T23:26:24Z</time>
      </trkpt>
      <trkpt lat="31.204548975656788" lon="121.61628755172195">
        <ele>6.42337977718001</ele>
        <time>2018-10-24T23:26:28Z</time>
      </trkpt>
      <trkpt lat="31.204329283714074" lon="121.61607236418104">
        <ele>6.893224719979337</ele>
        <time>2018-10-24T23:26:39Z</time>
      </trkpt>
      <trkpt lat="31.20411312700672" lon="121.61584389330797">
        <ele>7.884247382439291</ele>
        <time>2018-10-24T23:26:53Z</time>
      </trkpt>
      <trkpt lat="31.20390888590648" lon="121.61562924265208">
        <ele>8.037060585190133</ele>
        <time>2018-10-24T23:27:05Z</time>
      </trkpt>
      <trkpt lat="31.20370982118775" lon="121.61538504535937">
        <ele>6.306412468301588</ele>
        <time>2018-10-24T23:27:17Z</time>
      </trkpt>
      <trkpt lat="31.20357838338776" lon="121.61531485448194">
        <ele>5.420984947875091</ele>
        <time>2018-10-24T23:27:24Z</time>
      </trkpt>
      <trkpt lat="31.203597738929485" lon="121.61519694601009">
        <ele>5.060030561596385</ele>
        <time>2018-10-24T23:27:32Z</time>
      </trkpt>
      <trkpt lat="31.20371553946974" lon="121.61505246568166">
        <ele>4.756541449488253</ele>
        <time>2018-10-24T23:27:38Z</time>
      </trkpt>
      <trkpt lat="31.2037630609636" lon="121.61496979057516">
        <ele>5.096220605194063</ele>
        <time>2018-10-24T23:27:43Z</time>
      </trkpt>
      <trkpt lat="31.20376119184782" lon="121.61493699323333">
        <ele>4.715194235550612</ele>
        <time>2018-10-24T23:27:51Z</time>
      </trkpt>
      <trkpt lat="31.2037582138848" lon="121.61493184345544">
        <ele>4.8194844858405474</ele>
        <time>2018-10-24T23:27:53Z</time>
      </trkpt>
      <trkpt lat="31.2037582138848" lon="121.61493184345544">
        <ele>4.8194844858405474</ele>
        <time>2018-10-24T23:28:06Z</time>
      </trkpt>
      <trkpt lat="31.20374817593269" lon="121.61493862063296">
        <ele>5.148188677544567</ele>
        <time>2018-10-24T23:28:10Z</time>
      </trkpt>
      <trkpt lat="31.203747631519246" lon="121.61494106016256">
        <ele>5.597963775178044</ele>
        <time>2018-10-24T23:28:39Z</time>
      </trkpt>
      <trkpt lat="31.203747631519246" lon="121.61494106016256">
        <ele>5.645713045772922</ele>
        <time>2018-10-24T23:28:44Z</time>
      </trkpt>
      <trkpt lat="31.203655564786096" lon="121.61480499836821">
        <ele>5.286030463223909</ele>
        <time>2018-10-24T23:28:54Z</time>
      </trkpt>
      <trkpt lat="31.203637764133486" lon="121.61469684850388">
        <ele>5.296039273415779</ele>
        <time>2018-10-24T23:28:58Z</time>
      </trkpt>
      <trkpt lat="31.203820992092616" lon="121.61445206799257">
        <ele>5.3834972790757405</ele>
        <time>2018-10-24T23:29:13Z</time>
      </trkpt>
      <trkpt lat="31.204048393508714" lon="121.61423005052524">
        <ele>5.268245683249859</ele>
        <time>2018-10-24T23:29:28Z</time>
      </trkpt>
      <trkpt lat="31.20427661524414" lon="121.61399773046547">
        <ele>4.787345528203751</ele>
        <time>2018-10-24T23:29:42Z</time>
      </trkpt>
      <trkpt lat="31.204507543204805" lon="121.61376920284515">
        <ele>4.983224770585721</ele>
        <time>2018-10-24T23:29:53Z</time>
      </trkpt>
      <trkpt lat="31.20473631564163" lon="121.61352196936917">
        <ele>5.64737966955029</ele>
        <time>2018-10-24T23:30:07Z</time>
      </trkpt>
      <trkpt lat="31.204964510105913" lon="121.613315665313">
        <ele>5.889949838807574</ele>
        <time>2018-10-24T23:30:18Z</time>
      </trkpt>
      <trkpt lat="31.20518866562909" lon="121.6130727646557">
        <ele>5.834610596452812</ele>
        <time>2018-10-24T23:30:32Z</time>
      </trkpt>
      <trkpt lat="31.205323532566048" lon="121.61293314935865">
        <ele>5.77936958307825</ele>
        <time>2018-10-24T23:30:40Z</time>
      </trkpt>
      <trkpt lat="31.20533469787093" lon="121.6128724271491">
        <ele>5.9758788320480605</ele>
        <time>2018-10-24T23:30:43Z</time>
      </trkpt>
      <trkpt lat="31.205078150458398" lon="121.61259892953717">
        <ele>6.585237855319335</ele>
        <time>2018-10-24T23:30:58Z</time>
      </trkpt>
      <trkpt lat="31.204933218886964" lon="121.61243927443779">
        <ele>6.726875856340719</ele>
        <time>2018-10-24T23:31:06Z</time>
      </trkpt>
      <trkpt lat="31.20469638921871" lon="121.61225685473534">
        <ele>6.627659879311011</ele>
        <time>2018-10-24T23:31:19Z</time>
      </trkpt>
      <trkpt lat="31.20447645257622" lon="121.61196545503506">
        <ele>7.184318746296768</ele>
        <time>2018-10-24T23:31:33Z</time>
      </trkpt>
      <trkpt lat="31.204303361629727" lon="121.61174995328979">
        <ele>7.872165851106175</ele>
        <time>2018-10-24T23:31:47Z</time>
      </trkpt>
      <trkpt lat="31.20401644214475" lon="121.61146776991815">
        <ele>8.374910921317792</ele>
        <time>2018-10-24T23:32:03Z</time>
      </trkpt>
      <trkpt lat="31.203792686169518" lon="121.611196421745">
        <ele>8.305554122578492</ele>
        <time>2018-10-24T23:32:17Z</time>
      </trkpt>
      <trkpt lat="31.203793307642634" lon="121.6110887958596">
        <ele>8.112847670816961</ele>
        <time>2018-10-24T23:32:20Z</time>
      </trkpt>
      <trkpt lat="31.20381696367992" lon="121.61099689134248">
        <ele>8.480002134094754</ele>
        <time>2018-10-24T23:32:23Z</time>
      </trkpt>
      <trkpt lat="31.20378238804422" lon="121.61081851000193">
        <ele>8.924407631830569</ele>
        <time>2018-10-24T23:32:30Z</time>
      </trkpt>
      <trkpt lat="31.203788965318996" lon="121.61072145485498">
        <ele>9.221648754373291</ele>
        <time>2018-10-24T23:32:34Z</time>
      </trkpt>
      <trkpt lat="31.20399680039191" lon="121.61051810964973">
        <ele>9.517004777276618</ele>
        <time>2018-10-24T23:32:46Z</time>
      </trkpt>
      <trkpt lat="31.204229331615455" lon="121.6102800587748">
        <ele>9.832851827261806</ele>
        <time>2018-10-24T23:33:00Z</time>
      </trkpt>
      <trkpt lat="31.20446673303816" lon="121.61005366276456">
        <ele>9.818592671097882</ele>
        <time>2018-10-24T23:33:14Z</time>
      </trkpt>
      <trkpt lat="31.204706833466176" lon="121.60984244661621">
        <ele>10.10594000430173</ele>
        <time>2018-10-24T23:33:28Z</time>
      </trkpt>
      <trkpt lat="31.204842501290493" lon="121.60969576260936">
        <ele>10.185903547635291</ele>
        <time>2018-10-24T23:33:36Z</time>
      </trkpt>
      <trkpt lat="31.204844999063777" lon="121.60961090321628">
        <ele>9.794664051653278</ele>
        <time>2018-10-24T23:33:40Z</time>
      </trkpt>
      <trkpt lat="31.20462935225988" lon="121.60934739462421">
        <ele>10.340605967947802</ele>
        <time>2018-10-24T23:33:54Z</time>
      </trkpt>
      <trkpt lat="31.204590883151717" lon="121.60929913851581">
        <ele>10.29473794253311</ele>
        <time>2018-10-24T23:33:58Z</time>
      </trkpt>
      <trkpt lat="31.204606703706972" lon="121.60915598544965">
        <ele>10.221444300371054</ele>
        <time>2018-10-24T23:34:06Z</time>
      </trkpt>
      <trkpt lat="31.20481507056524" lon="121.60894991484547">
        <ele>10.346480499174817</ele>
        <time>2018-10-24T23:34:17Z</time>
      </trkpt>
      <trkpt lat="31.204873400952312" lon="121.60889405838562">
        <ele>10.404082885245693</ele>
        <time>2018-10-24T23:34:20Z</time>
      </trkpt>
      <trkpt lat="31.204945548781854" lon="121.6088541970413">
        <ele>10.14237027369709</ele>
        <time>2018-10-24T23:34:23Z</time>
      </trkpt>
      <trkpt lat="31.20510318890718" lon="121.6086825610477">
        <ele>10.182083800054272</ele>
        <time>2018-10-24T23:34:34Z</time>
      </trkpt>
      <trkpt lat="31.20518592177644" lon="121.60862534626106">
        <ele>10.472560794334775</ele>
        <time>2018-10-24T23:34:38Z</time>
      </trkpt>
      <trkpt lat="31.20524104701702" lon="121.60849194629674">
        <ele>10.234724272685149</ele>
        <time>2018-10-24T23:34:45Z</time>
      </trkpt>
      <trkpt lat="31.20524975930831" lon="121.60843500826859">
        <ele>10.27536303237526</ele>
        <time>2018-10-24T23:34:49Z</time>
      </trkpt>
      <trkpt lat="31.20524975930831" lon="121.60843500826859">
        <ele>10.27536303237526</ele>
        <time>2018-10-24T23:34:50Z</time>
      </trkpt>
    </trkseg>
  </trk>
</gpx>