<?xml version="1.0" encoding="UTF-8"?>
<gpx xmlns="http://www.topografix.com/GPX/1/1" xmlns:gpxtpx="http://www.garmin.com/xmlschemas/TrackPointExtension/v1" xmlns:xsi="http://www.w3.org/2001/XMLSchema-instance" xsi:schemaLocation="http://www.topografix.com/GPX/1/1 http://www.topografix.com/GPX/1/1/gpx.xsd" version="1.1" creator="gpx.py -- https://github.com/tkrajina/gpxpy">
  <trk>
    <name>gpx from keep</name>
    <type>Run</type>
    <trkseg>
      <trkpt lat="31.20399927655435" lon="121.61121619475175">
        <ele>8.499582290649414</ele>
        <time>2018-08-29T22:03:40Z</time>
      </trkpt>
      <trkpt lat="31.20390960132911" lon="121.61112050474306">
        <ele>8.351861000061035</ele>
        <time>2018-08-29T22:03:46Z</time>
      </trkpt>
      <trkpt lat="31.20382890193945" lon="121.61098550417177">
        <ele>8.257438659667969</ele>
        <time>2018-08-29T22:03:52Z</time>
      </trkpt>
      <trkpt lat="31.203842116544397" lon="121.61108255655925">
        <ele>8.224642753601074</ele>
        <time>2018-08-29T22:03:59Z</time>
      </trkpt>
      <trkpt lat="31.203802006429832" lon="121.61105816099438">
        <ele>8.258275985717773</ele>
        <time>2018-08-29T22:04:12Z</time>
      </trkpt>
      <trkpt lat="31.203763581895938" lon="121.61095324868673">
        <ele>8.196847915649414</ele>
        <time>2018-08-29T22:04:25Z</time>
      </trkpt>
      <trkpt lat="31.203808607701276" lon="121.61092938814633">
        <ele>8.264246940612793</ele>
        <time>2018-08-29T22:04:32Z</time>
      </trkpt>
      <trkpt lat="31.20380706624455" lon="121.61081173041919">
        <ele>8.250843048095703</ele>
        <time>2018-08-29T22:04:38Z</time>
      </trkpt>
      <trkpt lat="31.20388417252879" lon="121.6106674974592">
        <ele>8.269253730773926</ele>
        <time>2018-08-29T22:04:45Z</time>
      </trkpt>
      <trkpt lat="31.204030366621623" lon="121.61059455842532">
        <ele>8.378896713256836</ele>
        <time>2018-08-29T22:04:51Z</time>
      </trkpt>
      <trkpt lat="31.204136495095117" lon="121.61043351310802">
        <ele>8.437674522399902</ele>
        <time>2018-08-29T22:04:58Z</time>
      </trkpt>
      <trkpt lat="31.204265838123167" lon="121.61041723603473">
        <ele>8.456833839416504</ele>
        <time>2018-08-29T22:05:04Z</time>
      </trkpt>
      <trkpt lat="31.20439140346497" lon="121.61037520411641">
        <ele>8.540643692016602</ele>
        <time>2018-08-29T22:05:10Z</time>
      </trkpt>
      <trkpt lat="31.204645734904236" lon="121.60997773681605">
        <ele>8.550360679626465</ele>
        <time>2018-08-29T22:05:17Z</time>
      </trkpt>
      <trkpt lat="31.204793924476682" lon="121.6097597496978">
        <ele>8.564644813537598</ele>
        <time>2018-08-29T22:05:24Z</time>
      </trkpt>
      <trkpt lat="31.204888554423967" lon="121.60975431958818">
        <ele>8.559955596923828</ele>
        <time>2018-08-29T22:05:30Z</time>
      </trkpt>
      <trkpt lat="31.20495584344008" lon="121.60968463751836">
        <ele>8.561915397644043</ele>
        <time>2018-08-29T22:05:37Z</time>
      </trkpt>
      <trkpt lat="31.204969986059137" lon="121.60962038194694">
        <ele>8.568543434143066</ele>
        <time>2018-08-29T22:05:43Z</time>
      </trkpt>
      <trkpt lat="31.204859198375647" lon="121.60946205879799">
        <ele>8.59350299835205</ele>
        <time>2018-08-29T22:05:49Z</time>
      </trkpt>
      <trkpt lat="31.204755275332676" lon="121.60917196933892">
        <ele>8.634199142456055</ele>
        <time>2018-08-29T22:05:56Z</time>
      </trkpt>
      <trkpt lat="31.204634404250367" lon="121.60908793152959">
        <ele>8.648852348327637</ele>
        <time>2018-08-29T22:06:03Z</time>
      </trkpt>
      <trkpt lat="31.204461000757547" lon="121.60889924384362">
        <ele>8.661736488342285</ele>
        <time>2018-08-29T22:06:09Z</time>
      </trkpt>
      <trkpt lat="31.20413931546908" lon="121.60866284840955">
        <ele>8.655651092529297</ele>
        <time>2018-08-29T22:06:22Z</time>
      </trkpt>
      <trkpt lat="31.203997675643457" lon="121.60840447400227">
        <ele>8.62418270111084</ele>
        <time>2018-08-29T22:06:35Z</time>
      </trkpt>
      <trkpt lat="31.203902828527436" lon="121.60832449812263">
        <ele>8.609436988830566</ele>
        <time>2018-08-29T22:06:42Z</time>
      </trkpt>
      <trkpt lat="31.203646463677313" lon="121.60811710256061">
        <ele>8.581897735595703</ele>
        <time>2018-08-29T22:06:57Z</time>
      </trkpt>
      <trkpt lat="31.20345792825502" lon="121.60783188304508">
        <ele>8.557621955871582</ele>
        <time>2018-08-29T22:07:10Z</time>
      </trkpt>
      <trkpt lat="31.203324151964555" lon="121.60755831439074">
        <ele>8.546843528747559</ele>
        <time>2018-08-29T22:07:16Z</time>
      </trkpt>
      <trkpt lat="31.203256461054366" lon="121.60740159984921">
        <ele>8.536919593811035</ele>
        <time>2018-08-29T22:07:23Z</time>
      </trkpt>
      <trkpt lat="31.203426584892277" lon="121.60719280463468">
        <ele>8.519444465637207</ele>
        <time>2018-08-29T22:07:35Z</time>
      </trkpt>
      <trkpt lat="31.203568416059767" lon="121.60714534237405">
        <ele>8.5117769241333</ele>
        <time>2018-08-29T22:07:42Z</time>
      </trkpt>
      <trkpt lat="31.20374366596965" lon="121.60697748773075">
        <ele>8.504739761352539</ele>
        <time>2018-08-29T22:07:48Z</time>
      </trkpt>
      <trkpt lat="31.203883630003673" lon="121.60687525301283">
        <ele>6.891323089599609</ele>
        <time>2018-08-29T22:08:01Z</time>
      </trkpt>
      <trkpt lat="31.203992112682023" lon="121.60682481016858">
        <ele>6.875453948974609</ele>
        <time>2018-08-29T22:08:05Z</time>
      </trkpt>
      <trkpt lat="31.204153262375364" lon="121.60665532731889">
        <ele>6.905971527099609</ele>
        <time>2018-08-29T22:08:13Z</time>
      </trkpt>
      <trkpt lat="31.204319471919415" lon="121.60664880592685">
        <ele>6.852931976318359</ele>
        <time>2018-08-29T22:08:17Z</time>
      </trkpt>
      <trkpt lat="31.20441439741436" lon="121.60659836368043">
        <ele>6.738491058349609</ele>
        <time>2018-08-29T22:08:21Z</time>
      </trkpt>
      <trkpt lat="31.20454787308893" lon="121.60645925071205">
        <ele>6.082057952880859</ele>
        <time>2018-08-29T22:08:29Z</time>
      </trkpt>
      <trkpt lat="31.204552522510557" lon="121.60638630958069">
        <ele>5.948451995849609</ele>
        <time>2018-08-29T22:08:32Z</time>
      </trkpt>
      <trkpt lat="31.204621702368733" lon="121.6063125494025">
        <ele>5.882961273193359</ele>
        <time>2018-08-29T22:08:36Z</time>
      </trkpt>
      <trkpt lat="31.204924091756503" lon="121.60617721686542">
        <ele>5.867458343505859</ele>
        <time>2018-08-29T22:08:48Z</time>
      </trkpt>
      <trkpt lat="31.205057265670963" lon="121.60609097736425">
        <ele>5.929347991943359</ele>
        <time>2018-08-29T22:08:56Z</time>
      </trkpt>
      <trkpt lat="31.205069252012983" lon="121.60598549513834">
        <ele>6.008144378662109</ele>
        <time>2018-08-29T22:09:00Z</time>
      </trkpt>
      <trkpt lat="31.20510780029353" lon="121.6058968222399">
        <ele>5.964626312255859</ele>
        <time>2018-08-29T22:09:04Z</time>
      </trkpt>
      <trkpt lat="31.205335917656306" lon="121.60572081869424">
        <ele>5.922039703236969</ele>
        <time>2018-08-29T22:09:16Z</time>
      </trkpt>
      <trkpt lat="31.205537164685115" lon="121.60559660861381">
        <ele>5.793147524739702</ele>
        <time>2018-08-29T22:09:27Z</time>
      </trkpt>
      <trkpt lat="31.205797028635303" lon="121.60536989157876">
        <ele>5.371254021537503</ele>
        <time>2018-08-29T22:09:41Z</time>
      </trkpt>
      <trkpt lat="31.205913410016993" lon="121.60524270362464">
        <ele>5.3048426994544755</ele>
        <time>2018-08-29T22:09:48Z</time>
      </trkpt>
      <trkpt lat="31.206208777248666" lon="121.60504092782024">
        <ele>4.975468306845201</ele>
        <time>2018-08-29T22:10:03Z</time>
      </trkpt>
      <trkpt lat="31.206526919088294" lon="121.60483752119153">
        <ele>4.506133671411547</ele>
        <time>2018-08-29T22:10:19Z</time>
      </trkpt>
      <trkpt lat="31.20660501842738" lon="121.60481229544143">
        <ele>4.921509206605926</ele>
        <time>2018-08-29T22:10:23Z</time>
      </trkpt>
      <trkpt lat="31.206664395061576" lon="121.60481662934033">
        <ele>4.698225887843755</ele>
        <time>2018-08-29T22:10:26Z</time>
      </trkpt>
      <trkpt lat="31.20686616881462" lon="121.60471573520591">
        <ele>4.617153484343611</ele>
        <time>2018-08-29T22:10:37Z</time>
      </trkpt>
      <trkpt lat="31.20717828816011" lon="121.60462811919025">
        <ele>4.435856623550798</ele>
        <time>2018-08-29T22:10:50Z</time>
      </trkpt>
      <trkpt lat="31.20750126515603" lon="121.60451419755758">
        <ele>4.690414676599303</ele>
        <time>2018-08-29T22:11:05Z</time>
      </trkpt>
      <trkpt lat="31.20765556940308" lon="121.60445506766872">
        <ele>4.608343104485392</ele>
        <time>2018-08-29T22:11:12Z</time>
      </trkpt>
      <trkpt lat="31.20772957664876" lon="121.6044824507053">
        <ele>4.464247686446086</ele>
        <time>2018-08-29T22:11:16Z</time>
      </trkpt>
      <trkpt lat="31.20778620702801" lon="121.60456081677333">
        <ele>4.591354256724728</ele>
        <time>2018-08-29T22:11:20Z</time>
      </trkpt>
      <trkpt lat="31.20790667952003" lon="121.60494045344439">
        <ele>4.319683174045302</ele>
        <time>2018-08-29T22:11:35Z</time>
      </trkpt>
      <trkpt lat="31.20800897645962" lon="121.60532713530338">
        <ele>4.861904144234984</ele>
        <time>2018-08-29T22:11:50Z</time>
      </trkpt>
      <trkpt lat="31.20811102820866" lon="121.60565225592404">
        <ele>4.97683247046043</ele>
        <time>2018-08-29T22:12:04Z</time>
      </trkpt>
      <trkpt lat="31.208247515883997" lon="121.60596625121755">
        <ele>4.792532074759393</ele>
        <time>2018-08-29T22:12:18Z</time>
      </trkpt>
      <trkpt lat="31.20832498415169" lon="121.60610968844605">
        <ele>5.048914369875867</ele>
        <time>2018-08-29T22:12:25Z</time>
      </trkpt>
      <trkpt lat="31.20845225427411" lon="121.60641120474112">
        <ele>4.900786172747097</ele>
        <time>2018-08-29T22:12:39Z</time>
      </trkpt>
      <trkpt lat="31.208607705654174" lon="121.60673630470663">
        <ele>4.783232208965494</ele>
        <time>2018-08-29T22:12:53Z</time>
      </trkpt>
      <trkpt lat="31.208727417279956" lon="121.60696650104184">
        <ele>4.77967330121173</ele>
        <time>2018-08-29T22:13:04Z</time>
      </trkpt>
      <trkpt lat="31.208846886172395" lon="121.6071440926699">
        <ele>4.531355407567659</ele>
        <time>2018-08-29T22:13:12Z</time>
      </trkpt>
      <trkpt lat="31.209007219898346" lon="121.60744993023842">
        <ele>4.856960224001199</ele>
        <time>2018-08-29T22:13:27Z</time>
      </trkpt>
      <trkpt lat="31.209174863558623" lon="121.60776742191024">
        <ele>4.96932799179671</ele>
        <time>2018-08-29T22:13:43Z</time>
      </trkpt>
      <trkpt lat="31.209386993480514" lon="121.60804613304575">
        <ele>4.95728611502237</ele>
        <time>2018-08-29T22:13:58Z</time>
      </trkpt>
      <trkpt lat="31.20953707684806" lon="121.60825001331791">
        <ele>5.335567875083683</ele>
        <time>2018-08-29T22:14:09Z</time>
      </trkpt>
      <trkpt lat="31.20971422988278" lon="121.60852085852137">
        <ele>5.28408475289833</ele>
        <time>2018-08-29T22:14:24Z</time>
      </trkpt>
      <trkpt lat="31.209766510480424" lon="121.6085975836663">
        <ele>5.43845409442423</ele>
        <time>2018-08-29T22:14:28Z</time>
      </trkpt>
      <trkpt lat="31.20978680645001" lon="121.60865912804803">
        <ele>5.295461992467473</ele>
        <time>2018-08-29T22:14:31Z</time>
      </trkpt>
      <trkpt lat="31.209815785769678" lon="121.60870955533643">
        <ele>5.408506289942075</ele>
        <time>2018-08-29T22:14:49Z</time>
      </trkpt>
      <trkpt lat="31.209822020344735" lon="121.60871199496414">
        <ele>5.514329604071712</ele>
        <time>2018-08-29T22:14:50Z</time>
      </trkpt>
      <trkpt lat="31.20986212051741" lon="121.60875564305285">
        <ele>5.511898440856811</ele>
        <time>2018-08-29T22:15:00Z</time>
      </trkpt>
      <trkpt lat="31.209941747123068" lon="121.608891199291">
        <ele>5.794461667775863</ele>
        <time>2018-08-29T22:15:07Z</time>
      </trkpt>
      <trkpt lat="31.210134998892812" lon="121.6089966506195">
        <ele>5.815846187856643</ele>
        <time>2018-08-29T22:15:17Z</time>
      </trkpt>
      <trkpt lat="31.210373691172613" lon="121.60926883726056">
        <ele>6.19408470490842</ele>
        <time>2018-08-29T22:15:33Z</time>
      </trkpt>
      <trkpt lat="31.210561194625864" lon="121.60945345388075">
        <ele>6.498505776893438</ele>
        <time>2018-08-29T22:15:44Z</time>
      </trkpt>
      <trkpt lat="31.21063430534143" lon="121.60959632657121">
        <ele>6.661867450021099</ele>
        <time>2018-08-29T22:15:51Z</time>
      </trkpt>
      <trkpt lat="31.210895237578907" lon="121.60984952618064">
        <ele>8.283527747265993</ele>
        <time>2018-08-29T22:16:09Z</time>
      </trkpt>
      <trkpt lat="31.211097355186553" lon="121.6100674834558">
        <ele>7.94796691190686</ele>
        <time>2018-08-29T22:16:22Z</time>
      </trkpt>
      <trkpt lat="31.21131598343642" lon="121.61032366345911">
        <ele>6.511782574620085</ele>
        <time>2018-08-29T22:16:36Z</time>
      </trkpt>
      <trkpt lat="31.211537855467782" lon="121.61059014226556">
        <ele>5.41210986335313</ele>
        <time>2018-08-29T22:16:50Z</time>
      </trkpt>
      <trkpt lat="31.211730148446982" lon="121.61088752590753">
        <ele>5.056560058937926</ele>
        <time>2018-08-29T22:17:05Z</time>
      </trkpt>
      <trkpt lat="31.211930828096335" lon="121.61120550836245">
        <ele>4.584512761449481</ele>
        <time>2018-08-29T22:17:21Z</time>
      </trkpt>
      <trkpt lat="31.21206163453934" lon="121.61141125928127">
        <ele>4.237397825974156</ele>
        <time>2018-08-29T22:17:31Z</time>
      </trkpt>
      <trkpt lat="31.21221485908299" lon="121.61172896730133">
        <ele>4.6515596841810165</ele>
        <time>2018-08-29T22:17:46Z</time>
      </trkpt>
      <trkpt lat="31.212369991746282" lon="121.61202850793485">
        <ele>4.50127875553013</ele>
        <time>2018-08-29T22:18:00Z</time>
      </trkpt>
      <trkpt lat="31.212510203819132" lon="121.61233400976319">
        <ele>3.9992756235819087</ele>
        <time>2018-08-29T22:18:14Z</time>
      </trkpt>
      <trkpt lat="31.21263440173513" lon="121.61265658693873">
        <ele>4.085805025170728</ele>
        <time>2018-08-29T22:18:28Z</time>
      </trkpt>
      <trkpt lat="31.212699460946627" lon="121.61301250689317">
        <ele>3.9200377535227915</ele>
        <time>2018-08-29T22:18:43Z</time>
      </trkpt>
      <trkpt lat="31.212709961199007" lon="121.61310412949096">
        <ele>4.0107575962156545</ele>
        <time>2018-08-29T22:18:47Z</time>
      </trkpt>
      <trkpt lat="31.212794882327046" lon="121.6133689610637">
        <ele>3.7699162011873355</ele>
        <time>2018-08-29T22:18:59Z</time>
      </trkpt>
      <trkpt lat="31.212808638799647" lon="121.61345597379741">
        <ele>3.9194988416103342</ele>
        <time>2018-08-29T22:19:03Z</time>
      </trkpt>
      <trkpt lat="31.212789869280318" lon="121.61352997754817">
        <ele>4.013573174596637</ele>
        <time>2018-08-29T22:19:06Z</time>
      </trkpt>
      <trkpt lat="31.212729630394175" lon="121.61358609393274">
        <ele>4.136259246867191</ele>
        <time>2018-08-29T22:19:10Z</time>
      </trkpt>
      <trkpt lat="31.212387969041895" lon="121.61362054796332">
        <ele>4.308111223048115</ele>
        <time>2018-08-29T22:19:26Z</time>
      </trkpt>
      <trkpt lat="31.212072589330766" lon="121.61367749844115">
        <ele>4.5583526313285745</ele>
        <time>2018-08-29T22:19:41Z</time>
      </trkpt>
      <trkpt lat="31.2117935242958" lon="121.61375558903724">
        <ele>4.597455692205976</ele>
        <time>2018-08-29T22:19:55Z</time>
      </trkpt>
      <trkpt lat="31.211533960283237" lon="121.61385834479292">
        <ele>5.101987753388187</ele>
        <time>2018-08-29T22:20:08Z</time>
      </trkpt>
      <trkpt lat="31.21132347604559" lon="121.61395594580816">
        <ele>5.394983661153709</ele>
        <time>2018-08-29T22:20:19Z</time>
      </trkpt>
      <trkpt lat="31.21121008070394" lon="121.61402724517825">
        <ele>5.426817470178229</ele>
        <time>2018-08-29T22:20:31Z</time>
      </trkpt>
      <trkpt lat="31.21096051515088" lon="121.61416848984643">
        <ele>5.379542060339034</ele>
        <time>2018-08-29T22:20:54Z</time>
      </trkpt>
      <trkpt lat="31.210840636257124" lon="121.61421132761161">
        <ele>5.323859946896761</ele>
        <time>2018-08-29T22:21:04Z</time>
      </trkpt>
      <trkpt lat="31.210688951797557" lon="121.61435066566585">
        <ele>5.181099153538767</ele>
        <time>2018-08-29T22:21:22Z</time>
      </trkpt>
      <trkpt lat="31.21061896063162" lon="121.61439485427654">
        <ele>5.004874059824203</ele>
        <time>2018-08-29T22:21:29Z</time>
      </trkpt>
      <trkpt lat="31.210463209611405" lon="121.61453256524277">
        <ele>4.532488181142597</ele>
        <time>2018-08-29T22:21:44Z</time>
      </trkpt>
      <trkpt lat="31.210245117435143" lon="121.61464615649726">
        <ele>4.1555479508474065</ele>
        <time>2018-08-29T22:22:02Z</time>
      </trkpt>
      <trkpt lat="31.209981439347487" lon="121.61479932510554">
        <ele>4.3419379863840035</ele>
        <time>2018-08-29T22:22:25Z</time>
      </trkpt>
      <trkpt lat="31.20969495471149" lon="121.61498691841349">
        <ele>4.277303196542896</ele>
        <time>2018-08-29T22:22:51Z</time>
      </trkpt>
      <trkpt lat="31.20956122876253" lon="121.61505008480879">
        <ele>4.287422290291296</ele>
        <time>2018-08-29T22:23:02Z</time>
      </trkpt>
      <trkpt lat="31.209379745702762" lon="121.61515499693954">
        <ele>4.423639271685829</ele>
        <time>2018-08-29T22:23:18Z</time>
      </trkpt>
      <trkpt lat="31.209197961189464" lon="121.61529351884097">
        <ele>4.575266812254178</ele>
        <time>2018-08-29T22:23:35Z</time>
      </trkpt>
      <trkpt lat="31.208923698339802" lon="121.61545454459322">
        <ele>4.7092241760705065</ele>
        <time>2018-08-29T22:24:00Z</time>
      </trkpt>
      <trkpt lat="31.20874461861076" lon="121.61559875652715">
        <ele>5.251175457276361</ele>
        <time>2018-08-29T22:24:18Z</time>
      </trkpt>
      <trkpt lat="31.208620387750642" lon="121.61565460229997">
        <ele>5.693722017638379</ele>
        <time>2018-08-29T22:24:28Z</time>
      </trkpt>
      <trkpt lat="31.20836021583305" lon="121.61582240058262">
        <ele>4.695981457339563</ele>
        <time>2018-08-29T22:24:51Z</time>
      </trkpt>
      <trkpt lat="31.208285878313912" lon="121.61587309189035">
        <ele>4.540301819944659</ele>
        <time>2018-08-29T22:24:58Z</time>
      </trkpt>
      <trkpt lat="31.208248760099284" lon="121.61584300913107">
        <ele>4.55116510222723</ele>
        <time>2018-08-29T22:25:02Z</time>
      </trkpt>
      <trkpt lat="31.208258305384483" lon="121.61578202343682">
        <ele>4.505030012330181</ele>
        <time>2018-08-29T22:25:06Z</time>
      </trkpt>
      <trkpt lat="31.208247506716553" lon="121.6157305258468">
        <ele>4.252533518065313</ele>
        <time>2018-08-29T22:25:10Z</time>
      </trkpt>
      <trkpt lat="31.208181427083154" lon="121.61564488096154">
        <ele>4.5379297474646805</ele>
        <time>2018-08-29T22:25:19Z</time>
      </trkpt>
      <trkpt lat="31.20809633319084" lon="121.61559745492241">
        <ele>3.7096778799648007</ele>
        <time>2018-08-29T22:25:26Z</time>
      </trkpt>
      <trkpt lat="31.20787778296878" lon="121.61531151732785">
        <ele>4.462837231840879</ele>
        <time>2018-08-29T22:25:50Z</time>
      </trkpt>
      <trkpt lat="31.207848003174515" lon="121.61526083345562">
        <ele>4.588848309810125</ele>
        <time>2018-08-29T22:25:54Z</time>
      </trkpt>
      <trkpt lat="31.207816121281926" lon="121.6151345263645">
        <ele>4.665562163411835</ele>
        <time>2018-08-29T22:26:02Z</time>
      </trkpt>
      <trkpt lat="31.207659020238015" lon="121.61495564461657">
        <ele>5.613374414938129</ele>
        <time>2018-08-29T22:26:18Z</time>
      </trkpt>
      <trkpt lat="31.207546947892045" lon="121.61475236278615">
        <ele>5.220340978757648</ele>
        <time>2018-08-29T22:26:35Z</time>
      </trkpt>
      <trkpt lat="31.20747758734364" lon="121.61469463353572">
        <ele>5.400965256028975</ele>
        <time>2018-08-29T22:26:42Z</time>
      </trkpt>
      <trkpt lat="31.20739572901375" lon="121.61466617934566">
        <ele>6.3994937247753185</ele>
        <time>2018-08-29T22:26:49Z</time>
      </trkpt>
      <trkpt lat="31.20728143052231" lon="121.6145265940727">
        <ele>6.003795833812717</ele>
        <time>2018-08-29T22:27:04Z</time>
      </trkpt>
      <trkpt lat="31.207229242606182" lon="121.61436233636321">
        <ele>5.9988445256636425</ele>
        <time>2018-08-29T22:27:18Z</time>
      </trkpt>
      <trkpt lat="31.207158258834895" lon="121.61429945614194">
        <ele>5.808765578509487</ele>
        <time>2018-08-29T22:27:25Z</time>
      </trkpt>
      <trkpt lat="31.207027265405276" lon="121.6140213566584">
        <ele>5.074504674077346</ele>
        <time>2018-08-29T22:27:49Z</time>
      </trkpt>
      <trkpt lat="31.20707442586937" lon="121.61404168257009">
        <ele>5.6028166901825855</ele>
        <time>2018-08-29T22:27:57Z</time>
      </trkpt>
      <trkpt lat="31.207112838276807" lon="121.61414658094614">
        <ele>6.060207668641262</ele>
        <time>2018-08-29T22:28:04Z</time>
      </trkpt>
      <trkpt lat="31.207279954085493" lon="121.61435176081174">
        <ele>5.6257749293420005</ele>
        <time>2018-08-29T22:28:25Z</time>
      </trkpt>
      <trkpt lat="31.207309637550644" lon="121.61451629151398">
        <ele>6.664515200851135</ele>
        <time>2018-08-29T22:28:36Z</time>
      </trkpt>
      <trkpt lat="31.207248298277396" lon="121.61458866913205">
        <ele>6.407511019095338</ele>
        <time>2018-08-29T22:28:43Z</time>
      </trkpt>
      <trkpt lat="31.207051144855313" lon="121.6143173550268">
        <ele>7.414395305208771</ele>
        <time>2018-08-29T22:29:04Z</time>
      </trkpt>
      <trkpt lat="31.206876987788917" lon="121.61410214610366">
        <ele>7.978537806947621</ele>
        <time>2018-08-29T22:29:22Z</time>
      </trkpt>
      <trkpt lat="31.20671861921144" lon="121.61381022217039">
        <ele>9.11786254311395</ele>
        <time>2018-08-29T22:29:44Z</time>
      </trkpt>
      <trkpt lat="31.2066114205896" lon="121.61360476158546">
        <ele>8.867402308974981</ele>
        <time>2018-08-29T22:30:01Z</time>
      </trkpt>
      <trkpt lat="31.206566794329234" lon="121.61347031463993">
        <ele>8.266273520489307</ele>
        <time>2018-08-29T22:30:12Z</time>
      </trkpt>
      <trkpt lat="31.206425373708758" lon="121.61333370635303">
        <ele>7.421113785671906</ele>
        <time>2018-08-29T22:30:27Z</time>
      </trkpt>
      <trkpt lat="31.206344349137595" lon="121.6132786853362">
        <ele>6.944232881599994</ele>
        <time>2018-08-29T22:30:34Z</time>
      </trkpt>
      <trkpt lat="31.206165540523624" lon="121.61310548395325">
        <ele>6.840714346963225</ele>
        <time>2018-08-29T22:30:53Z</time>
      </trkpt>
      <trkpt lat="31.206094268492713" lon="121.6130602203083">
        <ele>6.84063960079969</ele>
        <time>2018-08-29T22:30:59Z</time>
      </trkpt>
      <trkpt lat="31.206011388456243" lon="121.61295179677305">
        <ele>6.624083429197995</ele>
        <time>2018-08-29T22:31:09Z</time>
      </trkpt>
      <trkpt lat="31.205936388487135" lon="121.61282141476616">
        <ele>6.569639387682763</ele>
        <time>2018-08-29T22:31:20Z</time>
      </trkpt>
      <trkpt lat="31.205703679792943" lon="121.61257393837666">
        <ele>7.166314747662312</ele>
        <time>2018-08-29T22:31:43Z</time>
      </trkpt>
      <trkpt lat="31.205567787006842" lon="121.6126419908431">
        <ele>7.363483214019901</ele>
        <time>2018-08-29T22:31:57Z</time>
      </trkpt>
      <trkpt lat="31.205508715321013" lon="121.61259672528989">
        <ele>7.116930107480698</ele>
        <time>2018-08-29T22:32:04Z</time>
      </trkpt>
      <trkpt lat="31.205362606707972" lon="121.6125544487389">
        <ele>7.036436384918737</ele>
        <time>2018-08-29T22:32:15Z</time>
      </trkpt>
      <trkpt lat="31.205145314137503" lon="121.6123533235687">
        <ele>6.801089373872507</ele>
        <time>2018-08-29T22:32:34Z</time>
      </trkpt>
      <trkpt lat="31.20507813053545" lon="121.61227905210683">
        <ele>6.835187646372901</ele>
        <time>2018-08-29T22:32:41Z</time>
      </trkpt>
      <trkpt lat="31.205025544410052" lon="121.61226089379036">
        <ele>6.617624955280938</ele>
        <time>2018-08-29T22:32:45Z</time>
      </trkpt>
      <trkpt lat="31.204809342772705" lon="121.61204865141262">
        <ele>7.811633115295791</ele>
        <time>2018-08-29T22:33:07Z</time>
      </trkpt>
      <trkpt lat="31.204748663914632" lon="121.61197654713895">
        <ele>7.827668968749336</ele>
        <time>2018-08-29T22:33:14Z</time>
      </trkpt>
      <trkpt lat="31.204695539898758" lon="121.61195242468821">
        <ele>7.954767260560757</ele>
        <time>2018-08-29T22:33:18Z</time>
      </trkpt>
      <trkpt lat="31.204611310696475" lon="121.61182962834147">
        <ele>8.078763778717274</ele>
        <time>2018-08-29T22:33:29Z</time>
      </trkpt>
      <trkpt lat="31.2044763989406" lon="121.6116799974911">
        <ele>8.444437060207605</ele>
        <time>2018-08-29T22:33:44Z</time>
      </trkpt>
      <trkpt lat="31.20445936062604" lon="121.61162279852884">
        <ele>8.410678466894808</ele>
        <time>2018-08-29T22:33:48Z</time>
      </trkpt>
      <trkpt lat="31.204262687803332" lon="121.61139428297639">
        <ele>8.6814241400998</ele>
        <time>2018-08-29T22:34:11Z</time>
      </trkpt>
    </trkseg>
  </trk>
</gpx>