<?xml version="1.0" encoding="UTF-8"?>
<gpx xmlns="http://www.topografix.com/GPX/1/1" xmlns:gpxtpx="http://www.garmin.com/xmlschemas/TrackPointExtension/v1" xmlns:xsi="http://www.w3.org/2001/XMLSchema-instance" xsi:schemaLocation="http://www.topografix.com/GPX/1/1 http://www.topografix.com/GPX/1/1/gpx.xsd" version="1.1" creator="gpx.py -- https://github.com/tkrajina/gpxpy">
  <trk>
    <name>gpx from keep</name>
    <type>Run</type>
    <trkseg>
      <trkpt lat="31.20442301726368" lon="121.61052891862317">
        <ele>8.805720614914712</ele>
        <time>2020-06-14T22:37:48Z</time>
      </trkpt>
      <trkpt lat="31.204519989713894" lon="121.61066039620682">
        <ele>8.97979111224413</ele>
        <time>2020-06-14T22:37:55Z</time>
      </trkpt>
      <trkpt lat="31.20460968562593" lon="121.6107297911938">
        <ele>8.749203013256192</ele>
        <time>2020-06-14T22:37:59Z</time>
      </trkpt>
      <trkpt lat="31.204685621271544" lon="121.61070511455546">
        <ele>8.576828680932522</ele>
        <time>2020-06-14T22:38:02Z</time>
      </trkpt>
      <trkpt lat="31.20477842634379" lon="121.61059802094125">
        <ele>8.219416681677103</ele>
        <time>2020-06-14T22:38:08Z</time>
      </trkpt>
      <trkpt lat="31.20487253858715" lon="121.6105584319005">
        <ele>8.116757850162685</ele>
        <time>2020-06-14T22:38:12Z</time>
      </trkpt>
      <trkpt lat="31.20495343980952" lon="121.61041365480894">
        <ele>6.298541063442826</ele>
        <time>2020-06-14T22:38:18Z</time>
      </trkpt>
      <trkpt lat="31.20511239349109" lon="121.61031685644559">
        <ele>8.283746387809515</ele>
        <time>2020-06-14T22:38:25Z</time>
      </trkpt>
      <trkpt lat="31.205246169335503" lon="121.61016556681534">
        <ele>9.654517097398639</ele>
        <time>2020-06-14T22:38:32Z</time>
      </trkpt>
      <trkpt lat="31.20536605034086" lon="121.6101094371781">
        <ele>10.447616475634277</ele>
        <time>2020-06-14T22:38:38Z</time>
      </trkpt>
      <trkpt lat="31.2054370670702" lon="121.61013925340187">
        <ele>7.451930293813348</ele>
        <time>2020-06-14T22:38:42Z</time>
      </trkpt>
      <trkpt lat="31.205460889137253" lon="121.61019347332184">
        <ele>6.376367904245853</ele>
        <time>2020-06-14T22:38:45Z</time>
      </trkpt>
      <trkpt lat="31.205555474422454" lon="121.6102520249972">
        <ele>8.560852801427245</ele>
        <time>2020-06-14T22:38:49Z</time>
      </trkpt>
      <trkpt lat="31.20557546023415" lon="121.61036317752463">
        <ele>8.021651582792401</ele>
        <time>2020-06-14T22:38:53Z</time>
      </trkpt>
      <trkpt lat="31.205665167390617" lon="121.61041793367475">
        <ele>8.070411978289485</ele>
        <time>2020-06-14T22:38:56Z</time>
      </trkpt>
      <trkpt lat="31.20568624031503" lon="121.61052447651187">
        <ele>7.680534910410643</ele>
        <time>2020-06-14T22:39:00Z</time>
      </trkpt>
      <trkpt lat="31.205920646719218" lon="121.61070040370325">
        <ele>6.344442998059094</ele>
        <time>2020-06-14T22:39:11Z</time>
      </trkpt>
      <trkpt lat="31.206052585495282" lon="121.61084489027091">
        <ele>7.417247350327671</ele>
        <time>2020-06-14T22:39:18Z</time>
      </trkpt>
      <trkpt lat="31.20612543390222" lon="121.61096471072824">
        <ele>7.01674191839993</ele>
        <time>2020-06-14T22:39:24Z</time>
      </trkpt>
      <trkpt lat="31.20634327756841" lon="121.61116855894925">
        <ele>7.7933839447796345</ele>
        <time>2020-06-14T22:39:35Z</time>
      </trkpt>
      <trkpt lat="31.206442990040482" lon="121.61125719941715">
        <ele>8.355532896704972</ele>
        <time>2020-06-14T22:39:39Z</time>
      </trkpt>
      <trkpt lat="31.206483064646036" lon="121.61132930764701">
        <ele>7.145766935311258</ele>
        <time>2020-06-14T22:39:42Z</time>
      </trkpt>
      <trkpt lat="31.206548628646154" lon="121.61139761821576">
        <ele>6.2705221232026815</ele>
        <time>2020-06-14T22:39:45Z</time>
      </trkpt>
      <trkpt lat="31.206591405497925" lon="121.61148138281706">
        <ele>6.697821757756174</ele>
        <time>2020-06-14T22:39:49Z</time>
      </trkpt>
      <trkpt lat="31.2065989327999" lon="121.61156731876966">
        <ele>7.313894511200488</ele>
        <time>2020-06-14T22:39:53Z</time>
      </trkpt>
      <trkpt lat="31.206549256723726" lon="121.61164458419222">
        <ele>7.848545213229954</ele>
        <time>2020-06-14T22:39:57Z</time>
      </trkpt>
      <trkpt lat="31.206490117363394" lon="121.61168660828488">
        <ele>7.027532087638974</ele>
        <time>2020-06-14T22:40:01Z</time>
      </trkpt>
      <trkpt lat="31.206259436709438" lon="121.61196910284983">
        <ele>9.585191131569445</ele>
        <time>2020-06-14T22:40:15Z</time>
      </trkpt>
      <trkpt lat="31.206048044573972" lon="121.61219900186433">
        <ele>7.775300323963165</ele>
        <time>2020-06-14T22:40:26Z</time>
      </trkpt>
      <trkpt lat="31.205907478459842" lon="121.61235027863022">
        <ele>7.56217681709677</ele>
        <time>2020-06-14T22:40:34Z</time>
      </trkpt>
      <trkpt lat="31.20580461343113" lon="121.61248365988487">
        <ele>8.486069027334452</ele>
        <time>2020-06-14T22:40:41Z</time>
      </trkpt>
      <trkpt lat="31.205571035903354" lon="121.61264795433813">
        <ele>7.832739011384547</ele>
        <time>2020-06-14T22:40:55Z</time>
      </trkpt>
      <trkpt lat="31.20556231521056" lon="121.61270379749945">
        <ele>8.423301718197763</ele>
        <time>2020-06-14T22:41:35Z</time>
      </trkpt>
      <trkpt lat="31.205371256989327" lon="121.6129274527985">
        <ele>7.868591081351042</ele>
        <time>2020-06-14T22:41:46Z</time>
      </trkpt>
      <trkpt lat="31.205284391360237" lon="121.61305432361927">
        <ele>6.497922017239034</ele>
        <time>2020-06-14T22:41:54Z</time>
      </trkpt>
      <trkpt lat="31.205074107725277" lon="121.61324355088288">
        <ele>7.891925341449678</ele>
        <time>2020-06-14T22:42:04Z</time>
      </trkpt>
      <trkpt lat="31.204997610795402" lon="121.61328855532088">
        <ele>6.381219703704119</ele>
        <time>2020-06-14T22:42:08Z</time>
      </trkpt>
      <trkpt lat="31.204949569686175" lon="121.6133498216452">
        <ele>7.911509582772851</ele>
        <time>2020-06-14T22:42:11Z</time>
      </trkpt>
      <trkpt lat="31.204860868821243" lon="121.61339807974637">
        <ele>7.615531495772302</ele>
        <time>2020-06-14T22:42:15Z</time>
      </trkpt>
      <trkpt lat="31.204746876928663" lon="121.61353769055151">
        <ele>9.393690156750381</ele>
        <time>2020-06-14T22:42:22Z</time>
      </trkpt>
      <trkpt lat="31.204658695540708" lon="121.61361305513701">
        <ele>8.205767382867634</ele>
        <time>2020-06-14T22:42:26Z</time>
      </trkpt>
      <trkpt lat="31.204604930076773" lon="121.61371010207394">
        <ele>8.306108814664185</ele>
        <time>2020-06-14T22:42:29Z</time>
      </trkpt>
      <trkpt lat="31.204442377673427" lon="121.61388034551415">
        <ele>8.518801328726113</ele>
        <time>2020-06-14T22:42:37Z</time>
      </trkpt>
      <trkpt lat="31.20433922414584" lon="121.61402537385662">
        <ele>7.930703206919134</ele>
        <time>2020-06-14T22:42:44Z</time>
      </trkpt>
      <trkpt lat="31.204111317198723" lon="121.61420619186234">
        <ele>6.6825047405436635</ele>
        <time>2020-06-14T22:42:54Z</time>
      </trkpt>
      <trkpt lat="31.203949048671838" lon="121.61435799961434">
        <ele>6.221280865371227</ele>
        <time>2020-06-14T22:43:02Z</time>
      </trkpt>
      <trkpt lat="31.20380872254632" lon="121.61453148927139">
        <ele>8.189866558648646</ele>
        <time>2020-06-14T22:43:10Z</time>
      </trkpt>
      <trkpt lat="31.20373112539853" lon="121.61459221270871">
        <ele>6.749881906434894</ele>
        <time>2020-06-14T22:43:14Z</time>
      </trkpt>
      <trkpt lat="31.203674379391547" lon="121.61468302158555">
        <ele>5.782024153508246</ele>
        <time>2020-06-14T22:43:18Z</time>
      </trkpt>
      <trkpt lat="31.203682162294538" lon="121.61477490900378">
        <ele>3.741646290756762</ele>
        <time>2020-06-14T22:43:21Z</time>
      </trkpt>
      <trkpt lat="31.20376227543593" lon="121.61493807735918">
        <ele>6.099806105718017</ele>
        <time>2020-06-14T22:43:28Z</time>
      </trkpt>
      <trkpt lat="31.203772518719802" lon="121.61500611093503">
        <ele>4.460496634244919</ele>
        <time>2020-06-14T22:43:31Z</time>
      </trkpt>
      <trkpt lat="31.203762162985843" lon="121.61506574339803">
        <ele>6.999373124912381</ele>
        <time>2020-06-14T22:43:34Z</time>
      </trkpt>
      <trkpt lat="31.203605012111034" lon="121.61525034238491">
        <ele>7.331638103350997</ele>
        <time>2020-06-14T22:44:16Z</time>
      </trkpt>
      <trkpt lat="31.203316049702654" lon="121.61547804749478">
        <ele>7.0286261066794395</ele>
        <time>2020-06-14T22:44:30Z</time>
      </trkpt>
      <trkpt lat="31.20313043870848" lon="121.61564963548366">
        <ele>6.383557394146919</ele>
        <time>2020-06-14T22:44:40Z</time>
      </trkpt>
      <trkpt lat="31.202912477785734" lon="121.6159131086554">
        <ele>6.791314251720905</ele>
        <time>2020-06-14T22:44:51Z</time>
      </trkpt>
      <trkpt lat="31.20269020900176" lon="121.61614107306438">
        <ele>7.019566087983549</ele>
        <time>2020-06-14T22:45:03Z</time>
      </trkpt>
      <trkpt lat="31.202507286204465" lon="121.61633325506615">
        <ele>6.785810794681311</ele>
        <time>2020-06-14T22:45:13Z</time>
      </trkpt>
      <trkpt lat="31.202305897015172" lon="121.61655525104003">
        <ele>6.845692886039615</ele>
        <time>2020-06-14T22:45:23Z</time>
      </trkpt>
      <trkpt lat="31.202261367069575" lon="121.61662328461188">
        <ele>6.057056607678533</ele>
        <time>2020-06-14T22:45:26Z</time>
      </trkpt>
      <trkpt lat="31.20204533664878" lon="121.61684283988023">
        <ele>4.947124822996557</ele>
        <time>2020-06-14T22:45:37Z</time>
      </trkpt>
      <trkpt lat="31.201853742115475" lon="121.61702526000464">
        <ele>4.562839613296092</ele>
        <time>2020-06-14T22:45:47Z</time>
      </trkpt>
      <trkpt lat="31.201772362116422" lon="121.61706673438502">
        <ele>5.257516794838011</ele>
        <time>2020-06-14T22:45:51Z</time>
      </trkpt>
      <trkpt lat="31.201713188896576" lon="121.61713558084378">
        <ele>4.947117404080927</ele>
        <time>2020-06-14T22:45:55Z</time>
      </trkpt>
      <trkpt lat="31.201686520418278" lon="121.61723694783868">
        <ele>6.675904683768749</ele>
        <time>2020-06-14T22:45:58Z</time>
      </trkpt>
      <trkpt lat="31.201602691292255" lon="121.61728736598401">
        <ele>4.4489805418998</ele>
        <time>2020-06-14T22:46:01Z</time>
      </trkpt>
      <trkpt lat="31.20154812787695" lon="121.61735512734012">
        <ele>7.500067993067205</ele>
        <time>2020-06-14T22:46:04Z</time>
      </trkpt>
      <trkpt lat="31.20127459893204" lon="121.61758741901998">
        <ele>5.406613081693649</ele>
        <time>2020-06-14T22:46:17Z</time>
      </trkpt>
      <trkpt lat="31.201114461138555" lon="121.61775980323209">
        <ele>4.536528362892568</ele>
        <time>2020-06-14T22:46:24Z</time>
      </trkpt>
      <trkpt lat="31.20105689548969" lon="121.61784653507341">
        <ele>5.126813801005483</ele>
        <time>2020-06-14T22:46:27Z</time>
      </trkpt>
      <trkpt lat="31.200838381966246" lon="121.61809995711165">
        <ele>4.712130508385599</ele>
        <time>2020-06-14T22:46:38Z</time>
      </trkpt>
      <trkpt lat="31.20064346740083" lon="121.61834090789114">
        <ele>3.7141585629433393</ele>
        <time>2020-06-14T22:46:48Z</time>
      </trkpt>
      <trkpt lat="31.20045123564888" lon="121.61860814446092">
        <ele>5.629332894459367</ele>
        <time>2020-06-14T22:46:59Z</time>
      </trkpt>
      <trkpt lat="31.200254128755564" lon="121.61886779031246">
        <ele>5.769083854742348</ele>
        <time>2020-06-14T22:47:09Z</time>
      </trkpt>
      <trkpt lat="31.20003748897267" lon="121.61913610737597">
        <ele>4.508706636726856</ele>
        <time>2020-06-14T22:47:20Z</time>
      </trkpt>
      <trkpt lat="31.19980514849452" lon="121.61937786441518">
        <ele>5.637856332585216</ele>
        <time>2020-06-14T22:47:31Z</time>
      </trkpt>
      <trkpt lat="31.19972669505384" lon="121.61947001252155">
        <ele>6.426933369599283</ele>
        <time>2020-06-14T22:47:35Z</time>
      </trkpt>
      <trkpt lat="31.199572550484472" lon="121.61960471404039">
        <ele>5.147806799970567</ele>
        <time>2020-06-14T22:47:42Z</time>
      </trkpt>
      <trkpt lat="31.19948920996498" lon="121.61970255277511">
        <ele>6.099411994218826</ele>
        <time>2020-06-14T22:47:46Z</time>
      </trkpt>
      <trkpt lat="31.19924363164189" lon="121.61989471265986">
        <ele>5.751633119769394</ele>
        <time>2020-06-14T22:47:57Z</time>
      </trkpt>
      <trkpt lat="31.19916280595275" lon="121.61992100631342">
        <ele>4.680596752092242</ele>
        <time>2020-06-14T22:48:00Z</time>
      </trkpt>
      <trkpt lat="31.19908434854615" lon="121.620015320463">
        <ele>8.673109149560332</ele>
        <time>2020-06-14T22:48:04Z</time>
      </trkpt>
      <trkpt lat="31.19891638407935" lon="121.62014026437781">
        <ele>7.203313581645489</ele>
        <time>2020-06-14T22:48:11Z</time>
      </trkpt>
      <trkpt lat="31.198804114712726" lon="121.62015897246823">
        <ele>5.7645343178883195</ele>
        <time>2020-06-14T22:48:14Z</time>
      </trkpt>
      <trkpt lat="31.19862142212746" lon="121.6203646735065">
        <ele>5.472664694301784</ele>
        <time>2020-06-14T22:48:24Z</time>
      </trkpt>
      <trkpt lat="31.198458998321524" lon="121.62063053155734">
        <ele>5.910717667080462</ele>
        <time>2020-06-14T22:48:31Z</time>
      </trkpt>
      <trkpt lat="31.198362120351376" lon="121.62070750121829">
        <ele>8.038212731480598</ele>
        <time>2020-06-14T22:48:35Z</time>
      </trkpt>
      <trkpt lat="31.198223680156882" lon="121.62085682845824">
        <ele>7.615664062090218</ele>
        <time>2020-06-14T22:48:42Z</time>
      </trkpt>
      <trkpt lat="31.198063021337745" lon="121.62099233628344">
        <ele>6.655427730642259</ele>
        <time>2020-06-14T22:48:49Z</time>
      </trkpt>
      <trkpt lat="31.197989990382077" lon="121.62108014240948">
        <ele>6.807262139394879</ele>
        <time>2020-06-14T22:48:53Z</time>
      </trkpt>
      <trkpt lat="31.197899090198543" lon="121.62114437388053">
        <ele>6.015332863666117</ele>
        <time>2020-06-14T22:48:57Z</time>
      </trkpt>
      <trkpt lat="31.19775710671083" lon="121.62130860311682">
        <ele>5.33941634837538</ele>
        <time>2020-06-14T22:49:05Z</time>
      </trkpt>
      <trkpt lat="31.197517204323507" lon="121.6215077962742">
        <ele>5.88600807543844</ele>
        <time>2020-06-14T22:49:15Z</time>
      </trkpt>
      <trkpt lat="31.197290292712523" lon="121.6217270394491">
        <ele>4.4459490198642015</ele>
        <time>2020-06-14T22:49:26Z</time>
      </trkpt>
      <trkpt lat="31.197174698337328" lon="121.62180888510044">
        <ele>5.289900884963572</ele>
        <time>2020-06-14T22:49:30Z</time>
      </trkpt>
      <trkpt lat="31.19708002841159" lon="121.62184845598534">
        <ele>6.163607891649008</ele>
        <time>2020-06-14T22:49:33Z</time>
      </trkpt>
      <trkpt lat="31.197012422250094" lon="121.62193219414391">
        <ele>7.288589824922383</ele>
        <time>2020-06-14T22:49:37Z</time>
      </trkpt>
      <trkpt lat="31.19682084859672" lon="121.62206851195936">
        <ele>6.314438390545547</ele>
        <time>2020-06-14T22:49:45Z</time>
      </trkpt>
      <trkpt lat="31.196695699015656" lon="121.62220753334326">
        <ele>8.199941160157323</ele>
        <time>2020-06-14T22:49:52Z</time>
      </trkpt>
      <trkpt lat="31.196674218389898" lon="121.6222614592823">
        <ele>11.190337635576725</ele>
        <time>2020-06-14T22:49:55Z</time>
      </trkpt>
      <trkpt lat="31.196729384240466" lon="121.62262699806413">
        <ele>5.392527560703456</ele>
        <time>2020-06-14T22:50:06Z</time>
      </trkpt>
      <trkpt lat="31.196781069579682" lon="121.62295053210237">
        <ele>6.441681747324765</ele>
        <time>2020-06-14T22:50:17Z</time>
      </trkpt>
      <trkpt lat="31.1967952009108" lon="121.62315646621123">
        <ele>8.302003189921379</ele>
        <time>2020-06-14T22:50:24Z</time>
      </trkpt>
      <trkpt lat="31.19684403533764" lon="121.62336293782118">
        <ele>7.127318470738828</ele>
        <time>2020-06-14T22:50:31Z</time>
      </trkpt>
      <trkpt lat="31.19692569690474" lon="121.62355125067204">
        <ele>8.563298791646957</ele>
        <time>2020-06-14T22:50:38Z</time>
      </trkpt>
      <trkpt lat="31.196904387665082" lon="121.62368781721611">
        <ele>8.192930498160422</ele>
        <time>2020-06-14T22:50:42Z</time>
      </trkpt>
      <trkpt lat="31.196945979222086" lon="121.62382573267521">
        <ele>7.699580313637853</ele>
        <time>2020-06-14T22:50:46Z</time>
      </trkpt>
      <trkpt lat="31.19692819030016" lon="121.6239650071533">
        <ele>6.743749457411468</ele>
        <time>2020-06-14T22:50:50Z</time>
      </trkpt>
      <trkpt lat="31.196916868342903" lon="121.62390973250697">
        <ele>5.176688456907868</ele>
        <time>2020-06-14T22:50:53Z</time>
      </trkpt>
      <trkpt lat="31.196926559520133" lon="121.62373956891994">
        <ele>7.793729729019105</ele>
        <time>2020-06-14T22:51:00Z</time>
      </trkpt>
      <trkpt lat="31.1969526635117" lon="121.6236758909248">
        <ele>8.82991381175816</ele>
        <time>2020-06-14T22:51:03Z</time>
      </trkpt>
      <trkpt lat="31.1968611696545" lon="121.62354908831306">
        <ele>6.9539655251428485</ele>
        <time>2020-06-14T22:51:07Z</time>
      </trkpt>
      <trkpt lat="31.19681741527304" lon="121.6231724513882">
        <ele>7.735750999301672</ele>
        <time>2020-06-14T22:51:20Z</time>
      </trkpt>
      <trkpt lat="31.196773893992116" lon="121.62305946181404">
        <ele>6.352452206425369</ele>
        <time>2020-06-14T22:51:23Z</time>
      </trkpt>
      <trkpt lat="31.19676836794122" lon="121.62291449431962">
        <ele>6.920431386679411</ele>
        <time>2020-06-14T22:51:27Z</time>
      </trkpt>
      <trkpt lat="31.197019222645668" lon="121.62262995476434">
        <ele>5.312646292150021</ele>
        <time>2020-06-14T22:51:38Z</time>
      </trkpt>
      <trkpt lat="31.197105571140828" lon="121.62251803607249">
        <ele>5.2784591391682625</ele>
        <time>2020-06-14T22:51:42Z</time>
      </trkpt>
      <trkpt lat="31.197279772405164" lon="121.62240096113969">
        <ele>4.940272091887891</ele>
        <time>2020-06-14T22:51:49Z</time>
      </trkpt>
      <trkpt lat="31.19754686874259" lon="121.62213565417527">
        <ele>7.167275975458324</ele>
        <time>2020-06-14T22:52:00Z</time>
      </trkpt>
      <trkpt lat="31.19778732363003" lon="121.62193104609908">
        <ele>6.848248335532844</ele>
        <time>2020-06-14T22:52:08Z</time>
      </trkpt>
      <trkpt lat="31.19781668600214" lon="121.62185977616167">
        <ele>4.854857589118183</ele>
        <time>2020-06-14T22:52:11Z</time>
      </trkpt>
      <trkpt lat="31.197891101832695" lon="121.62174785524375">
        <ele>6.266871142201126</ele>
        <time>2020-06-14T22:52:15Z</time>
      </trkpt>
      <trkpt lat="31.197977891578144" lon="121.62172373077543">
        <ele>6.869581281207502</ele>
        <time>2020-06-14T22:52:18Z</time>
      </trkpt>
      <trkpt lat="31.198048179891806" lon="121.62166573499084">
        <ele>8.13574378285557</ele>
        <time>2020-06-14T22:52:21Z</time>
      </trkpt>
      <trkpt lat="31.19810901816301" lon="121.6215719702078">
        <ele>6.461278239265084</ele>
        <time>2020-06-14T22:52:25Z</time>
      </trkpt>
      <trkpt lat="31.198226765738987" lon="121.62150394379131">
        <ele>6.4372670678421855</ele>
        <time>2020-06-14T22:52:29Z</time>
      </trkpt>
      <trkpt lat="31.198324193412535" lon="121.62142209870446">
        <ele>7.334465031512082</ele>
        <time>2020-06-14T22:52:33Z</time>
      </trkpt>
      <trkpt lat="31.19834921675065" lon="121.62135055677604">
        <ele>8.313783438876271</ele>
        <time>2020-06-14T22:52:36Z</time>
      </trkpt>
      <trkpt lat="31.198667519342145" lon="121.62111179185632">
        <ele>5.879327374510467</ele>
        <time>2020-06-14T22:52:48Z</time>
      </trkpt>
      <trkpt lat="31.198760853793644" lon="121.62105297986011">
        <ele>5.9012817004695535</ele>
        <time>2020-06-14T22:52:51Z</time>
      </trkpt>
      <trkpt lat="31.199009235328607" lon="121.62078305413586">
        <ele>5.292839645408094</ele>
        <time>2020-06-14T22:53:02Z</time>
      </trkpt>
      <trkpt lat="31.199080604949454" lon="121.62072641114969">
        <ele>5.718084582127631</ele>
        <time>2020-06-14T22:53:05Z</time>
      </trkpt>
      <trkpt lat="31.199180118203046" lon="121.62071989912764">
        <ele>6.924437103793025</ele>
        <time>2020-06-14T22:53:09Z</time>
      </trkpt>
      <trkpt lat="31.19926722695642" lon="121.62065078907834">
        <ele>7.597547204233706</ele>
        <time>2020-06-14T22:53:12Z</time>
      </trkpt>
      <trkpt lat="31.19937701257311" lon="121.6206727303277">
        <ele>7.087517274543643</ele>
        <time>2020-06-14T22:53:16Z</time>
      </trkpt>
      <trkpt lat="31.199499225786724" lon="121.62073586119594">
        <ele>7.483787384815514</ele>
        <time>2020-06-14T22:53:20Z</time>
      </trkpt>
      <trkpt lat="31.199690076381014" lon="121.62076158953602">
        <ele>7.615919173695147</ele>
        <time>2020-06-14T22:53:27Z</time>
      </trkpt>
      <trkpt lat="31.199795039669286" lon="121.6207298749142">
        <ele>7.8437818586826324</ele>
        <time>2020-06-14T22:53:30Z</time>
      </trkpt>
      <trkpt lat="31.199996777644202" lon="121.6207168506455">
        <ele>6.0374711053445935</ele>
        <time>2020-06-14T22:53:37Z</time>
      </trkpt>
      <trkpt lat="31.200115236054508" lon="121.62074204301261">
        <ele>6.269958435557783</ele>
        <time>2020-06-14T22:53:41Z</time>
      </trkpt>
      <trkpt lat="31.20028957161883" lon="121.62074555146789">
        <ele>6.448120879009366</ele>
        <time>2020-06-14T22:53:48Z</time>
      </trkpt>
      <trkpt lat="31.200522428475907" lon="121.6207894326879">
        <ele>9.872200107201934</ele>
        <time>2020-06-14T22:53:56Z</time>
      </trkpt>
      <trkpt lat="31.200620319461756" lon="121.62077885595734">
        <ele>8.287534431554377</ele>
        <time>2020-06-14T22:54:00Z</time>
      </trkpt>
      <trkpt lat="31.200698368259992" lon="121.62081380725716">
        <ele>7.631572498939931</ele>
        <time>2020-06-14T22:54:03Z</time>
      </trkpt>
      <trkpt lat="31.20079250070681" lon="121.62076881505597">
        <ele>5.859590196982026</ele>
        <time>2020-06-14T22:54:07Z</time>
      </trkpt>
      <trkpt lat="31.20099579778654" lon="121.62081838947618">
        <ele>8.038907093927264</ele>
        <time>2020-06-14T22:54:15Z</time>
      </trkpt>
      <trkpt lat="31.20106847213289" lon="121.62080889880505">
        <ele>9.962521024979651</ele>
        <time>2020-06-14T22:54:19Z</time>
      </trkpt>
      <trkpt lat="31.20144741872971" lon="121.62090046198732">
        <ele>6.611285126768053</ele>
        <time>2020-06-14T22:54:30Z</time>
      </trkpt>
      <trkpt lat="31.201637171074392" lon="121.62093892673562">
        <ele>4.332350599579513</ele>
        <time>2020-06-14T22:54:36Z</time>
      </trkpt>
      <trkpt lat="31.20173072729506" lon="121.62092536954451">
        <ele>6.928829511627555</ele>
        <time>2020-06-14T22:54:39Z</time>
      </trkpt>
      <trkpt lat="31.201801427276788" lon="121.62098606516787">
        <ele>7.461330248042941</ele>
        <time>2020-06-14T22:54:43Z</time>
      </trkpt>
      <trkpt lat="31.202007766710963" lon="121.62098062832231">
        <ele>6.594418661668897</ele>
        <time>2020-06-14T22:54:49Z</time>
      </trkpt>
      <trkpt lat="31.202164953551627" lon="121.62104592345263">
        <ele>8.650097934529185</ele>
        <time>2020-06-14T22:54:56Z</time>
      </trkpt>
      <trkpt lat="31.202292169641808" lon="121.6209965930994">
        <ele>7.5871838023886085</ele>
        <time>2020-06-14T22:55:00Z</time>
      </trkpt>
      <trkpt lat="31.202339762845483" lon="121.62111230091031">
        <ele>5.213639181107283</ele>
        <time>2020-06-14T22:55:03Z</time>
      </trkpt>
      <trkpt lat="31.202363780276123" lon="121.62096813338574">
        <ele>6.170315486378968</ele>
        <time>2020-06-14T22:55:14Z</time>
      </trkpt>
      <trkpt lat="31.20235329780663" lon="121.62088385666497">
        <ele>3.509723278693855</ele>
        <time>2020-06-14T22:55:18Z</time>
      </trkpt>
      <trkpt lat="31.20238371762868" lon="121.62083534698822">
        <ele>1.7827530866488814</ele>
        <time>2020-06-14T22:55:21Z</time>
      </trkpt>
      <trkpt lat="31.20239272124708" lon="121.62078358710824">
        <ele>2.2242513094097376</ele>
        <time>2020-06-14T22:55:29Z</time>
      </trkpt>
      <trkpt lat="31.20242726538815" lon="121.62068196261346">
        <ele>5.320022291503847</ele>
        <time>2020-06-14T22:56:49Z</time>
      </trkpt>
      <trkpt lat="31.202400609124624" lon="121.62050934262749">
        <ele>5.038901538588107</ele>
        <time>2020-06-14T22:56:57Z</time>
      </trkpt>
      <trkpt lat="31.20235675106182" lon="121.62044810168805">
        <ele>4.620741884224117</ele>
        <time>2020-06-14T22:57:01Z</time>
      </trkpt>
      <trkpt lat="31.202389327344147" lon="121.62041070179517">
        <ele>5.332502133212984</ele>
        <time>2020-06-14T22:57:39Z</time>
      </trkpt>
      <trkpt lat="31.202371691380097" lon="121.62042208501593">
        <ele>4.859453373588622</ele>
        <time>2020-06-14T22:58:39Z</time>
      </trkpt>
      <trkpt lat="31.202398568284316" lon="121.62038983445508">
        <ele>4.693626197986305</ele>
        <time>2020-06-14T22:58:51Z</time>
      </trkpt>
      <trkpt lat="31.2025330943857" lon="121.6203494450966">
        <ele>5.3531061969697475</ele>
        <time>2020-06-14T22:58:59Z</time>
      </trkpt>
      <trkpt lat="31.20279150592989" lon="121.620330725049">
        <ele>3.2401861948892474</ele>
        <time>2020-06-14T22:59:09Z</time>
      </trkpt>
      <trkpt lat="31.202851449337224" lon="121.6203095824535">
        <ele>4.762082782573998</ele>
        <time>2020-06-14T22:59:12Z</time>
      </trkpt>
      <trkpt lat="31.20287919645995" lon="121.6202239454605">
        <ele>5.211469674482942</ele>
        <time>2020-06-14T22:59:16Z</time>
      </trkpt>
      <trkpt lat="31.20278108026462" lon="121.61993561188606">
        <ele>4.085565251298249</ele>
        <time>2020-06-14T22:59:27Z</time>
      </trkpt>
      <trkpt lat="31.202768746502738" lon="121.61980417788979">
        <ele>5.581512507982552</ele>
        <time>2020-06-14T22:59:31Z</time>
      </trkpt>
      <trkpt lat="31.202733589986032" lon="121.61971746042056">
        <ele>5.2742968471720815</ele>
        <time>2020-06-14T22:59:34Z</time>
      </trkpt>
      <trkpt lat="31.202715836788094" lon="121.61958196071274">
        <ele>4.673373851925135</ele>
        <time>2020-06-14T22:59:38Z</time>
      </trkpt>
      <trkpt lat="31.20263130069556" lon="121.61926489215496">
        <ele>5.390117616392672</ele>
        <time>2020-06-14T22:59:48Z</time>
      </trkpt>
      <trkpt lat="31.20253270722589" lon="121.61890364618635">
        <ele>4.504207590594888</ele>
        <time>2020-06-14T22:59:59Z</time>
      </trkpt>
      <trkpt lat="31.20250947713331" lon="121.61881773770693">
        <ele>6.422698501497507</ele>
        <time>2020-06-14T23:00:02Z</time>
      </trkpt>
      <trkpt lat="31.202549136327086" lon="121.61874537433488">
        <ele>6.197859256528318</ele>
        <time>2020-06-14T23:00:06Z</time>
      </trkpt>
      <trkpt lat="31.20277922978906" lon="121.6185762432682">
        <ele>4.607173852622509</ele>
        <time>2020-06-14T23:00:18Z</time>
      </trkpt>
      <trkpt lat="31.20283950281763" lon="121.61849574706235">
        <ele>4.6373200872913</ele>
        <time>2020-06-14T23:00:22Z</time>
      </trkpt>
      <trkpt lat="31.202797079567897" lon="121.61835129935639">
        <ele>5.252870904281735</ele>
        <time>2020-06-14T23:00:28Z</time>
      </trkpt>
      <trkpt lat="31.20280080190932" lon="121.61815318543233">
        <ele>6.566835175268352</ele>
        <time>2020-06-14T23:00:35Z</time>
      </trkpt>
      <trkpt lat="31.202773781192768" lon="121.61805968617065">
        <ele>6.557975840754807</ele>
        <time>2020-06-14T23:00:39Z</time>
      </trkpt>
      <trkpt lat="31.202656281004995" lon="121.6178851588296">
        <ele>6.529871822334826</ele>
        <time>2020-06-14T23:00:46Z</time>
      </trkpt>
      <trkpt lat="31.20262114902083" lon="121.6177675382463">
        <ele>6.315184112638235</ele>
        <time>2020-06-14T23:00:49Z</time>
      </trkpt>
      <trkpt lat="31.20260689869704" lon="121.6176450369525">
        <ele>7.341154885478318</ele>
        <time>2020-06-14T23:00:53Z</time>
      </trkpt>
      <trkpt lat="31.20255333460433" lon="121.61752118318252">
        <ele>6.08691006526351</ele>
        <time>2020-06-14T23:00:57Z</time>
      </trkpt>
      <trkpt lat="31.202501339047043" lon="121.61745695443199">
        <ele>5.635297036729753</ele>
        <time>2020-06-14T23:01:00Z</time>
      </trkpt>
      <trkpt lat="31.202513364696838" lon="121.61735802879203">
        <ele>5.813985828310251</ele>
        <time>2020-06-14T23:01:04Z</time>
      </trkpt>
      <trkpt lat="31.202582016729576" lon="121.61730110738502">
        <ele>6.739021142944694</ele>
        <time>2020-06-14T23:01:08Z</time>
      </trkpt>
      <trkpt lat="31.202724015711407" lon="121.61709755308429">
        <ele>7.516708627343178</ele>
        <time>2020-06-14T23:01:16Z</time>
      </trkpt>
      <trkpt lat="31.20279023503373" lon="121.61703222933468">
        <ele>4.5829847026616335</ele>
        <time>2020-06-14T23:01:19Z</time>
      </trkpt>
      <trkpt lat="31.20287269752439" lon="121.61699292305497">
        <ele>6.105279750190675</ele>
        <time>2020-06-14T23:01:23Z</time>
      </trkpt>
      <trkpt lat="31.202962284916367" lon="121.61687420379657">
        <ele>6.230276158079505</ele>
        <time>2020-06-14T23:01:29Z</time>
      </trkpt>
      <trkpt lat="31.20311098358896" lon="121.6167508715055">
        <ele>7.494869122281671</ele>
        <time>2020-06-14T23:01:36Z</time>
      </trkpt>
      <trkpt lat="31.20321704875792" lon="121.6166963849128">
        <ele>5.769949477165937</ele>
        <time>2020-06-14T23:01:40Z</time>
      </trkpt>
      <trkpt lat="31.203359544353873" lon="121.61653700448352">
        <ele>6.509876693598926</ele>
        <time>2020-06-14T23:01:47Z</time>
      </trkpt>
      <trkpt lat="31.203629219570967" lon="121.61635809777304">
        <ele>6.090668369084597</ele>
        <time>2020-06-14T23:01:58Z</time>
      </trkpt>
      <trkpt lat="31.2036772744304" lon="121.61628925005787">
        <ele>6.445405616424978</ele>
        <time>2020-06-14T23:02:02Z</time>
      </trkpt>
      <trkpt lat="31.203788479273136" lon="121.61624668774202">
        <ele>6.0284091318026185</ele>
        <time>2020-06-14T23:02:10Z</time>
      </trkpt>
      <trkpt lat="31.203900550780876" lon="121.61614639376154">
        <ele>6.244663970544934</ele>
        <time>2020-06-14T23:02:18Z</time>
      </trkpt>
      <trkpt lat="31.20392447559159" lon="121.61607592119877">
        <ele>6.017867451533675</ele>
        <time>2020-06-14T23:02:22Z</time>
      </trkpt>
      <trkpt lat="31.20397440482132" lon="121.61603200837132">
        <ele>6.747552766464651</ele>
        <time>2020-06-14T23:02:26Z</time>
      </trkpt>
      <trkpt lat="31.20403488861861" lon="121.61600950690635">
        <ele>6.814069193787873</ele>
        <time>2020-06-14T23:02:30Z</time>
      </trkpt>
      <trkpt lat="31.204147690811347" lon="121.6159986559002">
        <ele>7.473472643643618</ele>
        <time>2020-06-14T23:02:37Z</time>
      </trkpt>
      <trkpt lat="31.204185145721862" lon="121.61595691230474">
        <ele>7.006594615988433</ele>
        <time>2020-06-14T23:02:40Z</time>
      </trkpt>
      <trkpt lat="31.204247521711995" lon="121.61594064459459">
        <ele>6.790795321576297</ele>
        <time>2020-06-14T23:02:44Z</time>
      </trkpt>
      <trkpt lat="31.204296841775797" lon="121.61596964205661">
        <ele>6.1210901802405715</ele>
        <time>2020-06-14T23:02:47Z</time>
      </trkpt>
      <trkpt lat="31.20448441577027" lon="121.61631953961317">
        <ele>6.683678850531578</ele>
        <time>2020-06-14T23:03:03Z</time>
      </trkpt>
      <trkpt lat="31.204346869083224" lon="121.61611410302584">
        <ele>7.7628665724769235</ele>
        <time>2020-06-14T23:03:16Z</time>
      </trkpt>
      <trkpt lat="31.204148064876616" lon="121.61588617319623">
        <ele>7.347906398586929</ele>
        <time>2020-06-14T23:03:27Z</time>
      </trkpt>
      <trkpt lat="31.20395495388757" lon="121.6156568855268">
        <ele>6.702830472029746</ele>
        <time>2020-06-14T23:03:37Z</time>
      </trkpt>
      <trkpt lat="31.20386963172836" lon="121.61556229742293">
        <ele>7.5310037126764655</ele>
        <time>2020-06-14T23:03:41Z</time>
      </trkpt>
      <trkpt lat="31.203793283219643" lon="121.61543816396784">
        <ele>5.90245864354074</ele>
        <time>2020-06-14T23:03:45Z</time>
      </trkpt>
      <trkpt lat="31.203608445014385" lon="121.61535334101029">
        <ele>5.5185919208452106</ele>
        <time>2020-06-14T23:03:52Z</time>
      </trkpt>
      <trkpt lat="31.203616393271705" lon="121.61525765980173">
        <ele>5.133988134562969</ele>
        <time>2020-06-14T23:03:56Z</time>
      </trkpt>
      <trkpt lat="31.203700798893607" lon="121.61516468240295">
        <ele>7.298488725908101</ele>
        <time>2020-06-14T23:04:00Z</time>
      </trkpt>
      <trkpt lat="31.203794669498745" lon="121.61509935118629">
        <ele>7.599159209057689</ele>
        <time>2020-06-14T23:04:04Z</time>
      </trkpt>
      <trkpt lat="31.20382295367693" lon="121.61500176991403">
        <ele>5.484849883243442</ele>
        <time>2020-06-14T23:04:07Z</time>
      </trkpt>
      <trkpt lat="31.203933474519296" lon="121.61480931227038">
        <ele>6.003212868236005</ele>
        <time>2020-06-14T23:04:14Z</time>
      </trkpt>
      <trkpt lat="31.20411423118219" lon="121.61460166804665">
        <ele>4.637437729164958</ele>
        <time>2020-06-14T23:04:22Z</time>
      </trkpt>
      <trkpt lat="31.204303916522463" lon="121.61441407971323">
        <ele>6.382760509848595</ele>
        <time>2020-06-14T23:04:32Z</time>
      </trkpt>
      <trkpt lat="31.20433976985547" lon="121.6143400773067">
        <ele>4.805302169173956</ele>
        <time>2020-06-14T23:04:35Z</time>
      </trkpt>
      <trkpt lat="31.20445863453404" lon="121.61421429500417">
        <ele>7.363422643393278</ele>
        <time>2020-06-14T23:04:39Z</time>
      </trkpt>
      <trkpt lat="31.204589921661128" lon="121.61414651853029">
        <ele>5.785591916181147</ele>
        <time>2020-06-14T23:04:43Z</time>
      </trkpt>
      <trkpt lat="31.20465751637055" lon="121.6140497433042">
        <ele>5.189786325208843</ele>
        <time>2020-06-14T23:04:47Z</time>
      </trkpt>
      <trkpt lat="31.204924769952683" lon="121.61382961624535">
        <ele>7.644553908146918</ele>
        <time>2020-06-14T23:04:58Z</time>
      </trkpt>
      <trkpt lat="31.20496334414038" lon="121.6137423294877">
        <ele>6.146881462074816</ele>
        <time>2020-06-14T23:05:01Z</time>
      </trkpt>
      <trkpt lat="31.205061837397462" lon="121.61365693493175">
        <ele>5.955528685823083</ele>
        <time>2020-06-14T23:05:05Z</time>
      </trkpt>
      <trkpt lat="31.20511938467396" lon="121.61357669377162">
        <ele>6.7422590628266335</ele>
        <time>2020-06-14T23:05:09Z</time>
      </trkpt>
      <trkpt lat="31.205213790472758" lon="121.6135154242043">
        <ele>6.192477266304195</ele>
        <time>2020-06-14T23:05:12Z</time>
      </trkpt>
      <trkpt lat="31.20529201464" lon="121.6133487090399">
        <ele>4.467850524932146</ele>
        <time>2020-06-14T23:05:18Z</time>
      </trkpt>
      <trkpt lat="31.205406479969934" lon="121.61329231652854">
        <ele>6.27192703448236</ele>
        <time>2020-06-14T23:05:22Z</time>
      </trkpt>
      <trkpt lat="31.205444744391183" lon="121.61325029706423">
        <ele>5.608007440343499</ele>
        <time>2020-06-14T23:05:25Z</time>
      </trkpt>
      <trkpt lat="31.205581449920945" lon="121.61318495704046">
        <ele>5.561571388505399</ele>
        <time>2020-06-14T23:05:33Z</time>
      </trkpt>
      <trkpt lat="31.205643591485593" lon="121.61312152052307">
        <ele>7.487365694716573</ele>
        <time>2020-06-14T23:05:37Z</time>
      </trkpt>
      <trkpt lat="31.205724495537893" lon="121.61299085549426">
        <ele>6.28517550136894</ele>
        <time>2020-06-14T23:05:41Z</time>
      </trkpt>
      <trkpt lat="31.205799923381562" lon="121.61292606196793">
        <ele>6.45863130223006</ele>
        <time>2020-06-14T23:05:44Z</time>
      </trkpt>
      <trkpt lat="31.205883795762784" lon="121.6128119313791">
        <ele>5.686093293130398</ele>
        <time>2020-06-14T23:05:48Z</time>
      </trkpt>
      <trkpt lat="31.205938929222416" lon="121.6126953628926">
        <ele>6.839386368170381</ele>
        <time>2020-06-14T23:05:54Z</time>
      </trkpt>
      <trkpt lat="31.206132139304344" lon="121.61249122309884">
        <ele>6.038409858010709</ele>
        <time>2020-06-14T23:06:06Z</time>
      </trkpt>
      <trkpt lat="31.206179665339707" lon="121.61239281621063">
        <ele>6.872102629393339</ele>
        <time>2020-06-14T23:06:10Z</time>
      </trkpt>
      <trkpt lat="31.206289294610958" lon="121.61227705437157">
        <ele>6.044808612205088</ele>
        <time>2020-06-14T23:06:14Z</time>
      </trkpt>
      <trkpt lat="31.206401333541713" lon="121.61220005699403">
        <ele>4.104863476939499</ele>
        <time>2020-06-14T23:06:18Z</time>
      </trkpt>
      <trkpt lat="31.206420657872314" lon="121.6121049042404">
        <ele>4.423175628297031</ele>
        <time>2020-06-14T23:06:22Z</time>
      </trkpt>
      <trkpt lat="31.20653432041432" lon="121.61203143029189">
        <ele>7.076419940218329</ele>
        <time>2020-06-14T23:06:26Z</time>
      </trkpt>
      <trkpt lat="31.206572053717952" lon="121.611972330058">
        <ele>5.4179158471524715</ele>
        <time>2020-06-14T23:06:29Z</time>
      </trkpt>
      <trkpt lat="31.206694941983987" lon="121.61188909572338">
        <ele>6.921466886997223</ele>
        <time>2020-06-14T23:06:33Z</time>
      </trkpt>
      <trkpt lat="31.20678632863131" lon="121.61187092519687">
        <ele>4.191485607996583</ele>
        <time>2020-06-14T23:06:37Z</time>
      </trkpt>
      <trkpt lat="31.20683840822863" lon="121.6118427275951">
        <ele>6.793610640801489</ele>
        <time>2020-06-14T23:06:55Z</time>
      </trkpt>
      <trkpt lat="31.206843312845628" lon="121.61181100969081">
        <ele>6.613104701973498</ele>
        <time>2020-06-14T23:06:59Z</time>
      </trkpt>
      <trkpt lat="31.20683166452929" lon="121.61179718506389">
        <ele>7.0426678927615285</ele>
        <time>2020-06-14T23:07:00Z</time>
      </trkpt>
      <trkpt lat="31.206712436388933" lon="121.61170285538034">
        <ele>8.331307801418006</ele>
        <time>2020-06-14T23:07:08Z</time>
      </trkpt>
      <trkpt lat="31.206475032317115" lon="121.6115559431139">
        <ele>4.5177664291113615</ele>
        <time>2020-06-14T23:07:18Z</time>
      </trkpt>
      <trkpt lat="31.20647103055488" lon="121.61146892245134">
        <ele>3.07258674595505</ele>
        <time>2020-06-14T23:07:21Z</time>
      </trkpt>
      <trkpt lat="31.206443451807637" lon="121.61136563770384">
        <ele>4.012009720318019</ele>
        <time>2020-06-14T23:07:25Z</time>
      </trkpt>
      <trkpt lat="31.206446512798042" lon="121.61125991009027">
        <ele>7.533707958646119</ele>
        <time>2020-06-14T23:07:28Z</time>
      </trkpt>
      <trkpt lat="31.20615896012404" lon="121.61109402225306">
        <ele>2.770421091467142</ele>
        <time>2020-06-14T23:07:40Z</time>
      </trkpt>
      <trkpt lat="31.206097168427323" lon="121.61105688685252">
        <ele>0.42525704205036163</ele>
        <time>2020-06-14T23:07:43Z</time>
      </trkpt>
      <trkpt lat="31.205982054040977" lon="121.61089477869511">
        <ele>6.957762856967747</ele>
        <time>2020-06-14T23:07:50Z</time>
      </trkpt>
      <trkpt lat="31.20598702926655" lon="121.61076383624416">
        <ele>6.562504346482456</ele>
        <time>2020-06-14T23:07:54Z</time>
      </trkpt>
      <trkpt lat="31.205921190549525" lon="121.61069823483366">
        <ele>4.442150137387216</ele>
        <time>2020-06-14T23:07:57Z</time>
      </trkpt>
      <trkpt lat="31.205726869660673" lon="121.610581947375">
        <ele>2.197349699214101</ele>
        <time>2020-06-14T23:08:04Z</time>
      </trkpt>
      <trkpt lat="31.205672376444156" lon="121.61057490316249">
        <ele>4.378121578134596</ele>
        <time>2020-06-14T23:08:08Z</time>
      </trkpt>
      <trkpt lat="31.205616823238387" lon="121.61053342871926">
        <ele>5.33048255648464</ele>
        <time>2020-06-14T23:08:12Z</time>
      </trkpt>
      <trkpt lat="31.20556157209392" lon="121.61044830613945">
        <ele>6.6396756917238235</ele>
        <time>2020-06-14T23:08:18Z</time>
      </trkpt>
      <trkpt lat="31.20554591143434" lon="121.61035613118194">
        <ele>7.371475082822144</ele>
        <time>2020-06-14T23:08:26Z</time>
      </trkpt>
      <trkpt lat="31.205556793149068" lon="121.61030461986064">
        <ele>8.179743683896959</ele>
        <time>2020-06-14T23:08:30Z</time>
      </trkpt>
      <trkpt lat="31.20549176232568" lon="121.61024525255262">
        <ele>7.964408661238849</ele>
        <time>2020-06-14T23:08:34Z</time>
      </trkpt>
      <trkpt lat="31.205407189699415" lon="121.61021435315378">
        <ele>6.5524725476279855</ele>
        <time>2020-06-14T23:08:38Z</time>
      </trkpt>
      <trkpt lat="31.205357839621065" lon="121.6102192371926">
        <ele>8.185118957422674</ele>
        <time>2020-06-14T23:08:42Z</time>
      </trkpt>
      <trkpt lat="31.205331505259224" lon="121.61026803890343">
        <ele>7.289855923503637</ele>
        <time>2020-06-14T23:08:46Z</time>
      </trkpt>
      <trkpt lat="31.205220035602338" lon="121.61031494979349">
        <ele>5.088807962834835</ele>
        <time>2020-06-14T23:08:50Z</time>
      </trkpt>
    </trkseg>
  </trk>
</gpx>