<?xml version="1.0" encoding="UTF-8"?>
<gpx xmlns="http://www.topografix.com/GPX/1/1" xmlns:gpxtpx="http://www.garmin.com/xmlschemas/TrackPointExtension/v1" xmlns:xsi="http://www.w3.org/2001/XMLSchema-instance" xsi:schemaLocation="http://www.topografix.com/GPX/1/1 http://www.topografix.com/GPX/1/1/gpx.xsd" version="1.1" creator="gpx.py -- https://github.com/tkrajina/gpxpy">
  <trk>
    <name>gpx from keep</name>
    <type>Run</type>
    <trkseg>
      <trkpt lat="31.204499890455143" lon="121.61070946755737">
        <ele>8.800516901197671</ele>
        <time>2020-05-26T22:54:02Z</time>
      </trkpt>
      <trkpt lat="31.204561922992596" lon="121.6107891665605">
        <ele>8.86045734551777</ele>
        <time>2020-05-26T22:54:05Z</time>
      </trkpt>
      <trkpt lat="31.20457217158743" lon="121.61086453194827">
        <ele>8.680304776877165</ele>
        <time>2020-05-26T22:54:09Z</time>
      </trkpt>
      <trkpt lat="31.20462371695455" lon="121.61082359138167">
        <ele>8.702836598269641</ele>
        <time>2020-05-26T22:54:12Z</time>
      </trkpt>
      <trkpt lat="31.20468526703022" lon="121.61082033307386">
        <ele>8.768796592950821</ele>
        <time>2020-05-26T22:54:15Z</time>
      </trkpt>
      <trkpt lat="31.204820957136693" lon="121.61065034049287">
        <ele>8.393733888864517</ele>
        <time>2020-05-26T22:54:23Z</time>
      </trkpt>
      <trkpt lat="31.20493054259396" lon="121.6105849953564">
        <ele>8.35432150028646</ele>
        <time>2020-05-26T22:54:27Z</time>
      </trkpt>
      <trkpt lat="31.20497427013769" lon="121.61048007407956">
        <ele>8.160735473968089</ele>
        <time>2020-05-26T22:54:30Z</time>
      </trkpt>
      <trkpt lat="31.20504180767673" lon="121.61044509583469">
        <ele>8.010523743927479</ele>
        <time>2020-05-26T22:54:34Z</time>
      </trkpt>
      <trkpt lat="31.205286022085616" lon="121.61017152792809">
        <ele>8.150276568718255</ele>
        <time>2020-05-26T22:54:42Z</time>
      </trkpt>
      <trkpt lat="31.205385276785297" lon="121.61014413765858">
        <ele>8.819661789573729</ele>
        <time>2020-05-26T22:54:49Z</time>
      </trkpt>
      <trkpt lat="31.20546305348109" lon="121.61020025086995">
        <ele>6.589335072785616</ele>
        <time>2020-05-26T22:54:53Z</time>
      </trkpt>
      <trkpt lat="31.205517504220786" lon="121.61026802352727">
        <ele>6.157600622624159</ele>
        <time>2020-05-26T22:54:56Z</time>
      </trkpt>
      <trkpt lat="31.205534215251205" lon="121.61040899798634">
        <ele>5.980053100734949</ele>
        <time>2020-05-26T22:55:00Z</time>
      </trkpt>
      <trkpt lat="31.205658074415954" lon="121.61047920423293">
        <ele>5.342172643169761</ele>
        <time>2020-05-26T22:55:03Z</time>
      </trkpt>
      <trkpt lat="31.20574071267176" lon="121.61056080007147">
        <ele>6.6650756085291505</ele>
        <time>2020-05-26T22:55:06Z</time>
      </trkpt>
      <trkpt lat="31.20580842869453" lon="121.61065568093079">
        <ele>6.893163474276662</ele>
        <time>2020-05-26T22:55:10Z</time>
      </trkpt>
      <trkpt lat="31.2059623396826" lon="121.61078633976595">
        <ele>6.824730449356139</ele>
        <time>2020-05-26T22:55:18Z</time>
      </trkpt>
      <trkpt lat="31.20602815871408" lon="121.61087877993342">
        <ele>6.478759750723839</ele>
        <time>2020-05-26T22:55:22Z</time>
      </trkpt>
      <trkpt lat="31.206197521954905" lon="121.61101133390724">
        <ele>8.122560209594667</ele>
        <time>2020-05-26T22:55:29Z</time>
      </trkpt>
      <trkpt lat="31.206254130343165" lon="121.61109184559753">
        <ele>6.888657589443028</ele>
        <time>2020-05-26T22:55:33Z</time>
      </trkpt>
      <trkpt lat="31.206294730883982" lon="121.61118672648847">
        <ele>7.007313861511648</ele>
        <time>2020-05-26T22:55:37Z</time>
      </trkpt>
      <trkpt lat="31.206391466220104" lon="121.61126804753263">
        <ele>6.360241008922458</ele>
        <time>2020-05-26T22:55:41Z</time>
      </trkpt>
      <trkpt lat="31.206435865656793" lon="121.61135804766502">
        <ele>7.0959356017410755</ele>
        <time>2020-05-26T22:55:44Z</time>
      </trkpt>
      <trkpt lat="31.206520133289384" lon="121.61143259177337">
        <ele>5.251604430377483</ele>
        <time>2020-05-26T22:55:48Z</time>
      </trkpt>
      <trkpt lat="31.20654446547207" lon="121.61152611713212">
        <ele>5.130205155350268</ele>
        <time>2020-05-26T22:55:51Z</time>
      </trkpt>
      <trkpt lat="31.206628170739858" lon="121.6116266855965">
        <ele>6.710513438098133</ele>
        <time>2020-05-26T22:55:55Z</time>
      </trkpt>
      <trkpt lat="31.206345187831598" lon="121.61187475692066">
        <ele>9.615108465775847</ele>
        <time>2020-05-26T22:56:10Z</time>
      </trkpt>
      <trkpt lat="31.206203549221538" lon="121.61201275260792">
        <ele>9.975980563089252</ele>
        <time>2020-05-26T22:56:17Z</time>
      </trkpt>
      <trkpt lat="31.20604889896188" lon="121.61214614008611">
        <ele>7.948494211770594</ele>
        <time>2020-05-26T22:56:24Z</time>
      </trkpt>
      <trkpt lat="31.206009260808784" lon="121.61221364367653">
        <ele>7.8662457428872585</ele>
        <time>2020-05-26T22:56:27Z</time>
      </trkpt>
      <trkpt lat="31.20585812880961" lon="121.61235407788084">
        <ele>7.89585526753217</ele>
        <time>2020-05-26T22:56:34Z</time>
      </trkpt>
      <trkpt lat="31.205743603015183" lon="121.6124898998158">
        <ele>7.88505641091615</ele>
        <time>2020-05-26T22:56:41Z</time>
      </trkpt>
      <trkpt lat="31.205485578031894" lon="121.61271112298951">
        <ele>6.970616092905402</ele>
        <time>2020-05-26T22:57:04Z</time>
      </trkpt>
      <trkpt lat="31.205376462514185" lon="121.61286022520393">
        <ele>6.494480799883604</ele>
        <time>2020-05-26T22:57:11Z</time>
      </trkpt>
      <trkpt lat="31.205242973261043" lon="121.6129730042784">
        <ele>7.938979780301452</ele>
        <time>2020-05-26T22:57:18Z</time>
      </trkpt>
      <trkpt lat="31.205002812590426" lon="121.61322702130568">
        <ele>9.10887110978365</ele>
        <time>2020-05-26T22:57:32Z</time>
      </trkpt>
      <trkpt lat="31.204847073174275" lon="121.61335877549503">
        <ele>7.0824627103284</ele>
        <time>2020-05-26T22:57:38Z</time>
      </trkpt>
      <trkpt lat="31.204689917653553" lon="121.61356290474275">
        <ele>6.178470151498914</ele>
        <time>2020-05-26T22:57:46Z</time>
      </trkpt>
      <trkpt lat="31.204536081567298" lon="121.6136862537841">
        <ele>5.336789455264807</ele>
        <time>2020-05-26T22:57:53Z</time>
      </trkpt>
      <trkpt lat="31.204446257568705" lon="121.61378005059755">
        <ele>4.006088792346418</ele>
        <time>2020-05-26T22:57:57Z</time>
      </trkpt>
      <trkpt lat="31.204410949629136" lon="121.61385215724266">
        <ele>6.222872917540371</ele>
        <time>2020-05-26T22:58:00Z</time>
      </trkpt>
      <trkpt lat="31.204195741316877" lon="121.61408718828808">
        <ele>7.918969739228487</ele>
        <time>2020-05-26T22:58:11Z</time>
      </trkpt>
      <trkpt lat="31.203930614035308" lon="121.61435501947375">
        <ele>6.876380410045385</ele>
        <time>2020-05-26T22:58:23Z</time>
      </trkpt>
      <trkpt lat="31.2036972274055" lon="121.61459926301329">
        <ele>6.258656119927764</ele>
        <time>2020-05-26T22:58:34Z</time>
      </trkpt>
      <trkpt lat="31.203615798182398" lon="121.6147014582821">
        <ele>7.4418475069105625</ele>
        <time>2020-05-26T22:58:38Z</time>
      </trkpt>
      <trkpt lat="31.20344433041525" lon="121.61482805553256">
        <ele>7.304365462623537</ele>
        <time>2020-05-26T22:58:45Z</time>
      </trkpt>
      <trkpt lat="31.20335722150555" lon="121.61491317388922">
        <ele>6.517359044402838</ele>
        <time>2020-05-26T22:58:49Z</time>
      </trkpt>
      <trkpt lat="31.20332082127028" lon="121.61499069825983">
        <ele>6.751975752413273</ele>
        <time>2020-05-26T22:58:53Z</time>
      </trkpt>
      <trkpt lat="31.203320199624873" lon="121.61508068782801">
        <ele>6.058361670933664</ele>
        <time>2020-05-26T22:58:59Z</time>
      </trkpt>
      <trkpt lat="31.203409590190738" lon="121.61517554853667">
        <ele>5.099841431714594</ele>
        <time>2020-05-26T22:59:56Z</time>
      </trkpt>
      <trkpt lat="31.20345614109306" lon="121.61527041241403">
        <ele>5.16844682302326</ele>
        <time>2020-05-26T23:00:00Z</time>
      </trkpt>
      <trkpt lat="31.203463662996306" lon="121.61534874514795">
        <ele>6.076920943334699</ele>
        <time>2020-05-26T23:00:04Z</time>
      </trkpt>
      <trkpt lat="31.203348857042428" lon="121.61547804478143">
        <ele>4.398669387213886</ele>
        <time>2020-05-26T23:00:11Z</time>
      </trkpt>
      <trkpt lat="31.203146970832808" lon="121.615657494445">
        <ele>5.956792974844575</ele>
        <time>2020-05-26T23:00:21Z</time>
      </trkpt>
      <trkpt lat="31.202906239452286" lon="121.6159155485575">
        <ele>5.474030673503876</ele>
        <time>2020-05-26T23:00:33Z</time>
      </trkpt>
      <trkpt lat="31.202761053570452" lon="121.61605596037728">
        <ele>5.509593508206308</ele>
        <time>2020-05-26T23:00:40Z</time>
      </trkpt>
      <trkpt lat="31.202689928116133" lon="121.6161516436601">
        <ele>6.447990101762116</ele>
        <time>2020-05-26T23:00:44Z</time>
      </trkpt>
      <trkpt lat="31.202633769160126" lon="121.61618850975273">
        <ele>4.668880708515644</ele>
        <time>2020-05-26T23:00:47Z</time>
      </trkpt>
      <trkpt lat="31.20243427399606" lon="121.61641592763034">
        <ele>5.909999657422304</ele>
        <time>2020-05-26T23:00:58Z</time>
      </trkpt>
      <trkpt lat="31.20220764899705" lon="121.61665879461931">
        <ele>3.959265299141407</ele>
        <time>2020-05-26T23:01:10Z</time>
      </trkpt>
      <trkpt lat="31.202010893803543" lon="121.61685205783644">
        <ele>4.320812032558024</ele>
        <time>2020-05-26T23:01:20Z</time>
      </trkpt>
      <trkpt lat="31.20189629966228" lon="121.61703636873702">
        <ele>6.388085591606796</ele>
        <time>2020-05-26T23:01:28Z</time>
      </trkpt>
      <trkpt lat="31.201847213154622" lon="121.61704802710564">
        <ele>7.168662286363542</ele>
        <time>2020-05-26T23:01:32Z</time>
      </trkpt>
      <trkpt lat="31.201907889558317" lon="121.61710846178354">
        <ele>6.059223010204732</ele>
        <time>2020-05-26T23:01:38Z</time>
      </trkpt>
      <trkpt lat="31.201852866582684" lon="121.61709030733837">
        <ele>5.519020913168788</ele>
        <time>2020-05-26T23:01:42Z</time>
      </trkpt>
      <trkpt lat="31.20189324127993" lon="121.617115780796">
        <ele>5.446953818202019</ele>
        <time>2020-05-26T23:02:01Z</time>
      </trkpt>
      <trkpt lat="31.20175999817661" lon="121.61723667073242">
        <ele>5.491125196218491</ele>
        <time>2020-05-26T23:02:08Z</time>
      </trkpt>
      <trkpt lat="31.201660717502794" lon="121.61728383782328">
        <ele>4.6341692470014095</ele>
        <time>2020-05-26T23:02:11Z</time>
      </trkpt>
      <trkpt lat="31.201435480812762" lon="121.61748550030325">
        <ele>6.30725724902004</ele>
        <time>2020-05-26T23:02:21Z</time>
      </trkpt>
      <trkpt lat="31.20115212652016" lon="121.61778256600381">
        <ele>4.3093494810163975</ele>
        <time>2020-05-26T23:02:35Z</time>
      </trkpt>
      <trkpt lat="31.201006059524666" lon="121.61798232075797">
        <ele>5.087309229187667</ele>
        <time>2020-05-26T23:02:43Z</time>
      </trkpt>
      <trkpt lat="31.200922201211174" lon="121.6180609234244">
        <ele>5.503467721864581</ele>
        <time>2020-05-26T23:02:47Z</time>
      </trkpt>
      <trkpt lat="31.200677596428285" lon="121.61837478208386">
        <ele>3.6431352961808443</ele>
        <time>2020-05-26T23:03:01Z</time>
      </trkpt>
      <trkpt lat="31.200434091720915" lon="121.61866993686823">
        <ele>3.1808405965566635</ele>
        <time>2020-05-26T23:03:15Z</time>
      </trkpt>
      <trkpt lat="31.20039306914059" lon="121.61875015991738">
        <ele>4.065334322862327</ele>
        <time>2020-05-26T23:03:18Z</time>
      </trkpt>
      <trkpt lat="31.200185421675275" lon="121.61897565801155">
        <ele>3.783209327608347</ele>
        <time>2020-05-26T23:03:29Z</time>
      </trkpt>
      <trkpt lat="31.19996960772633" lon="121.61923096554715">
        <ele>4.683687577024102</ele>
        <time>2020-05-26T23:03:41Z</time>
      </trkpt>
      <trkpt lat="31.199697658888617" lon="121.61949386328801">
        <ele>6.083900518715382</ele>
        <time>2020-05-26T23:03:56Z</time>
      </trkpt>
      <trkpt lat="31.199621420791928" lon="121.6195412952539">
        <ele>5.44970438349992</ele>
        <time>2020-05-26T23:03:59Z</time>
      </trkpt>
      <trkpt lat="31.199507121282856" lon="121.61968683318342">
        <ele>5.9402005560696125</ele>
        <time>2020-05-26T23:04:06Z</time>
      </trkpt>
      <trkpt lat="31.199289469018385" lon="121.61987980387465">
        <ele>6.753766239620745</ele>
        <time>2020-05-26T23:04:16Z</time>
      </trkpt>
      <trkpt lat="31.19917029547436" lon="121.62001775233823">
        <ele>4.520481391809881</ele>
        <time>2020-05-26T23:04:23Z</time>
      </trkpt>
      <trkpt lat="31.199076194441904" lon="121.62003429102728">
        <ele>5.164058841764927</ele>
        <time>2020-05-26T23:04:27Z</time>
      </trkpt>
      <trkpt lat="31.1988920211522" lon="121.62010341074627">
        <ele>6.663018106482923</ele>
        <time>2020-05-26T23:04:35Z</time>
      </trkpt>
      <trkpt lat="31.198783737857728" lon="121.6201982686922">
        <ele>5.96905351895839</ele>
        <time>2020-05-26T23:04:39Z</time>
      </trkpt>
      <trkpt lat="31.198643918127402" lon="121.62037225950039">
        <ele>6.405628084205091</ele>
        <time>2020-05-26T23:04:47Z</time>
      </trkpt>
      <trkpt lat="31.19850514778126" lon="121.62057795521723">
        <ele>6.633595002815127</ele>
        <time>2020-05-26T23:04:54Z</time>
      </trkpt>
      <trkpt lat="31.1982793226354" lon="121.62080154188425">
        <ele>7.03321317024529</ele>
        <time>2020-05-26T23:05:05Z</time>
      </trkpt>
      <trkpt lat="31.198051337730917" lon="121.62101510026282">
        <ele>6.26551073603332</ele>
        <time>2020-05-26T23:05:16Z</time>
      </trkpt>
      <trkpt lat="31.197796234385052" lon="121.62123191098175">
        <ele>6.25142315402627</ele>
        <time>2020-05-26T23:05:30Z</time>
      </trkpt>
      <trkpt lat="31.197583978549993" lon="121.62143977391085">
        <ele>6.770216674543917</ele>
        <time>2020-05-26T23:05:41Z</time>
      </trkpt>
      <trkpt lat="31.197383442153765" lon="121.6215918119618">
        <ele>6.9853645181283355</ele>
        <time>2020-05-26T23:05:51Z</time>
      </trkpt>
      <trkpt lat="31.197308793550313" lon="121.62166986090122">
        <ele>6.582604200579226</ele>
        <time>2020-05-26T23:05:55Z</time>
      </trkpt>
      <trkpt lat="31.197227402999467" lon="121.62171512149435">
        <ele>5.665607661940157</ele>
        <time>2020-05-26T23:05:58Z</time>
      </trkpt>
      <trkpt lat="31.196993158983414" lon="121.62194357684297">
        <ele>5.453037955798209</ele>
        <time>2020-05-26T23:06:10Z</time>
      </trkpt>
      <trkpt lat="31.196748634408294" lon="121.62215062395093">
        <ele>4.753654447384179</ele>
        <time>2020-05-26T23:06:24Z</time>
      </trkpt>
      <trkpt lat="31.196687838289" lon="121.62220563716204">
        <ele>6.217339544557035</ele>
        <time>2020-05-26T23:06:27Z</time>
      </trkpt>
      <trkpt lat="31.196652745974113" lon="121.62230806878989">
        <ele>6.524249682202935</ele>
        <time>2020-05-26T23:06:31Z</time>
      </trkpt>
      <trkpt lat="31.19670143450788" lon="121.62264705227825">
        <ele>5.018168715760112</ele>
        <time>2020-05-26T23:06:42Z</time>
      </trkpt>
      <trkpt lat="31.1967026517373" lon="121.6227676342407">
        <ele>5.181104186922312</ele>
        <time>2020-05-26T23:06:46Z</time>
      </trkpt>
      <trkpt lat="31.196788727715905" lon="121.62312720235501">
        <ele>5.637496934272349</ele>
        <time>2020-05-26T23:06:59Z</time>
      </trkpt>
      <trkpt lat="31.196829560567995" lon="121.6234523571252">
        <ele>5.624388722702861</ele>
        <time>2020-05-26T23:07:11Z</time>
      </trkpt>
      <trkpt lat="31.196851415850798" lon="121.62354312794348">
        <ele>4.832963992841542</ele>
        <time>2020-05-26T23:07:14Z</time>
      </trkpt>
      <trkpt lat="31.196854263418228" lon="121.6236577446565">
        <ele>5.43719419464469</ele>
        <time>2020-05-26T23:07:18Z</time>
      </trkpt>
      <trkpt lat="31.196929472797198" lon="121.62402651455206">
        <ele>5.043328817933798</ele>
        <time>2020-05-26T23:07:32Z</time>
      </trkpt>
      <trkpt lat="31.196959094701064" lon="121.62396906897173">
        <ele>6.892168076708913</ele>
        <time>2020-05-26T23:07:35Z</time>
      </trkpt>
      <trkpt lat="31.196956397021005" lon="121.62372872802052">
        <ele>6.568600798025727</ele>
        <time>2020-05-26T23:07:45Z</time>
      </trkpt>
      <trkpt lat="31.196916970597165" lon="121.62359379247997">
        <ele>6.201056436635554</ele>
        <time>2020-05-26T23:07:49Z</time>
      </trkpt>
      <trkpt lat="31.196795110717947" lon="121.62346590814924">
        <ele>5.764572207815945</ele>
        <time>2020-05-26T23:07:53Z</time>
      </trkpt>
      <trkpt lat="31.196790905192863" lon="121.6233526455699">
        <ele>5.8460513055324554</ele>
        <time>2020-05-26T23:07:57Z</time>
      </trkpt>
      <trkpt lat="31.196695289647476" lon="121.62327163497838">
        <ele>4.897273320704699</ele>
        <time>2020-05-26T23:08:00Z</time>
      </trkpt>
      <trkpt lat="31.196698373447624" lon="121.62318465472184">
        <ele>5.264333018101752</ele>
        <time>2020-05-26T23:08:03Z</time>
      </trkpt>
      <trkpt lat="31.196763573631802" lon="121.62307436587186">
        <ele>5.60344651248306</ele>
        <time>2020-05-26T23:08:07Z</time>
      </trkpt>
      <trkpt lat="31.196751223580396" lon="121.62296896042429">
        <ele>5.542241213843226</ele>
        <time>2020-05-26T23:08:11Z</time>
      </trkpt>
      <trkpt lat="31.1966897704865" lon="121.62288740392579">
        <ele>6.189418094232678</ele>
        <time>2020-05-26T23:08:14Z</time>
      </trkpt>
      <trkpt lat="31.196746297697025" lon="121.62277332100449">
        <ele>4.2872068816795945</ele>
        <time>2020-05-26T23:08:18Z</time>
      </trkpt>
      <trkpt lat="31.19689931230375" lon="121.6226903913111">
        <ele>3.610612195916474</ele>
        <time>2020-05-26T23:08:25Z</time>
      </trkpt>
      <trkpt lat="31.196979650171176" lon="121.62261857722567">
        <ele>6.0765908025205135</ele>
        <time>2020-05-26T23:08:29Z</time>
      </trkpt>
      <trkpt lat="31.197280833187" lon="121.62242182604207">
        <ele>4.877385840751231</ele>
        <time>2020-05-26T23:08:42Z</time>
      </trkpt>
      <trkpt lat="31.197349256267696" lon="121.62233619252419">
        <ele>7.119336425326765</ele>
        <time>2020-05-26T23:08:46Z</time>
      </trkpt>
      <trkpt lat="31.19748027813473" lon="121.62227954791767">
        <ele>6.318308371119201</ele>
        <time>2020-05-26T23:08:50Z</time>
      </trkpt>
      <trkpt lat="31.1975343019123" lon="121.62221938687878">
        <ele>6.5325558027252555</ele>
        <time>2020-05-26T23:08:53Z</time>
      </trkpt>
      <trkpt lat="31.197764664067012" lon="121.62206924678121">
        <ele>7.4001202173531055</ele>
        <time>2020-05-26T23:09:01Z</time>
      </trkpt>
      <trkpt lat="31.197977173542224" lon="121.62188089927068">
        <ele>5.857588393613696</ele>
        <time>2020-05-26T23:09:12Z</time>
      </trkpt>
      <trkpt lat="31.198140761914086" lon="121.6217963400683">
        <ele>5.877558900043368</ele>
        <time>2020-05-26T23:09:20Z</time>
      </trkpt>
      <trkpt lat="31.198326409414346" lon="121.62162425177064">
        <ele>4.037635478191078</ele>
        <time>2020-05-26T23:09:30Z</time>
      </trkpt>
      <trkpt lat="31.198530100148375" lon="121.621316939686">
        <ele>6.471870549023151</ele>
        <time>2020-05-26T23:09:44Z</time>
      </trkpt>
      <trkpt lat="31.198751028616144" lon="121.62111178494571">
        <ele>6.2598288441076875</ele>
        <time>2020-05-26T23:09:55Z</time>
      </trkpt>
      <trkpt lat="31.198892689466284" lon="121.62099389355807">
        <ele>5.443090318702161</ele>
        <time>2020-05-26T23:10:03Z</time>
      </trkpt>
      <trkpt lat="31.19899948507848" lon="121.62077329928208">
        <ele>6.591224491596222</ele>
        <time>2020-05-26T23:10:17Z</time>
      </trkpt>
      <trkpt lat="31.199051894642" lon="121.62069877241775">
        <ele>6.06518645118922</ele>
        <time>2020-05-26T23:10:21Z</time>
      </trkpt>
      <trkpt lat="31.19909774793952" lon="121.6206695015364">
        <ele>5.213762830942869</ele>
        <time>2020-05-26T23:10:24Z</time>
      </trkpt>
      <trkpt lat="31.199230626190325" lon="121.62064862417178">
        <ele>4.693633891642094</ele>
        <time>2020-05-26T23:10:32Z</time>
      </trkpt>
      <trkpt lat="31.19942386896612" lon="121.6207187949926">
        <ele>5.759004550985992</ele>
        <time>2020-05-26T23:10:41Z</time>
      </trkpt>
      <trkpt lat="31.199680332575944" lon="121.62074587287458">
        <ele>5.984167139045894</ele>
        <time>2020-05-26T23:10:51Z</time>
      </trkpt>
      <trkpt lat="31.199885315347622" lon="121.62074097807525">
        <ele>5.155218197964132</ele>
        <time>2020-05-26T23:10:59Z</time>
      </trkpt>
      <trkpt lat="31.19996202609371" lon="121.62075967009643">
        <ele>5.214045505039394</ele>
        <time>2020-05-26T23:11:02Z</time>
      </trkpt>
      <trkpt lat="31.200062831630703" lon="121.62081169192872">
        <ele>5.383567861281335</ele>
        <time>2020-05-26T23:11:06Z</time>
      </trkpt>
      <trkpt lat="31.200270477563254" lon="121.62085123928763">
        <ele>4.998176748864353</ele>
        <time>2020-05-26T23:11:13Z</time>
      </trkpt>
      <trkpt lat="31.20039899348681" lon="121.62085285459119">
        <ele>5.37576608825475</ele>
        <time>2020-05-26T23:11:17Z</time>
      </trkpt>
      <trkpt lat="31.200701770736757" lon="121.62092626766587">
        <ele>4.9174945848062634</ele>
        <time>2020-05-26T23:11:29Z</time>
      </trkpt>
      <trkpt lat="31.201020252970654" lon="121.62101864840679">
        <ele>3.2378964349627495</ele>
        <time>2020-05-26T23:11:41Z</time>
      </trkpt>
      <trkpt lat="31.201203018364076" lon="121.62099966410904">
        <ele>3.5468297824263573</ele>
        <time>2020-05-26T23:11:47Z</time>
      </trkpt>
      <trkpt lat="31.201320110912842" lon="121.6210340699068">
        <ele>4.483364983461797</ele>
        <time>2020-05-26T23:11:51Z</time>
      </trkpt>
      <trkpt lat="31.201426681317535" lon="121.62102078267571">
        <ele>4.723071335814893</ele>
        <time>2020-05-26T23:11:57Z</time>
      </trkpt>
      <trkpt lat="31.20155327157546" lon="121.62104787099064">
        <ele>5.469135435298085</ele>
        <time>2020-05-26T23:12:04Z</time>
      </trkpt>
      <trkpt lat="31.201797567761776" lon="121.62104432793123">
        <ele>5.532554608769715</ele>
        <time>2020-05-26T23:12:19Z</time>
      </trkpt>
      <trkpt lat="31.201932531478167" lon="121.62110041117839">
        <ele>4.135912754572928</ele>
        <time>2020-05-26T23:12:26Z</time>
      </trkpt>
      <trkpt lat="31.202202550821866" lon="121.6211285714879">
        <ele>5.32048009801656</ele>
        <time>2020-05-26T23:12:40Z</time>
      </trkpt>
      <trkpt lat="31.20237987565735" lon="121.62112611792931">
        <ele>3.8287814930081367</ele>
        <time>2020-05-26T23:12:50Z</time>
      </trkpt>
      <trkpt lat="31.202418962105796" lon="121.62108682155501">
        <ele>3.6637612748891115</ele>
        <time>2020-05-26T23:12:53Z</time>
      </trkpt>
      <trkpt lat="31.2024043913462" lon="121.62102232768767">
        <ele>3.3680985029786825</ele>
        <time>2020-05-26T23:12:56Z</time>
      </trkpt>
      <trkpt lat="31.202410596746844" lon="121.62080147099593">
        <ele>4.155696455389261</ele>
        <time>2020-05-26T23:13:04Z</time>
      </trkpt>
      <trkpt lat="31.20243886349954" lon="121.62073805684547">
        <ele>3.538053867407143</ele>
        <time>2020-05-26T23:13:08Z</time>
      </trkpt>
      <trkpt lat="31.20241332808188" lon="121.62078304342181">
        <ele>4.6734635112807155</ele>
        <time>2020-05-26T23:13:49Z</time>
      </trkpt>
      <trkpt lat="31.202428495467778" lon="121.62079794664027">
        <ele>5.499766890890896</ele>
        <time>2020-05-26T23:14:42Z</time>
      </trkpt>
      <trkpt lat="31.20243589421808" lon="121.62072586249452">
        <ele>5.414650208316743</ele>
        <time>2020-05-26T23:14:49Z</time>
      </trkpt>
      <trkpt lat="31.202414189456388" lon="121.6204873910331">
        <ele>5.6232474679127336</ele>
        <time>2020-05-26T23:14:57Z</time>
      </trkpt>
      <trkpt lat="31.20238849796207" lon="121.62042560655021">
        <ele>4.499602010473609</ele>
        <time>2020-05-26T23:15:00Z</time>
      </trkpt>
      <trkpt lat="31.20240861536227" lon="121.62037574190094">
        <ele>4.267284065485001</ele>
        <time>2020-05-26T23:15:04Z</time>
      </trkpt>
      <trkpt lat="31.202354630508253" lon="121.6204028458284">
        <ele>4.592952164821327</ele>
        <time>2020-05-26T23:15:28Z</time>
      </trkpt>
      <trkpt lat="31.202419705770215" lon="121.62040013049837">
        <ele>5.2585061164572835</ele>
        <time>2020-05-26T23:15:36Z</time>
      </trkpt>
      <trkpt lat="31.202409421803345" lon="121.62038224570716">
        <ele>4.969746306538582</ele>
        <time>2020-05-26T23:16:11Z</time>
      </trkpt>
      <trkpt lat="31.202414576266765" lon="121.62037953533375">
        <ele>5.143297934904695</ele>
        <time>2020-05-26T23:16:16Z</time>
      </trkpt>
      <trkpt lat="31.202708268671778" lon="121.62032964795647">
        <ele>4.282618382014334</ele>
        <time>2020-05-26T23:16:56Z</time>
      </trkpt>
      <trkpt lat="31.20287157088461" lon="121.62025565264197">
        <ele>5.0932434890419245</ele>
        <time>2020-05-26T23:17:03Z</time>
      </trkpt>
      <trkpt lat="31.20285379080748" lon="121.62014779748422">
        <ele>3.6305136661976576</ele>
        <time>2020-05-26T23:17:07Z</time>
      </trkpt>
      <trkpt lat="31.202774303322023" lon="121.6199342574501">
        <ele>4.199880322441459</ele>
        <time>2020-05-26T23:17:15Z</time>
      </trkpt>
      <trkpt lat="31.20274366313693" lon="121.61967816431931">
        <ele>4.43216029368341</ele>
        <time>2020-05-26T23:17:23Z</time>
      </trkpt>
      <trkpt lat="31.202655617650503" lon="121.61934727596349">
        <ele>5.429168517701328</ele>
        <time>2020-05-26T23:17:34Z</time>
      </trkpt>
      <trkpt lat="31.20256376779603" lon="121.61902099079289">
        <ele>4.628054804168642</ele>
        <time>2020-05-26T23:17:45Z</time>
      </trkpt>
      <trkpt lat="31.20249092141462" lon="121.61866732758577">
        <ele>5.4287122236564755</ele>
        <time>2020-05-26T23:17:57Z</time>
      </trkpt>
      <trkpt lat="31.202643081773548" lon="121.61861419643239">
        <ele>5.022783959284425</ele>
        <time>2020-05-26T23:18:04Z</time>
      </trkpt>
      <trkpt lat="31.202757048891886" lon="121.61852448141946">
        <ele>4.843319769017398</ele>
        <time>2020-05-26T23:18:11Z</time>
      </trkpt>
      <trkpt lat="31.202766330716774" lon="121.61846160524874">
        <ele>3.462708095088601</ele>
        <time>2020-05-26T23:18:14Z</time>
      </trkpt>
      <trkpt lat="31.202720031649434" lon="121.61839683640983">
        <ele>4.471563407219946</ele>
        <time>2020-05-26T23:18:17Z</time>
      </trkpt>
      <trkpt lat="31.202687325750937" lon="121.61829547903929">
        <ele>6.302550949156284</ele>
        <time>2020-05-26T23:18:21Z</time>
      </trkpt>
      <trkpt lat="31.202730059659952" lon="121.61812907064218">
        <ele>5.078470149077475</ele>
        <time>2020-05-26T23:18:29Z</time>
      </trkpt>
      <trkpt lat="31.202698981765522" lon="121.61802554389898">
        <ele>6.64698756672442</ele>
        <time>2020-05-26T23:18:33Z</time>
      </trkpt>
      <trkpt lat="31.202694715644608" lon="121.61795263984456">
        <ele>6.368607128039002</ele>
        <time>2020-05-26T23:18:36Z</time>
      </trkpt>
      <trkpt lat="31.202578064865833" lon="121.61774071056816">
        <ele>7.0019705863669515</ele>
        <time>2020-05-26T23:18:43Z</time>
      </trkpt>
      <trkpt lat="31.20254783067915" lon="121.61760465925462">
        <ele>5.238353872671723</ele>
        <time>2020-05-26T23:18:47Z</time>
      </trkpt>
      <trkpt lat="31.202466379197208" lon="121.61743988268734">
        <ele>4.779376432299614</ele>
        <time>2020-05-26T23:18:53Z</time>
      </trkpt>
      <trkpt lat="31.20247326682425" lon="121.6173268639884">
        <ele>4.492361951619387</ele>
        <time>2020-05-26T23:18:57Z</time>
      </trkpt>
      <trkpt lat="31.20258152873598" lon="121.61724473362311">
        <ele>3.705165609717369</ele>
        <time>2020-05-26T23:19:04Z</time>
      </trkpt>
      <trkpt lat="31.202655386415426" lon="121.61713116643564">
        <ele>5.495092744939029</ele>
        <time>2020-05-26T23:19:08Z</time>
      </trkpt>
      <trkpt lat="31.202795433107063" lon="121.61698344336064">
        <ele>2.8941035186871886</ele>
        <time>2020-05-26T23:19:15Z</time>
      </trkpt>
      <trkpt lat="31.202879814602884" lon="121.61692191225151">
        <ele>4.4434834131971</ele>
        <time>2020-05-26T23:19:19Z</time>
      </trkpt>
      <trkpt lat="31.20306028518522" lon="121.6167468101944">
        <ele>4.736579084768891</ele>
        <time>2020-05-26T23:19:29Z</time>
      </trkpt>
      <trkpt lat="31.203132703032946" lon="121.61672051392402">
        <ele>4.757074902765453</ele>
        <time>2020-05-26T23:19:32Z</time>
      </trkpt>
      <trkpt lat="31.20335981828086" lon="121.61653402306482">
        <ele>4.7699810694903135</ele>
        <time>2020-05-26T23:19:42Z</time>
      </trkpt>
      <trkpt lat="31.20355730920408" lon="121.61642206859754">
        <ele>5.723627718165517</ele>
        <time>2020-05-26T23:19:50Z</time>
      </trkpt>
      <trkpt lat="31.203695419858473" lon="121.61631147372269">
        <ele>7.051710346713662</ele>
        <time>2020-05-26T23:19:57Z</time>
      </trkpt>
      <trkpt lat="31.2038435425383" lon="121.6162220186077">
        <ele>5.862280976958573</ele>
        <time>2020-05-26T23:20:04Z</time>
      </trkpt>
      <trkpt lat="31.20388700901903" lon="121.61613013245729">
        <ele>6.316180670633912</ele>
        <time>2020-05-26T23:20:07Z</time>
      </trkpt>
      <trkpt lat="31.203985495214628" lon="121.61606046680409">
        <ele>6.3623475600034</ele>
        <time>2020-05-26T23:20:11Z</time>
      </trkpt>
      <trkpt lat="31.204132485851652" lon="121.61602196675514">
        <ele>4.472470408305526</ele>
        <time>2020-05-26T23:20:18Z</time>
      </trkpt>
      <trkpt lat="31.204204587411496" lon="121.61604418620055">
        <ele>4.969269993714988</ele>
        <time>2020-05-26T23:20:22Z</time>
      </trkpt>
      <trkpt lat="31.204272295397512" lon="121.61612657706195">
        <ele>6.476838517002761</ele>
        <time>2020-05-26T23:20:26Z</time>
      </trkpt>
      <trkpt lat="31.204427790492936" lon="121.61627428084387">
        <ele>5.610479869879782</ele>
        <time>2020-05-26T23:20:33Z</time>
      </trkpt>
      <trkpt lat="31.204491427249568" lon="121.6163604657959">
        <ele>3.2638461031019688</ele>
        <time>2020-05-26T23:20:37Z</time>
      </trkpt>
      <trkpt lat="31.204508041011888" lon="121.61628023706072">
        <ele>6.277450581081212</ele>
        <time>2020-05-26T23:20:43Z</time>
      </trkpt>
      <trkpt lat="31.204405970829253" lon="121.61612033207193">
        <ele>7.414929018355906</ele>
        <time>2020-05-26T23:20:50Z</time>
      </trkpt>
      <trkpt lat="31.20434853955265" lon="121.61606667072374">
        <ele>8.215720569714904</ele>
        <time>2020-05-26T23:20:53Z</time>
      </trkpt>
      <trkpt lat="31.20429575202007" lon="121.61597533403399">
        <ele>7.17124919872731</ele>
        <time>2020-05-26T23:20:57Z</time>
      </trkpt>
      <trkpt lat="31.204123455084247" lon="121.61581651702612">
        <ele>8.771552935242653</ele>
        <time>2020-05-26T23:21:05Z</time>
      </trkpt>
      <trkpt lat="31.203909758267006" lon="121.61556392038511">
        <ele>6.53571271058172</ele>
        <time>2020-05-26T23:21:16Z</time>
      </trkpt>
      <trkpt lat="31.203838751859866" lon="121.61552950328755">
        <ele>7.015791293233633</ele>
        <time>2020-05-26T23:21:19Z</time>
      </trkpt>
      <trkpt lat="31.20365128411898" lon="121.61535360851644">
        <ele>5.9135118601843715</ele>
        <time>2020-05-26T23:21:30Z</time>
      </trkpt>
      <trkpt lat="31.203518194541992" lon="121.61531133581458">
        <ele>5.981173800304532</ele>
        <time>2020-05-26T23:21:40Z</time>
      </trkpt>
      <trkpt lat="31.20363356771817" lon="121.61515303275426">
        <ele>6.439482358284295</ele>
        <time>2020-05-26T23:21:50Z</time>
      </trkpt>
      <trkpt lat="31.20384579386919" lon="121.61492804145705">
        <ele>6.140930191613734</ele>
        <time>2020-05-26T23:22:01Z</time>
      </trkpt>
      <trkpt lat="31.203984466871347" lon="121.61478762361796">
        <ele>7.531863458454609</ele>
        <time>2020-05-26T23:22:08Z</time>
      </trkpt>
      <trkpt lat="31.204032522060597" lon="121.61471389241676">
        <ele>8.371054728515446</ele>
        <time>2020-05-26T23:22:11Z</time>
      </trkpt>
      <trkpt lat="31.204247456242353" lon="121.61448862571199">
        <ele>6.523448380641639</ele>
        <time>2020-05-26T23:22:23Z</time>
      </trkpt>
      <trkpt lat="31.20443147060617" lon="121.61427338871066">
        <ele>6.473844416439533</ele>
        <time>2020-05-26T23:22:33Z</time>
      </trkpt>
      <trkpt lat="31.204550023979262" lon="121.6141944999064">
        <ele>6.748867611400783</ele>
        <time>2020-05-26T23:22:37Z</time>
      </trkpt>
      <trkpt lat="31.204588311647367" lon="121.61412673106683">
        <ele>6.9888473292812705</ele>
        <time>2020-05-26T23:22:40Z</time>
      </trkpt>
      <trkpt lat="31.204682175697933" lon="121.61406627616073">
        <ele>7.258381164632738</ele>
        <time>2020-05-26T23:22:44Z</time>
      </trkpt>
      <trkpt lat="31.20482168348547" lon="121.61389522276731">
        <ele>6.23150266520679</ele>
        <time>2020-05-26T23:22:51Z</time>
      </trkpt>
      <trkpt lat="31.20504664164418" lon="121.61367157388077">
        <ele>5.818904357030988</ele>
        <time>2020-05-26T23:23:02Z</time>
      </trkpt>
      <trkpt lat="31.205176344655136" lon="121.6135506663861">
        <ele>5.478362414054573</ele>
        <time>2020-05-26T23:23:09Z</time>
      </trkpt>
      <trkpt lat="31.2052243893632" lon="121.61348560559908">
        <ele>6.213092648424208</ele>
        <time>2020-05-26T23:23:12Z</time>
      </trkpt>
      <trkpt lat="31.20531337715611" lon="121.61341837267697">
        <ele>5.9964650105685</ele>
        <time>2020-05-26T23:23:16Z</time>
      </trkpt>
      <trkpt lat="31.205383158548962" lon="121.61329692669183">
        <ele>6.558512096293271</ele>
        <time>2020-05-26T23:23:20Z</time>
      </trkpt>
      <trkpt lat="31.2055095943717" lon="121.61319065553354">
        <ele>6.0160552291199565</ele>
        <time>2020-05-26T23:23:27Z</time>
      </trkpt>
      <trkpt lat="31.20550101064716" lon="121.61307653388045">
        <ele>7.484758043661714</ele>
        <time>2020-05-26T23:23:31Z</time>
      </trkpt>
      <trkpt lat="31.205372885109586" lon="121.61292582620251">
        <ele>8.734567491337657</ele>
        <time>2020-05-26T23:23:42Z</time>
      </trkpt>
      <trkpt lat="31.205292192723498" lon="121.61279354697116">
        <ele>7.200077693909407</ele>
        <time>2020-05-26T23:23:49Z</time>
      </trkpt>
      <trkpt lat="31.205074109150537" lon="121.61256640016408">
        <ele>6.371933440677822</ele>
        <time>2020-05-26T23:24:00Z</time>
      </trkpt>
      <trkpt lat="31.204871414487574" lon="121.61242084592615">
        <ele>6.77441125921905</ele>
        <time>2020-05-26T23:24:10Z</time>
      </trkpt>
      <trkpt lat="31.20480642452884" lon="121.61231539985823">
        <ele>6.906562455929816</ele>
        <time>2020-05-26T23:24:14Z</time>
      </trkpt>
      <trkpt lat="31.204677181389556" lon="121.61220182606444">
        <ele>6.98318793065846</ele>
        <time>2020-05-26T23:24:20Z</time>
      </trkpt>
      <trkpt lat="31.204559926220686" lon="121.61201234632945">
        <ele>7.886129092425108</ele>
        <time>2020-05-26T23:24:28Z</time>
      </trkpt>
      <trkpt lat="31.204501677933266" lon="121.61195271180466">
        <ele>8.473878883756697</ele>
        <time>2020-05-26T23:24:32Z</time>
      </trkpt>
      <trkpt lat="31.204464860597643" lon="121.6118781654562">
        <ele>8.949247802607715</ele>
        <time>2020-05-26T23:24:35Z</time>
      </trkpt>
      <trkpt lat="31.204365406467968" lon="121.61180931693504">
        <ele>8.392016629688442</ele>
        <time>2020-05-26T23:24:39Z</time>
      </trkpt>
      <trkpt lat="31.20431882230662" lon="121.61174209038151">
        <ele>7.482967087067664</ele>
        <time>2020-05-26T23:24:42Z</time>
      </trkpt>
      <trkpt lat="31.204099362983623" lon="121.61152984349852">
        <ele>7.514097630977631</ele>
        <time>2020-05-26T23:24:53Z</time>
      </trkpt>
      <trkpt lat="31.204017581360787" lon="121.61139457433481">
        <ele>7.694950722157955</ele>
        <time>2020-05-26T23:24:59Z</time>
      </trkpt>
      <trkpt lat="31.203778115915647" lon="121.61109991214951">
        <ele>7.737975787371397</ele>
        <time>2020-05-26T23:25:14Z</time>
      </trkpt>
      <trkpt lat="31.203735879218065" lon="121.61101750160188">
        <ele>8.243634382262826</ele>
        <time>2020-05-26T23:25:18Z</time>
      </trkpt>
      <trkpt lat="31.203668649396516" lon="121.6110015122952">
        <ele>8.216168044134974</ele>
        <time>2020-05-26T23:25:21Z</time>
      </trkpt>
      <trkpt lat="31.20360008267804" lon="121.6109597686035">
        <ele>6.294665013439953</ele>
        <time>2020-05-26T23:25:25Z</time>
      </trkpt>
      <trkpt lat="31.203554037054268" lon="121.61089470832007">
        <ele>8.77321431785822</ele>
        <time>2020-05-26T23:25:28Z</time>
      </trkpt>
      <trkpt lat="31.203558155380463" lon="121.61082395057123">
        <ele>6.846422791481018</ele>
        <time>2020-05-26T23:25:40Z</time>
      </trkpt>
      <trkpt lat="31.20351451224121" lon="121.61081067019667">
        <ele>7.21174718812108</ele>
        <time>2020-05-26T23:26:07Z</time>
      </trkpt>
      <trkpt lat="31.20371042848823" lon="121.61059268714283">
        <ele>5.453888114541769</ele>
        <time>2020-05-26T23:26:29Z</time>
      </trkpt>
      <trkpt lat="31.203908245473542" lon="121.61036819527483">
        <ele>5.657610560767353</ele>
        <time>2020-05-26T23:26:40Z</time>
      </trkpt>
      <trkpt lat="31.20396495915424" lon="121.61030231148132">
        <ele>5.828485512174666</ele>
        <time>2020-05-26T23:26:43Z</time>
      </trkpt>
      <trkpt lat="31.20415455663609" lon="121.61019683461986">
        <ele>5.195674225687981</ele>
        <time>2020-05-26T23:26:50Z</time>
      </trkpt>
      <trkpt lat="31.20423974437985" lon="121.61012335689661">
        <ele>6.249858642928302</ele>
        <time>2020-05-26T23:26:54Z</time>
      </trkpt>
      <trkpt lat="31.204351285898216" lon="121.60997206780945">
        <ele>6.544420867227018</ele>
        <time>2020-05-26T23:27:01Z</time>
      </trkpt>
      <trkpt lat="31.20445491599355" lon="121.60989018333713">
        <ele>7.275497575290501</ele>
        <time>2020-05-26T23:27:09Z</time>
      </trkpt>
    </trkseg>
  </trk>
</gpx>