<?xml version="1.0" encoding="UTF-8"?>
<gpx xmlns="http://www.topografix.com/GPX/1/1" xmlns:gpxtpx="http://www.garmin.com/xmlschemas/TrackPointExtension/v1" xmlns:xsi="http://www.w3.org/2001/XMLSchema-instance" xsi:schemaLocation="http://www.topografix.com/GPX/1/1 http://www.topografix.com/GPX/1/1/gpx.xsd" version="1.1" creator="gpx.py -- https://github.com/tkrajina/gpxpy">
  <trk>
    <name>gpx from keep</name>
    <type>Run</type>
    <trkseg>
      <trkpt lat="31.204313428267543" lon="121.61097489122632">
        <ele>8.908352851867676</ele>
        <time>2018-09-17T22:10:12Z</time>
      </trkpt>
      <trkpt lat="31.20417951057441" lon="121.61094318359785">
        <ele>8.861368179321289</ele>
        <time>2018-09-17T22:10:19Z</time>
      </trkpt>
      <trkpt lat="31.204054824781633" lon="121.61126281878683">
        <ele>8.562074661254883</ele>
        <time>2018-09-17T22:10:34Z</time>
      </trkpt>
      <trkpt lat="31.20397133460202" lon="121.61123652932369">
        <ele>8.354479789733887</ele>
        <time>2018-09-17T22:10:40Z</time>
      </trkpt>
      <trkpt lat="31.20403230790698" lon="121.6112798997148">
        <ele>8.287775993347168</ele>
        <time>2018-09-17T22:10:47Z</time>
      </trkpt>
      <trkpt lat="31.204039035361294" lon="121.61134848639267">
        <ele>8.221768379211426</ele>
        <time>2018-09-17T22:10:53Z</time>
      </trkpt>
      <trkpt lat="31.204438973038748" lon="121.61169219969817">
        <ele>8.2940673828125</ele>
        <time>2018-09-17T22:11:07Z</time>
      </trkpt>
      <trkpt lat="31.204644885952614" lon="121.6118892652241">
        <ele>8.48591136932373</ele>
        <time>2018-09-17T22:11:13Z</time>
      </trkpt>
      <trkpt lat="31.204818315285838" lon="121.61201612019161">
        <ele>8.647570610046387</ele>
        <time>2018-09-17T22:11:26Z</time>
      </trkpt>
      <trkpt lat="31.204859984814675" lon="121.6121267201888">
        <ele>8.700474739074707</ele>
        <time>2018-09-17T22:11:33Z</time>
      </trkpt>
      <trkpt lat="31.20495152950691" lon="121.61225439387755">
        <ele>8.822612762451172</ele>
        <time>2018-09-17T22:11:39Z</time>
      </trkpt>
      <trkpt lat="31.205114891749957" lon="121.61242380770504">
        <ele>8.85693645477295</ele>
        <time>2018-09-17T22:11:51Z</time>
      </trkpt>
      <trkpt lat="31.20536126237257" lon="121.6125400815409">
        <ele>8.835976600646973</ele>
        <time>2018-09-17T22:11:57Z</time>
      </trkpt>
      <trkpt lat="31.205556661633416" lon="121.61265310604863">
        <ele>8.799410820007324</ele>
        <time>2018-09-17T22:12:03Z</time>
      </trkpt>
      <trkpt lat="31.205665736740247" lon="121.61289435704498">
        <ele>8.654723167419434</ele>
        <time>2018-09-17T22:12:16Z</time>
      </trkpt>
      <trkpt lat="31.205590743860757" lon="121.61275475803568">
        <ele>8.647309303283691</ele>
        <time>2018-09-17T22:12:22Z</time>
      </trkpt>
      <trkpt lat="31.205749027494015" lon="121.61282929152289">
        <ele>8.614436149597168</ele>
        <time>2018-09-17T22:12:28Z</time>
      </trkpt>
      <trkpt lat="31.205890741823147" lon="121.61294096368285">
        <ele>8.580390930175781</ele>
        <time>2018-09-17T22:12:35Z</time>
      </trkpt>
      <trkpt lat="31.2060373085061" lon="121.61308679038702">
        <ele>8.553553581237793</ele>
        <time>2018-09-17T22:12:41Z</time>
      </trkpt>
      <trkpt lat="31.20608957898143" lon="121.61315916298744">
        <ele>8.511396408081055</ele>
        <time>2018-09-17T22:12:47Z</time>
      </trkpt>
      <trkpt lat="31.206252591769317" lon="121.61308487505944">
        <ele>8.497113227844238</ele>
        <time>2018-09-17T22:12:53Z</time>
      </trkpt>
      <trkpt lat="31.20639074918667" lon="121.61323476766188">
        <ele>8.47397232055664</ele>
        <time>2018-09-17T22:13:00Z</time>
      </trkpt>
      <trkpt lat="31.206326640866067" lon="121.61370968862802">
        <ele>8.468694686889648</ele>
        <time>2018-09-17T22:13:06Z</time>
      </trkpt>
      <trkpt lat="31.20635600720238" lon="121.61393358718385">
        <ele>8.468484878540039</ele>
        <time>2018-09-17T22:13:12Z</time>
      </trkpt>
      <trkpt lat="31.206734376138588" lon="121.61377308470068">
        <ele>8.46117115020752</ele>
        <time>2018-09-17T22:13:19Z</time>
      </trkpt>
      <trkpt lat="31.206848457169134" lon="121.6138533109981">
        <ele>8.461796760559082</ele>
        <time>2018-09-17T22:13:28Z</time>
      </trkpt>
      <trkpt lat="31.207075974152364" lon="121.61413438616383">
        <ele>8.457880973815918</ele>
        <time>2018-09-17T22:13:35Z</time>
      </trkpt>
      <trkpt lat="31.207108945444343" lon="121.61426042738997">
        <ele>8.450730323791504</ele>
        <time>2018-09-17T22:13:41Z</time>
      </trkpt>
      <trkpt lat="31.207315978432643" lon="121.61439458535331">
        <ele>8.447492599487305</ele>
        <time>2018-09-17T22:13:48Z</time>
      </trkpt>
      <trkpt lat="31.207674025121467" lon="121.61453848817321">
        <ele>8.44444465637207</ele>
        <time>2018-09-17T22:13:54Z</time>
      </trkpt>
      <trkpt lat="31.20750150826463" lon="121.61462442779316">
        <ele>8.44158935546875</ele>
        <time>2018-09-17T22:14:01Z</time>
      </trkpt>
      <trkpt lat="31.20784859383848" lon="121.61489924971079">
        <ele>8.438926696777344</ele>
        <time>2018-09-17T22:14:07Z</time>
      </trkpt>
      <trkpt lat="31.207622784237508" lon="121.61515378701456">
        <ele>8.436469078063965</ele>
        <time>2018-09-17T22:14:13Z</time>
      </trkpt>
      <trkpt lat="31.207557063109757" lon="121.61527332582753">
        <ele>8.434205055236816</ele>
        <time>2018-09-17T22:14:19Z</time>
      </trkpt>
      <trkpt lat="31.208184141481" lon="121.61652549289987">
        <ele>7.224172592163086</ele>
        <time>2018-09-17T22:14:38Z</time>
      </trkpt>
      <trkpt lat="31.208309607902855" lon="121.6165997462978">
        <ele>7.277492523193359</ele>
        <time>2018-09-17T22:14:45Z</time>
      </trkpt>
      <trkpt lat="31.208028072991233" lon="121.61670140760745">
        <ele>7.316685199737549</ele>
        <time>2018-09-17T22:14:51Z</time>
      </trkpt>
      <trkpt lat="31.208528984962587" lon="121.61714206375379">
        <ele>7.4073944091796875</ele>
        <time>2018-09-17T22:15:07Z</time>
      </trkpt>
      <trkpt lat="31.208505205871205" lon="121.61705750443292">
        <ele>7.457644939422607</ele>
        <time>2018-09-17T22:15:14Z</time>
      </trkpt>
      <trkpt lat="31.208496091611273" lon="121.61694800872961">
        <ele>7.514575481414795</ele>
        <time>2018-09-17T22:15:20Z</time>
      </trkpt>
      <trkpt lat="31.208731148661634" lon="121.61753070000304">
        <ele>7.173778057098389</ele>
        <time>2018-09-17T22:15:43Z</time>
      </trkpt>
      <trkpt lat="31.208789727161054" lon="121.61779494318513">
        <ele>7.226496696472168</ele>
        <time>2018-09-17T22:15:50Z</time>
      </trkpt>
      <trkpt lat="31.208842239695493" lon="121.61788437600026">
        <ele>7.049849987030029</ele>
        <time>2018-09-17T22:15:56Z</time>
      </trkpt>
      <trkpt lat="31.208868335039455" lon="121.61836380577964">
        <ele>7.017313480377197</ele>
        <time>2018-09-17T22:16:02Z</time>
      </trkpt>
      <trkpt lat="31.208810544178544" lon="121.6184025658249">
        <ele>7.114647388458252</ele>
        <time>2018-09-17T22:16:21Z</time>
      </trkpt>
      <trkpt lat="31.208881708374957" lon="121.61854646881753">
        <ele>7.070032596588135</ele>
        <time>2018-09-17T22:16:34Z</time>
      </trkpt>
      <trkpt lat="31.208902988809967" lon="121.61868441284155">
        <ele>7.101773262023926</ele>
        <time>2018-09-17T22:16:41Z</time>
      </trkpt>
      <trkpt lat="31.20889728251074" lon="121.61922724572668">
        <ele>7.079557418823242</ele>
        <time>2018-09-17T22:16:55Z</time>
      </trkpt>
      <trkpt lat="31.208913290522112" lon="121.61947846647138">
        <ele>7.086437225341797</ele>
        <time>2018-09-17T22:17:03Z</time>
      </trkpt>
      <trkpt lat="31.208849113533304" lon="121.61965950190834">
        <ele>7.144952297210693</ele>
        <time>2018-09-17T22:17:11Z</time>
      </trkpt>
      <trkpt lat="31.208876712399636" lon="121.61971397101381">
        <ele>7.133194923400879</ele>
        <time>2018-09-17T22:17:19Z</time>
      </trkpt>
      <trkpt lat="31.208924858369713" lon="121.62008144264786">
        <ele>7.070956707000732</ele>
        <time>2018-09-17T22:17:25Z</time>
      </trkpt>
      <trkpt lat="31.208919552079713" lon="121.62022696849137">
        <ele>6.993630886077881</ele>
        <time>2018-09-17T22:17:32Z</time>
      </trkpt>
      <trkpt lat="31.20886885838709" lon="121.62047222315121">
        <ele>7.078974723815918</ele>
        <time>2018-09-17T22:17:44Z</time>
      </trkpt>
      <trkpt lat="31.208708745384524" lon="121.62060475199165">
        <ele>6.978530406951904</ele>
        <time>2018-09-17T22:17:57Z</time>
      </trkpt>
      <trkpt lat="31.20885572693167" lon="121.62083155942172">
        <ele>6.965737342834473</ele>
        <time>2018-09-17T22:18:05Z</time>
      </trkpt>
      <trkpt lat="31.20884909360042" lon="121.62069769057833">
        <ele>6.984646797180176</ele>
        <time>2018-09-17T22:18:12Z</time>
      </trkpt>
      <trkpt lat="31.208964823935528" lon="121.62073914264458">
        <ele>7.065884590148926</ele>
        <time>2018-09-17T22:18:18Z</time>
      </trkpt>
      <trkpt lat="31.20894820941742" lon="121.62080851760767">
        <ele>7.193018436431885</ele>
        <time>2018-09-17T22:18:25Z</time>
      </trkpt>
      <trkpt lat="31.208755856990795" lon="121.62066599228703">
        <ele>6.991843223571777</ele>
        <time>2018-09-17T22:18:31Z</time>
      </trkpt>
      <trkpt lat="31.20875377357774" lon="121.62058659177183">
        <ele>6.971499919891357</ele>
        <time>2018-09-17T22:18:39Z</time>
      </trkpt>
      <trkpt lat="31.20884551603671" lon="121.62074646927496">
        <ele>7.02911901473999</ele>
        <time>2018-09-17T22:18:47Z</time>
      </trkpt>
      <trkpt lat="31.208900454513074" lon="121.62059010253265">
        <ele>6.946412563323975</ele>
        <time>2018-09-17T22:18:57Z</time>
      </trkpt>
      <trkpt lat="31.20869106801056" lon="121.62065434500454">
        <ele>6.84497594833374</ele>
        <time>2018-09-17T22:19:03Z</time>
      </trkpt>
      <trkpt lat="31.20875662498958" lon="121.62070799590258">
        <ele>6.8898515701293945</ele>
        <time>2018-09-17T22:19:09Z</time>
      </trkpt>
      <trkpt lat="31.20875424393091" lon="121.62065325580775">
        <ele>6.928066730499268</ele>
        <time>2018-09-17T22:19:16Z</time>
      </trkpt>
      <trkpt lat="31.208466996328234" lon="121.62075896618467">
        <ele>6.827365875244141</ele>
        <time>2018-09-17T22:19:29Z</time>
      </trkpt>
      <trkpt lat="31.208163103440196" lon="121.62071210990095">
        <ele>6.934761047363281</ele>
        <time>2018-09-17T22:19:36Z</time>
      </trkpt>
      <trkpt lat="31.208442430840375" lon="121.62140364725599">
        <ele>5.012844085693359</ele>
        <time>2018-09-17T22:19:46Z</time>
      </trkpt>
      <trkpt lat="31.20859233441345" lon="121.62143506898191">
        <ele>5.131008148193359</ele>
        <time>2018-09-17T22:19:50Z</time>
      </trkpt>
      <trkpt lat="31.208710953943797" lon="121.62155971140125">
        <ele>4.992702484130859</ele>
        <time>2018-09-17T22:19:54Z</time>
      </trkpt>
      <trkpt lat="31.20876913674919" lon="121.62165996991676">
        <ele>5.014797210693359</ele>
        <time>2018-09-17T22:19:57Z</time>
      </trkpt>
      <trkpt lat="31.208721878980644" lon="121.62173178382105">
        <ele>4.750453948974609</ele>
        <time>2018-09-17T22:20:01Z</time>
      </trkpt>
      <trkpt lat="31.208600271174195" lon="121.62185590277645">
        <ele>4.331386566162109</ele>
        <time>2018-09-17T22:20:07Z</time>
      </trkpt>
      <trkpt lat="31.208586490606564" lon="121.62205507308605">
        <ele>4.075771331787109</ele>
        <time>2018-09-17T22:20:15Z</time>
      </trkpt>
      <trkpt lat="31.208621325252775" lon="121.62218080344353">
        <ele>3.9633445739746094</ele>
        <time>2018-09-17T22:20:19Z</time>
      </trkpt>
      <trkpt lat="31.20862611120703" lon="121.62226426358004">
        <ele>4.011806488037109</ele>
        <time>2018-09-17T22:20:22Z</time>
      </trkpt>
      <trkpt lat="31.20855729194369" lon="121.62245937081042">
        <ele>4.430446624755859</ele>
        <time>2018-09-17T22:20:29Z</time>
      </trkpt>
      <trkpt lat="31.208614631400206" lon="121.62258320060734">
        <ele>4.573451995849609</ele>
        <time>2018-09-17T22:20:33Z</time>
      </trkpt>
      <trkpt lat="31.2088049932884" lon="121.622798335854">
        <ele>4.442592620849609</ele>
        <time>2018-09-17T22:20:40Z</time>
      </trkpt>
      <trkpt lat="31.2087679916089" lon="121.6229086234699">
        <ele>4.389369964599609</ele>
        <time>2018-09-17T22:20:44Z</time>
      </trkpt>
      <trkpt lat="31.208714500722834" lon="121.6229752861581">
        <ele>4.562526702880859</ele>
        <time>2018-09-17T22:20:47Z</time>
      </trkpt>
      <trkpt lat="31.208655074256868" lon="121.62324978048169">
        <ele>4.665370941162109</ele>
        <time>2018-09-17T22:21:00Z</time>
      </trkpt>
      <trkpt lat="31.208596693010094" lon="121.62332430071889">
        <ele>4.940517425537109</ele>
        <time>2018-09-17T22:21:03Z</time>
      </trkpt>
      <trkpt lat="31.208545310351074" lon="121.62344217437841">
        <ele>5.518337249755859</ele>
        <time>2018-09-17T22:21:07Z</time>
      </trkpt>
      <trkpt lat="31.20842478146209" lon="121.62356520154249">
        <ele>5.458095550537109</ele>
        <time>2018-09-17T22:21:15Z</time>
      </trkpt>
      <trkpt lat="31.208216924192524" lon="121.62370693170031">
        <ele>4.903408050537109</ele>
        <time>2018-09-17T22:21:25Z</time>
      </trkpt>
      <trkpt lat="31.208162211964442" lon="121.62388766659669">
        <ele>4.820034027099609</ele>
        <time>2018-09-17T22:21:41Z</time>
      </trkpt>
      <trkpt lat="31.20816014591339" lon="121.6240291070988">
        <ele>4.716823577880859</ele>
        <time>2018-09-17T22:21:45Z</time>
      </trkpt>
      <trkpt lat="31.208253070516882" lon="121.62431875177593">
        <ele>4.633449554443359</ele>
        <time>2018-09-17T22:21:52Z</time>
      </trkpt>
      <trkpt lat="31.20821466713974" lon="121.62468725128679">
        <ele>4.538051605224609</ele>
        <time>2018-09-17T22:22:02Z</time>
      </trkpt>
      <trkpt lat="31.208215910744652" lon="121.62477964545934">
        <ele>3.9757398229180136</ele>
        <time>2018-09-17T22:22:10Z</time>
      </trkpt>
      <trkpt lat="31.20814707407291" lon="121.62475336894919">
        <ele>3.997665956918592</ele>
        <time>2018-09-17T22:22:32Z</time>
      </trkpt>
      <trkpt lat="31.2083283950532" lon="121.62481025353338">
        <ele>4.649634513160805</ele>
        <time>2018-09-17T22:22:44Z</time>
      </trkpt>
      <trkpt lat="31.208458251501295" lon="121.62482487408532">
        <ele>4.9317853088886</ele>
        <time>2018-09-17T22:22:48Z</time>
      </trkpt>
      <trkpt lat="31.20875885486651" lon="121.62489610896517">
        <ele>4.306091257998219</ele>
        <time>2018-09-17T22:23:02Z</time>
      </trkpt>
      <trkpt lat="31.20906169200413" lon="121.62491423748382">
        <ele>4.12482204266688</ele>
        <time>2018-09-17T22:23:14Z</time>
      </trkpt>
      <trkpt lat="31.20927021204745" lon="121.62490094369736">
        <ele>4.284436257401554</ele>
        <time>2018-09-17T22:23:25Z</time>
      </trkpt>
      <trkpt lat="31.2094521821952" lon="121.62487004038313">
        <ele>4.116697753883605</ele>
        <time>2018-09-17T22:23:33Z</time>
      </trkpt>
      <trkpt lat="31.209825801001685" lon="121.62487597032657">
        <ele>4.248254568273191</ele>
        <time>2018-09-17T22:23:48Z</time>
      </trkpt>
      <trkpt lat="31.210077167667183" lon="121.62485698302842">
        <ele>4.225574955243495</ele>
        <time>2018-09-17T22:23:58Z</time>
      </trkpt>
      <trkpt lat="31.210170679775768" lon="121.62488163169942">
        <ele>4.30980856115406</ele>
        <time>2018-09-17T22:24:02Z</time>
      </trkpt>
      <trkpt lat="31.21027496597424" lon="121.62496480444017">
        <ele>4.164593781285454</ele>
        <time>2018-09-17T22:24:09Z</time>
      </trkpt>
      <trkpt lat="31.210428808113587" lon="121.62487646227612">
        <ele>4.07042303705761</ele>
        <time>2018-09-17T22:24:16Z</time>
      </trkpt>
      <trkpt lat="31.21072757699043" lon="121.62489594588945">
        <ele>4.51832883846102</ele>
        <time>2018-09-17T22:24:26Z</time>
      </trkpt>
      <trkpt lat="31.21101442548773" lon="121.62490757294869">
        <ele>4.308330766180575</ele>
        <time>2018-09-17T22:24:37Z</time>
      </trkpt>
      <trkpt lat="31.211226697874952" lon="121.62493031509358">
        <ele>4.5198234040041</ele>
        <time>2018-09-17T22:24:45Z</time>
      </trkpt>
      <trkpt lat="31.21136934360306" lon="121.62490754354808">
        <ele>4.594961328568374</ele>
        <time>2018-09-17T22:24:52Z</time>
      </trkpt>
      <trkpt lat="31.211477206535907" lon="121.62494817697309">
        <ele>4.503882170033258</ele>
        <time>2018-09-17T22:25:03Z</time>
      </trkpt>
      <trkpt lat="31.211627056196775" lon="121.62479860038518">
        <ele>4.596252010844559</ele>
        <time>2018-09-17T22:25:11Z</time>
      </trkpt>
      <trkpt lat="31.211893768304822" lon="121.62486983813267">
        <ele>4.446066401875573</ele>
        <time>2018-09-17T22:25:18Z</time>
      </trkpt>
      <trkpt lat="31.212062623295882" lon="121.62492184642447">
        <ele>4.3606379349913205</ele>
        <time>2018-09-17T22:25:25Z</time>
      </trkpt>
      <trkpt lat="31.212193474700825" lon="121.62501016486034">
        <ele>4.437764390611655</ele>
        <time>2018-09-17T22:25:32Z</time>
      </trkpt>
      <trkpt lat="31.212259609963272" lon="121.62502831291008">
        <ele>4.457867082012637</ele>
        <time>2018-09-17T22:25:36Z</time>
      </trkpt>
      <trkpt lat="31.212356681678514" lon="121.62502451159475">
        <ele>4.355652660765683</ele>
        <time>2018-09-17T22:25:39Z</time>
      </trkpt>
      <trkpt lat="31.21244673892079" lon="121.62499199033915">
        <ele>4.439991712867489</ele>
        <time>2018-09-17T22:25:43Z</time>
      </trkpt>
      <trkpt lat="31.212523740543197" lon="121.6249930677539">
        <ele>4.4147249167113</ele>
        <time>2018-09-17T22:25:47Z</time>
      </trkpt>
      <trkpt lat="31.212615882486197" lon="121.62502963813583">
        <ele>4.16443990086656</ele>
        <time>2018-09-17T22:25:50Z</time>
      </trkpt>
      <trkpt lat="31.212709540703404" lon="121.62515643379632">
        <ele>4.217793347265882</ele>
        <time>2018-09-17T22:25:54Z</time>
      </trkpt>
      <trkpt lat="31.212785924912893" lon="121.62521874517977">
        <ele>4.565818469008434</ele>
        <time>2018-09-17T22:25:57Z</time>
      </trkpt>
      <trkpt lat="31.212915208755586" lon="121.62525829259734">
        <ele>4.5018630724131015</ele>
        <time>2018-09-17T22:26:01Z</time>
      </trkpt>
      <trkpt lat="31.213029957072933" lon="121.62521168035846">
        <ele>4.456333229419691</ele>
        <time>2018-09-17T22:26:04Z</time>
      </trkpt>
      <trkpt lat="31.213182724005065" lon="121.62511656537714">
        <ele>4.3229497526821525</ele>
        <time>2018-09-17T22:26:08Z</time>
      </trkpt>
      <trkpt lat="31.213333896620583" lon="121.62499462632788">
        <ele>4.556688872819265</ele>
        <time>2018-09-17T22:26:14Z</time>
      </trkpt>
      <trkpt lat="31.213577993644666" lon="121.6249344554927">
        <ele>4.204119190025477</ele>
        <time>2018-09-17T22:26:27Z</time>
      </trkpt>
      <trkpt lat="31.213630366421675" lon="121.62489895681315">
        <ele>4.313812214729506</ele>
        <time>2018-09-17T22:26:30Z</time>
      </trkpt>
      <trkpt lat="31.213657556019292" lon="121.62483663614434">
        <ele>4.108134194940433</ele>
        <time>2018-09-17T22:26:33Z</time>
      </trkpt>
      <trkpt lat="31.213648156091498" lon="121.62476266749326">
        <ele>4.078418217764536</ele>
        <time>2018-09-17T22:26:37Z</time>
      </trkpt>
      <trkpt lat="31.21366885848122" lon="121.62468354807733">
        <ele>4.1889582298282075</ele>
        <time>2018-09-17T22:26:41Z</time>
      </trkpt>
      <trkpt lat="31.213594814655757" lon="121.62447844324119">
        <ele>4.120629495636466</ele>
        <time>2018-09-17T22:26:48Z</time>
      </trkpt>
      <trkpt lat="31.213533570083147" lon="121.62422564764938">
        <ele>4.255379322616745</ele>
        <time>2018-09-17T22:26:56Z</time>
      </trkpt>
      <trkpt lat="31.21351528126644" lon="121.62387340431764">
        <ele>4.12418045677617</ele>
        <time>2018-09-17T22:27:06Z</time>
      </trkpt>
      <trkpt lat="31.213467753048867" lon="121.62348078543508">
        <ele>4.067370242049321</ele>
        <time>2018-09-17T22:27:21Z</time>
      </trkpt>
      <trkpt lat="31.213493573707392" lon="121.62319518663368">
        <ele>4.11422997736099</ele>
        <time>2018-09-17T22:27:33Z</time>
      </trkpt>
      <trkpt lat="31.213502566193988" lon="121.62292259273782">
        <ele>4.156695633090118</ele>
        <time>2018-09-17T22:27:44Z</time>
      </trkpt>
      <trkpt lat="31.213452218166" lon="121.62261423276684">
        <ele>3.8990095862463754</ele>
        <time>2018-09-17T22:27:57Z</time>
      </trkpt>
      <trkpt lat="31.213454214369275" lon="121.62252833440705">
        <ele>3.7725673689979295</ele>
        <time>2018-09-17T22:28:01Z</time>
      </trkpt>
      <trkpt lat="31.213471910662246" lon="121.622464925266">
        <ele>4.036070551502817</ele>
        <time>2018-09-17T22:28:05Z</time>
      </trkpt>
      <trkpt lat="31.213451730753924" lon="121.6220888133766">
        <ele>4.073354365962688</ele>
        <time>2018-09-17T22:28:18Z</time>
      </trkpt>
      <trkpt lat="31.213433400902822" lon="121.6217514462882">
        <ele>4.080722036608641</ele>
        <time>2018-09-17T22:28:29Z</time>
      </trkpt>
      <trkpt lat="31.213415848322537" lon="121.62168749626305">
        <ele>4.195951402740413</ele>
        <time>2018-09-17T22:28:32Z</time>
      </trkpt>
      <trkpt lat="31.213428369187366" lon="121.62139944068129">
        <ele>5.1954819037308795</ele>
        <time>2018-09-17T22:28:43Z</time>
      </trkpt>
      <trkpt lat="31.21341217901681" lon="121.62132871507377">
        <ele>5.926124964636028</ele>
        <time>2018-09-17T22:28:46Z</time>
      </trkpt>
      <trkpt lat="31.21333823344492" lon="121.62126070391433">
        <ele>6.595316087777608</ele>
        <time>2018-09-17T22:28:50Z</time>
      </trkpt>
      <trkpt lat="31.213289436776414" lon="121.62125339134408">
        <ele>6.35542596692828</ele>
        <time>2018-09-17T22:28:53Z</time>
      </trkpt>
      <trkpt lat="31.213277579105178" lon="121.62118754273989">
        <ele>6.964795554864075</ele>
        <time>2018-09-17T22:29:19Z</time>
      </trkpt>
      <trkpt lat="31.213328291006697" lon="121.62117913796482">
        <ele>7.12489900403385</ele>
        <time>2018-09-17T22:29:40Z</time>
      </trkpt>
      <trkpt lat="31.2132506783628" lon="121.62099297609228">
        <ele>8.837708591383034</ele>
        <time>2018-09-17T22:30:16Z</time>
      </trkpt>
      <trkpt lat="31.213233177260374" lon="121.62088024616884">
        <ele>8.988947763891126</ele>
        <time>2018-09-17T22:30:20Z</time>
      </trkpt>
      <trkpt lat="31.21328695254808" lon="121.62054638057353">
        <ele>8.40305705734648</ele>
        <time>2018-09-17T22:30:32Z</time>
      </trkpt>
      <trkpt lat="31.21332204544837" lon="121.62043825126874">
        <ele>8.073738685956094</ele>
        <time>2018-09-17T22:30:36Z</time>
      </trkpt>
      <trkpt lat="31.2132752608867" lon="121.62006942962664">
        <ele>8.55156418501133</ele>
        <time>2018-09-17T22:30:51Z</time>
      </trkpt>
      <trkpt lat="31.213266429222497" lon="121.61995994697477">
        <ele>8.614793945333155</ele>
        <time>2018-09-17T22:30:55Z</time>
      </trkpt>
      <trkpt lat="31.213288588007373" lon="121.61977322612111">
        <ele>9.111134485744905</ele>
        <time>2018-09-17T22:31:02Z</time>
      </trkpt>
      <trkpt lat="31.21325599735048" lon="121.61956591221032">
        <ele>9.423570232382467</ele>
        <time>2018-09-17T22:31:09Z</time>
      </trkpt>
      <trkpt lat="31.213279987058694" lon="121.619179185742">
        <ele>9.758207617348724</ele>
        <time>2018-09-17T22:31:24Z</time>
      </trkpt>
      <trkpt lat="31.213288744921755" lon="121.61883473241473">
        <ele>9.761446460457911</ele>
        <time>2018-09-17T22:31:38Z</time>
      </trkpt>
      <trkpt lat="31.213269108145226" lon="121.61868079934393">
        <ele>9.468513012081292</ele>
        <time>2018-09-17T22:31:45Z</time>
      </trkpt>
      <trkpt lat="31.213285421782818" lon="121.6183664214066">
        <ele>8.353532652067337</ele>
        <time>2018-09-17T22:31:58Z</time>
      </trkpt>
      <trkpt lat="31.21328556045566" lon="121.61795420269537">
        <ele>7.068714977440273</ele>
        <time>2018-09-17T22:32:13Z</time>
      </trkpt>
      <trkpt lat="31.213250038632054" lon="121.6176810155389">
        <ele>5.762893007947085</ele>
        <time>2018-09-17T22:32:24Z</time>
      </trkpt>
      <trkpt lat="31.213243608347394" lon="121.61732244952296">
        <ele>5.1307648715917935</ele>
        <time>2018-09-17T22:32:38Z</time>
      </trkpt>
      <trkpt lat="31.213232564942164" lon="121.61696306560854">
        <ele>5.023209781367989</ele>
        <time>2018-09-17T22:32:52Z</time>
      </trkpt>
      <trkpt lat="31.21321716753568" lon="121.61661560236345">
        <ele>5.116686268299695</ele>
        <time>2018-09-17T22:33:05Z</time>
      </trkpt>
      <trkpt lat="31.21321469356684" lon="121.6163616413805">
        <ele>5.192604087699358</ele>
        <time>2018-09-17T22:33:15Z</time>
      </trkpt>
      <trkpt lat="31.213184416866454" lon="121.61596971994653">
        <ele>4.642878552902211</ele>
        <time>2018-09-17T22:33:30Z</time>
      </trkpt>
      <trkpt lat="31.213169329300545" lon="121.61556559383737">
        <ele>4.436175440286036</ele>
        <time>2018-09-17T22:33:45Z</time>
      </trkpt>
      <trkpt lat="31.213118062251063" lon="121.61528777354567">
        <ele>4.0053292995783885</ele>
        <time>2018-09-17T22:33:56Z</time>
      </trkpt>
      <trkpt lat="31.213075458030417" lon="121.6150221467157">
        <ele>3.814176999605925</ele>
        <time>2018-09-17T22:34:06Z</time>
      </trkpt>
      <trkpt lat="31.213048934402977" lon="121.61465758001299">
        <ele>3.4117226172388424</ele>
        <time>2018-09-17T22:34:20Z</time>
      </trkpt>
      <trkpt lat="31.212990962768288" lon="121.61428271002167">
        <ele>3.1264967511838666</ele>
        <time>2018-09-17T22:34:35Z</time>
      </trkpt>
      <trkpt lat="31.21291829662936" lon="121.61396475903207">
        <ele>2.8571693241939684</ele>
        <time>2018-09-17T22:34:52Z</time>
      </trkpt>
      <trkpt lat="31.212914007247466" lon="121.61390675142623">
        <ele>2.9211800842386157</ele>
        <time>2018-09-17T22:34:56Z</time>
      </trkpt>
      <trkpt lat="31.212826260572392" lon="121.61378532099772">
        <ele>3.0282343290851372</ele>
        <time>2018-09-17T22:35:10Z</time>
      </trkpt>
      <trkpt lat="31.21279748305831" lon="121.61382950725161">
        <ele>2.268637894975299</ele>
        <time>2018-09-17T22:36:05Z</time>
      </trkpt>
      <trkpt lat="31.212817864380128" lon="121.6137744790113">
        <ele>2.350055876698706</ele>
        <time>2018-09-17T22:36:11Z</time>
      </trkpt>
      <trkpt lat="31.21278103875646" lon="121.6133879372238">
        <ele>2.0516416320153326</ele>
        <time>2018-09-17T22:36:25Z</time>
      </trkpt>
      <trkpt lat="31.212682365516997" lon="121.61302958608103">
        <ele>1.3193438361834957</ele>
        <time>2018-09-17T22:36:39Z</time>
      </trkpt>
      <trkpt lat="31.21260560970109" lon="121.61272137735205">
        <ele>1.2662788609323865</ele>
        <time>2018-09-17T22:36:50Z</time>
      </trkpt>
      <trkpt lat="31.21247790244984" lon="121.61238009663002">
        <ele>1.3995072937301902</ele>
        <time>2018-09-17T22:37:04Z</time>
      </trkpt>
      <trkpt lat="31.21232200924168" lon="121.61201712623166">
        <ele>1.7164654085764575</ele>
        <time>2018-09-17T22:37:19Z</time>
      </trkpt>
      <trkpt lat="31.212173923552612" lon="121.61172083795918">
        <ele>1.551767858563073</ele>
        <time>2018-09-17T22:37:32Z</time>
      </trkpt>
      <trkpt lat="31.21200173266433" lon="121.61138523913714">
        <ele>1.215804692701937</ele>
        <time>2018-09-17T22:37:47Z</time>
      </trkpt>
      <trkpt lat="31.211821390668472" lon="121.61106698640091">
        <ele>1.96717877194091</ele>
        <time>2018-09-17T22:38:01Z</time>
      </trkpt>
      <trkpt lat="31.211628831135787" lon="121.61076608079382">
        <ele>3.2217293025232614</ele>
        <time>2018-09-17T22:38:15Z</time>
      </trkpt>
      <trkpt lat="31.211435704878564" lon="121.61049472177608">
        <ele>3.94187746899474</ele>
        <time>2018-09-17T22:38:28Z</time>
      </trkpt>
      <trkpt lat="31.21120976482998" lon="121.61022824218462">
        <ele>5.326846428172622</ele>
        <time>2018-09-17T22:38:42Z</time>
      </trkpt>
      <trkpt lat="31.211007936016337" lon="121.60998669974141">
        <ele>6.373567856650126</ele>
        <time>2018-09-17T22:38:55Z</time>
      </trkpt>
      <trkpt lat="31.21078659642631" lon="121.60972563607494">
        <ele>6.162716369394918</ele>
        <time>2018-09-17T22:39:10Z</time>
      </trkpt>
      <trkpt lat="31.210574168215633" lon="121.60951445427678">
        <ele>4.796779840589451</ele>
        <time>2018-09-17T22:39:24Z</time>
      </trkpt>
      <trkpt lat="31.210334390735632" lon="121.60924715088014">
        <ele>4.052844891252219</ele>
        <time>2018-09-17T22:39:39Z</time>
      </trkpt>
      <trkpt lat="31.210098121132216" lon="121.60900153389143">
        <ele>3.978494047300609</ele>
        <time>2018-09-17T22:39:53Z</time>
      </trkpt>
      <trkpt lat="31.210042565353607" lon="121.6089597854297">
        <ele>4.173078782108378</ele>
        <time>2018-09-17T22:39:56Z</time>
      </trkpt>
      <trkpt lat="31.209952283585732" lon="121.60894949017971">
        <ele>4.1542531171177846</ele>
        <time>2018-09-17T22:40:00Z</time>
      </trkpt>
      <trkpt lat="31.209846768342064" lon="121.60901565308787">
        <ele>4.798999889642303</ele>
        <time>2018-09-17T22:40:06Z</time>
      </trkpt>
      <trkpt lat="31.209704382284176" lon="121.60907585415254">
        <ele>4.818027816656215</ele>
        <time>2018-09-17T22:40:13Z</time>
      </trkpt>
      <trkpt lat="31.209487843225652" lon="121.60933641933558">
        <ele>4.8682094536972755</ele>
        <time>2018-09-17T22:40:27Z</time>
      </trkpt>
      <trkpt lat="31.20934380333659" lon="121.6094359318518">
        <ele>4.956858654516175</ele>
        <time>2018-09-17T22:40:34Z</time>
      </trkpt>
      <trkpt lat="31.20904353801921" lon="121.6096102850162">
        <ele>5.29625212969971</ele>
        <time>2018-09-17T22:40:49Z</time>
      </trkpt>
      <trkpt lat="31.208812934702788" lon="121.60981228468361">
        <ele>5.721725479223245</ele>
        <time>2018-09-17T22:41:03Z</time>
      </trkpt>
      <trkpt lat="31.20859426771773" lon="121.6100028948789">
        <ele>6.592089848554959</ele>
        <time>2018-09-17T22:41:17Z</time>
      </trkpt>
      <trkpt lat="31.208388581248283" lon="121.61024013311258">
        <ele>7.23844454943751</ele>
        <time>2018-09-17T22:41:30Z</time>
      </trkpt>
      <trkpt lat="31.208161756332586" lon="121.61046001983695">
        <ele>6.801673207861725</ele>
        <time>2018-09-17T22:41:44Z</time>
      </trkpt>
      <trkpt lat="31.207939556803122" lon="121.61065496253241">
        <ele>6.607101746073582</ele>
        <time>2018-09-17T22:41:58Z</time>
      </trkpt>
      <trkpt lat="31.20768937135186" lon="121.61092906730886">
        <ele>6.240118404099945</ele>
        <time>2018-09-17T22:42:13Z</time>
      </trkpt>
      <trkpt lat="31.207483107291758" lon="121.61120289406593">
        <ele>6.406721307608173</ele>
        <time>2018-09-17T22:42:31Z</time>
      </trkpt>
      <trkpt lat="31.207253271849858" lon="121.61144961009622">
        <ele>7.021911854481658</ele>
        <time>2018-09-17T22:42:55Z</time>
      </trkpt>
      <trkpt lat="31.207212847035233" lon="121.61148377127947">
        <ele>7.137416661845656</ele>
        <time>2018-09-17T22:42:59Z</time>
      </trkpt>
      <trkpt lat="31.20716859715922" lon="121.61155669904747">
        <ele>7.4289189918605985</ele>
        <time>2018-09-17T22:43:06Z</time>
      </trkpt>
      <trkpt lat="31.20714520632919" lon="121.6116537520396">
        <ele>7.566501291292379</ele>
        <time>2018-09-17T22:43:14Z</time>
      </trkpt>
      <trkpt lat="31.207049979762992" lon="121.61173020766529">
        <ele>7.570853312259473</ele>
        <time>2018-09-17T22:43:22Z</time>
      </trkpt>
      <trkpt lat="31.20696101817954" lon="121.61176843880185">
        <ele>7.295360284675873</ele>
        <time>2018-09-17T22:43:29Z</time>
      </trkpt>
      <trkpt lat="31.206900326945192" lon="121.61171151476152">
        <ele>7.454683904256768</ele>
        <time>2018-09-17T22:43:36Z</time>
      </trkpt>
      <trkpt lat="31.206924465428735" lon="121.61170175348438">
        <ele>8.332475457637248</ele>
        <time>2018-09-17T22:43:50Z</time>
      </trkpt>
      <trkpt lat="31.206924465428735" lon="121.61170175348438">
        <ele>8.02437462654808</ele>
        <time>2018-09-17T22:44:00Z</time>
      </trkpt>
      <trkpt lat="31.2068185244302" lon="121.61160498248032">
        <ele>8.53760000255511</ele>
        <time>2018-09-17T22:44:13Z</time>
      </trkpt>
      <trkpt lat="31.20676571024344" lon="121.61152880977195">
        <ele>8.91311298685541</ele>
        <time>2018-09-17T22:44:20Z</time>
      </trkpt>
      <trkpt lat="31.206647296980833" lon="121.61143122578753">
        <ele>9.112101217901085</ele>
        <time>2018-09-17T22:44:35Z</time>
      </trkpt>
      <trkpt lat="31.206543220074813" lon="121.61137864201959">
        <ele>9.412502593831512</ele>
        <time>2018-09-17T22:44:42Z</time>
      </trkpt>
      <trkpt lat="31.206350649482218" lon="121.6110988861753">
        <ele>9.318079398620029</ele>
        <time>2018-09-17T22:44:59Z</time>
      </trkpt>
      <trkpt lat="31.206272091402624" lon="121.61100156816283">
        <ele>10.059864059763765</ele>
        <time>2018-09-17T22:45:09Z</time>
      </trkpt>
      <trkpt lat="31.20622877370643" lon="121.61091373534244">
        <ele>10.691362105647407</ele>
        <time>2018-09-17T22:45:16Z</time>
      </trkpt>
      <trkpt lat="31.206081079267683" lon="121.61081100022182">
        <ele>10.37495659935474</ele>
        <time>2018-09-17T22:45:28Z</time>
      </trkpt>
      <trkpt lat="31.205946988711712" lon="121.61064211429178">
        <ele>10.308774896169204</ele>
        <time>2018-09-17T22:45:41Z</time>
      </trkpt>
      <trkpt lat="31.205861864749046" lon="121.61062449957792">
        <ele>10.662496423894687</ele>
        <time>2018-09-17T22:45:49Z</time>
      </trkpt>
      <trkpt lat="31.20582723371618" lon="121.61052039827803">
        <ele>10.652817174118631</ele>
        <time>2018-09-17T22:45:56Z</time>
      </trkpt>
      <trkpt lat="31.205658436131444" lon="121.61035124194997">
        <ele>10.288896700278308</ele>
        <time>2018-09-17T22:46:10Z</time>
      </trkpt>
      <trkpt lat="31.20551913636299" lon="121.61026043236066">
        <ele>10.698249004220507</ele>
        <time>2018-09-17T22:46:22Z</time>
      </trkpt>
      <trkpt lat="31.205463611862" lon="121.61017720654361">
        <ele>10.737643238281194</ele>
        <time>2018-09-17T22:46:29Z</time>
      </trkpt>
      <trkpt lat="31.20537363703909" lon="121.61011675652323">
        <ele>10.844826945184273</ele>
        <time>2018-09-17T22:46:36Z</time>
      </trkpt>
      <trkpt lat="31.20530745749478" lon="121.61014902406596">
        <ele>11.593331811239668</ele>
        <time>2018-09-17T22:46:43Z</time>
      </trkpt>
      <trkpt lat="31.205282189971648" lon="121.61022331007818">
        <ele>11.247340234313512</ele>
        <time>2018-09-17T22:46:49Z</time>
      </trkpt>
      <trkpt lat="31.20508817029758" lon="121.61044726085078">
        <ele>11.728070657925294</ele>
        <time>2018-09-17T22:47:07Z</time>
      </trkpt>
      <trkpt lat="31.205011677577517" lon="121.61049308405681">
        <ele>11.29954938504084</ele>
        <time>2018-09-17T22:47:14Z</time>
      </trkpt>
      <trkpt lat="31.20496309355432" lon="121.61056438871839">
        <ele>11.365427722451859</ele>
        <time>2018-09-17T22:47:20Z</time>
      </trkpt>
      <trkpt lat="31.204851610198368" lon="121.61062973407091">
        <ele>11.424530375841467</ele>
        <time>2018-09-17T22:47:28Z</time>
      </trkpt>
      <trkpt lat="31.204774554252833" lon="121.61070429389439">
        <ele>11.179705529229516</ele>
        <time>2018-09-17T22:47:35Z</time>
      </trkpt>
      <trkpt lat="31.204716789744815" lon="121.6107219203594">
        <ele>11.519614839749408</ele>
        <time>2018-09-17T22:47:42Z</time>
      </trkpt>
      <trkpt lat="31.204677174880157" lon="121.61076231791762">
        <ele>11.641971527686561</ele>
        <time>2018-09-17T22:47:46Z</time>
      </trkpt>
      <trkpt lat="31.204624031962993" lon="121.61076286451556">
        <ele>11.545829722341924</ele>
        <time>2018-09-17T22:47:50Z</time>
      </trkpt>
      <trkpt lat="31.204545738425004" lon="121.61067313594133">
        <ele>11.343352130281055</ele>
        <time>2018-09-17T22:47:59Z</time>
      </trkpt>
    </trkseg>
  </trk>
</gpx>