<?xml version="1.0" encoding="UTF-8"?>
<gpx xmlns="http://www.topografix.com/GPX/1/1" xmlns:gpxtpx="http://www.garmin.com/xmlschemas/TrackPointExtension/v1" xmlns:xsi="http://www.w3.org/2001/XMLSchema-instance" xsi:schemaLocation="http://www.topografix.com/GPX/1/1 http://www.topografix.com/GPX/1/1/gpx.xsd" version="1.1" creator="gpx.py -- https://github.com/tkrajina/gpxpy">
  <trk>
    <name>gpx from keep</name>
    <type>Run</type>
    <trkseg>
      <trkpt lat="31.204552735295998" lon="121.61074633316171">
        <ele>11.54861068725586</ele>
        <time>2019-04-17T23:11:42Z</time>
      </trkpt>
      <trkpt lat="31.204443852638434" lon="121.61096349424943">
        <ele>9.06551742553711</ele>
        <time>2019-04-17T23:11:52Z</time>
      </trkpt>
      <trkpt lat="31.204341558338058" lon="121.61106787594511">
        <ele>8.39370346069336</ele>
        <time>2019-04-17T23:11:56Z</time>
      </trkpt>
      <trkpt lat="31.20421189474501" lon="121.61115084271715">
        <ele>7.942470550537109</ele>
        <time>2019-04-17T23:12:03Z</time>
      </trkpt>
      <trkpt lat="31.204163009538952" lon="121.61126036997534">
        <ele>7.237758636474609</ele>
        <time>2019-04-17T23:12:07Z</time>
      </trkpt>
      <trkpt lat="31.20415803889611" lon="121.61138182126201">
        <ele>8.15243148803711</ele>
        <time>2019-04-17T23:12:10Z</time>
      </trkpt>
      <trkpt lat="31.204203222014282" lon="121.61151085837754">
        <ele>8.63271713256836</ele>
        <time>2019-04-17T23:12:14Z</time>
      </trkpt>
      <trkpt lat="31.204381193289837" lon="121.61172907286584">
        <ele>8.58803939819336</ele>
        <time>2019-04-17T23:12:24Z</time>
      </trkpt>
      <trkpt lat="31.20456680125792" lon="121.6118862897007">
        <ele>8.17110824584961</ele>
        <time>2019-04-17T23:12:31Z</time>
      </trkpt>
      <trkpt lat="31.20473119383641" lon="121.61212889952694">
        <ele>7.92294071357086</ele>
        <time>2019-04-17T23:12:39Z</time>
      </trkpt>
      <trkpt lat="31.204969344699617" lon="121.61235659112099">
        <ele>7.449997857741437</ele>
        <time>2019-04-17T23:12:50Z</time>
      </trkpt>
      <trkpt lat="31.205194756282783" lon="121.61257669126725">
        <ele>7.75527331468977</ele>
        <time>2019-04-17T23:13:01Z</time>
      </trkpt>
      <trkpt lat="31.20537627782097" lon="121.61275206498027">
        <ele>7.634140408910369</ele>
        <time>2019-04-17T23:13:12Z</time>
      </trkpt>
      <trkpt lat="31.205393047330723" lon="121.61280329745352">
        <ele>7.400723443020809</ele>
        <time>2019-04-17T23:13:15Z</time>
      </trkpt>
      <trkpt lat="31.205165349076633" lon="121.61307141120768">
        <ele>7.528753217114215</ele>
        <time>2019-04-17T23:13:30Z</time>
      </trkpt>
      <trkpt lat="31.205115123089882" lon="121.61315273778476">
        <ele>7.504120998854479</ele>
        <time>2019-04-17T23:13:34Z</time>
      </trkpt>
      <trkpt lat="31.20495800573969" lon="121.61331214190947">
        <ele>7.229886951818806</ele>
        <time>2019-04-17T23:13:41Z</time>
      </trkpt>
      <trkpt lat="31.204803092921868" lon="121.61342736022156">
        <ele>6.963054436933845</ele>
        <time>2019-04-17T23:13:47Z</time>
      </trkpt>
      <trkpt lat="31.20465680770835" lon="121.61360085718641">
        <ele>7.1644349380811505</ele>
        <time>2019-04-17T23:13:54Z</time>
      </trkpt>
      <trkpt lat="31.204552889475174" lon="121.61368923414341">
        <ele>7.30658072820334</ele>
        <time>2019-04-17T23:13:58Z</time>
      </trkpt>
      <trkpt lat="31.204349313542487" lon="121.61395733580041">
        <ele>7.541590774627881</ele>
        <time>2019-04-17T23:14:08Z</time>
      </trkpt>
      <trkpt lat="31.20413006518772" lon="121.61415956757219">
        <ele>7.642096148464926</ele>
        <time>2019-04-17T23:14:19Z</time>
      </trkpt>
      <trkpt lat="31.203956130686123" lon="121.61432005053626">
        <ele>7.588400310474643</ele>
        <time>2019-04-17T23:14:29Z</time>
      </trkpt>
      <trkpt lat="31.2038896707662" lon="121.61435719134336">
        <ele>7.263664922130754</ele>
        <time>2019-04-17T23:14:33Z</time>
      </trkpt>
      <trkpt lat="31.203741222064348" lon="121.6145173998089">
        <ele>7.377279330934506</ele>
        <time>2019-04-17T23:14:40Z</time>
      </trkpt>
      <trkpt lat="31.20372056989351" lon="121.6145705289493">
        <ele>7.347939853381355</ele>
        <time>2019-04-17T23:14:44Z</time>
      </trkpt>
      <trkpt lat="31.20386484152934" lon="121.61485024726456">
        <ele>7.208166002690554</ele>
        <time>2019-04-17T23:14:55Z</time>
      </trkpt>
      <trkpt lat="31.203871022049853" lon="121.61491367350563">
        <ele>7.227046155057469</ele>
        <time>2019-04-17T23:14:58Z</time>
      </trkpt>
      <trkpt lat="31.203851998536443" lon="121.614963820042">
        <ele>7.0819281815237645</ele>
        <time>2019-04-17T23:15:02Z</time>
      </trkpt>
      <trkpt lat="31.203691638148584" lon="121.61509935970732">
        <ele>7.36245787318979</ele>
        <time>2019-04-17T23:15:23Z</time>
      </trkpt>
      <trkpt lat="31.203575736273304" lon="121.61524275539541">
        <ele>7.126444164226584</ele>
        <time>2019-04-17T23:15:30Z</time>
      </trkpt>
      <trkpt lat="31.203476438531105" lon="121.61531269451623">
        <ele>6.957608500690206</ele>
        <time>2019-04-17T23:15:34Z</time>
      </trkpt>
      <trkpt lat="31.20318253850977" lon="121.61560328228822">
        <ele>7.292172122891895</ele>
        <time>2019-04-17T23:15:48Z</time>
      </trkpt>
      <trkpt lat="31.20297818565163" lon="121.6158109198263">
        <ele>7.191532088070684</ele>
        <time>2019-04-17T23:15:58Z</time>
      </trkpt>
      <trkpt lat="31.202771643024313" lon="121.61603942597496">
        <ele>7.028159565822129</ele>
        <time>2019-04-17T23:16:08Z</time>
      </trkpt>
      <trkpt lat="31.202687483650497" lon="121.6161562515463">
        <ele>7.22223855288464</ele>
        <time>2019-04-17T23:16:18Z</time>
      </trkpt>
      <trkpt lat="31.202505931537548" lon="121.61633217102519">
        <ele>6.570439219775803</ele>
        <time>2019-04-17T23:16:22Z</time>
      </trkpt>
      <trkpt lat="31.202484223870766" lon="121.61635033237718">
        <ele>6.830579362772912</ele>
        <time>2019-04-17T23:16:23Z</time>
      </trkpt>
      <trkpt lat="31.202269273742075" lon="121.61657666588722">
        <ele>7.317993075847411</ele>
        <time>2019-04-17T23:16:33Z</time>
      </trkpt>
      <trkpt lat="31.20205457781789" lon="121.61681898823399">
        <ele>6.200880147757928</ele>
        <time>2019-04-17T23:16:44Z</time>
      </trkpt>
      <trkpt lat="31.20182683791027" lon="121.61709003846148">
        <ele>6.771937729231844</ele>
        <time>2019-04-17T23:16:57Z</time>
      </trkpt>
      <trkpt lat="31.20171554693847" lon="121.61722122579171">
        <ele>6.319985303136583</ele>
        <time>2019-04-17T23:17:04Z</time>
      </trkpt>
      <trkpt lat="31.20142410104739" lon="121.61747737047591">
        <ele>6.088142270889755</ele>
        <time>2019-04-17T23:17:16Z</time>
      </trkpt>
      <trkpt lat="31.201176615416735" lon="121.61769393951342">
        <ele>6.293903723273228</ele>
        <time>2019-04-17T23:17:27Z</time>
      </trkpt>
      <trkpt lat="31.20091925977879" lon="121.61801945767573">
        <ele>7.876138963124603</ele>
        <time>2019-04-17T23:17:41Z</time>
      </trkpt>
      <trkpt lat="31.20069506227748" lon="121.61826149571837">
        <ele>8.742162122084842</ele>
        <time>2019-04-17T23:17:53Z</time>
      </trkpt>
      <trkpt lat="31.20050908535583" lon="121.61851084566254">
        <ele>9.14030569435235</ele>
        <time>2019-04-17T23:18:03Z</time>
      </trkpt>
      <trkpt lat="31.200305487788352" lon="121.61875504537711">
        <ele>9.44285649135459</ele>
        <time>2019-04-17T23:18:14Z</time>
      </trkpt>
      <trkpt lat="31.20008148730982" lon="121.61906347354075">
        <ele>9.274734325432394</ele>
        <time>2019-04-17T23:18:27Z</time>
      </trkpt>
      <trkpt lat="31.199976190603042" lon="121.61915752205496">
        <ele>9.568385672420867</ele>
        <time>2019-04-17T23:18:34Z</time>
      </trkpt>
      <trkpt lat="31.199763092055647" lon="121.61940740744875">
        <ele>9.860151220435732</ele>
        <time>2019-04-17T23:18:45Z</time>
      </trkpt>
      <trkpt lat="31.199537797729693" lon="121.61965024535266">
        <ele>9.747788828542696</ele>
        <time>2019-04-17T23:18:56Z</time>
      </trkpt>
      <trkpt lat="31.19931876777706" lon="121.619864354449">
        <ele>10.09994479792335</ele>
        <time>2019-04-17T23:19:07Z</time>
      </trkpt>
      <trkpt lat="31.199264490395326" lon="121.6199123259142">
        <ele>9.932184618972688</ele>
        <time>2019-04-17T23:19:10Z</time>
      </trkpt>
      <trkpt lat="31.199213167344922" lon="121.61998685494389">
        <ele>9.635019366314559</ele>
        <time>2019-04-17T23:19:14Z</time>
      </trkpt>
      <trkpt lat="31.199044681994867" lon="121.62009174521546">
        <ele>10.036965328337253</ele>
        <time>2019-04-17T23:19:21Z</time>
      </trkpt>
      <trkpt lat="31.198971645287212" lon="121.62018741327772">
        <ele>9.766284112936681</ele>
        <time>2019-04-17T23:19:25Z</time>
      </trkpt>
      <trkpt lat="31.19893838301905" lon="121.62035976937176">
        <ele>9.933366518890395</ele>
        <time>2019-04-17T23:19:32Z</time>
      </trkpt>
      <trkpt lat="31.198627716392018" lon="121.62056304047509">
        <ele>8.98813358688298</ele>
        <time>2019-04-17T23:19:48Z</time>
      </trkpt>
      <trkpt lat="31.198405763239677" lon="121.6207164403186">
        <ele>9.188981144996113</ele>
        <time>2019-04-17T23:20:00Z</time>
      </trkpt>
      <trkpt lat="31.198180247747274" lon="121.62090371323904">
        <ele>8.056291115589957</ele>
        <time>2019-04-17T23:20:21Z</time>
      </trkpt>
      <trkpt lat="31.19788933918437" lon="121.62113543212163">
        <ele>7.749889482859238</ele>
        <time>2019-04-17T23:20:47Z</time>
      </trkpt>
      <trkpt lat="31.197665395345773" lon="121.6213703952387">
        <ele>7.790573985704597</ele>
        <time>2019-04-17T23:21:08Z</time>
      </trkpt>
      <trkpt lat="31.19740840331667" lon="121.62157663488804">
        <ele>7.031175420975945</ele>
        <time>2019-04-17T23:21:25Z</time>
      </trkpt>
      <trkpt lat="31.197180420019915" lon="121.62178395445542">
        <ele>7.599365102684274</ele>
        <time>2019-04-17T23:21:35Z</time>
      </trkpt>
      <trkpt lat="31.196943781307187" lon="121.62197149171362">
        <ele>8.35502776303403</ele>
        <time>2019-04-17T23:21:46Z</time>
      </trkpt>
      <trkpt lat="31.19669892470168" lon="121.62223219187707">
        <ele>8.00230107494722</ele>
        <time>2019-04-17T23:21:58Z</time>
      </trkpt>
      <trkpt lat="31.196643508052205" lon="121.62232514097039">
        <ele>9.068228100189337</ele>
        <time>2019-04-17T23:22:02Z</time>
      </trkpt>
      <trkpt lat="31.19665127511" lon="121.62240941334899">
        <ele>8.594008092875441</ele>
        <time>2019-04-17T23:22:05Z</time>
      </trkpt>
      <trkpt lat="31.196734844581652" lon="121.6228302256489">
        <ele>7.664950941200981</ele>
        <time>2019-04-17T23:22:20Z</time>
      </trkpt>
      <trkpt lat="31.19679864176133" lon="121.6232285429062">
        <ele>5.687054332008625</ele>
        <time>2019-04-17T23:22:34Z</time>
      </trkpt>
      <trkpt lat="31.196854921159574" lon="121.62355965636809">
        <ele>5.003217637492305</ele>
        <time>2019-04-17T23:22:45Z</time>
      </trkpt>
      <trkpt lat="31.196891052220305" lon="121.62373008823367">
        <ele>4.581209381446669</ele>
        <time>2019-04-17T23:22:51Z</time>
      </trkpt>
      <trkpt lat="31.196907578025908" lon="121.62397015707015">
        <ele>4.448161776066698</ele>
        <time>2019-04-17T23:22:59Z</time>
      </trkpt>
      <trkpt lat="31.196955271442672" lon="121.6239921007454">
        <ele>4.569043735301751</ele>
        <time>2019-04-17T23:23:03Z</time>
      </trkpt>
      <trkpt lat="31.196941016269253" lon="121.62366613728007">
        <ele>5.093611656362015</ele>
        <time>2019-04-17T23:23:14Z</time>
      </trkpt>
      <trkpt lat="31.196945000546396" lon="121.62350599829297">
        <ele>4.88904856502986</ele>
        <time>2019-04-17T23:23:20Z</time>
      </trkpt>
      <trkpt lat="31.196845715476606" lon="121.62308438485978">
        <ele>5.159382136974237</ele>
        <time>2019-04-17T23:23:35Z</time>
      </trkpt>
      <trkpt lat="31.196809104577" lon="121.62285677451999">
        <ele>5.014434451938701</ele>
        <time>2019-04-17T23:23:43Z</time>
      </trkpt>
      <trkpt lat="31.196825753236478" lon="121.62276166270415">
        <ele>5.043500730700153</ele>
        <time>2019-04-17T23:23:47Z</time>
      </trkpt>
      <trkpt lat="31.19694922886403" lon="121.62266599976992">
        <ele>4.895786590286903</ele>
        <time>2019-04-17T23:23:54Z</time>
      </trkpt>
      <trkpt lat="31.197104502383755" lon="121.62250421654326">
        <ele>5.210103993641443</ele>
        <time>2019-04-17T23:24:04Z</time>
      </trkpt>
      <trkpt lat="31.19734514799369" lon="121.62237250344356">
        <ele>4.587025265998541</ele>
        <time>2019-04-17T23:24:16Z</time>
      </trkpt>
      <trkpt lat="31.197551734457967" lon="121.62214866065008">
        <ele>5.034080552126877</ele>
        <time>2019-04-17T23:24:27Z</time>
      </trkpt>
      <trkpt lat="31.197761787740458" lon="121.62197494673444">
        <ele>5.357918844985967</ele>
        <time>2019-04-17T23:24:38Z</time>
      </trkpt>
      <trkpt lat="31.19786414140095" lon="121.62185353970558">
        <ele>6.021574604403689</ele>
        <time>2019-04-17T23:24:44Z</time>
      </trkpt>
      <trkpt lat="31.19793549934016" lon="121.62180909311832">
        <ele>6.128561700666662</ele>
        <time>2019-04-17T23:24:48Z</time>
      </trkpt>
      <trkpt lat="31.198021469071833" lon="121.62179093033787">
        <ele>5.952587058424278</ele>
        <time>2019-04-17T23:24:52Z</time>
      </trkpt>
      <trkpt lat="31.198159853831992" lon="121.62169553369205">
        <ele>5.707135195832002</ele>
        <time>2019-04-17T23:24:59Z</time>
      </trkpt>
      <trkpt lat="31.19837187611061" lon="121.62145542576238">
        <ele>5.347931463594204</ele>
        <time>2019-04-17T23:25:10Z</time>
      </trkpt>
      <trkpt lat="31.19851202217695" lon="121.62123700048004">
        <ele>6.599657770645454</ele>
        <time>2019-04-17T23:25:20Z</time>
      </trkpt>
      <trkpt lat="31.19874645701469" lon="121.62107736993623">
        <ele>6.811086269180265</ele>
        <time>2019-04-17T23:25:31Z</time>
      </trkpt>
      <trkpt lat="31.198870454700053" lon="121.62099552132804">
        <ele>6.723299571402002</ele>
        <time>2019-04-17T23:25:37Z</time>
      </trkpt>
      <trkpt lat="31.19912939881876" lon="121.62073589179911">
        <ele>6.676620054853245</ele>
        <time>2019-04-17T23:25:51Z</time>
      </trkpt>
      <trkpt lat="31.199293781710413" lon="121.6206659624225">
        <ele>7.597720390037544</ele>
        <time>2019-04-17T23:25:59Z</time>
      </trkpt>
      <trkpt lat="31.199633482955228" lon="121.62069357545457">
        <ele>7.891574397561229</ele>
        <time>2019-04-17T23:26:24Z</time>
      </trkpt>
      <trkpt lat="31.19974679771631" lon="121.62071145150703">
        <ele>8.589335380917717</ele>
        <time>2019-04-17T23:26:32Z</time>
      </trkpt>
      <trkpt lat="31.199800492263172" lon="121.62070223335927">
        <ele>8.561788337105433</ele>
        <time>2019-04-17T23:26:36Z</time>
      </trkpt>
      <trkpt lat="31.200107075897048" lon="121.62076616187063">
        <ele>8.304328503109495</ele>
        <time>2019-04-17T23:26:58Z</time>
      </trkpt>
      <trkpt lat="31.200371331006625" lon="121.6208590896449">
        <ele>8.703787826191395</ele>
        <time>2019-04-17T23:27:19Z</time>
      </trkpt>
      <trkpt lat="31.200700193184204" lon="121.62088101258871">
        <ele>8.378458474419133</ele>
        <time>2019-04-17T23:27:41Z</time>
      </trkpt>
      <trkpt lat="31.200879085300507" lon="121.62093302771686">
        <ele>7.737398003932185</ele>
        <time>2019-04-17T23:27:55Z</time>
      </trkpt>
      <trkpt lat="31.20120006427017" lon="121.62097364946632">
        <ele>9.228996562550726</ele>
        <time>2019-04-17T23:28:18Z</time>
      </trkpt>
      <trkpt lat="31.20155112500598" lon="121.6210272760893">
        <ele>9.741101364731822</ele>
        <time>2019-04-17T23:28:34Z</time>
      </trkpt>
      <trkpt lat="31.201833321089005" lon="121.62107765645183">
        <ele>9.95341066899461</ele>
        <time>2019-04-17T23:28:45Z</time>
      </trkpt>
      <trkpt lat="31.202133141506653" lon="121.62112749328465">
        <ele>9.862983955557926</ele>
        <time>2019-04-17T23:28:56Z</time>
      </trkpt>
      <trkpt lat="31.202405043354428" lon="121.62116974471166">
        <ele>10.115005627360517</ele>
        <time>2019-04-17T23:29:07Z</time>
      </trkpt>
      <trkpt lat="31.20248211071022" lon="121.62111039221925">
        <ele>10.232836021462816</ele>
        <time>2019-04-17T23:29:11Z</time>
      </trkpt>
      <trkpt lat="31.202417908566037" lon="121.62080960009907">
        <ele>10.37657506313423</ele>
        <time>2019-04-17T23:29:21Z</time>
      </trkpt>
      <trkpt lat="31.202394073688794" lon="121.62078656789167">
        <ele>10.095163042217042</ele>
        <time>2019-04-17T23:29:26Z</time>
      </trkpt>
      <trkpt lat="31.20239224004335" lon="121.62072722106277">
        <ele>10.861422589725944</ele>
        <time>2019-04-17T23:29:30Z</time>
      </trkpt>
      <trkpt lat="31.20245077758378" lon="121.62075268936798">
        <ele>10.147423968873422</ele>
        <time>2019-04-17T23:29:52Z</time>
      </trkpt>
      <trkpt lat="31.20246053873167" lon="121.62075241756934">
        <ele>9.820168635108661</ele>
        <time>2019-04-17T23:29:57Z</time>
      </trkpt>
      <trkpt lat="31.202411998549536" lon="121.6207589253655">
        <ele>10.179271367539943</ele>
        <time>2019-04-17T23:30:08Z</time>
      </trkpt>
      <trkpt lat="31.202436095473523" lon="121.62079035828029">
        <ele>9.512010522112586</ele>
        <time>2019-04-17T23:30:31Z</time>
      </trkpt>
      <trkpt lat="31.202442874726195" lon="121.62078954474794">
        <ele>9.529904285413746</ele>
        <time>2019-04-17T23:30:35Z</time>
      </trkpt>
      <trkpt lat="31.202480572460562" lon="121.62078032795145">
        <ele>10.56103401638929</ele>
        <time>2019-04-17T23:30:45Z</time>
      </trkpt>
      <trkpt lat="31.202484381567547" lon="121.62076813305924">
        <ele>9.763845792585865</ele>
        <time>2019-04-17T23:30:49Z</time>
      </trkpt>
      <trkpt lat="31.20247815398237" lon="121.62076027484424">
        <ele>9.902629564914623</ele>
        <time>2019-04-17T23:30:57Z</time>
      </trkpt>
      <trkpt lat="31.20244186387728" lon="121.62072152614252">
        <ele>10.332256494950446</ele>
        <time>2019-04-17T23:31:10Z</time>
      </trkpt>
      <trkpt lat="31.20239857234746" lon="121.62038604053016">
        <ele>9.125863281557987</ele>
        <time>2019-04-17T23:31:21Z</time>
      </trkpt>
      <trkpt lat="31.202390775540007" lon="121.62032425432557">
        <ele>9.900700891757918</ele>
        <time>2019-04-17T23:31:24Z</time>
      </trkpt>
      <trkpt lat="31.2024433519389" lon="121.62034647157788">
        <ele>8.3630380639271</ele>
        <time>2019-04-17T23:31:39Z</time>
      </trkpt>
      <trkpt lat="31.202441192133914" lon="121.62033779991371">
        <ele>7.211090884004797</ele>
        <time>2019-04-17T23:32:07Z</time>
      </trkpt>
      <trkpt lat="31.20246638332523" lon="121.62036056141046">
        <ele>6.758517963591544</ele>
        <time>2019-04-17T23:32:13Z</time>
      </trkpt>
      <trkpt lat="31.202624753041714" lon="121.62033534576682">
        <ele>6.991781465627902</ele>
        <time>2019-04-17T23:32:34Z</time>
      </trkpt>
      <trkpt lat="31.202690082639155" lon="121.62034834812492">
        <ele>6.850899115721312</ele>
        <time>2019-04-17T23:32:37Z</time>
      </trkpt>
      <trkpt lat="31.202775230591662" lon="121.6203375012752">
        <ele>6.6600741736553175</ele>
        <time>2019-04-17T23:32:41Z</time>
      </trkpt>
      <trkpt lat="31.20286259133631" lon="121.62028573392274">
        <ele>6.312844696723147</ele>
        <time>2019-04-17T23:32:45Z</time>
      </trkpt>
      <trkpt lat="31.20287465120004" lon="121.62016378458307">
        <ele>6.3780432302992125</ele>
        <time>2019-04-17T23:32:49Z</time>
      </trkpt>
      <trkpt lat="31.20280086653358" lon="121.6199418432329">
        <ele>6.34805465793918</ele>
        <time>2019-04-17T23:32:57Z</time>
      </trkpt>
      <trkpt lat="31.20280587289618" lon="121.61982233185982">
        <ele>6.360229210210704</ele>
        <time>2019-04-17T23:33:01Z</time>
      </trkpt>
      <trkpt lat="31.202703390305466" lon="121.61955730045153">
        <ele>6.5770633545702</ele>
        <time>2019-04-17T23:33:12Z</time>
      </trkpt>
      <trkpt lat="31.20262426713475" lon="121.61924944536598">
        <ele>6.700517994569914</ele>
        <time>2019-04-17T23:33:23Z</time>
      </trkpt>
      <trkpt lat="31.202585305551295" lon="121.61917004353535">
        <ele>7.022055251279703</ele>
        <time>2019-04-17T23:33:26Z</time>
      </trkpt>
      <trkpt lat="31.202486448581976" lon="121.61880012387884">
        <ele>7.262704610554273</ele>
        <time>2019-04-17T23:33:39Z</time>
      </trkpt>
      <trkpt lat="31.202473784474304" lon="121.61872207352972">
        <ele>7.343839751089519</ele>
        <time>2019-04-17T23:33:42Z</time>
      </trkpt>
      <trkpt lat="31.202504769303435" lon="121.61864754249802">
        <ele>7.580272341309261</ele>
        <time>2019-04-17T23:33:46Z</time>
      </trkpt>
      <trkpt lat="31.202677020130178" lon="121.61856812131002">
        <ele>7.513108486630848</ele>
        <time>2019-04-17T23:33:53Z</time>
      </trkpt>
      <trkpt lat="31.202839268733" lon="121.61845888906406">
        <ele>7.328341081846279</ele>
        <time>2019-04-17T23:34:00Z</time>
      </trkpt>
      <trkpt lat="31.20283512593259" lon="121.61826375782668">
        <ele>7.787408299518546</ele>
        <time>2019-04-17T23:34:08Z</time>
      </trkpt>
      <trkpt lat="31.202776727141206" lon="121.61809654452973">
        <ele>8.077004551044247</ele>
        <time>2019-04-17T23:34:16Z</time>
      </trkpt>
      <trkpt lat="31.202610589900377" lon="121.6177520908323">
        <ele>8.153640971721657</ele>
        <time>2019-04-17T23:34:30Z</time>
      </trkpt>
      <trkpt lat="31.20259225900085" lon="121.61764341202048">
        <ele>8.219403413787688</ele>
        <time>2019-04-17T23:34:34Z</time>
      </trkpt>
      <trkpt lat="31.20246698152198" lon="121.61737781758951">
        <ele>8.120332688472963</ele>
        <time>2019-04-17T23:34:44Z</time>
      </trkpt>
      <trkpt lat="31.202483877401296" lon="121.61728919028653">
        <ele>7.87393089310298</ele>
        <time>2019-04-17T23:34:47Z</time>
      </trkpt>
      <trkpt lat="31.202740865451894" lon="121.61705635512413">
        <ele>7.920400602962623</ele>
        <time>2019-04-17T23:35:00Z</time>
      </trkpt>
      <trkpt lat="31.202864084912942" lon="121.61692597902848">
        <ele>8.070672526677651</ele>
        <time>2019-04-17T23:35:07Z</time>
      </trkpt>
      <trkpt lat="31.202973704187645" lon="121.61684086586038">
        <ele>8.052309089620401</ele>
        <time>2019-04-17T23:35:13Z</time>
      </trkpt>
      <trkpt lat="31.203043197028382" lon="121.61675385848233">
        <ele>7.986419507073798</ele>
        <time>2019-04-17T23:35:17Z</time>
      </trkpt>
      <trkpt lat="31.203132464849574" lon="121.61668555053788">
        <ele>8.044392376415413</ele>
        <time>2019-04-17T23:35:21Z</time>
      </trkpt>
      <trkpt lat="31.20322061459433" lon="121.61665274806857">
        <ele>8.353845863121428</ele>
        <time>2019-04-17T23:35:25Z</time>
      </trkpt>
      <trkpt lat="31.20345262147882" lon="121.61645378859546">
        <ele>8.21214591681634</ele>
        <time>2019-04-17T23:35:36Z</time>
      </trkpt>
      <trkpt lat="31.203652585542184" lon="121.61630605649545">
        <ele>8.183054364928338</ele>
        <time>2019-04-17T23:35:46Z</time>
      </trkpt>
      <trkpt lat="31.20369465973963" lon="121.6162540135596">
        <ele>8.41030895624274</ele>
        <time>2019-04-17T23:35:49Z</time>
      </trkpt>
      <trkpt lat="31.20375108319718" lon="121.61622446561057">
        <ele>8.250339945372911</ele>
        <time>2019-04-17T23:35:52Z</time>
      </trkpt>
      <trkpt lat="31.20384138799664" lon="121.61620629849129">
        <ele>8.320281337979182</ele>
        <time>2019-04-17T23:35:56Z</time>
      </trkpt>
      <trkpt lat="31.203941581031195" lon="121.6160498998245">
        <ele>8.7017253128911</ele>
        <time>2019-04-17T23:36:04Z</time>
      </trkpt>
      <trkpt lat="31.204046009140338" lon="121.61600516931674">
        <ele>8.67391305632433</ele>
        <time>2019-04-17T23:36:11Z</time>
      </trkpt>
      <trkpt lat="31.204161520944886" lon="121.61599621537852">
        <ele>8.762395909803985</ele>
        <time>2019-04-17T23:36:19Z</time>
      </trkpt>
      <trkpt lat="31.204229065411" lon="121.6159615163928">
        <ele>8.287733193634956</ele>
        <time>2019-04-17T23:36:25Z</time>
      </trkpt>
      <trkpt lat="31.204406790228724" lon="121.6161138270288">
        <ele>9.274384205708039</ele>
        <time>2019-04-17T23:36:41Z</time>
      </trkpt>
      <trkpt lat="31.204569801483757" lon="121.61634311287888">
        <ele>8.742028893112597</ele>
        <time>2019-04-17T23:37:01Z</time>
      </trkpt>
      <trkpt lat="31.204535982018818" lon="121.61626505657053">
        <ele>9.623182603335508</ele>
        <time>2019-04-17T23:37:09Z</time>
      </trkpt>
      <trkpt lat="31.20427893790876" lon="121.61597940105767">
        <ele>10.042901606680573</ele>
        <time>2019-04-17T23:37:34Z</time>
      </trkpt>
      <trkpt lat="31.20419198185333" lon="121.61589375877253">
        <ele>9.881374613072111</ele>
        <time>2019-04-17T23:37:42Z</time>
      </trkpt>
      <trkpt lat="31.203991030800708" lon="121.61563926456105">
        <ele>10.282920045016105</ele>
        <time>2019-04-17T23:38:03Z</time>
      </trkpt>
      <trkpt lat="31.20381576044006" lon="121.61546824844345">
        <ele>9.331477398520285</ele>
        <time>2019-04-17T23:38:18Z</time>
      </trkpt>
      <trkpt lat="31.20376241218458" lon="121.61539534086295">
        <ele>8.82724206307022</ele>
        <time>2019-04-17T23:38:21Z</time>
      </trkpt>
      <trkpt lat="31.20361121997856" lon="121.61528205474048">
        <ele>7.899317377930657</ele>
        <time>2019-04-17T23:38:29Z</time>
      </trkpt>
      <trkpt lat="31.203614798286882" lon="121.61522188127296">
        <ele>7.365145678791102</ele>
        <time>2019-04-17T23:38:35Z</time>
      </trkpt>
      <trkpt lat="31.203815925400814" lon="121.61497764675347">
        <ele>7.313791349204131</ele>
        <time>2019-04-17T23:38:46Z</time>
      </trkpt>
      <trkpt lat="31.203838227299244" lon="121.61489931034419">
        <ele>7.145265015422041</ele>
        <time>2019-04-17T23:38:49Z</time>
      </trkpt>
      <trkpt lat="31.20391232739679" lon="121.6148076876873">
        <ele>7.217565246072361</ele>
        <time>2019-04-17T23:38:53Z</time>
      </trkpt>
      <trkpt lat="31.204050122482812" lon="121.61474072552966">
        <ele>7.065232562865177</ele>
        <time>2019-04-17T23:38:59Z</time>
      </trkpt>
      <trkpt lat="31.204213516175066" lon="121.6148561816346">
        <ele>7.1395430801876465</ele>
        <time>2019-04-17T23:39:07Z</time>
      </trkpt>
      <trkpt lat="31.204289623388682" lon="121.61494941800562">
        <ele>7.145004847576114</ele>
        <time>2019-04-17T23:39:11Z</time>
      </trkpt>
      <trkpt lat="31.20432344609709" lon="121.61502802066197">
        <ele>7.194688271278952</ele>
        <time>2019-04-17T23:39:14Z</time>
      </trkpt>
      <trkpt lat="31.20438251028152" lon="121.6150770762918">
        <ele>7.170491833750109</ele>
        <time>2019-04-17T23:39:18Z</time>
      </trkpt>
      <trkpt lat="31.204432932820463" lon="121.61508683000207">
        <ele>6.681655816084142</ele>
        <time>2019-04-17T23:39:21Z</time>
      </trkpt>
      <trkpt lat="31.204543363328806" lon="121.61499791558927">
        <ele>6.46366527604334</ele>
        <time>2019-04-17T23:39:27Z</time>
      </trkpt>
      <trkpt lat="31.204623629168864" lon="121.61498679576782">
        <ele>6.5735861965623315</ele>
        <time>2019-04-17T23:39:31Z</time>
      </trkpt>
      <trkpt lat="31.204700670937434" lon="121.61494206555845">
        <ele>6.636707816409988</ele>
        <time>2019-04-17T23:39:34Z</time>
      </trkpt>
      <trkpt lat="31.204746559152433" lon="121.6148664376299">
        <ele>8.28748533818355</ele>
        <time>2019-04-17T23:39:38Z</time>
      </trkpt>
      <trkpt lat="31.204817649492345" lon="121.61480598648298">
        <ele>7.741959452283503</ele>
        <time>2019-04-17T23:39:42Z</time>
      </trkpt>
      <trkpt lat="31.204977373088067" lon="121.61477751244425">
        <ele>7.173258883486291</ele>
        <time>2019-04-17T23:39:49Z</time>
      </trkpt>
      <trkpt lat="31.205054950668114" lon="121.61473982925979">
        <ele>7.392583783401619</ele>
        <time>2019-04-17T23:39:52Z</time>
      </trkpt>
      <trkpt lat="31.205235216596805" lon="121.61447200942176">
        <ele>8.62389622012467</ele>
        <time>2019-04-17T23:40:17Z</time>
      </trkpt>
      <trkpt lat="31.205301403981586" lon="121.61443676623347">
        <ele>8.647169970520217</ele>
        <time>2019-04-17T23:40:24Z</time>
      </trkpt>
      <trkpt lat="31.20537135903658" lon="121.61443432091205">
        <ele>8.497209277542751</ele>
        <time>2019-04-17T23:40:31Z</time>
      </trkpt>
      <trkpt lat="31.2054340269706" lon="121.61439284357894">
        <ele>8.480179892683381</ele>
        <time>2019-04-17T23:40:37Z</time>
      </trkpt>
      <trkpt lat="31.205578440206516" lon="121.6141949569822">
        <ele>9.458459799463547</ele>
        <time>2019-04-17T23:40:56Z</time>
      </trkpt>
      <trkpt lat="31.20573604273475" lon="121.61410928810791">
        <ele>9.167034906042538</ele>
        <time>2019-04-17T23:41:12Z</time>
      </trkpt>
      <trkpt lat="31.20588800855176" lon="121.61395558216505">
        <ele>8.08614985557847</ele>
        <time>2019-04-17T23:41:27Z</time>
      </trkpt>
      <trkpt lat="31.205907570909545" lon="121.61390733092216">
        <ele>7.821636511909176</ele>
        <time>2019-04-17T23:41:31Z</time>
      </trkpt>
      <trkpt lat="31.206120880687426" lon="121.61367148504583">
        <ele>8.405939793670196</ele>
        <time>2019-04-17T23:41:57Z</time>
      </trkpt>
      <trkpt lat="31.206262991596223" lon="121.61362837339595">
        <ele>8.633320340870277</ele>
        <time>2019-04-17T23:42:11Z</time>
      </trkpt>
      <trkpt lat="31.20631128163077" lon="121.613594756849">
        <ele>8.313048108658283</ele>
        <time>2019-04-17T23:42:17Z</time>
      </trkpt>
      <trkpt lat="31.206280968941854" lon="121.61352888945463">
        <ele>8.576671701520358</ele>
        <time>2019-04-17T23:42:24Z</time>
      </trkpt>
      <trkpt lat="31.20611870567854" lon="121.61335026711014">
        <ele>9.613928861173232</ele>
        <time>2019-04-17T23:42:45Z</time>
      </trkpt>
      <trkpt lat="31.20586916089763" lon="121.61314047708716">
        <ele>8.396308641735498</ele>
        <time>2019-04-17T23:43:06Z</time>
      </trkpt>
      <trkpt lat="31.205805749899696" lon="121.61309765253394">
        <ele>8.132766175888854</ele>
        <time>2019-04-17T23:43:13Z</time>
      </trkpt>
      <trkpt lat="31.205785463855012" lon="121.61303693335257">
        <ele>8.242080262258774</ele>
        <time>2019-04-17T23:43:17Z</time>
      </trkpt>
      <trkpt lat="31.20579527415986" lon="121.61297566937233">
        <ele>8.305950239263574</ele>
        <time>2019-04-17T23:43:20Z</time>
      </trkpt>
      <trkpt lat="31.205963028582758" lon="121.6127352095639">
        <ele>8.393310917621505</ele>
        <time>2019-04-17T23:43:37Z</time>
      </trkpt>
      <trkpt lat="31.205960118484885" lon="121.61264412704372">
        <ele>8.99358672844744</ele>
        <time>2019-04-17T23:43:58Z</time>
      </trkpt>
      <trkpt lat="31.205960118484885" lon="121.61264412704372">
        <ele>8.859418688787194</ele>
        <time>2019-04-17T23:43:59Z</time>
      </trkpt>
      <trkpt lat="31.205960118484885" lon="121.61264412704372">
        <ele>9.604234483978487</ele>
        <time>2019-04-17T23:44:19Z</time>
      </trkpt>
      <trkpt lat="31.205960118484885" lon="121.61264412704372">
        <ele>9.604234483978487</ele>
        <time>2019-04-17T23:44:23Z</time>
      </trkpt>
      <trkpt lat="31.205981246412403" lon="121.61267014897898">
        <ele>9.098138443255046</ele>
        <time>2019-04-17T23:44:30Z</time>
      </trkpt>
      <trkpt lat="31.205929729996356" lon="121.61267096647836">
        <ele>8.913725207335297</ele>
        <time>2019-04-17T23:44:37Z</time>
      </trkpt>
      <trkpt lat="31.20586712025596" lon="121.61264250825245">
        <ele>9.121083673760744</ele>
        <time>2019-04-17T23:44:41Z</time>
      </trkpt>
      <trkpt lat="31.20576009655165" lon="121.61254790992182">
        <ele>9.50951462055658</ele>
        <time>2019-04-17T23:44:56Z</time>
      </trkpt>
      <trkpt lat="31.205709634058405" lon="121.61258749193003">
        <ele>9.23382516229757</ele>
        <time>2019-04-17T23:45:02Z</time>
      </trkpt>
      <trkpt lat="31.205585468115817" lon="121.61256961085485">
        <ele>9.055822452107904</ele>
        <time>2019-04-17T23:45:09Z</time>
      </trkpt>
      <trkpt lat="31.20549685599427" lon="121.61250726945809">
        <ele>8.633184105229365</ele>
        <time>2019-04-17T23:45:16Z</time>
      </trkpt>
      <trkpt lat="31.205482796840087" lon="121.61245657827409">
        <ele>8.668112129371291</ele>
        <time>2019-04-17T23:45:20Z</time>
      </trkpt>
      <trkpt lat="31.205421548101608" lon="121.61242107152182">
        <ele>8.511054429007189</ele>
        <time>2019-04-17T23:45:27Z</time>
      </trkpt>
      <trkpt lat="31.20537249425687" lon="121.6123934251181">
        <ele>8.619525008323983</ele>
        <time>2019-04-17T23:45:52Z</time>
      </trkpt>
      <trkpt lat="31.20537572747721" lon="121.61241944881375">
        <ele>8.549705299789345</ele>
        <time>2019-04-17T23:46:02Z</time>
      </trkpt>
      <trkpt lat="31.205373286619615" lon="121.61242026226395">
        <ele>8.558486384985315</ele>
        <time>2019-04-17T23:46:05Z</time>
      </trkpt>
      <trkpt lat="31.205276858030537" lon="121.6122980115783">
        <ele>8.099725025131548</ele>
        <time>2019-04-17T23:46:30Z</time>
      </trkpt>
      <trkpt lat="31.20521072379551" lon="121.61226873993277">
        <ele>7.940953601858283</ele>
        <time>2019-04-17T23:46:37Z</time>
      </trkpt>
      <trkpt lat="31.20510807434621" lon="121.61212588641784">
        <ele>7.44382087602348</ele>
        <time>2019-04-17T23:46:52Z</time>
      </trkpt>
      <trkpt lat="31.205024904393003" lon="121.61203697684023">
        <ele>7.120720347900864</ele>
        <time>2019-04-17T23:47:00Z</time>
      </trkpt>
      <trkpt lat="31.204882031057892" lon="121.61201747036117">
        <ele>7.224843945734193</ele>
        <time>2019-04-17T23:47:11Z</time>
      </trkpt>
      <trkpt lat="31.204665275510255" lon="121.61181796701942">
        <ele>7.4861791632823085</ele>
        <time>2019-04-17T23:47:33Z</time>
      </trkpt>
      <trkpt lat="31.20448238686833" lon="121.61164963473156">
        <ele>8.062670884499099</ele>
        <time>2019-04-17T23:47:53Z</time>
      </trkpt>
      <trkpt lat="31.204329595622916" lon="121.61147804559734">
        <ele>7.772368521633311</ele>
        <time>2019-04-17T23:48:11Z</time>
      </trkpt>
      <trkpt lat="31.204240244086836" lon="121.6113129562359">
        <ele>7.699509417482467</ele>
        <time>2019-04-17T23:48:25Z</time>
      </trkpt>
      <trkpt lat="31.20418904594603" lon="121.61125033725303">
        <ele>7.4765816397609655</ele>
        <time>2019-04-17T23:48:33Z</time>
      </trkpt>
      <trkpt lat="31.204188272608775" lon="121.61119611794443">
        <ele>7.283580577528788</ele>
        <time>2019-04-17T23:48:40Z</time>
      </trkpt>
      <trkpt lat="31.204343482690536" lon="121.6110318196301">
        <ele>6.9360758736795525</ele>
        <time>2019-04-17T23:49:00Z</time>
      </trkpt>
      <trkpt lat="31.20446310522045" lon="121.61096078165825">
        <ele>7.1967867877509555</ele>
        <time>2019-04-17T23:49:11Z</time>
      </trkpt>
      <trkpt lat="31.204552418366063" lon="121.61080977108992">
        <ele>7.345301634147699</ele>
        <time>2019-04-17T23:49:25Z</time>
      </trkpt>
      <trkpt lat="31.20455871452756" lon="121.61072654217466">
        <ele>6.8479050011424825</ele>
        <time>2019-04-17T23:49:35Z</time>
      </trkpt>
      <trkpt lat="31.20443222214637" lon="121.6105481663172">
        <ele>6.94508047171627</ele>
        <time>2019-04-17T23:49:54Z</time>
      </trkpt>
      <trkpt lat="31.204392476703493" lon="121.61039119933211">
        <ele>8.961618922783817</ele>
        <time>2019-04-17T23:50:16Z</time>
      </trkpt>
      <trkpt lat="31.20443986217039" lon="121.61048038936337">
        <ele>15.150308083126976</ele>
        <time>2019-04-17T23:50:47Z</time>
      </trkpt>
      <trkpt lat="31.204602056240354" lon="121.61040256848798">
        <ele>16.992983091295688</ele>
        <time>2019-04-17T23:50:57Z</time>
      </trkpt>
      <trkpt lat="31.204552359610904" lon="121.61051372603936">
        <ele>18.63443795362581</ele>
        <time>2019-04-17T23:51:04Z</time>
      </trkpt>
      <trkpt lat="31.204406166844144" lon="121.61058503870552">
        <ele>19.634323555173783</ele>
        <time>2019-04-17T23:51:11Z</time>
      </trkpt>
      <trkpt lat="31.20435033252507" lon="121.61055766175575">
        <ele>20.11860528824346</ele>
        <time>2019-04-17T23:51:14Z</time>
      </trkpt>
      <trkpt lat="31.204290942293582" lon="121.61057393294584">
        <ele>20.953762529156705</ele>
        <time>2019-04-17T23:51:22Z</time>
      </trkpt>
      <trkpt lat="31.20435134570347" lon="121.61065742800906">
        <ele>21.00656121639048</ele>
        <time>2019-04-17T23:51:34Z</time>
      </trkpt>
      <trkpt lat="31.20428217447998" lon="121.61070162356829">
        <ele>20.85983725424066</ele>
        <time>2019-04-17T23:51:43Z</time>
      </trkpt>
    </trkseg>
  </trk>
</gpx>