<?xml version="1.0" encoding="UTF-8"?>
<gpx xmlns="http://www.topografix.com/GPX/1/1" xmlns:gpxtpx="http://www.garmin.com/xmlschemas/TrackPointExtension/v1" xmlns:xsi="http://www.w3.org/2001/XMLSchema-instance" xsi:schemaLocation="http://www.topografix.com/GPX/1/1 http://www.topografix.com/GPX/1/1/gpx.xsd" version="1.1" creator="gpx.py -- https://github.com/tkrajina/gpxpy">
  <trk>
    <name>gpx from keep</name>
    <type>Run</type>
    <trkseg>
      <trkpt lat="31.20439640887899" lon="121.61058097294516">
        <ele>8.6383723090111</ele>
        <time>2020-07-20T23:28:12Z</time>
      </trkpt>
      <trkpt lat="31.204524596485737" lon="121.61066392017182">
        <ele>8.026202531866325</ele>
        <time>2020-07-20T23:28:16Z</time>
      </trkpt>
      <trkpt lat="31.204658787642174" lon="121.61069291713488">
        <ele>7.368960318155587</ele>
        <time>2020-07-20T23:28:23Z</time>
      </trkpt>
      <trkpt lat="31.20478467776024" lon="121.61057660317555">
        <ele>7.008949624374509</ele>
        <time>2020-07-20T23:28:31Z</time>
      </trkpt>
      <trkpt lat="31.204828935016966" lon="121.61048930368591">
        <ele>6.93964181561023</ele>
        <time>2020-07-20T23:28:34Z</time>
      </trkpt>
      <trkpt lat="31.2048853558169" lon="121.61045459748023">
        <ele>6.9200622495263815</ele>
        <time>2020-07-20T23:28:37Z</time>
      </trkpt>
      <trkpt lat="31.20501823714293" lon="121.61041934268785">
        <ele>8.560039374046028</ele>
        <time>2020-07-20T23:28:40Z</time>
      </trkpt>
      <trkpt lat="31.205090114301843" lon="121.61038219513586">
        <ele>7.808411667123437</ele>
        <time>2020-07-20T23:28:43Z</time>
      </trkpt>
      <trkpt lat="31.205194889286414" lon="121.61021626846609">
        <ele>7.466018490493298</ele>
        <time>2020-07-20T23:28:49Z</time>
      </trkpt>
      <trkpt lat="31.20531505307004" lon="121.61014360124432">
        <ele>8.990709848701954</ele>
        <time>2020-07-20T23:28:55Z</time>
      </trkpt>
      <trkpt lat="31.205389307655608" lon="121.61019591922127">
        <ele>7.51034158654511</ele>
        <time>2020-07-20T23:28:58Z</time>
      </trkpt>
      <trkpt lat="31.20549737492138" lon="121.61036074401592">
        <ele>5.697341466322541</ele>
        <time>2020-07-20T23:29:04Z</time>
      </trkpt>
      <trkpt lat="31.205613945398085" lon="121.61038594732726">
        <ele>6.652794479392469</ele>
        <time>2020-07-20T23:29:07Z</time>
      </trkpt>
      <trkpt lat="31.20575265539788" lon="121.61054290616494">
        <ele>5.571150245144963</ele>
        <time>2020-07-20T23:29:13Z</time>
      </trkpt>
      <trkpt lat="31.20581034413055" lon="121.61063128143546">
        <ele>7.379699539393187</ele>
        <time>2020-07-20T23:29:16Z</time>
      </trkpt>
      <trkpt lat="31.20595508250316" lon="121.61069823203172">
        <ele>6.009406159631908</ele>
        <time>2020-07-20T23:29:22Z</time>
      </trkpt>
      <trkpt lat="31.206011422475814" lon="121.61077630493034">
        <ele>7.131285785697401</ele>
        <time>2020-07-20T23:29:25Z</time>
      </trkpt>
      <trkpt lat="31.206052244458252" lon="121.61094113107379">
        <ele>6.565106464549899</ele>
        <time>2020-07-20T23:29:31Z</time>
      </trkpt>
      <trkpt lat="31.20617337363012" lon="121.61103492153659">
        <ele>6.785078269429505</ele>
        <time>2020-07-20T23:29:37Z</time>
      </trkpt>
      <trkpt lat="31.206194176285592" lon="121.61113685284658">
        <ele>5.466625642031431</ele>
        <time>2020-07-20T23:29:40Z</time>
      </trkpt>
      <trkpt lat="31.2063813699963" lon="121.61135452793201">
        <ele>5.970411422662437</ele>
        <time>2020-07-20T23:29:49Z</time>
      </trkpt>
      <trkpt lat="31.20646157566003" lon="121.61142229502614">
        <ele>5.904682418331504</ele>
        <time>2020-07-20T23:29:52Z</time>
      </trkpt>
      <trkpt lat="31.206501915459942" lon="121.6115017222424">
        <ele>4.446267385967076</ele>
        <time>2020-07-20T23:29:55Z</time>
      </trkpt>
      <trkpt lat="31.206579439137418" lon="121.61152990954601">
        <ele>6.008832682855427</ele>
        <time>2020-07-20T23:29:58Z</time>
      </trkpt>
      <trkpt lat="31.20662820506114" lon="121.61158114207751">
        <ele>5.944305524230003</ele>
        <time>2020-07-20T23:30:01Z</time>
      </trkpt>
      <trkpt lat="31.20637912343137" lon="121.61181755422864">
        <ele>6.909584732726216</ele>
        <time>2020-07-20T23:30:16Z</time>
      </trkpt>
      <trkpt lat="31.206248277642427" lon="121.61202440567142">
        <ele>8.477908793836832</ele>
        <time>2020-07-20T23:30:26Z</time>
      </trkpt>
      <trkpt lat="31.20613705076117" lon="121.6121038433444">
        <ele>8.425055474042892</ele>
        <time>2020-07-20T23:30:30Z</time>
      </trkpt>
      <trkpt lat="31.205946786764923" lon="121.61235840788662">
        <ele>9.287070813588798</ele>
        <time>2020-07-20T23:30:39Z</time>
      </trkpt>
      <trkpt lat="31.2058968283153" lon="121.61244705615503">
        <ele>7.624474222771823</ele>
        <time>2020-07-20T23:30:42Z</time>
      </trkpt>
      <trkpt lat="31.205653994349408" lon="121.61265933284128">
        <ele>8.22086504753679</ele>
        <time>2020-07-20T23:30:54Z</time>
      </trkpt>
      <trkpt lat="31.205491757113712" lon="121.61278268732957">
        <ele>8.576699323020875</ele>
        <time>2020-07-20T23:31:00Z</time>
      </trkpt>
      <trkpt lat="31.205427748342977" lon="121.61280871615007">
        <ele>8.039768712595105</ele>
        <time>2020-07-20T23:31:03Z</time>
      </trkpt>
      <trkpt lat="31.20535574858283" lon="121.61299413889941">
        <ele>8.067218037322164</ele>
        <time>2020-07-20T23:31:12Z</time>
      </trkpt>
      <trkpt lat="31.205171482675993" lon="121.61319773141096">
        <ele>8.535544748418033</ele>
        <time>2020-07-20T23:31:24Z</time>
      </trkpt>
      <trkpt lat="31.205131837893028" lon="121.61327011127027">
        <ele>9.043097846210003</ele>
        <time>2020-07-20T23:31:27Z</time>
      </trkpt>
      <trkpt lat="31.20499560685311" lon="121.6134178568117">
        <ele>9.01812157034874</ele>
        <time>2020-07-20T23:31:33Z</time>
      </trkpt>
      <trkpt lat="31.204945925221384" lon="121.61349538715959">
        <ele>6.579544314183295</ele>
        <time>2020-07-20T23:31:36Z</time>
      </trkpt>
      <trkpt lat="31.204705202216648" lon="121.61376756009689">
        <ele>7.304403560236096</ele>
        <time>2020-07-20T23:31:48Z</time>
      </trkpt>
      <trkpt lat="31.204644943263926" lon="121.6138475297665">
        <ele>7.8648948753252625</ele>
        <time>2020-07-20T23:31:51Z</time>
      </trkpt>
      <trkpt lat="31.204423808273617" lon="121.61403729368546">
        <ele>8.869269364513457</ele>
        <time>2020-07-20T23:32:00Z</time>
      </trkpt>
      <trkpt lat="31.20434785553919" lon="121.61407850167427">
        <ele>7.492506403476</ele>
        <time>2020-07-20T23:32:03Z</time>
      </trkpt>
      <trkpt lat="31.204284620333" lon="121.61415006759451">
        <ele>7.973357647657394</ele>
        <time>2020-07-20T23:32:06Z</time>
      </trkpt>
      <trkpt lat="31.204128628262893" lon="121.61425498157203">
        <ele>7.296115316450596</ele>
        <time>2020-07-20T23:32:12Z</time>
      </trkpt>
      <trkpt lat="31.203928913448824" lon="121.61444094563085">
        <ele>9.067413578741252</ele>
        <time>2020-07-20T23:32:21Z</time>
      </trkpt>
      <trkpt lat="31.203739482658534" lon="121.61464750774086">
        <ele>7.271084236912429</ele>
        <time>2020-07-20T23:32:32Z</time>
      </trkpt>
      <trkpt lat="31.203623651667872" lon="121.61471229989185">
        <ele>5.790775872766972</ele>
        <time>2020-07-20T23:32:40Z</time>
      </trkpt>
      <trkpt lat="31.203538773406176" lon="121.61472721500961">
        <ele>6.902687571942806</ele>
        <time>2020-07-20T23:32:43Z</time>
      </trkpt>
      <trkpt lat="31.203412312762584" lon="121.61485516367587">
        <ele>6.060766092501581</ele>
        <time>2020-07-20T23:32:49Z</time>
      </trkpt>
      <trkpt lat="31.203337304114665" lon="121.61505466538301">
        <ele>6.948826585896313</ele>
        <time>2020-07-20T23:33:01Z</time>
      </trkpt>
      <trkpt lat="31.203324509982064" lon="121.61511212951237">
        <ele>7.2413228042423725</ele>
        <time>2020-07-20T23:33:25Z</time>
      </trkpt>
      <trkpt lat="31.20331500610053" lon="121.61512812235507">
        <ele>7.107580615207553</ele>
        <time>2020-07-20T23:33:51Z</time>
      </trkpt>
      <trkpt lat="31.20343580282466" lon="121.61527393774733">
        <ele>6.761476966552436</ele>
        <time>2020-07-20T23:34:18Z</time>
      </trkpt>
      <trkpt lat="31.20348182444413" lon="121.61535389358082">
        <ele>6.398561890237033</ele>
        <time>2020-07-20T23:34:24Z</time>
      </trkpt>
      <trkpt lat="31.203438399430688" lon="121.61540241492607">
        <ele>6.950914032757282</ele>
        <time>2020-07-20T23:34:27Z</time>
      </trkpt>
      <trkpt lat="31.203379265759864" lon="121.61543169305116">
        <ele>5.023779580369592</ele>
        <time>2020-07-20T23:34:30Z</time>
      </trkpt>
      <trkpt lat="31.203157804458872" lon="121.61567050374256">
        <ele>3.6882437812164426</ele>
        <time>2020-07-20T23:34:42Z</time>
      </trkpt>
      <trkpt lat="31.202869645153097" lon="121.61590579403817">
        <ele>4.027864325791597</ele>
        <time>2020-07-20T23:34:53Z</time>
      </trkpt>
      <trkpt lat="31.202751032787177" lon="121.61604376434339">
        <ele>3.4238465279340744</ele>
        <time>2020-07-20T23:34:59Z</time>
      </trkpt>
      <trkpt lat="31.202694824793234" lon="121.61613402563175">
        <ele>4.212075687944889</ele>
        <time>2020-07-20T23:35:02Z</time>
      </trkpt>
      <trkpt lat="31.202634854701355" lon="121.61618742550351">
        <ele>4.457709960639477</ele>
        <time>2020-07-20T23:35:05Z</time>
      </trkpt>
      <trkpt lat="31.202588681502313" lon="121.61627416192488">
        <ele>4.84706723690033</ele>
        <time>2020-07-20T23:35:08Z</time>
      </trkpt>
      <trkpt lat="31.202515706239097" lon="121.61631726310799">
        <ele>5.057133720256388</ele>
        <time>2020-07-20T23:35:11Z</time>
      </trkpt>
      <trkpt lat="31.202318653301994" lon="121.61654142715581">
        <ele>5.65740136615932</ele>
        <time>2020-07-20T23:35:20Z</time>
      </trkpt>
      <trkpt lat="31.202083587697313" lon="121.61682061203165">
        <ele>3.1994056990370154</ele>
        <time>2020-07-20T23:35:32Z</time>
      </trkpt>
      <trkpt lat="31.201965210009583" lon="121.61699218502754">
        <ele>4.002316011115909</ele>
        <time>2020-07-20T23:35:38Z</time>
      </trkpt>
      <trkpt lat="31.201811417939133" lon="121.61705372170346">
        <ele>5.199109165929258</ele>
        <time>2020-07-20T23:35:44Z</time>
      </trkpt>
      <trkpt lat="31.201673256700392" lon="121.61721418254879">
        <ele>4.067065293900669</ele>
        <time>2020-07-20T23:35:50Z</time>
      </trkpt>
      <trkpt lat="31.201599460902333" lon="121.61726324477053">
        <ele>4.046025617979467</ele>
        <time>2020-07-20T23:35:53Z</time>
      </trkpt>
      <trkpt lat="31.20147568934972" lon="121.61740229198548">
        <ele>5.140216915868223</ele>
        <time>2020-07-20T23:36:00Z</time>
      </trkpt>
      <trkpt lat="31.20127677460686" lon="121.6175806432274">
        <ele>3.443036478944123</ele>
        <time>2020-07-20T23:36:09Z</time>
      </trkpt>
      <trkpt lat="31.201209171694817" lon="121.6176733390403">
        <ele>4.582005439326167</ele>
        <time>2020-07-20T23:36:12Z</time>
      </trkpt>
      <trkpt lat="31.201122348996098" lon="121.61773432644279">
        <ele>3.955097840167582</ele>
        <time>2020-07-20T23:36:15Z</time>
      </trkpt>
      <trkpt lat="31.200993388128655" lon="121.61790941727125">
        <ele>4.28323519974947</ele>
        <time>2020-07-20T23:36:21Z</time>
      </trkpt>
      <trkpt lat="31.200888557703767" lon="121.6180839628401">
        <ele>4.598822201602161</ele>
        <time>2020-07-20T23:36:27Z</time>
      </trkpt>
      <trkpt lat="31.200745006661393" lon="121.61820566198834">
        <ele>4.312485171481967</ele>
        <time>2020-07-20T23:36:33Z</time>
      </trkpt>
      <trkpt lat="31.20062605834524" lon="121.61839728066101">
        <ele>4.822219933383167</ele>
        <time>2020-07-20T23:36:40Z</time>
      </trkpt>
      <trkpt lat="31.20039859696594" lon="121.61864636168197">
        <ele>4.314813258126378</ele>
        <time>2020-07-20T23:36:52Z</time>
      </trkpt>
      <trkpt lat="31.200282915898182" lon="121.61882171607633">
        <ele>5.04021130502224</ele>
        <time>2020-07-20T23:36:59Z</time>
      </trkpt>
      <trkpt lat="31.20005136248197" lon="121.61909166090949">
        <ele>4.782400819472969</ele>
        <time>2020-07-20T23:37:11Z</time>
      </trkpt>
      <trkpt lat="31.19987896939551" lon="121.61930793886035">
        <ele>5.581486979499459</ele>
        <time>2020-07-20T23:37:23Z</time>
      </trkpt>
      <trkpt lat="31.19960897345992" lon="121.61951744796374">
        <ele>5.398624332621694</ele>
        <time>2020-07-20T23:37:48Z</time>
      </trkpt>
      <trkpt lat="31.199512874633356" lon="121.61962992222968">
        <ele>5.989540829323232</ele>
        <time>2020-07-20T23:37:57Z</time>
      </trkpt>
      <trkpt lat="31.199450486004352" lon="121.61965648563022">
        <ele>4.883189261890948</ele>
        <time>2020-07-20T23:38:00Z</time>
      </trkpt>
      <trkpt lat="31.199314200708006" lon="121.61982424677988">
        <ele>5.9168711444363</ele>
        <time>2020-07-20T23:38:15Z</time>
      </trkpt>
      <trkpt lat="31.199293804023462" lon="121.61988278451518">
        <ele>6.083709055557847</ele>
        <time>2020-07-20T23:38:24Z</time>
      </trkpt>
      <trkpt lat="31.199183906343183" lon="121.61996653244543">
        <ele>6.201344166882336</ele>
        <time>2020-07-20T23:38:30Z</time>
      </trkpt>
      <trkpt lat="31.199011676867986" lon="121.62002264343498">
        <ele>4.803002806380391</ele>
        <time>2020-07-20T23:38:39Z</time>
      </trkpt>
      <trkpt lat="31.198902026641786" lon="121.62012834168561">
        <ele>5.677152119576931</ele>
        <time>2020-07-20T23:38:50Z</time>
      </trkpt>
      <trkpt lat="31.198851468821022" lon="121.62024758442368">
        <ele>6.101017610169947</ele>
        <time>2020-07-20T23:38:54Z</time>
      </trkpt>
      <trkpt lat="31.19886082621044" lon="121.62037142856813">
        <ele>6.53498606197536</ele>
        <time>2020-07-20T23:38:58Z</time>
      </trkpt>
      <trkpt lat="31.198691636260506" lon="121.62037361052593">
        <ele>6.6235316544771194</ele>
        <time>2020-07-20T23:39:05Z</time>
      </trkpt>
      <trkpt lat="31.198643052761796" lon="121.62042076759448">
        <ele>5.306863294914365</ele>
        <time>2020-07-20T23:39:08Z</time>
      </trkpt>
      <trkpt lat="31.19858745721873" lon="121.62043296693473">
        <ele>6.086766437627375</ele>
        <time>2020-07-20T23:39:11Z</time>
      </trkpt>
      <trkpt lat="31.198483759715906" lon="121.6205486897642">
        <ele>5.882361280731857</ele>
        <time>2020-07-20T23:39:17Z</time>
      </trkpt>
      <trkpt lat="31.198430507316857" lon="121.62065085831489">
        <ele>6.907832694239914</ele>
        <time>2020-07-20T23:39:23Z</time>
      </trkpt>
      <trkpt lat="31.198313826545338" lon="121.6207370432503">
        <ele>6.560534527525306</ele>
        <time>2020-07-20T23:39:38Z</time>
      </trkpt>
      <trkpt lat="31.19820017005316" lon="121.62078447603734">
        <ele>7.0512718968093395</ele>
        <time>2020-07-20T23:39:44Z</time>
      </trkpt>
      <trkpt lat="31.19805987698617" lon="121.62089207065802">
        <ele>6.763538331724703</ele>
        <time>2020-07-20T23:39:50Z</time>
      </trkpt>
      <trkpt lat="31.198008821172795" lon="121.6209679518045">
        <ele>5.80513609200716</ele>
        <time>2020-07-20T23:39:53Z</time>
      </trkpt>
      <trkpt lat="31.197815001556016" lon="121.62117825416668">
        <ele>5.993166564963758</ele>
        <time>2020-07-20T23:40:02Z</time>
      </trkpt>
      <trkpt lat="31.197742822516265" lon="121.62123056047213">
        <ele>6.016923532821238</ele>
        <time>2020-07-20T23:40:05Z</time>
      </trkpt>
      <trkpt lat="31.197525923535807" lon="121.6214690449455">
        <ele>6.277043094858527</ele>
        <time>2020-07-20T23:40:14Z</time>
      </trkpt>
      <trkpt lat="31.197362006625802" lon="121.62160617578895">
        <ele>4.99817780777812</ele>
        <time>2020-07-20T23:40:20Z</time>
      </trkpt>
      <trkpt lat="31.197156813516624" lon="121.62179994423907">
        <ele>4.959670435637236</ele>
        <time>2020-07-20T23:40:29Z</time>
      </trkpt>
      <trkpt lat="31.196938079886444" lon="121.62197826664327">
        <ele>5.258425734937191</ele>
        <time>2020-07-20T23:40:38Z</time>
      </trkpt>
      <trkpt lat="31.19684365923187" lon="121.62203707667895">
        <ele>4.949712183326483</ele>
        <time>2020-07-20T23:40:41Z</time>
      </trkpt>
      <trkpt lat="31.196634888971644" lon="121.62227474032916">
        <ele>5.762749400921166</ele>
        <time>2020-07-20T23:40:51Z</time>
      </trkpt>
      <trkpt lat="31.196634638060452" lon="121.62249531332182">
        <ele>6.03512373752892</ele>
        <time>2020-07-20T23:40:57Z</time>
      </trkpt>
      <trkpt lat="31.196689591802976" lon="121.62280719696018">
        <ele>4.441028074361384</ele>
        <time>2020-07-20T23:41:06Z</time>
      </trkpt>
      <trkpt lat="31.19674025017179" lon="121.62307951617989">
        <ele>3.229314820840955</ele>
        <time>2020-07-20T23:41:15Z</time>
      </trkpt>
      <trkpt lat="31.19677296251876" lon="121.62339356266428">
        <ele>3.768599226139486</ele>
        <time>2020-07-20T23:41:24Z</time>
      </trkpt>
      <trkpt lat="31.196841626141843" lon="121.62379756147617">
        <ele>5.218914434313774</ele>
        <time>2020-07-20T23:41:36Z</time>
      </trkpt>
      <trkpt lat="31.196880441466764" lon="121.62398966831611">
        <ele>5.014122538268566</ele>
        <time>2020-07-20T23:41:42Z</time>
      </trkpt>
      <trkpt lat="31.19688598700769" lon="121.62365692914597">
        <ele>6.461589747108519</ele>
        <time>2020-07-20T23:41:54Z</time>
      </trkpt>
      <trkpt lat="31.196914401556143" lon="121.62347267235847">
        <ele>7.142321824096143</ele>
        <time>2020-07-20T23:42:00Z</time>
      </trkpt>
      <trkpt lat="31.196891601106266" lon="121.62326240590707">
        <ele>6.686645097099245</ele>
        <time>2020-07-20T23:42:07Z</time>
      </trkpt>
      <trkpt lat="31.196869995644285" lon="121.62318924694068">
        <ele>6.725681399926543</ele>
        <time>2020-07-20T23:42:10Z</time>
      </trkpt>
      <trkpt lat="31.196880927300466" lon="121.62311500121754">
        <ele>5.756773908622563</ele>
        <time>2020-07-20T23:42:13Z</time>
      </trkpt>
      <trkpt lat="31.196810331954545" lon="121.62296787165863">
        <ele>5.317600266076624</ele>
        <time>2020-07-20T23:42:26Z</time>
      </trkpt>
      <trkpt lat="31.196800913670447" lon="121.62290609158997">
        <ele>5.609244699589908</ele>
        <time>2020-07-20T23:42:29Z</time>
      </trkpt>
      <trkpt lat="31.19676437628267" lon="121.6228491910769">
        <ele>5.070514514110982</ele>
        <time>2020-07-20T23:42:32Z</time>
      </trkpt>
      <trkpt lat="31.196821934614743" lon="121.62278144385103">
        <ele>5.921847922727466</ele>
        <time>2020-07-20T23:42:38Z</time>
      </trkpt>
      <trkpt lat="31.19687184033895" lon="121.62276653635611">
        <ele>5.10009362641722</ele>
        <time>2020-07-20T23:42:41Z</time>
      </trkpt>
      <trkpt lat="31.196945426467472" lon="121.6226716904822">
        <ele>4.287859359756112</ele>
        <time>2020-07-20T23:42:53Z</time>
      </trkpt>
      <trkpt lat="31.197082781059123" lon="121.62253104465124">
        <ele>5.152826542966068</ele>
        <time>2020-07-20T23:43:04Z</time>
      </trkpt>
      <trkpt lat="31.197278080788752" lon="121.62245786576025">
        <ele>5.447647649794817</ele>
        <time>2020-07-20T23:43:18Z</time>
      </trkpt>
      <trkpt lat="31.197316701442414" lon="121.62235272466746">
        <ele>5.488464136607945</ele>
        <time>2020-07-20T23:43:27Z</time>
      </trkpt>
      <trkpt lat="31.197406804889628" lon="121.62227603132037">
        <ele>5.880641181021929</ele>
        <time>2020-07-20T23:43:33Z</time>
      </trkpt>
      <trkpt lat="31.197662947335523" lon="121.62210610809396">
        <ele>6.554061548784375</ele>
        <time>2020-07-20T23:43:48Z</time>
      </trkpt>
      <trkpt lat="31.197783198171688" lon="121.6219830743105">
        <ele>7.250045002438128</ele>
        <time>2020-07-20T23:43:57Z</time>
      </trkpt>
      <trkpt lat="31.19783257893642" lon="121.62195244966671">
        <ele>7.442344229668379</ele>
        <time>2020-07-20T23:44:00Z</time>
      </trkpt>
      <trkpt lat="31.197863269073345" lon="121.62190610975689">
        <ele>6.120652525685728</ele>
        <time>2020-07-20T23:44:03Z</time>
      </trkpt>
      <trkpt lat="31.198017623785283" lon="121.62183510038837">
        <ele>7.353892117738724</ele>
        <time>2020-07-20T23:44:15Z</time>
      </trkpt>
      <trkpt lat="31.198064589654205" lon="121.62178171344165">
        <ele>5.764148151502013</ele>
        <time>2020-07-20T23:44:21Z</time>
      </trkpt>
      <trkpt lat="31.19814244775528" lon="121.6217434987526">
        <ele>6.034635052084923</ele>
        <time>2020-07-20T23:44:27Z</time>
      </trkpt>
      <trkpt lat="31.198171528596504" lon="121.6216811707211">
        <ele>5.215319465845823</ele>
        <time>2020-07-20T23:44:33Z</time>
      </trkpt>
      <trkpt lat="31.198371744205772" lon="121.62157438730699">
        <ele>6.111059525050223</ele>
        <time>2020-07-20T23:44:42Z</time>
      </trkpt>
      <trkpt lat="31.19847361157594" lon="121.62140094958335">
        <ele>6.536534926854074</ele>
        <time>2020-07-20T23:44:54Z</time>
      </trkpt>
      <trkpt lat="31.19851687695485" lon="121.62126030485032">
        <ele>6.128753756172955</ele>
        <time>2020-07-20T23:45:04Z</time>
      </trkpt>
      <trkpt lat="31.198753479506355" lon="121.62110202920447">
        <ele>6.594773774035275</ele>
        <time>2020-07-20T23:45:18Z</time>
      </trkpt>
      <trkpt lat="31.19884222450658" lon="121.6210250613751">
        <ele>6.063146403990686</ele>
        <time>2020-07-20T23:45:25Z</time>
      </trkpt>
      <trkpt lat="31.198896733104757" lon="121.62101530129381">
        <ele>6.5173380356282</ele>
        <time>2020-07-20T23:45:28Z</time>
      </trkpt>
      <trkpt lat="31.198966463355063" lon="121.62097058244532">
        <ele>6.08893446624279</ele>
        <time>2020-07-20T23:45:34Z</time>
      </trkpt>
      <trkpt lat="31.199039109406428" lon="121.62073752521651">
        <ele>6.058529450558126</ele>
        <time>2020-07-20T23:45:46Z</time>
      </trkpt>
      <trkpt lat="31.199071421277864" lon="121.62069416394783">
        <ele>6.668059288524091</ele>
        <time>2020-07-20T23:45:49Z</time>
      </trkpt>
      <trkpt lat="31.199176105694807" lon="121.6206694950524">
        <ele>6.49269852694124</ele>
        <time>2020-07-20T23:45:55Z</time>
      </trkpt>
      <trkpt lat="31.199496005022414" lon="121.62070551045184">
        <ele>6.525510959327221</ele>
        <time>2020-07-20T23:46:07Z</time>
      </trkpt>
      <trkpt lat="31.199613141442498" lon="121.62069953894897">
        <ele>6.5338172959163785</ele>
        <time>2020-07-20T23:46:10Z</time>
      </trkpt>
      <trkpt lat="31.199701508623217" lon="121.62072039796483">
        <ele>7.175916676409543</ele>
        <time>2020-07-20T23:46:13Z</time>
      </trkpt>
      <trkpt lat="31.19989807332779" lon="121.62072742746827">
        <ele>6.10627705976367</ele>
        <time>2020-07-20T23:46:19Z</time>
      </trkpt>
      <trkpt lat="31.200189827914766" lon="121.62071439574925">
        <ele>4.784701355732977</ele>
        <time>2020-07-20T23:46:28Z</time>
      </trkpt>
      <trkpt lat="31.200289060446618" lon="121.62071682645845">
        <ele>5.08310666307807</ele>
        <time>2020-07-20T23:46:31Z</time>
      </trkpt>
      <trkpt lat="31.200396345103567" lon="121.62079486293025">
        <ele>5.2471747836098075</ele>
        <time>2020-07-20T23:46:34Z</time>
      </trkpt>
      <trkpt lat="31.200674473411315" lon="121.62084605704814">
        <ele>4.3633632538840175</ele>
        <time>2020-07-20T23:46:43Z</time>
      </trkpt>
      <trkpt lat="31.200775295660574" lon="121.6208826323105">
        <ele>3.7005863608792424</ele>
        <time>2020-07-20T23:46:46Z</time>
      </trkpt>
      <trkpt lat="31.200974002148502" lon="121.62091486359502">
        <ele>5.010501883924007</ele>
        <time>2020-07-20T23:46:52Z</time>
      </trkpt>
      <trkpt lat="31.201172956725323" lon="121.62096823193829">
        <ele>4.746084839105606</ele>
        <time>2020-07-20T23:46:58Z</time>
      </trkpt>
      <trkpt lat="31.201466538106114" lon="121.62102077937718">
        <ele>4.3623518496751785</ele>
        <time>2020-07-20T23:47:08Z</time>
      </trkpt>
      <trkpt lat="31.2017793510487" lon="121.62109066831368">
        <ele>4.0800665793940425</ele>
        <time>2020-07-20T23:47:19Z</time>
      </trkpt>
      <trkpt lat="31.202103331230877" lon="121.6211142173878">
        <ele>3.5490765161812305</ele>
        <time>2020-07-20T23:47:30Z</time>
      </trkpt>
      <trkpt lat="31.20235273751921" lon="121.62114861208393">
        <ele>3.9786147652193904</ele>
        <time>2020-07-20T23:47:39Z</time>
      </trkpt>
      <trkpt lat="31.202430290102463" lon="121.62114128902253">
        <ele>3.3690952342003584</ele>
        <time>2020-07-20T23:47:42Z</time>
      </trkpt>
      <trkpt lat="31.2024558812025" lon="121.62104589937472">
        <ele>4.274608233012259</ele>
        <time>2020-07-20T23:47:45Z</time>
      </trkpt>
      <trkpt lat="31.202407528013897" lon="121.62088087129256">
        <ele>4.999626372940838</ele>
        <time>2020-07-20T23:47:51Z</time>
      </trkpt>
      <trkpt lat="31.202405960689912" lon="121.62082613148688">
        <ele>4.7921493500471115</ele>
        <time>2020-07-20T23:47:54Z</time>
      </trkpt>
      <trkpt lat="31.202391113532702" lon="121.62076597285268">
        <ele>4.294698323123157</ele>
        <time>2020-07-20T23:48:21Z</time>
      </trkpt>
      <trkpt lat="31.202395182904507" lon="121.62076380459033">
        <ele>4.113350165076554</ele>
        <time>2020-07-20T23:48:22Z</time>
      </trkpt>
      <trkpt lat="31.20239409836519" lon="121.62076380468008">
        <ele>5.018899348564446</ele>
        <time>2020-07-20T23:48:43Z</time>
      </trkpt>
      <trkpt lat="31.202422021435027" lon="121.62076732524814">
        <ele>5.293950984254479</ele>
        <time>2020-07-20T23:48:55Z</time>
      </trkpt>
      <trkpt lat="31.20240747216946" lon="121.6204304828755">
        <ele>3.8193285139277577</ele>
        <time>2020-07-20T23:49:14Z</time>
      </trkpt>
      <trkpt lat="31.20245478768203" lon="121.620301485415">
        <ele>4.4944839011877775</ele>
        <time>2020-07-20T23:49:26Z</time>
      </trkpt>
      <trkpt lat="31.202439140783085" lon="121.62022750482879">
        <ele>5.199475514702499</ele>
        <time>2020-07-20T23:49:34Z</time>
      </trkpt>
      <trkpt lat="31.202462050676765" lon="121.62035541286544">
        <ele>4.168471827171743</ele>
        <time>2020-07-20T23:49:55Z</time>
      </trkpt>
      <trkpt lat="31.202465046204207" lon="121.62034321784184">
        <ele>4.350699088536203</ele>
        <time>2020-07-20T23:49:56Z</time>
      </trkpt>
      <trkpt lat="31.202447152174038" lon="121.62034240633739">
        <ele>4.803440145216882</ele>
        <time>2020-07-20T23:50:26Z</time>
      </trkpt>
      <trkpt lat="31.20243899522636" lon="121.62036381561556">
        <ele>5.540382055565715</ele>
        <time>2020-07-20T23:50:40Z</time>
      </trkpt>
      <trkpt lat="31.20243519034733" lon="121.62037221676987">
        <ele>4.849911106750369</ele>
        <time>2020-07-20T23:50:46Z</time>
      </trkpt>
      <trkpt lat="31.202434130455824" lon="121.62034918229132">
        <ele>5.563436131924391</ele>
        <time>2020-07-20T23:50:52Z</time>
      </trkpt>
      <trkpt lat="31.202434130455824" lon="121.62034918229132">
        <ele>5.563436131924391</ele>
        <time>2020-07-20T23:50:58Z</time>
      </trkpt>
      <trkpt lat="31.202468025209548" lon="121.62034646953605">
        <ele>5.486232400871813</ele>
        <time>2020-07-20T23:51:25Z</time>
      </trkpt>
      <trkpt lat="31.202590047198044" lon="121.62033589062922">
        <ele>5.229252067394555</ele>
        <time>2020-07-20T23:51:31Z</time>
      </trkpt>
      <trkpt lat="31.202718555571458" lon="121.62034482283306">
        <ele>3.6353371450677514</ele>
        <time>2020-07-20T23:51:37Z</time>
      </trkpt>
      <trkpt lat="31.202859060795948" lon="121.62029115412791">
        <ele>4.7827584352344275</ele>
        <time>2020-07-20T23:51:43Z</time>
      </trkpt>
      <trkpt lat="31.202859422371095" lon="121.62020633232989">
        <ele>3.547031795606017</ele>
        <time>2020-07-20T23:51:46Z</time>
      </trkpt>
      <trkpt lat="31.202795864853524" lon="121.6200564760873">
        <ele>4.499630986712873</ele>
        <time>2020-07-20T23:51:52Z</time>
      </trkpt>
      <trkpt lat="31.202730303970288" lon="121.61974835486079">
        <ele>5.571594771929085</ele>
        <time>2020-07-20T23:52:01Z</time>
      </trkpt>
      <trkpt lat="31.20266243621914" lon="121.61956949898726">
        <ele>3.3545647552236915</ele>
        <time>2020-07-20T23:52:07Z</time>
      </trkpt>
      <trkpt lat="31.20265277752323" lon="121.61947139644023">
        <ele>2.8222069507464767</ele>
        <time>2020-07-20T23:52:10Z</time>
      </trkpt>
      <trkpt lat="31.202577521479004" lon="121.61909334896032">
        <ele>5.011832945980132</ele>
        <time>2020-07-20T23:52:22Z</time>
      </trkpt>
      <trkpt lat="31.20251923881501" lon="121.61881692386568">
        <ele>3.651745116338134</ele>
        <time>2020-07-20T23:52:31Z</time>
      </trkpt>
      <trkpt lat="31.202640602391373" lon="121.61865295151937">
        <ele>4.389021554030478</ele>
        <time>2020-07-20T23:52:46Z</time>
      </trkpt>
      <trkpt lat="31.20269346327775" lon="121.61866324563593">
        <ele>5.789963422343135</ele>
        <time>2020-07-20T23:52:49Z</time>
      </trkpt>
      <trkpt lat="31.20280334712539" lon="121.61858979195787">
        <ele>5.295085600577295</ele>
        <time>2020-07-20T23:52:55Z</time>
      </trkpt>
      <trkpt lat="31.202832963394403" lon="121.6185277273104">
        <ele>4.127968417480588</ele>
        <time>2020-07-20T23:52:58Z</time>
      </trkpt>
      <trkpt lat="31.202792838347303" lon="121.61825427572376">
        <ele>5.718743810430169</ele>
        <time>2020-07-20T23:53:10Z</time>
      </trkpt>
      <trkpt lat="31.202733866311693" lon="121.6181182295814">
        <ele>5.506774993613362</ele>
        <time>2020-07-20T23:53:16Z</time>
      </trkpt>
      <trkpt lat="31.202725530989227" lon="121.61804776530869">
        <ele>5.858931900002062</ele>
        <time>2020-07-20T23:53:19Z</time>
      </trkpt>
      <trkpt lat="31.202621858078405" lon="121.61787377878318">
        <ele>5.991425421088934</ele>
        <time>2020-07-20T23:53:32Z</time>
      </trkpt>
      <trkpt lat="31.202601920487428" lon="121.61774504495902">
        <ele>5.310009256005287</ele>
        <time>2020-07-20T23:53:38Z</time>
      </trkpt>
      <trkpt lat="31.202543483275328" lon="121.61761414546208">
        <ele>5.960946252569556</ele>
        <time>2020-07-20T23:53:47Z</time>
      </trkpt>
      <trkpt lat="31.202540292994453" lon="121.6175490998397">
        <ele>5.800017213448882</ele>
        <time>2020-07-20T23:53:53Z</time>
      </trkpt>
      <trkpt lat="31.202477532981362" lon="121.61740139603266">
        <ele>5.656367094255984</ele>
        <time>2020-07-20T23:54:02Z</time>
      </trkpt>
      <trkpt lat="31.202471913241627" lon="121.61732469588183">
        <ele>5.445979919284582</ele>
        <time>2020-07-20T23:54:08Z</time>
      </trkpt>
      <trkpt lat="31.202664637428462" lon="121.61709728696624">
        <ele>5.682818685658276</ele>
        <time>2020-07-20T23:54:29Z</time>
      </trkpt>
      <trkpt lat="31.20283505878804" lon="121.61694143023152">
        <ele>6.475475946441293</ele>
        <time>2020-07-20T23:54:44Z</time>
      </trkpt>
      <trkpt lat="31.202952513514816" lon="121.61688531692535">
        <ele>5.941779195331037</ele>
        <time>2020-07-20T23:54:53Z</time>
      </trkpt>
      <trkpt lat="31.203071392762553" lon="121.61675629545228">
        <ele>6.044116706587374</ele>
        <time>2020-07-20T23:55:05Z</time>
      </trkpt>
      <trkpt lat="31.20326131211187" lon="121.61662374397129">
        <ele>5.88179081864655</ele>
        <time>2020-07-20T23:55:20Z</time>
      </trkpt>
      <trkpt lat="31.203298502391757" lon="121.61657603868369">
        <ele>5.93694478739053</ele>
        <time>2020-07-20T23:55:23Z</time>
      </trkpt>
      <trkpt lat="31.203342985055645" lon="121.61655841768683">
        <ele>6.445259233936667</ele>
        <time>2020-07-20T23:55:26Z</time>
      </trkpt>
      <trkpt lat="31.203517185254423" lon="121.61641773531991">
        <ele>6.377604844979942</ele>
        <time>2020-07-20T23:55:40Z</time>
      </trkpt>
      <trkpt lat="31.203771113066313" lon="121.61626132529096">
        <ele>7.212471831589937</ele>
        <time>2020-07-20T23:56:02Z</time>
      </trkpt>
      <trkpt lat="31.203825161701708" lon="121.6161610361699">
        <ele>6.334535198286176</ele>
        <time>2020-07-20T23:56:08Z</time>
      </trkpt>
      <trkpt lat="31.203943207344096" lon="121.61605044177276">
        <ele>7.024281868711114</ele>
        <time>2020-07-20T23:56:14Z</time>
      </trkpt>
      <trkpt lat="31.20403731714444" lon="121.61602224566855">
        <ele>7.062159119173884</ele>
        <time>2020-07-20T23:56:20Z</time>
      </trkpt>
      <trkpt lat="31.204097552660425" lon="121.61597480834321">
        <ele>5.7528777327388525</ele>
        <time>2020-07-20T23:56:23Z</time>
      </trkpt>
      <trkpt lat="31.20421408038185" lon="121.61604066187623">
        <ele>6.880502430722117</ele>
        <time>2020-07-20T23:56:29Z</time>
      </trkpt>
      <trkpt lat="31.204255789600317" lon="121.61609025896854">
        <ele>7.296278295107186</ele>
        <time>2020-07-20T23:56:32Z</time>
      </trkpt>
      <trkpt lat="31.204302690510072" lon="121.61609621798908">
        <ele>7.650337390601635</ele>
        <time>2020-07-20T23:56:35Z</time>
      </trkpt>
      <trkpt lat="31.204514499451864" lon="121.61633281800225">
        <ele>7.477240831591189</ele>
        <time>2020-07-20T23:56:53Z</time>
      </trkpt>
      <trkpt lat="31.204564363908275" lon="121.61635910457302">
        <ele>7.7210774049162865</ele>
        <time>2020-07-20T23:56:56Z</time>
      </trkpt>
      <trkpt lat="31.20457121553956" lon="121.6162802318351">
        <ele>8.188958297483623</ele>
        <time>2020-07-20T23:57:02Z</time>
      </trkpt>
      <trkpt lat="31.20437734112456" lon="121.6159999921148">
        <ele>8.692491041496396</ele>
        <time>2020-07-20T23:57:23Z</time>
      </trkpt>
      <trkpt lat="31.204210227239784" lon="121.61580675226345">
        <ele>9.492427730932832</ele>
        <time>2020-07-20T23:57:39Z</time>
      </trkpt>
      <trkpt lat="31.204060396031508" lon="121.61568940227701">
        <ele>8.527638666331768</ele>
        <time>2020-07-20T23:57:50Z</time>
      </trkpt>
      <trkpt lat="31.20401597695352" lon="121.61563736517589">
        <ele>8.591609731316566</ele>
        <time>2020-07-20T23:57:54Z</time>
      </trkpt>
      <trkpt lat="31.20397315890106" lon="121.61561378770433">
        <ele>8.820474683307111</ele>
        <time>2020-07-20T23:57:57Z</time>
      </trkpt>
      <trkpt lat="31.203764844392154" lon="121.61540428526754">
        <ele>7.24610083643347</ele>
        <time>2020-07-20T23:58:15Z</time>
      </trkpt>
      <trkpt lat="31.203694140900947" lon="121.61533408942319">
        <ele>6.670434208586812</ele>
        <time>2020-07-20T23:58:21Z</time>
      </trkpt>
      <trkpt lat="31.203568919763324" lon="121.61528558188843">
        <ele>6.04358762037009</ele>
        <time>2020-07-20T23:58:30Z</time>
      </trkpt>
      <trkpt lat="31.203560834691526" lon="121.61523055935557">
        <ele>5.478102705441415</ele>
        <time>2020-07-20T23:58:33Z</time>
      </trkpt>
      <trkpt lat="31.203653111297314" lon="121.61512836544456">
        <ele>5.8988946955651045</ele>
        <time>2020-07-20T23:58:39Z</time>
      </trkpt>
      <trkpt lat="31.203714682716235" lon="121.61510152621769">
        <ele>5.351706515997648</ele>
        <time>2020-07-20T23:58:42Z</time>
      </trkpt>
      <trkpt lat="31.203854517505683" lon="121.61487410093376">
        <ele>6.2310252469033</ele>
        <time>2020-07-20T23:58:51Z</time>
      </trkpt>
      <trkpt lat="31.204092832618244" lon="121.61457727461331">
        <ele>6.0872162487357855</ele>
        <time>2020-07-20T23:59:03Z</time>
      </trkpt>
      <trkpt lat="31.204294484462157" lon="121.6143468575669">
        <ele>6.313240431249142</ele>
        <time>2020-07-20T23:59:12Z</time>
      </trkpt>
      <trkpt lat="31.204456725039037" lon="121.61422784826225">
        <ele>2.5349666634574533</ele>
        <time>2020-07-20T23:59:18Z</time>
      </trkpt>
      <trkpt lat="31.20452077893246" lon="121.61415031912783">
        <ele>4.907242262735963</ele>
        <time>2020-07-20T23:59:21Z</time>
      </trkpt>
      <trkpt lat="31.20468628100088" lon="121.6140210081283">
        <ele>4.735436195507646</ele>
        <time>2020-07-20T23:59:27Z</time>
      </trkpt>
      <trkpt lat="31.204755756107005" lon="121.61394456213033">
        <ele>5.537853840738535</ele>
        <time>2020-07-20T23:59:30Z</time>
      </trkpt>
      <trkpt lat="31.20482737573451" lon="121.61389711975661">
        <ele>6.4557015132158995</ele>
        <time>2020-07-20T23:59:33Z</time>
      </trkpt>
      <trkpt lat="31.20496740302851" lon="121.61375208757937">
        <ele>6.37516675889492</ele>
        <time>2020-07-20T23:59:39Z</time>
      </trkpt>
      <trkpt lat="31.205106099261787" lon="121.61357642380086">
        <ele>7.900406907312572</ele>
        <time>2020-07-20T23:59:46Z</time>
      </trkpt>
      <trkpt lat="31.205156562525914" lon="121.61353765667351">
        <ele>8.326327352784574</ele>
        <time>2020-07-20T23:59:50Z</time>
      </trkpt>
      <trkpt lat="31.205228428429827" lon="121.61351948904482">
        <ele>7.979241282679141</ele>
        <time>2020-07-20T23:59:54Z</time>
      </trkpt>
      <trkpt lat="31.205442775084137" lon="121.6133375826181">
        <ele>6.707952785305679</ele>
        <time>2020-07-21T00:00:08Z</time>
      </trkpt>
      <trkpt lat="31.205472379190926" lon="121.61327604671388">
        <ele>4.778142492286861</ele>
        <time>2020-07-21T00:00:11Z</time>
      </trkpt>
      <trkpt lat="31.205584155762967" lon="121.61319173366329">
        <ele>5.754488632082939</ele>
        <time>2020-07-21T00:00:17Z</time>
      </trkpt>
      <trkpt lat="31.205617303863878" lon="121.61310607143751">
        <ele>6.598501684144139</ele>
        <time>2020-07-21T00:00:20Z</time>
      </trkpt>
      <trkpt lat="31.205843649695993" lon="121.61283443418051">
        <ele>6.360855725593865</ele>
        <time>2020-07-21T00:00:32Z</time>
      </trkpt>
      <trkpt lat="31.205897398423406" lon="121.61275446160003">
        <ele>6.404699285514653</ele>
        <time>2020-07-21T00:00:35Z</time>
      </trkpt>
      <trkpt lat="31.205922677886665" lon="121.61267422001963">
        <ele>6.62833402864635</ele>
        <time>2020-07-21T00:00:38Z</time>
      </trkpt>
      <trkpt lat="31.206102273565158" lon="121.61254300216436">
        <ele>7.58966439217329</ele>
        <time>2020-07-21T00:00:47Z</time>
      </trkpt>
      <trkpt lat="31.206302015371534" lon="121.61230605933847">
        <ele>6.77663519885391</ele>
        <time>2020-07-21T00:00:56Z</time>
      </trkpt>
      <trkpt lat="31.206418144588675" lon="121.61219924234793">
        <ele>8.585980693809688</ele>
        <time>2020-07-21T00:01:05Z</time>
      </trkpt>
      <trkpt lat="31.20652554104838" lon="121.61216480560064">
        <ele>8.327011155895889</ele>
        <time>2020-07-21T00:01:14Z</time>
      </trkpt>
      <trkpt lat="31.206789488804404" lon="121.61199291476014">
        <ele>7.835425294004381</ele>
        <time>2020-07-21T00:01:35Z</time>
      </trkpt>
      <trkpt lat="31.206836986865447" lon="121.61192866293884">
        <ele>8.4003637265414</ele>
        <time>2020-07-21T00:01:41Z</time>
      </trkpt>
      <trkpt lat="31.206867410662987" lon="121.61185465313402">
        <ele>8.279976544901729</ele>
        <time>2020-07-21T00:01:47Z</time>
      </trkpt>
      <trkpt lat="31.206824100343947" lon="121.61176085958971">
        <ele>6.056916689500213</ele>
        <time>2020-07-21T00:01:54Z</time>
      </trkpt>
      <trkpt lat="31.20673061275036" lon="121.61168929931388">
        <ele>7.148093108087778</ele>
        <time>2020-07-21T00:01:58Z</time>
      </trkpt>
      <trkpt lat="31.20653150295615" lon="121.61145671822045">
        <ele>7.228039188310504</ele>
        <time>2020-07-21T00:02:10Z</time>
      </trkpt>
      <trkpt lat="31.206383795687575" lon="121.61137404658493">
        <ele>6.578956698067486</ele>
        <time>2020-07-21T00:02:16Z</time>
      </trkpt>
      <trkpt lat="31.20634536651826" lon="121.61127699752107">
        <ele>7.2658251551911235</ele>
        <time>2020-07-21T00:02:19Z</time>
      </trkpt>
      <trkpt lat="31.206293090865895" lon="121.6112046190381">
        <ele>7.98956979624927</ele>
        <time>2020-07-21T00:02:22Z</time>
      </trkpt>
      <trkpt lat="31.206164927098857" lon="121.6110913107757">
        <ele>7.0213213274255395</ele>
        <time>2020-07-21T00:02:28Z</time>
      </trkpt>
      <trkpt lat="31.205956854368353" lon="121.6108728216069">
        <ele>7.497910697944462</ele>
        <time>2020-07-21T00:02:37Z</time>
      </trkpt>
      <trkpt lat="31.205890739107403" lon="121.6108150824838">
        <ele>6.615121649578214</ele>
        <time>2020-07-21T00:02:40Z</time>
      </trkpt>
      <trkpt lat="31.20577220939263" lon="121.61049762997771">
        <ele>8.449015690013766</ele>
        <time>2020-07-21T00:02:58Z</time>
      </trkpt>
      <trkpt lat="31.205635141209893" lon="121.61031898209207">
        <ele>6.579319252632558</ele>
        <time>2020-07-21T00:03:10Z</time>
      </trkpt>
      <trkpt lat="31.205541628238198" lon="121.61027805253522">
        <ele>7.490163175389171</ele>
        <time>2020-07-21T00:03:16Z</time>
      </trkpt>
    </trkseg>
  </trk>
</gpx>