<?xml version="1.0" encoding="UTF-8"?>
<gpx xmlns="http://www.topografix.com/GPX/1/1" xmlns:gpxtpx="http://www.garmin.com/xmlschemas/TrackPointExtension/v1" xmlns:xsi="http://www.w3.org/2001/XMLSchema-instance" xsi:schemaLocation="http://www.topografix.com/GPX/1/1 http://www.topografix.com/GPX/1/1/gpx.xsd" version="1.1" creator="gpx.py -- https://github.com/tkrajina/gpxpy">
  <trk>
    <name>gpx from keep</name>
    <type>Run</type>
    <trkseg>
      <trkpt lat="31.20426549848203" lon="121.61051374975324">
        <ele>9.128488540649414</ele>
        <time>2018-09-08T22:47:08Z</time>
      </trkpt>
      <trkpt lat="31.204350618157214" lon="121.61053732886518">
        <ele>9.09774112701416</ele>
        <time>2018-09-08T22:47:15Z</time>
      </trkpt>
      <trkpt lat="31.204434347664595" lon="121.61060916465868">
        <ele>9.069015502929688</ele>
        <time>2018-09-08T22:47:22Z</time>
      </trkpt>
      <trkpt lat="31.204313458491338" lon="121.61093341291576">
        <ele>8.982940673828125</ele>
        <time>2018-09-08T22:47:35Z</time>
      </trkpt>
      <trkpt lat="31.204189484214155" lon="121.61102315718733">
        <ele>8.897216796875</ele>
        <time>2018-09-08T22:47:41Z</time>
      </trkpt>
      <trkpt lat="31.204078159262625" lon="121.6112400447493">
        <ele>8.695003509521484</ele>
        <time>2018-09-08T22:47:47Z</time>
      </trkpt>
      <trkpt lat="31.204043968729692" lon="121.6112771877887">
        <ele>8.428473472595215</ele>
        <time>2018-09-08T22:47:53Z</time>
      </trkpt>
      <trkpt lat="31.20413790808002" lon="121.61147128409756">
        <ele>8.442229270935059</ele>
        <time>2018-09-08T22:48:00Z</time>
      </trkpt>
      <trkpt lat="31.2042839977307" lon="121.61154094305417">
        <ele>8.451118469238281</ele>
        <time>2018-09-08T22:48:06Z</time>
      </trkpt>
      <trkpt lat="31.204408626393153" lon="121.61166509305865">
        <ele>8.42725658416748</ele>
        <time>2018-09-08T22:48:13Z</time>
      </trkpt>
      <trkpt lat="31.204477411532807" lon="121.61177487922588">
        <ele>8.432316780090332</ele>
        <time>2018-09-08T22:48:19Z</time>
      </trkpt>
      <trkpt lat="31.204569014205884" lon="121.6118288185693">
        <ele>8.425902366638184</ele>
        <time>2018-09-08T22:48:25Z</time>
      </trkpt>
      <trkpt lat="31.20477818871077" lon="121.61201422589656">
        <ele>8.444915771484375</ele>
        <time>2018-09-08T22:48:31Z</time>
      </trkpt>
      <trkpt lat="31.20475138743516" lon="121.61231106706417">
        <ele>7.888942718505859</ele>
        <time>2018-09-08T22:48:38Z</time>
      </trkpt>
      <trkpt lat="31.204988436567348" lon="121.61255854589513">
        <ele>7.889064788818359</ele>
        <time>2018-09-08T22:48:54Z</time>
      </trkpt>
      <trkpt lat="31.205210612096103" lon="121.61275451838884">
        <ele>7.891445159912109</ele>
        <time>2018-09-08T22:49:07Z</time>
      </trkpt>
      <trkpt lat="31.205333861630265" lon="121.61290089034087">
        <ele>7.893581390380859</ele>
        <time>2018-09-08T22:49:15Z</time>
      </trkpt>
      <trkpt lat="31.205325371788113" lon="121.6130060687571">
        <ele>7.894435882568359</ele>
        <time>2018-09-08T22:49:19Z</time>
      </trkpt>
      <trkpt lat="31.20529277813967" lon="121.6130770932495">
        <ele>7.893642425537109</ele>
        <time>2018-09-08T22:49:22Z</time>
      </trkpt>
      <trkpt lat="31.205106365323292" lon="121.61325276470338">
        <ele>7.893337249755859</ele>
        <time>2018-09-08T22:49:33Z</time>
      </trkpt>
      <trkpt lat="31.20504944434778" lon="121.61323135462396">
        <ele>7.892421722412109</ele>
        <time>2018-09-08T22:49:37Z</time>
      </trkpt>
      <trkpt lat="31.204953125745966" lon="121.61331160016813">
        <ele>7.888576507568359</ele>
        <time>2018-09-08T22:49:47Z</time>
      </trkpt>
      <trkpt lat="31.204855153812606" lon="121.61342383199194">
        <ele>7.888393402099609</ele>
        <time>2018-09-08T22:49:51Z</time>
      </trkpt>
      <trkpt lat="31.204566768294036" lon="121.61362797152724">
        <ele>7.889247894287109</ele>
        <time>2018-09-08T22:50:04Z</time>
      </trkpt>
      <trkpt lat="31.204344209401917" lon="121.61390095463152">
        <ele>7.897365570068359</ele>
        <time>2018-09-08T22:50:16Z</time>
      </trkpt>
      <trkpt lat="31.20425954195538" lon="121.6139879735513">
        <ele>7.888820648193359</ele>
        <time>2018-09-08T22:50:20Z</time>
      </trkpt>
      <trkpt lat="31.204189712633905" lon="121.61416227326652">
        <ele>7.888942718505859</ele>
        <time>2018-09-08T22:50:27Z</time>
      </trkpt>
      <trkpt lat="31.204129443056292" lon="121.61425335513489">
        <ele>7.644863128662109</ele>
        <time>2018-09-08T22:50:31Z</time>
      </trkpt>
      <trkpt lat="31.20401957562407" lon="121.61432085847218">
        <ele>7.614162445068359</ele>
        <time>2018-09-08T22:50:37Z</time>
      </trkpt>
      <trkpt lat="31.203905056118348" lon="121.61443796594911">
        <ele>7.783351898193359</ele>
        <time>2018-09-08T22:50:44Z</time>
      </trkpt>
      <trkpt lat="31.203809297559093" lon="121.61449354100776">
        <ele>7.730983734130859</ele>
        <time>2018-09-08T22:50:51Z</time>
      </trkpt>
      <trkpt lat="31.203608438597538" lon="121.6147461831783">
        <ele>6.892360687255859</ele>
        <time>2018-09-08T22:51:05Z</time>
      </trkpt>
      <trkpt lat="31.203572606914076" lon="121.61479416301162">
        <ele>6.893703460693359</ele>
        <time>2018-09-08T22:51:09Z</time>
      </trkpt>
      <trkpt lat="31.20358745130531" lon="121.61487195458363">
        <ele>6.896450042724609</ele>
        <time>2018-09-08T22:51:26Z</time>
      </trkpt>
      <trkpt lat="31.20356113623609" lon="121.61488903319432">
        <ele>6.897060394287109</ele>
        <time>2018-09-08T22:51:30Z</time>
      </trkpt>
      <trkpt lat="31.20353109103168" lon="121.61483102996344">
        <ele>6.896266937255859</ele>
        <time>2018-09-08T22:51:37Z</time>
      </trkpt>
      <trkpt lat="31.203524611979475" lon="121.61479877492371">
        <ele>6.896938323974609</ele>
        <time>2018-09-08T22:51:42Z</time>
      </trkpt>
      <trkpt lat="31.203452715208606" lon="121.61485136556708">
        <ele>6.899013519287109</ele>
        <time>2018-09-08T22:51:46Z</time>
      </trkpt>
      <trkpt lat="31.20331458707345" lon="121.61498853034915">
        <ele>6.898525238037109</ele>
        <time>2018-09-08T22:51:53Z</time>
      </trkpt>
      <trkpt lat="31.203246380840266" lon="121.61515984106072">
        <ele>6.554592132568359</ele>
        <time>2018-09-08T22:52:00Z</time>
      </trkpt>
      <trkpt lat="31.202970139556804" lon="121.61541329559616">
        <ele>5.671840667724609</ele>
        <time>2018-09-08T22:52:14Z</time>
      </trkpt>
      <trkpt lat="31.202724059821666" lon="121.61559166520985">
        <ele>4.223354339599609</ele>
        <time>2018-09-08T22:52:27Z</time>
      </trkpt>
      <trkpt lat="31.202524024808213" lon="121.61582179914853">
        <ele>3.5265769958496094</ele>
        <time>2018-09-08T22:52:38Z</time>
      </trkpt>
      <trkpt lat="31.202362817410517" lon="121.61598958809937">
        <ele>2.4367332458496094</ele>
        <time>2018-09-08T22:52:46Z</time>
      </trkpt>
      <trkpt lat="31.202242066058766" lon="121.6160944911401">
        <ele>3.4619407653808594</ele>
        <time>2018-09-08T22:52:53Z</time>
      </trkpt>
      <trkpt lat="31.2020590875268" lon="121.61634711508373">
        <ele>2.6974754333496094</ele>
        <time>2018-09-08T22:53:04Z</time>
      </trkpt>
      <trkpt lat="31.201989882563286" lon="121.61641759061054">
        <ele>2.6264915466308594</ele>
        <time>2018-09-08T22:53:07Z</time>
      </trkpt>
      <trkpt lat="31.201898470459355" lon="121.6164601509925">
        <ele>2.5696678161621094</ele>
        <time>2018-09-08T22:53:11Z</time>
      </trkpt>
      <trkpt lat="31.201889202732215" lon="121.61651273284996">
        <ele>2.687297220058765</ele>
        <time>2018-09-08T22:53:41Z</time>
      </trkpt>
      <trkpt lat="31.201784750103286" lon="121.61658293978034">
        <ele>3.060439685033117</ele>
        <time>2018-09-08T22:53:48Z</time>
      </trkpt>
      <trkpt lat="31.201789000888276" lon="121.61667590442386">
        <ele>3.761525319671021</ele>
        <time>2018-09-08T22:53:52Z</time>
      </trkpt>
      <trkpt lat="31.20186722884931" lon="121.61681358307231">
        <ele>3.419300741043516</ele>
        <time>2018-09-08T22:53:59Z</time>
      </trkpt>
      <trkpt lat="31.20191659485468" lon="121.61679298047697">
        <ele>3.1650235955693375</ele>
        <time>2018-09-08T22:54:02Z</time>
      </trkpt>
      <trkpt lat="31.201582007477143" lon="121.61680059707952">
        <ele>2.9558994430828758</ele>
        <time>2018-09-08T22:54:09Z</time>
      </trkpt>
      <trkpt lat="31.201468190174488" lon="121.61702366571222">
        <ele>3.4042024420852695</ele>
        <time>2018-09-08T22:54:16Z</time>
      </trkpt>
      <trkpt lat="31.201265701757354" lon="121.61725541256492">
        <ele>3.179135719938502</ele>
        <time>2018-09-08T22:54:26Z</time>
      </trkpt>
      <trkpt lat="31.201126731273984" lon="121.61741045164416">
        <ele>3.1353897415660263</ele>
        <time>2018-09-08T22:54:34Z</time>
      </trkpt>
      <trkpt lat="31.201025796217905" lon="121.61748580521773">
        <ele>3.162027510483435</ele>
        <time>2018-09-08T22:54:40Z</time>
      </trkpt>
      <trkpt lat="31.20076791137318" lon="121.61780048525532">
        <ele>3.1680894576142435</ele>
        <time>2018-09-08T22:54:54Z</time>
      </trkpt>
      <trkpt lat="31.200532307448047" lon="121.61806339485186">
        <ele>2.925041327270037</ele>
        <time>2018-09-08T22:55:07Z</time>
      </trkpt>
      <trkpt lat="31.20034770934138" lon="121.61829133632415">
        <ele>2.8306102711258365</ele>
        <time>2018-09-08T22:55:18Z</time>
      </trkpt>
      <trkpt lat="31.200134019394028" lon="121.61859733016384">
        <ele>3.687043042480113</ele>
        <time>2018-09-08T22:55:32Z</time>
      </trkpt>
      <trkpt lat="31.199924431639655" lon="121.6188656495032">
        <ele>3.24393361520381</ele>
        <time>2018-09-08T22:55:45Z</time>
      </trkpt>
      <trkpt lat="31.199706736359445" lon="121.61910578184795">
        <ele>3.39798549307166</ele>
        <time>2018-09-08T22:55:57Z</time>
      </trkpt>
      <trkpt lat="31.199497482141453" lon="121.61930932545243">
        <ele>3.876752867705809</ele>
        <time>2018-09-08T22:56:08Z</time>
      </trkpt>
      <trkpt lat="31.19928495429676" lon="121.61953075395286">
        <ele>3.99797081764728</ele>
        <time>2018-09-08T22:56:20Z</time>
      </trkpt>
      <trkpt lat="31.199068647123216" lon="121.61973483676682">
        <ele>4.137547693397787</ele>
        <time>2018-09-08T22:56:32Z</time>
      </trkpt>
      <trkpt lat="31.19895494488902" lon="121.61982725750997">
        <ele>3.78686830155379</ele>
        <time>2018-09-08T22:56:40Z</time>
      </trkpt>
      <trkpt lat="31.198880898771787" lon="121.61985246667044">
        <ele>4.280995089375303</ele>
        <time>2018-09-08T22:56:48Z</time>
      </trkpt>
      <trkpt lat="31.19881766743352" lon="121.61990667189184">
        <ele>4.096851227837417</ele>
        <time>2018-09-08T22:56:52Z</time>
      </trkpt>
      <trkpt lat="31.198761248971387" lon="121.61992808552442">
        <ele>4.164631651294654</ele>
        <time>2018-09-08T22:56:55Z</time>
      </trkpt>
      <trkpt lat="31.198616011324884" lon="121.6200990976216">
        <ele>4.228477592652284</ele>
        <time>2018-09-08T22:57:05Z</time>
      </trkpt>
      <trkpt lat="31.19853163685613" lon="121.62014788413322">
        <ele>4.143851798002929</ele>
        <time>2018-09-08T22:57:09Z</time>
      </trkpt>
      <trkpt lat="31.19849441509188" lon="121.62021970135451">
        <ele>4.211525750949917</ele>
        <time>2018-09-08T22:57:12Z</time>
      </trkpt>
      <trkpt lat="31.198473092409483" lon="121.62038284242986">
        <ele>4.102775965479726</ele>
        <time>2018-09-08T22:57:19Z</time>
      </trkpt>
      <trkpt lat="31.198373276793795" lon="121.62041862196241">
        <ele>4.029015981079464</ele>
        <time>2018-09-08T22:57:22Z</time>
      </trkpt>
      <trkpt lat="31.1980848399594" lon="121.62062460069028">
        <ele>3.83675403341625</ele>
        <time>2018-09-08T22:57:35Z</time>
      </trkpt>
      <trkpt lat="31.197808023123976" lon="121.62086499254448">
        <ele>4.070054041870263</ele>
        <time>2018-09-08T22:57:50Z</time>
      </trkpt>
      <trkpt lat="31.19755670018071" lon="121.62109697948111">
        <ele>3.968546035676603</ele>
        <time>2018-09-08T22:58:04Z</time>
      </trkpt>
      <trkpt lat="31.19730781330077" lon="121.62133113205108">
        <ele>4.581051763536614</ele>
        <time>2018-09-08T22:58:18Z</time>
      </trkpt>
      <trkpt lat="31.19706408039537" lon="121.62156148836523">
        <ele>5.261760298766184</ele>
        <time>2018-09-08T22:58:33Z</time>
      </trkpt>
      <trkpt lat="31.196947093704658" lon="121.62167666536808">
        <ele>5.660206955508208</ele>
        <time>2018-09-08T22:58:40Z</time>
      </trkpt>
      <trkpt lat="31.196788648888905" lon="121.6217688119782">
        <ele>5.6411747990164365</ele>
        <time>2018-09-08T22:58:51Z</time>
      </trkpt>
      <trkpt lat="31.196628787685793" lon="121.62191488324693">
        <ele>5.690576884068001</ele>
        <time>2018-09-08T22:59:01Z</time>
      </trkpt>
      <trkpt lat="31.19657127574026" lon="121.62194306979949">
        <ele>5.6119582942049036</ele>
        <time>2018-09-08T22:59:04Z</time>
      </trkpt>
      <trkpt lat="31.196496751736078" lon="121.62190947459469">
        <ele>5.0795611859043674</ele>
        <time>2018-09-08T22:59:08Z</time>
      </trkpt>
      <trkpt lat="31.19647327664923" lon="121.6218081302069">
        <ele>4.739656688794689</ele>
        <time>2018-09-08T22:59:12Z</time>
      </trkpt>
      <trkpt lat="31.196386934496253" lon="121.62167427289093">
        <ele>4.350578425688015</ele>
        <time>2018-09-08T22:59:18Z</time>
      </trkpt>
      <trkpt lat="31.196394861634197" lon="121.6213718552987">
        <ele>3.7125746053256545</ele>
        <time>2018-09-08T22:59:29Z</time>
      </trkpt>
      <trkpt lat="31.19635127925358" lon="121.62106130887987">
        <ele>3.370636012397963</ele>
        <time>2018-09-08T22:59:40Z</time>
      </trkpt>
      <trkpt lat="31.19627461183834" lon="121.6207540134202">
        <ele>2.7165272412594224</ele>
        <time>2018-09-08T22:59:52Z</time>
      </trkpt>
      <trkpt lat="31.196235272659184" lon="121.62052584139649">
        <ele>2.3628407688578026</ele>
        <time>2018-09-08T23:00:02Z</time>
      </trkpt>
      <trkpt lat="31.19625468046375" lon="121.6203792320555">
        <ele>2.211621791580498</ele>
        <time>2018-09-08T23:00:09Z</time>
      </trkpt>
      <trkpt lat="31.196229845101545" lon="121.62027733989241">
        <ele>2.124939028701215</ele>
        <time>2018-09-08T23:00:15Z</time>
      </trkpt>
      <trkpt lat="31.196281327185066" lon="121.62030850013038">
        <ele>1.9915458704046483</ele>
        <time>2018-09-08T23:00:37Z</time>
      </trkpt>
      <trkpt lat="31.196293237656455" lon="121.62032665583486">
        <ele>2.0447787582172925</ele>
        <time>2018-09-08T23:01:03Z</time>
      </trkpt>
      <trkpt lat="31.196292978975897" lon="121.62031500305673">
        <ele>1.9570474140919778</ele>
        <time>2018-09-08T23:01:23Z</time>
      </trkpt>
      <trkpt lat="31.19628289400827" lon="121.62036459600172">
        <ele>2.4850958236062866</ele>
        <time>2018-09-08T23:01:25Z</time>
      </trkpt>
      <trkpt lat="31.196214751737948" lon="121.62019279031625">
        <ele>1.535531218863234</ele>
        <time>2018-09-08T23:01:37Z</time>
      </trkpt>
      <trkpt lat="31.19621883821359" lon="121.61991853988933">
        <ele>1.0856683380388255</ele>
        <time>2018-09-08T23:01:54Z</time>
      </trkpt>
      <trkpt lat="31.19625075721524" lon="121.61973181788274">
        <ele>1.1008536252530359</ele>
        <time>2018-09-08T23:02:09Z</time>
      </trkpt>
      <trkpt lat="31.19624236628309" lon="121.61971826849766">
        <ele>0.9739738444882047</ele>
        <time>2018-09-08T23:02:15Z</time>
      </trkpt>
      <trkpt lat="31.196240471757175" lon="121.6197150166343">
        <ele>0.7223574014272902</ele>
        <time>2018-09-08T23:02:22Z</time>
      </trkpt>
      <trkpt lat="31.196230252003367" lon="121.619374908105">
        <ele>0.5953852280151661</ele>
        <time>2018-09-08T23:02:32Z</time>
      </trkpt>
      <trkpt lat="31.196119702772286" lon="121.61930418477307">
        <ele>0.5734257850587525</ele>
        <time>2018-09-08T23:02:38Z</time>
      </trkpt>
      <trkpt lat="31.19605742295265" lon="121.61922586906098">
        <ele>0.733757298098892</ele>
        <time>2018-09-08T23:02:42Z</time>
      </trkpt>
      <trkpt lat="31.195962802786422" lon="121.61895649463948">
        <ele>0.9086251127267335</ele>
        <time>2018-09-08T23:02:52Z</time>
      </trkpt>
      <trkpt lat="31.19591026500062" lon="121.61862857508893">
        <ele>0.2561141144217025</ele>
        <time>2018-09-08T23:03:04Z</time>
      </trkpt>
      <trkpt lat="31.195851532857272" lon="121.61825512093982">
        <ele>-0.6734562195062708</ele>
        <time>2018-09-08T23:03:17Z</time>
      </trkpt>
      <trkpt lat="31.19576407303463" lon="121.6178640472283">
        <ele>-0.6047374674729866</ele>
        <time>2018-09-08T23:03:31Z</time>
      </trkpt>
      <trkpt lat="31.19570314260381" lon="121.61751036672584">
        <ele>-0.5586545058943297</ele>
        <time>2018-09-08T23:03:44Z</time>
      </trkpt>
      <trkpt lat="31.195700107360565" lon="121.61728460185239">
        <ele>-0.6283152659875704</ele>
        <time>2018-09-08T23:03:52Z</time>
      </trkpt>
      <trkpt lat="31.195611268174627" lon="121.6169043542823">
        <ele>-0.7210777297198536</ele>
        <time>2018-09-08T23:04:07Z</time>
      </trkpt>
      <trkpt lat="31.195544054046508" lon="121.61658860557658">
        <ele>-0.7469885446942133</ele>
        <time>2018-09-08T23:04:20Z</time>
      </trkpt>
      <trkpt lat="31.195483082713455" lon="121.61626173969117">
        <ele>-0.8638223252384538</ele>
        <time>2018-09-08T23:04:32Z</time>
      </trkpt>
      <trkpt lat="31.19542638111472" lon="121.61600534007708">
        <ele>-0.693453483899674</ele>
        <time>2018-09-08T23:04:42Z</time>
      </trkpt>
      <trkpt lat="31.195401456272755" lon="121.61568659475459">
        <ele>-1.0457578499123876</ele>
        <time>2018-09-08T23:04:54Z</time>
      </trkpt>
      <trkpt lat="31.19533790774202" lon="121.61550066209968">
        <ele>-0.8517936152435652</ele>
        <time>2018-09-08T23:05:02Z</time>
      </trkpt>
      <trkpt lat="31.195276965105524" lon="121.61512688966144">
        <ele>-1.0027431336748744</ele>
        <time>2018-09-08T23:05:17Z</time>
      </trkpt>
      <trkpt lat="31.195247158903463" lon="121.61479756197782">
        <ele>-1.4049141438649801</ele>
        <time>2018-09-08T23:05:30Z</time>
      </trkpt>
      <trkpt lat="31.1951870009295" lon="121.61444600540587">
        <ele>-1.43430762706814</ele>
        <time>2018-09-08T23:05:44Z</time>
      </trkpt>
      <trkpt lat="31.19521472566056" lon="121.61436549831458">
        <ele>-1.0696895983784618</ele>
        <time>2018-09-08T23:05:48Z</time>
      </trkpt>
      <trkpt lat="31.19519293095094" lon="121.61416979371069">
        <ele>-1.659576130961236</ele>
        <time>2018-09-08T23:05:56Z</time>
      </trkpt>
      <trkpt lat="31.19509266137219" lon="121.61378922702569">
        <ele>-2.3408559554453365</ele>
        <time>2018-09-08T23:06:11Z</time>
      </trkpt>
      <trkpt lat="31.195023525474042" lon="121.6134587997826">
        <ele>-3.041647870834966</ele>
        <time>2018-09-08T23:06:24Z</time>
      </trkpt>
      <trkpt lat="31.194965506800273" lon="121.6131224033373">
        <ele>-2.9211486132309243</ele>
        <time>2018-09-08T23:06:36Z</time>
      </trkpt>
      <trkpt lat="31.1948967788998" lon="121.61294919166961">
        <ele>-3.6028451133663584</ele>
        <time>2018-09-08T23:06:43Z</time>
      </trkpt>
      <trkpt lat="31.19484638261981" lon="121.61256589028109">
        <ele>-3.77187170851548</ele>
        <time>2018-09-08T23:06:58Z</time>
      </trkpt>
      <trkpt lat="31.19479133954181" lon="121.61222378793609">
        <ele>-3.773555700548899</ele>
        <time>2018-09-08T23:07:12Z</time>
      </trkpt>
      <trkpt lat="31.194792740647937" lon="121.6121652333612">
        <ele>-3.787412487222932</ele>
        <time>2018-09-08T23:07:16Z</time>
      </trkpt>
      <trkpt lat="31.194848145642702" lon="121.61204378202432">
        <ele>-3.5493616243717963</ele>
        <time>2018-09-08T23:07:28Z</time>
      </trkpt>
      <trkpt lat="31.194863600650354" lon="121.6120432385725">
        <ele>-3.5763363311479406</ele>
        <time>2018-09-08T23:07:38Z</time>
      </trkpt>
      <trkpt lat="31.19486088639506" lon="121.61204703401775">
        <ele>-3.5966591566237387</ele>
        <time>2018-09-08T23:07:39Z</time>
      </trkpt>
      <trkpt lat="31.19485957119463" lon="121.61199444315258">
        <ele>-3.815900673155314</ele>
        <time>2018-09-08T23:07:48Z</time>
      </trkpt>
      <trkpt lat="31.1948005967091" lon="121.61182122227112">
        <ele>-3.4686117808280468</ele>
        <time>2018-09-08T23:07:56Z</time>
      </trkpt>
      <trkpt lat="31.19472879138383" lon="121.61176213054547">
        <ele>-3.40267551715565</ele>
        <time>2018-09-08T23:08:00Z</time>
      </trkpt>
      <trkpt lat="31.194684103552195" lon="121.61169734351051">
        <ele>-3.5351431995119427</ele>
        <time>2018-09-08T23:08:03Z</time>
      </trkpt>
      <trkpt lat="31.194609497919377" lon="121.61139508089659">
        <ele>-3.4881483896068186</ele>
        <time>2018-09-08T23:08:15Z</time>
      </trkpt>
      <trkpt lat="31.194604678836946" lon="121.61131266830951">
        <ele>-3.5396259756556603</ele>
        <time>2018-09-08T23:08:18Z</time>
      </trkpt>
      <trkpt lat="31.19464167438659" lon="121.61114838058789">
        <ele>-3.0461046005394454</ele>
        <time>2018-09-08T23:08:25Z</time>
      </trkpt>
      <trkpt lat="31.194576256743428" lon="121.61087945541612">
        <ele>-3.1683589896337168</ele>
        <time>2018-09-08T23:08:36Z</time>
      </trkpt>
      <trkpt lat="31.194553918523834" lon="121.61064956248057">
        <ele>-3.1144347093524694</ele>
        <time>2018-09-08T23:08:44Z</time>
      </trkpt>
      <trkpt lat="31.194563177993594" lon="121.61059235876166">
        <ele>-3.0427030047858743</ele>
        <time>2018-09-08T23:08:47Z</time>
      </trkpt>
      <trkpt lat="31.194473418504366" lon="121.6102296256118">
        <ele>-3.35309440919222</ele>
        <time>2018-09-08T23:09:00Z</time>
      </trkpt>
      <trkpt lat="31.194377660109435" lon="121.60990890963384">
        <ele>-3.567844759763135</ele>
        <time>2018-09-08T23:09:13Z</time>
      </trkpt>
      <trkpt lat="31.194326550473946" lon="121.60971235638902">
        <ele>-3.7984947359082017</ele>
        <time>2018-09-08T23:09:21Z</time>
      </trkpt>
      <trkpt lat="31.194263913191268" lon="121.60931761475943">
        <ele>-3.65984446186428</ele>
        <time>2018-09-08T23:09:36Z</time>
      </trkpt>
      <trkpt lat="31.194232162231987" lon="121.60894862043874">
        <ele>-3.1005499178050098</ele>
        <time>2018-09-08T23:09:56Z</time>
      </trkpt>
      <trkpt lat="31.19418675868435" lon="121.60872142098366">
        <ele>-3.4238900119043993</ele>
        <time>2018-09-08T23:10:10Z</time>
      </trkpt>
      <trkpt lat="31.194154533445268" lon="121.60865960662134">
        <ele>-3.4523282844808367</ele>
        <time>2018-09-08T23:10:14Z</time>
      </trkpt>
      <trkpt lat="31.194105598140577" lon="121.6084394539006">
        <ele>-3.8652642179989165</ele>
        <time>2018-09-08T23:10:27Z</time>
      </trkpt>
      <trkpt lat="31.194121636612806" lon="121.60837329666866">
        <ele>-3.963189031169687</ele>
        <time>2018-09-08T23:10:31Z</time>
      </trkpt>
      <trkpt lat="31.194243682833097" lon="121.60831526443894">
        <ele>-4.071774001685508</ele>
        <time>2018-09-08T23:10:39Z</time>
      </trkpt>
      <trkpt lat="31.19448908128606" lon="121.60827837019764">
        <ele>-3.5862290171001643</ele>
        <time>2018-09-08T23:10:55Z</time>
      </trkpt>
      <trkpt lat="31.194687276197005" lon="121.60828377646817">
        <ele>-4.061304936595587</ele>
        <time>2018-09-08T23:11:09Z</time>
      </trkpt>
      <trkpt lat="31.194902298821447" lon="121.60826125471323">
        <ele>-3.892666935029121</ele>
        <time>2018-09-08T23:11:23Z</time>
      </trkpt>
      <trkpt lat="31.194962775539903" lon="121.60823874570454">
        <ele>-3.8189155183469445</ele>
        <time>2018-09-08T23:11:27Z</time>
      </trkpt>
      <trkpt lat="31.19518511758927" lon="121.60821812123062">
        <ele>-2.640967279513845</ele>
        <time>2018-09-08T23:11:42Z</time>
      </trkpt>
      <trkpt lat="31.195307104764332" lon="121.60825471408478">
        <ele>-2.789923531216024</ele>
        <time>2018-09-08T23:11:50Z</time>
      </trkpt>
      <trkpt lat="31.195537889580052" lon="121.60817362621623">
        <ele>-2.8541486729786474</ele>
        <time>2018-09-08T23:12:05Z</time>
      </trkpt>
      <trkpt lat="31.195765908509394" lon="121.60818038571527">
        <ele>-2.929333705201074</ele>
        <time>2018-09-08T23:12:24Z</time>
      </trkpt>
      <trkpt lat="31.195946721116652" lon="121.60823405514799">
        <ele>-2.774923823261645</ele>
        <time>2018-09-08T23:12:37Z</time>
      </trkpt>
      <trkpt lat="31.19625178008642" lon="121.60817953216903">
        <ele>-2.643964518202605</ele>
        <time>2018-09-08T23:12:50Z</time>
      </trkpt>
      <trkpt lat="31.196557623715787" lon="121.60817137289057">
        <ele>-2.6677264491451194</ele>
        <time>2018-09-08T23:13:05Z</time>
      </trkpt>
      <trkpt lat="31.19687756367742" lon="121.60816755058339">
        <ele>-2.6211995129323</ele>
        <time>2018-09-08T23:13:19Z</time>
      </trkpt>
      <trkpt lat="31.19719180504138" lon="121.6081715916227">
        <ele>-2.2117834300603185</ele>
        <time>2018-09-08T23:13:34Z</time>
      </trkpt>
      <trkpt lat="31.19747812071872" lon="121.60817400816696">
        <ele>-2.5177733839244727</ele>
        <time>2018-09-08T23:13:47Z</time>
      </trkpt>
      <trkpt lat="31.197753862244483" lon="121.60817642558445">
        <ele>-3.461086156488392</ele>
        <time>2018-09-08T23:14:00Z</time>
      </trkpt>
      <trkpt lat="31.1979940639175" lon="121.60821327987044">
        <ele>-4.569600317912233</ele>
        <time>2018-09-08T23:14:15Z</time>
      </trkpt>
      <trkpt lat="31.198285276356327" lon="121.60818966721334">
        <ele>-5.182137708604772</ele>
        <time>2018-09-08T23:14:28Z</time>
      </trkpt>
      <trkpt lat="31.19849731805958" lon="121.60816551880573">
        <ele>-5.985162618514931</ele>
        <time>2018-09-08T23:14:38Z</time>
      </trkpt>
      <trkpt lat="31.198774956241063" lon="121.60817037626946">
        <ele>-5.697259710342777</ele>
        <time>2018-09-08T23:14:52Z</time>
      </trkpt>
      <trkpt lat="31.199009209669125" lon="121.60818065998784">
        <ele>-5.639081352274335</ele>
        <time>2018-09-08T23:15:03Z</time>
      </trkpt>
      <trkpt lat="31.199194137741763" lon="121.6081570560783">
        <ele>-5.789497681127575</ele>
        <time>2018-09-08T23:15:10Z</time>
      </trkpt>
      <trkpt lat="31.19949183950842" lon="121.60816272528653">
        <ele>-5.868974457144814</ele>
        <time>2018-09-08T23:15:25Z</time>
      </trkpt>
      <trkpt lat="31.19971551749721" lon="121.60817517895053">
        <ele>-5.565466331787224</ele>
        <time>2018-09-08T23:15:36Z</time>
      </trkpt>
      <trkpt lat="31.199995084285863" lon="121.608130961031">
        <ele>-5.157367546066155</ele>
        <time>2018-09-08T23:15:48Z</time>
      </trkpt>
      <trkpt lat="31.200122763364295" lon="121.60817162055996">
        <ele>-5.310268915193356</ele>
        <time>2018-09-08T23:15:54Z</time>
      </trkpt>
      <trkpt lat="31.200207291331658" lon="121.60827762656592">
        <ele>-5.737260678411159</ele>
        <time>2018-09-08T23:16:02Z</time>
      </trkpt>
      <trkpt lat="31.20021323137999" lon="121.60831748249052">
        <ele>-5.957116188687143</ele>
        <time>2018-09-08T23:16:13Z</time>
      </trkpt>
      <trkpt lat="31.20021323137999" lon="121.60831748249052">
        <ele>-6.058841815555729</ele>
        <time>2018-09-08T23:16:19Z</time>
      </trkpt>
      <trkpt lat="31.20017121810402" lon="121.60829742219762">
        <ele>-6.598642081883497</ele>
        <time>2018-09-08T23:16:30Z</time>
      </trkpt>
      <trkpt lat="31.200226495733794" lon="121.60835137284779">
        <ele>-6.964604118471028</ele>
        <time>2018-09-08T23:16:53Z</time>
      </trkpt>
      <trkpt lat="31.200226495733794" lon="121.60835137284779">
        <ele>-6.876489592215648</ele>
        <time>2018-09-08T23:16:54Z</time>
      </trkpt>
      <trkpt lat="31.200355562486543" lon="121.60834051692227">
        <ele>-6.843965749078015</ele>
        <time>2018-09-08T23:17:02Z</time>
      </trkpt>
      <trkpt lat="31.200600894335075" lon="121.60841180413173">
        <ele>-6.222986067309755</ele>
        <time>2018-09-08T23:17:12Z</time>
      </trkpt>
      <trkpt lat="31.200668412269046" lon="121.60840312236847">
        <ele>-5.807390475311868</ele>
        <time>2018-09-08T23:17:15Z</time>
      </trkpt>
      <trkpt lat="31.200756522775396" lon="121.60841612936088">
        <ele>-5.663597220722082</ele>
        <time>2018-09-08T23:17:19Z</time>
      </trkpt>
      <trkpt lat="31.200882533338078" lon="121.60852213076986">
        <ele>-5.151392502866194</ele>
        <time>2018-09-08T23:17:26Z</time>
      </trkpt>
      <trkpt lat="31.201098830749327" lon="121.60862893759568">
        <ele>-5.804553455668158</ele>
        <time>2018-09-08T23:17:38Z</time>
      </trkpt>
      <trkpt lat="31.201203746665016" lon="121.60864953464592">
        <ele>-5.914449062265454</ele>
        <time>2018-09-08T23:17:56Z</time>
      </trkpt>
      <trkpt lat="31.201352279628928" lon="121.60872570914671">
        <ele>-5.399935829550358</ele>
        <time>2018-09-08T23:18:08Z</time>
      </trkpt>
      <trkpt lat="31.201516225539738" lon="121.60886613886511">
        <ele>-5.519021119140012</ele>
        <time>2018-09-08T23:18:18Z</time>
      </trkpt>
      <trkpt lat="31.20168779181241" lon="121.60896156053298">
        <ele>-5.568386230026267</ele>
        <time>2018-09-08T23:18:30Z</time>
      </trkpt>
      <trkpt lat="31.2018893862054" lon="121.60915973462707">
        <ele>-3.1375181052472207</ele>
        <time>2018-09-08T23:18:49Z</time>
      </trkpt>
      <trkpt lat="31.20193433510024" lon="121.6092497430968">
        <ele>-2.2541091730889864</ele>
        <time>2018-09-08T23:18:56Z</time>
      </trkpt>
      <trkpt lat="31.2019437872162" lon="121.60930640642712">
        <ele>-2.0661932360406947</ele>
        <time>2018-09-08T23:19:00Z</time>
      </trkpt>
      <trkpt lat="31.20203347699444" lon="121.60939017487836">
        <ele>-1.3938141685182597</ele>
        <time>2018-09-08T23:19:07Z</time>
      </trkpt>
      <trkpt lat="31.2022519177951" lon="121.60953005368607">
        <ele>-0.9367923165962662</ele>
        <time>2018-09-08T23:19:22Z</time>
      </trkpt>
      <trkpt lat="31.202363612183746" lon="121.60954956487728">
        <ele>-1.0145053675055813</ele>
        <time>2018-09-08T23:19:30Z</time>
      </trkpt>
      <trkpt lat="31.202452223818344" lon="121.60962275898892">
        <ele>-1.0838481013926948</ele>
        <time>2018-09-08T23:19:37Z</time>
      </trkpt>
      <trkpt lat="31.202485528715716" lon="121.60968863732462">
        <ele>-1.2972378594642038</ele>
        <time>2018-09-08T23:19:41Z</time>
      </trkpt>
      <trkpt lat="31.202679813538065" lon="121.60986267654755">
        <ele>-1.500989779941138</ele>
        <time>2018-09-08T23:20:02Z</time>
      </trkpt>
      <trkpt lat="31.202769172881837" lon="121.61002967421231">
        <ele>-1.483586376509665</ele>
        <time>2018-09-08T23:20:15Z</time>
      </trkpt>
      <trkpt lat="31.203004077795136" lon="121.61027202681342">
        <ele>-1.8506571216898209</ele>
        <time>2018-09-08T23:20:39Z</time>
      </trkpt>
      <trkpt lat="31.203114101539146" lon="121.61035307892202">
        <ele>-2.2750272664675553</ele>
        <time>2018-09-08T23:20:49Z</time>
      </trkpt>
      <trkpt lat="31.20317261342054" lon="121.61042844176681">
        <ele>-2.0717388114003903</ele>
        <time>2018-09-08T23:20:56Z</time>
      </trkpt>
      <trkpt lat="31.20319778453845" lon="121.61049106515911">
        <ele>-2.2121456109193076</ele>
        <time>2018-09-08T23:21:00Z</time>
      </trkpt>
      <trkpt lat="31.20340966505788" lon="121.61069681584002">
        <ele>-2.3422774227960357</ele>
        <time>2018-09-08T23:21:22Z</time>
      </trkpt>
      <trkpt lat="31.203466298924774" lon="121.61074316974394">
        <ele>-2.3462846779259685</ele>
        <time>2018-09-08T23:21:28Z</time>
      </trkpt>
      <trkpt lat="31.20348822389617" lon="121.61079440625839">
        <ele>-2.164251366352328</ele>
        <time>2018-09-08T23:21:32Z</time>
      </trkpt>
      <trkpt lat="31.20348822389617" lon="121.61079440625839">
        <ele>-2.164251366352328</ele>
        <time>2018-09-08T23:21:44Z</time>
      </trkpt>
      <trkpt lat="31.203507736216526" lon="121.61080741753545">
        <ele>-2.356988171007062</ele>
        <time>2018-09-08T23:21:48Z</time>
      </trkpt>
      <trkpt lat="31.20350774072399" lon="121.61080118219286">
        <ele>-1.6131151258884469</ele>
        <time>2018-09-08T23:21:55Z</time>
      </trkpt>
      <trkpt lat="31.20350801303468" lon="121.61079955555905">
        <ele>-1.7898011253493813</ele>
        <time>2018-09-08T23:22:02Z</time>
      </trkpt>
      <trkpt lat="31.203571745445064" lon="121.61077786212881">
        <ele>-1.4620654955602266</ele>
        <time>2018-09-08T23:22:08Z</time>
      </trkpt>
      <trkpt lat="31.20383107179991" lon="121.61060921452948">
        <ele>-0.8791691051819175</ele>
        <time>2018-09-08T23:22:31Z</time>
      </trkpt>
      <trkpt lat="31.20407905087673" lon="121.61038200760986">
        <ele>-0.889448858231658</ele>
        <time>2018-09-08T23:22:55Z</time>
      </trkpt>
      <trkpt lat="31.204171035063297" lon="121.61028358799874">
        <ele>-0.9139889248716937</ele>
        <time>2018-09-08T23:23:06Z</time>
      </trkpt>
      <trkpt lat="31.20421202801078" lon="121.61021011421033">
        <ele>-1.1268567474535462</ele>
        <time>2018-09-08T23:23:13Z</time>
      </trkpt>
      <trkpt lat="31.204386731375934" lon="121.61007779822614">
        <ele>-0.5983857519904081</ele>
        <time>2018-09-08T23:23:30Z</time>
      </trkpt>
      <trkpt lat="31.20440601621496" lon="121.61002845446511">
        <ele>-0.4209143195196958</ele>
        <time>2018-09-08T23:23:34Z</time>
      </trkpt>
      <trkpt lat="31.20460240409274" lon="121.60990399789205">
        <ele>-1.088907305063275</ele>
        <time>2018-09-08T23:23:52Z</time>
      </trkpt>
      <trkpt lat="31.204677248818047" lon="121.60988745383071">
        <ele>-1.0909596354223723</ele>
        <time>2018-09-08T23:23:56Z</time>
      </trkpt>
      <trkpt lat="31.204792014127257" lon="121.60977791450856">
        <ele>-0.9932493759303309</ele>
        <time>2018-09-08T23:24:08Z</time>
      </trkpt>
      <trkpt lat="31.204811839929242" lon="121.60972965450604">
        <ele>-1.2580826115479358</ele>
        <time>2018-09-08T23:24:11Z</time>
      </trkpt>
      <trkpt lat="31.20486963508782" lon="121.60966593768556">
        <ele>-1.0111568169596943</ele>
        <time>2018-09-08T23:24:18Z</time>
      </trkpt>
      <trkpt lat="31.20491625324949" lon="121.60969114755567">
        <ele>-0.5193498538244725</ele>
        <time>2018-09-08T23:24:25Z</time>
      </trkpt>
      <trkpt lat="31.20491625324949" lon="121.60969114755567">
        <ele>-0.5193498538244725</ele>
        <time>2018-09-08T23:24:33Z</time>
      </trkpt>
      <trkpt lat="31.204921941010003" lon="121.6097000938839">
        <ele>-0.29952974524835163</ele>
        <time>2018-09-08T23:24:39Z</time>
      </trkpt>
      <trkpt lat="31.204959650015276" lon="121.60966891251459">
        <ele>-0.716628680318717</ele>
        <time>2018-09-08T23:25:35Z</time>
      </trkpt>
      <trkpt lat="31.2050252703057" lon="121.60966077362608">
        <ele>-0.6594843217805995</ele>
        <time>2018-09-08T23:25:58Z</time>
      </trkpt>
      <trkpt lat="31.205027719902745" lon="121.60964694652772">
        <ele>-0.5170269696359071</ele>
        <time>2018-09-08T23:26:05Z</time>
      </trkpt>
      <trkpt lat="31.205031256788725" lon="121.60962905259278">
        <ele>-0.547743021214421</ele>
        <time>2018-09-08T23:26:18Z</time>
      </trkpt>
      <trkpt lat="31.205031256788725" lon="121.60962905259278">
        <ele>-0.696464778693958</ele>
        <time>2018-09-08T23:26:22Z</time>
      </trkpt>
      <trkpt lat="31.205027737719217" lon="121.60962064828907">
        <ele>-0.5716476710030047</ele>
        <time>2018-09-08T23:26:43Z</time>
      </trkpt>
      <trkpt lat="31.204979167346814" lon="121.60967541767049">
        <ele>-0.6636620106504445</ele>
        <time>2018-09-08T23:26:57Z</time>
      </trkpt>
      <trkpt lat="31.205025264601552" lon="121.60966917820616">
        <ele>-0.7756943122345312</ele>
        <time>2018-09-08T23:27:04Z</time>
      </trkpt>
      <trkpt lat="31.205152090097624" lon="121.6097659557195">
        <ele>-0.9689092467111333</ele>
        <time>2018-09-08T23:27:22Z</time>
      </trkpt>
      <trkpt lat="31.205179982762054" lon="121.60981610949516">
        <ele>-0.8755215355972013</ele>
        <time>2018-09-08T23:27:26Z</time>
      </trkpt>
      <trkpt lat="31.205179982762054" lon="121.60981610949516">
        <ele>-0.8755215355972013</ele>
        <time>2018-09-08T23:27:27Z</time>
      </trkpt>
    </trkseg>
  </trk>
</gpx>