<?xml version="1.0" encoding="UTF-8"?>
<gpx xmlns="http://www.topografix.com/GPX/1/1" xmlns:gpxtpx="http://www.garmin.com/xmlschemas/TrackPointExtension/v1" xmlns:xsi="http://www.w3.org/2001/XMLSchema-instance" xsi:schemaLocation="http://www.topografix.com/GPX/1/1 http://www.topografix.com/GPX/1/1/gpx.xsd" version="1.1" creator="gpx.py -- https://github.com/tkrajina/gpxpy">
  <trk>
    <name>gpx from keep</name>
    <type>Run</type>
    <trkseg>
      <trkpt lat="31.204544297042926" lon="121.61079215013957">
        <ele>8.909520448185503</ele>
        <time>2019-10-21T13:39:15Z</time>
      </trkpt>
      <trkpt lat="31.20445057676165" lon="121.61103777495664">
        <ele>8.769993955269456</ele>
        <time>2019-10-21T13:39:22Z</time>
      </trkpt>
      <trkpt lat="31.20440715159564" lon="121.61109714916361">
        <ele>8.416232307441533</ele>
        <time>2019-10-21T13:39:25Z</time>
      </trkpt>
      <trkpt lat="31.204281867981894" lon="121.61112318494828">
        <ele>7.703605986200273</ele>
        <time>2019-10-21T13:39:32Z</time>
      </trkpt>
      <trkpt lat="31.20414512003275" lon="121.6112530518497">
        <ele>7.529212654568255</ele>
        <time>2019-10-21T13:39:39Z</time>
      </trkpt>
      <trkpt lat="31.2040818622162" lon="121.61136529075955">
        <ele>7.580712419934571</ele>
        <time>2019-10-21T13:39:43Z</time>
      </trkpt>
      <trkpt lat="31.204167932081333" lon="121.61156724866623">
        <ele>7.630124216899276</ele>
        <time>2019-10-21T13:39:51Z</time>
      </trkpt>
      <trkpt lat="31.20418387472024" lon="121.61163935791939">
        <ele>7.6757986368611455</ele>
        <time>2019-10-21T13:39:54Z</time>
      </trkpt>
      <trkpt lat="31.20428029082895" lon="121.61178194387116">
        <ele>7.617703018710017</ele>
        <time>2019-10-21T13:40:01Z</time>
      </trkpt>
      <trkpt lat="31.204525815626674" lon="121.611944034983">
        <ele>7.508567317388952</ele>
        <time>2019-10-21T13:40:08Z</time>
      </trkpt>
      <trkpt lat="31.204664434660817" lon="121.6122061644834">
        <ele>7.483651799149811</ele>
        <time>2019-10-21T13:40:19Z</time>
      </trkpt>
      <trkpt lat="31.204737871661397" lon="121.61225847781365">
        <ele>7.092707849107683</ele>
        <time>2019-10-21T13:40:22Z</time>
      </trkpt>
      <trkpt lat="31.204788254649337" lon="121.61232028087228">
        <ele>7.690146176144481</ele>
        <time>2019-10-21T13:40:26Z</time>
      </trkpt>
      <trkpt lat="31.2048906959134" lon="121.61238153729536">
        <ele>7.1490675723180175</ele>
        <time>2019-10-21T13:40:30Z</time>
      </trkpt>
      <trkpt lat="31.204924256296202" lon="121.61245852203307">
        <ele>7.275448406115174</ele>
        <time>2019-10-21T13:40:33Z</time>
      </trkpt>
      <trkpt lat="31.20499255704103" lon="121.61249077516194">
        <ele>7.482727129943669</ele>
        <time>2019-10-21T13:40:36Z</time>
      </trkpt>
      <trkpt lat="31.20505305605585" lon="121.61244522834492">
        <ele>7.86100816167891</ele>
        <time>2019-10-21T13:40:47Z</time>
      </trkpt>
      <trkpt lat="31.20509015661447" lon="121.61250242361358">
        <ele>6.38320227060467</ele>
        <time>2019-10-21T13:40:50Z</time>
      </trkpt>
      <trkpt lat="31.205117160891003" lon="121.6126406727026">
        <ele>6.867930235341191</ele>
        <time>2019-10-21T13:40:56Z</time>
      </trkpt>
      <trkpt lat="31.205255359171087" lon="121.61274231613547">
        <ele>8.939393052831292</ele>
        <time>2019-10-21T13:41:03Z</time>
      </trkpt>
      <trkpt lat="31.205218385096437" lon="121.61286701521566">
        <ele>7.790617076680064</ele>
        <time>2019-10-21T13:41:10Z</time>
      </trkpt>
      <trkpt lat="31.20516410142144" lon="121.61293749977045">
        <ele>7.846222812309861</ele>
        <time>2019-10-21T13:41:14Z</time>
      </trkpt>
      <trkpt lat="31.20509872089984" lon="121.61298331710572">
        <ele>8.345245315693319</ele>
        <time>2019-10-21T13:41:17Z</time>
      </trkpt>
      <trkpt lat="31.20495397526721" lon="121.61326741524849">
        <ele>7.982377978041768</ele>
        <time>2019-10-21T13:41:28Z</time>
      </trkpt>
      <trkpt lat="31.204880975763086" lon="121.61334576123696">
        <ele>7.944610760547221</ele>
        <time>2019-10-21T13:41:31Z</time>
      </trkpt>
      <trkpt lat="31.204758642099577" lon="121.61340865998352">
        <ele>7.754275496117771</ele>
        <time>2019-10-21T13:41:35Z</time>
      </trkpt>
      <trkpt lat="31.204644192883244" lon="121.61344526404736">
        <ele>6.9858827162534</ele>
        <time>2019-10-21T13:41:38Z</time>
      </trkpt>
      <trkpt lat="31.204398004546725" lon="121.61376921190325">
        <ele>9.308985544368625</ele>
        <time>2019-10-21T13:41:50Z</time>
      </trkpt>
      <trkpt lat="31.204088177630723" lon="121.61399611966081">
        <ele>7.609991924837232</ele>
        <time>2019-10-21T13:42:04Z</time>
      </trkpt>
      <trkpt lat="31.204007037407333" lon="121.6140798851764">
        <ele>7.28637061920017</ele>
        <time>2019-10-21T13:42:08Z</time>
      </trkpt>
      <trkpt lat="31.20391020860574" lon="121.61411946843877">
        <ele>7.192947193048894</ele>
        <time>2019-10-21T13:42:12Z</time>
      </trkpt>
      <trkpt lat="31.203801298122144" lon="121.61433686910878">
        <ele>7.379569157026708</ele>
        <time>2019-10-21T13:42:20Z</time>
      </trkpt>
      <trkpt lat="31.203748912322624" lon="121.6144030121562">
        <ele>8.585472795180976</ele>
        <time>2019-10-21T13:42:23Z</time>
      </trkpt>
      <trkpt lat="31.203632532873616" lon="121.61447566573149">
        <ele>6.656127422116697</ele>
        <time>2019-10-21T13:42:27Z</time>
      </trkpt>
      <trkpt lat="31.2035714741662" lon="121.61453747217692">
        <ele>7.441047019325197</ele>
        <time>2019-10-21T13:42:30Z</time>
      </trkpt>
      <trkpt lat="31.203504957142936" lon="121.61464020859154">
        <ele>7.050695577636361</ele>
        <time>2019-10-21T13:42:34Z</time>
      </trkpt>
      <trkpt lat="31.203480195952555" lon="121.61474131477475">
        <ele>6.2696184096857905</ele>
        <time>2019-10-21T13:42:37Z</time>
      </trkpt>
      <trkpt lat="31.203358302715344" lon="121.61491696855754">
        <ele>6.437274989672005</ele>
        <time>2019-10-21T13:42:44Z</time>
      </trkpt>
      <trkpt lat="31.20335985301983" lon="121.61500397663839">
        <ele>6.846706374548376</ele>
        <time>2019-10-21T13:42:48Z</time>
      </trkpt>
      <trkpt lat="31.20332453922259" lon="121.61507906115554">
        <ele>6.828501763753593</ele>
        <time>2019-10-21T13:42:52Z</time>
      </trkpt>
      <trkpt lat="31.203371960773044" lon="121.61510968612087">
        <ele>7.670102012343705</ele>
        <time>2019-10-21T13:43:17Z</time>
      </trkpt>
      <trkpt lat="31.203498959663502" lon="121.61529371917139">
        <ele>5.734833005815744</ele>
        <time>2019-10-21T13:43:27Z</time>
      </trkpt>
      <trkpt lat="31.20324386561665" lon="121.61554717055057">
        <ele>6.1338019873946905</ele>
        <time>2019-10-21T13:43:41Z</time>
      </trkpt>
      <trkpt lat="31.203096235459583" lon="121.61569408979278">
        <ele>6.135671339929104</ele>
        <time>2019-10-21T13:43:48Z</time>
      </trkpt>
      <trkpt lat="31.202889142584763" lon="121.6159323546249">
        <ele>6.745416569523513</ele>
        <time>2019-10-21T13:43:58Z</time>
      </trkpt>
      <trkpt lat="31.202738006106692" lon="121.6160570464488">
        <ele>6.575211359187961</ele>
        <time>2019-10-21T13:44:05Z</time>
      </trkpt>
      <trkpt lat="31.2026804378947" lon="121.61615218652557">
        <ele>7.038250043988228</ele>
        <time>2019-10-21T13:44:09Z</time>
      </trkpt>
      <trkpt lat="31.20250402679314" lon="121.61633948921458">
        <ele>4.690517690964043</ele>
        <time>2019-10-21T13:44:19Z</time>
      </trkpt>
      <trkpt lat="31.20232954561519" lon="121.61649128455441">
        <ele>5.813650858588517</ele>
        <time>2019-10-21T13:44:27Z</time>
      </trkpt>
      <trkpt lat="31.202249468696625" lon="121.61658967722842">
        <ele>6.10687873326242</ele>
        <time>2019-10-21T13:44:31Z</time>
      </trkpt>
      <trkpt lat="31.2021422158452" lon="121.6167539330079">
        <ele>5.856706284917891</ele>
        <time>2019-10-21T13:44:38Z</time>
      </trkpt>
      <trkpt lat="31.20186948963803" lon="121.61700249212011">
        <ele>5.353942203335464</ele>
        <time>2019-10-21T13:44:52Z</time>
      </trkpt>
      <trkpt lat="31.20179107015115" lon="121.6170670038677">
        <ele>5.703919661231339</ele>
        <time>2019-10-21T13:44:56Z</time>
      </trkpt>
      <trkpt lat="31.201699936766733" lon="121.61710061912228">
        <ele>4.382944799028337</ele>
        <time>2019-10-21T13:44:59Z</time>
      </trkpt>
      <trkpt lat="31.201470339182737" lon="121.61732721797794">
        <ele>5.083568579517305</ele>
        <time>2019-10-21T13:45:09Z</time>
      </trkpt>
      <trkpt lat="31.20122315190533" lon="121.61751695681426">
        <ele>5.891388740390539</ele>
        <time>2019-10-21T13:45:20Z</time>
      </trkpt>
      <trkpt lat="31.201121148118737" lon="121.61757577765864">
        <ele>6.596768972463906</ele>
        <time>2019-10-21T13:45:24Z</time>
      </trkpt>
      <trkpt lat="31.201005755043884" lon="121.61774056961288">
        <ele>6.115070470608771</ele>
        <time>2019-10-21T13:45:31Z</time>
      </trkpt>
      <trkpt lat="31.200938873263997" lon="121.61792649609625">
        <ele>6.272716681472957</ele>
        <time>2019-10-21T13:45:38Z</time>
      </trkpt>
      <trkpt lat="31.200704575496825" lon="121.61823791642682">
        <ele>6.323574894107878</ele>
        <time>2019-10-21T13:45:52Z</time>
      </trkpt>
      <trkpt lat="31.20046648641841" lon="121.61854147380487">
        <ele>5.375405997037888</ele>
        <time>2019-10-21T13:46:06Z</time>
      </trkpt>
      <trkpt lat="31.200365475793276" lon="121.61868864241963">
        <ele>5.503346709534526</ele>
        <time>2019-10-21T13:46:13Z</time>
      </trkpt>
      <trkpt lat="31.200129312937936" lon="121.61895994409696">
        <ele>6.317774351686239</ele>
        <time>2019-10-21T13:46:27Z</time>
      </trkpt>
      <trkpt lat="31.19991213704022" lon="121.61922148506231">
        <ele>5.737552150152624</ele>
        <time>2019-10-21T13:46:40Z</time>
      </trkpt>
      <trkpt lat="31.19965805100958" lon="121.61951527587301">
        <ele>5.990016900002956</ele>
        <time>2019-10-21T13:46:54Z</time>
      </trkpt>
      <trkpt lat="31.199514495206916" lon="121.61963588415155">
        <ele>6.072872379794717</ele>
        <time>2019-10-21T13:47:01Z</time>
      </trkpt>
      <trkpt lat="31.19938635600718" lon="121.61979226272761">
        <ele>6.4259046241641045</ele>
        <time>2019-10-21T13:47:08Z</time>
      </trkpt>
      <trkpt lat="31.199308743518674" lon="121.6198570382745">
        <ele>6.1716690910980105</ele>
        <time>2019-10-21T13:47:12Z</time>
      </trkpt>
      <trkpt lat="31.199254712983702" lon="121.61992804469536">
        <ele>5.8897042367607355</ele>
        <time>2019-10-21T13:47:16Z</time>
      </trkpt>
      <trkpt lat="31.199012415889666" lon="121.62009283187608">
        <ele>5.673080338165164</ele>
        <time>2019-10-21T13:47:28Z</time>
      </trkpt>
      <trkpt lat="31.198836109392726" lon="121.62015815682986">
        <ele>4.896783219650388</ele>
        <time>2019-10-21T13:47:35Z</time>
      </trkpt>
      <trkpt lat="31.198770709863467" lon="121.6202110066076">
        <ele>6.231738938950002</ele>
        <time>2019-10-21T13:47:39Z</time>
      </trkpt>
      <trkpt lat="31.198698590236358" lon="121.62020911559954">
        <ele>6.3567269099876285</ele>
        <time>2019-10-21T13:47:42Z</time>
      </trkpt>
      <trkpt lat="31.198545075347678" lon="121.62051210061593">
        <ele>7.059146453626454</ele>
        <time>2019-10-21T13:47:50Z</time>
      </trkpt>
      <trkpt lat="31.198381376136744" lon="121.62070262178095">
        <ele>6.462578033097088</ele>
        <time>2019-10-21T13:47:58Z</time>
      </trkpt>
      <trkpt lat="31.198118116478092" lon="121.62094192784059">
        <ele>6.868985551409423</ele>
        <time>2019-10-21T13:48:12Z</time>
      </trkpt>
      <trkpt lat="31.197985133391512" lon="121.62105873479356">
        <ele>7.370136769488454</ele>
        <time>2019-10-21T13:48:19Z</time>
      </trkpt>
      <trkpt lat="31.197864880658937" lon="121.62118692160404">
        <ele>6.221050622873008</ele>
        <time>2019-10-21T13:48:26Z</time>
      </trkpt>
      <trkpt lat="31.197644231351692" lon="121.62138448817903">
        <ele>6.7439757119864225</ele>
        <time>2019-10-21T13:48:38Z</time>
      </trkpt>
      <trkpt lat="31.197403495807936" lon="121.62160102369582">
        <ele>6.0094801895320415</ele>
        <time>2019-10-21T13:48:51Z</time>
      </trkpt>
      <trkpt lat="31.197171220552054" lon="121.6217668834554">
        <ele>5.5118089616298676</ele>
        <time>2019-10-21T13:49:02Z</time>
      </trkpt>
      <trkpt lat="31.196906072714533" lon="121.62199019233368">
        <ele>4.871514073573053</ele>
        <time>2019-10-21T13:49:16Z</time>
      </trkpt>
      <trkpt lat="31.196845527861683" lon="121.62206309036912">
        <ele>6.290971634909511</ele>
        <time>2019-10-21T13:49:20Z</time>
      </trkpt>
      <trkpt lat="31.196668561118663" lon="121.62222921365702">
        <ele>5.401490264572203</ele>
        <time>2019-10-21T13:49:30Z</time>
      </trkpt>
      <trkpt lat="31.196649199702726" lon="121.62232703732266">
        <ele>5.875496104359627</ele>
        <time>2019-10-21T13:49:34Z</time>
      </trkpt>
      <trkpt lat="31.19665883784349" lon="121.62243488425959">
        <ele>5.7896473947912455</ele>
        <time>2019-10-21T13:49:38Z</time>
      </trkpt>
      <trkpt lat="31.19668585415294" lon="121.62251996761987">
        <ele>5.935094807296991</ele>
        <time>2019-10-21T13:49:41Z</time>
      </trkpt>
      <trkpt lat="31.196698096031643" lon="121.62272102768179">
        <ele>5.476666393689811</ele>
        <time>2019-10-21T13:49:48Z</time>
      </trkpt>
      <trkpt lat="31.196725630722735" lon="121.62282616186572">
        <ele>4.848052974790335</ele>
        <time>2019-10-21T13:49:52Z</time>
      </trkpt>
      <trkpt lat="31.19671444739279" lon="121.62288415025358">
        <ele>4.260393080301583</ele>
        <time>2019-10-21T13:49:56Z</time>
      </trkpt>
      <trkpt lat="31.196732534385166" lon="121.62318627769122">
        <ele>5.511964983306825</ele>
        <time>2019-10-21T13:50:14Z</time>
      </trkpt>
      <trkpt lat="31.196754707387054" lon="121.62323775937611">
        <ele>4.971192182041705</ele>
        <time>2019-10-21T13:50:17Z</time>
      </trkpt>
      <trkpt lat="31.19675964429786" lon="121.62342147305444">
        <ele>5.508168721571565</ele>
        <time>2019-10-21T13:50:27Z</time>
      </trkpt>
      <trkpt lat="31.196794831004315" lon="121.62347322418273">
        <ele>5.966159121133387</ele>
        <time>2019-10-21T13:50:30Z</time>
      </trkpt>
      <trkpt lat="31.196856803530867" lon="121.62380270846148">
        <ele>4.201380576938391</ele>
        <time>2019-10-21T13:50:43Z</time>
      </trkpt>
      <trkpt lat="31.19689803807072" lon="121.62401242734147">
        <ele>5.348699122667313</ele>
        <time>2019-10-21T13:50:50Z</time>
      </trkpt>
      <trkpt lat="31.19693432125296" lon="121.62405333896689">
        <ele>5.510442439466715</ele>
        <time>2019-10-21T13:50:53Z</time>
      </trkpt>
      <trkpt lat="31.19693309360905" lon="121.62371680767221">
        <ele>5.174030740745366</ele>
        <time>2019-10-21T13:51:04Z</time>
      </trkpt>
      <trkpt lat="31.196937831939415" lon="121.6236073388557">
        <ele>5.677916767075658</ele>
        <time>2019-10-21T13:51:08Z</time>
      </trkpt>
      <trkpt lat="31.1969132865014" lon="121.62349868491658">
        <ele>5.709688120521605</ele>
        <time>2019-10-21T13:51:12Z</time>
      </trkpt>
      <trkpt lat="31.19689835763867" lon="121.62328110195368">
        <ele>5.269152162596583</ele>
        <time>2019-10-21T13:51:20Z</time>
      </trkpt>
      <trkpt lat="31.19686623570641" lon="121.62315835709659">
        <ele>5.404851586557925</ele>
        <time>2019-10-21T13:51:24Z</time>
      </trkpt>
      <trkpt lat="31.19686906188204" lon="121.62305945393689">
        <ele>6.075245290994644</ele>
        <time>2019-10-21T13:51:28Z</time>
      </trkpt>
      <trkpt lat="31.196843947191798" lon="121.62297247533742">
        <ele>5.635874626226723</ele>
        <time>2019-10-21T13:51:31Z</time>
      </trkpt>
      <trkpt lat="31.19684810342718" lon="121.62289524892432">
        <ele>5.332255207002163</ele>
        <time>2019-10-21T13:51:34Z</time>
      </trkpt>
      <trkpt lat="31.196948042903553" lon="121.6227543363812">
        <ele>5.54178377147764</ele>
        <time>2019-10-21T13:51:41Z</time>
      </trkpt>
      <trkpt lat="31.197014269226784" lon="121.62269363344944">
        <ele>5.4154199892655015</ele>
        <time>2019-10-21T13:51:44Z</time>
      </trkpt>
      <trkpt lat="31.19709392538756" lon="121.62250665617523">
        <ele>4.5000373013317585</ele>
        <time>2019-10-21T13:51:51Z</time>
      </trkpt>
      <trkpt lat="31.19722604134178" lon="121.62244188263013">
        <ele>4.226675724610686</ele>
        <time>2019-10-21T13:51:59Z</time>
      </trkpt>
      <trkpt lat="31.197496897418173" lon="121.62220882191487">
        <ele>5.609856967814267</ele>
        <time>2019-10-21T13:52:14Z</time>
      </trkpt>
      <trkpt lat="31.19754278673809" lon="121.62214893236715">
        <ele>5.772597281262279</ele>
        <time>2019-10-21T13:52:17Z</time>
      </trkpt>
      <trkpt lat="31.197648592225093" lon="121.62209283140673">
        <ele>5.424360518343747</ele>
        <time>2019-10-21T13:52:21Z</time>
      </trkpt>
      <trkpt lat="31.197884428756968" lon="121.62189608178059">
        <ele>6.558130735531449</ele>
        <time>2019-10-21T13:52:32Z</time>
      </trkpt>
      <trkpt lat="31.19804448696193" lon="121.62181640055742">
        <ele>6.454692367464304</ele>
        <time>2019-10-21T13:52:40Z</time>
      </trkpt>
      <trkpt lat="31.198256449930533" lon="121.62163049014273">
        <ele>5.462820760905743</ele>
        <time>2019-10-21T13:52:52Z</time>
      </trkpt>
      <trkpt lat="31.198319122846847" lon="121.62159363140411">
        <ele>5.644617424346507</ele>
        <time>2019-10-21T13:52:55Z</time>
      </trkpt>
      <trkpt lat="31.19848750163816" lon="121.62134458366879">
        <ele>5.4589779525995255</ele>
        <time>2019-10-21T13:53:07Z</time>
      </trkpt>
      <trkpt lat="31.198687572570854" lon="121.62112154573168">
        <ele>5.489228894934058</ele>
        <time>2019-10-21T13:53:18Z</time>
      </trkpt>
      <trkpt lat="31.198872852586348" lon="121.62103427243169">
        <ele>5.713198912329972</ele>
        <time>2019-10-21T13:53:25Z</time>
      </trkpt>
      <trkpt lat="31.198922810476073" lon="121.62097085704626">
        <ele>4.27727375831455</ele>
        <time>2019-10-21T13:53:28Z</time>
      </trkpt>
      <trkpt lat="31.19900177515347" lon="121.62091150394559">
        <ele>5.370687417685986</ele>
        <time>2019-10-21T13:53:31Z</time>
      </trkpt>
      <trkpt lat="31.199088639689297" lon="121.62081800531912">
        <ele>4.171007896773517</ele>
        <time>2019-10-21T13:53:35Z</time>
      </trkpt>
      <trkpt lat="31.19919580671772" lon="121.62075431368606">
        <ele>6.0817921767011285</ele>
        <time>2019-10-21T13:53:42Z</time>
      </trkpt>
      <trkpt lat="31.199241424413223" lon="121.62069225294006">
        <ele>6.702195052988827</ele>
        <time>2019-10-21T13:53:49Z</time>
      </trkpt>
      <trkpt lat="31.19933418772306" lon="121.62065945527651">
        <ele>6.498816253617406</ele>
        <time>2019-10-21T13:53:56Z</time>
      </trkpt>
      <trkpt lat="31.19951858031674" lon="121.62063965760915">
        <ele>7.138107251375914</ele>
        <time>2019-10-21T13:54:11Z</time>
      </trkpt>
      <trkpt lat="31.199643492351274" lon="121.62071444095933">
        <ele>6.405891793780029</ele>
        <time>2019-10-21T13:54:18Z</time>
      </trkpt>
      <trkpt lat="31.19970180057297" lon="121.62070115756065">
        <ele>8.62163232639432</ele>
        <time>2019-10-21T13:54:21Z</time>
      </trkpt>
      <trkpt lat="31.19990890432259" lon="121.62074070513225">
        <ele>4.93110693898052</ele>
        <time>2019-10-21T13:54:31Z</time>
      </trkpt>
      <trkpt lat="31.199996978037746" lon="121.62078215942749">
        <ele>5.742023165337741</ele>
        <time>2019-10-21T13:54:35Z</time>
      </trkpt>
      <trkpt lat="31.200348845404072" lon="121.62084201914716">
        <ele>3.0870260959491134</ele>
        <time>2019-10-21T13:54:49Z</time>
      </trkpt>
      <trkpt lat="31.200550490116992" lon="121.62091489864335">
        <ele>4.568242344073951</ele>
        <time>2019-10-21T13:54:57Z</time>
      </trkpt>
      <trkpt lat="31.2006731062552" lon="121.62085662576382">
        <ele>5.286435819230974</ele>
        <time>2019-10-21T13:55:04Z</time>
      </trkpt>
      <trkpt lat="31.20083199075485" lon="121.62085688360499">
        <ele>7.04866309184581</ele>
        <time>2019-10-21T13:55:14Z</time>
      </trkpt>
      <trkpt lat="31.200993229973715" lon="121.62093572816006">
        <ele>5.088760872371495</ele>
        <time>2019-10-21T13:55:25Z</time>
      </trkpt>
      <trkpt lat="31.201226666183622" lon="121.62094546444126">
        <ele>4.930485986173153</ele>
        <time>2019-10-21T13:55:39Z</time>
      </trkpt>
      <trkpt lat="31.201529197722508" lon="121.6209955722903">
        <ele>5.3787379916757345</ele>
        <time>2019-10-21T13:56:00Z</time>
      </trkpt>
      <trkpt lat="31.201854771851462" lon="121.6210492009771">
        <ele>5.446294784545898</ele>
        <time>2019-10-21T13:56:22Z</time>
      </trkpt>
      <trkpt lat="31.20220092876451" lon="121.62112423583075">
        <ele>4.864712977781892</ele>
        <time>2019-10-21T13:56:45Z</time>
      </trkpt>
      <trkpt lat="31.20231452949349" lon="121.62112856222018">
        <ele>4.6664859261363745</ele>
        <time>2019-10-21T13:56:53Z</time>
      </trkpt>
      <trkpt lat="31.202406144244428" lon="121.62115484035792">
        <ele>6.829793574288487</ele>
        <time>2019-10-21T13:57:00Z</time>
      </trkpt>
      <trkpt lat="31.20245387259395" lon="121.62114697779313">
        <ele>5.034673384390771</ele>
        <time>2019-10-21T13:57:13Z</time>
      </trkpt>
      <trkpt lat="31.202433794944483" lon="121.62115944484242">
        <ele>4.39489109441638</ele>
        <time>2019-10-21T13:58:30Z</time>
      </trkpt>
      <trkpt lat="31.202410604978052" lon="121.62079388326526">
        <ele>5.3732760567218065</ele>
        <time>2019-10-21T13:58:42Z</time>
      </trkpt>
      <trkpt lat="31.20238306131531" lon="121.62043861471948">
        <ele>4.154500678181648</ele>
        <time>2019-10-21T13:58:54Z</time>
      </trkpt>
      <trkpt lat="31.20239344950403" lon="121.62035921247157">
        <ele>3.901583227328956</ele>
        <time>2019-10-21T13:58:58Z</time>
      </trkpt>
      <trkpt lat="31.202446073140553" lon="121.62033725751951">
        <ele>4.744694113731384</ele>
        <time>2019-10-21T13:59:04Z</time>
      </trkpt>
      <trkpt lat="31.20242959152825" lon="121.62028333079424">
        <ele>4.7755551636219025</ele>
        <time>2019-10-21T13:59:34Z</time>
      </trkpt>
      <trkpt lat="31.20269174855715" lon="121.62031176363291">
        <ele>5.66490757279098</ele>
        <time>2019-10-21T13:59:45Z</time>
      </trkpt>
      <trkpt lat="31.20275926867481" lon="121.62030471216374">
        <ele>2.752760984003544</ele>
        <time>2019-10-21T13:59:49Z</time>
      </trkpt>
      <trkpt lat="31.202846086512917" lon="121.62025348678291">
        <ele>4.148451500572264</ele>
        <time>2019-10-21T13:59:53Z</time>
      </trkpt>
      <trkpt lat="31.202835873140955" lon="121.62016920773058">
        <ele>5.789081319235265</ele>
        <time>2019-10-21T13:59:56Z</time>
      </trkpt>
      <trkpt lat="31.202736979822692" lon="121.61984591459647">
        <ele>6.311996378004551</ele>
        <time>2019-10-21T14:00:08Z</time>
      </trkpt>
      <trkpt lat="31.202650610698086" lon="121.61946922858552">
        <ele>5.003745434805751</ele>
        <time>2019-10-21T14:00:22Z</time>
      </trkpt>
      <trkpt lat="31.20256662847088" lon="121.61913969223009">
        <ele>4.601600692607462</ele>
        <time>2019-10-21T14:00:35Z</time>
      </trkpt>
      <trkpt lat="31.202523151916928" lon="121.61896787633006">
        <ele>5.245064648799598</ele>
        <time>2019-10-21T14:00:42Z</time>
      </trkpt>
      <trkpt lat="31.20248917920726" lon="121.6187811528494">
        <ele>5.904330560006201</ele>
        <time>2019-10-21T14:00:49Z</time>
      </trkpt>
      <trkpt lat="31.202513670405203" lon="121.61869334291889">
        <ele>5.281149987131357</ele>
        <time>2019-10-21T14:00:53Z</time>
      </trkpt>
      <trkpt lat="31.202622476617375" lon="121.61861311408369">
        <ele>5.311171527951956</ele>
        <time>2019-10-21T14:01:01Z</time>
      </trkpt>
      <trkpt lat="31.202736227934107" lon="121.61846838311348">
        <ele>4.459982851520181</ele>
        <time>2019-10-21T14:01:09Z</time>
      </trkpt>
      <trkpt lat="31.20271745716522" lon="121.61825997332153">
        <ele>6.4828747203573585</ele>
        <time>2019-10-21T14:01:16Z</time>
      </trkpt>
      <trkpt lat="31.2026191387275" lon="121.61788190964735">
        <ele>5.684467252343893</ele>
        <time>2019-10-21T14:01:32Z</time>
      </trkpt>
      <trkpt lat="31.202511021498474" lon="121.61753771921359">
        <ele>5.373563108034432</ele>
        <time>2019-10-21T14:01:46Z</time>
      </trkpt>
      <trkpt lat="31.20244124256574" lon="121.61735830578507">
        <ele>5.884904362261295</ele>
        <time>2019-10-21T14:01:53Z</time>
      </trkpt>
      <trkpt lat="31.20245081722079" lon="121.61727022107378">
        <ele>5.540425415150821</ele>
        <time>2019-10-21T14:01:57Z</time>
      </trkpt>
      <trkpt lat="31.202490723049394" lon="121.61721926447034">
        <ele>5.395122689194977</ele>
        <time>2019-10-21T14:02:00Z</time>
      </trkpt>
      <trkpt lat="31.202606020651054" lon="121.61715122669018">
        <ele>4.96513525955379</ele>
        <time>2019-10-21T14:02:06Z</time>
      </trkpt>
      <trkpt lat="31.20279056068001" lon="121.61697504179914">
        <ele>5.563818853348494</ele>
        <time>2019-10-21T14:02:16Z</time>
      </trkpt>
      <trkpt lat="31.20284427041549" lon="121.61694874731975">
        <ele>6.042534557171166</ele>
        <time>2019-10-21T14:02:19Z</time>
      </trkpt>
      <trkpt lat="31.202941999365667" lon="121.61682189619113">
        <ele>4.95683690905571</ele>
        <time>2019-10-21T14:02:26Z</time>
      </trkpt>
      <trkpt lat="31.203213591329998" lon="121.61662483205869">
        <ele>6.079336704686284</ele>
        <time>2019-10-21T14:02:40Z</time>
      </trkpt>
      <trkpt lat="31.203456715057158" lon="121.61642532936511">
        <ele>5.624708913266659</ele>
        <time>2019-10-21T14:02:52Z</time>
      </trkpt>
      <trkpt lat="31.203612695450012" lon="121.61634183685646">
        <ele>5.783713441342115</ele>
        <time>2019-10-21T14:03:00Z</time>
      </trkpt>
      <trkpt lat="31.20369736506437" lon="121.61626051827386">
        <ele>7.075986118987203</ele>
        <time>2019-10-21T14:03:12Z</time>
      </trkpt>
      <trkpt lat="31.20374453730206" lon="121.61626620619138">
        <ele>6.701729773543775</ele>
        <time>2019-10-21T14:03:15Z</time>
      </trkpt>
      <trkpt lat="31.203854147883156" lon="121.61618840881242">
        <ele>7.912856128998101</ele>
        <time>2019-10-21T14:03:22Z</time>
      </trkpt>
      <trkpt lat="31.20394023382239" lon="121.61604068452698">
        <ele>7.668124624527991</ele>
        <time>2019-10-21T14:03:29Z</time>
      </trkpt>
      <trkpt lat="31.204159896867434" lon="121.61599323405082">
        <ele>5.973960899747908</ele>
        <time>2019-10-21T14:03:39Z</time>
      </trkpt>
      <trkpt lat="31.204236073936254" lon="121.6160062377634">
        <ele>7.253594267182052</ele>
        <time>2019-10-21T14:03:42Z</time>
      </trkpt>
      <trkpt lat="31.20432628351941" lon="121.61609160834234">
        <ele>6.058887852355838</ele>
        <time>2019-10-21T14:03:46Z</time>
      </trkpt>
      <trkpt lat="31.204485530246387" lon="121.61628728593121">
        <ele>6.272340448573232</ele>
        <time>2019-10-21T14:03:55Z</time>
      </trkpt>
      <trkpt lat="31.20457466276435" lon="121.61636371136588">
        <ele>5.9611991150304675</ele>
        <time>2019-10-21T14:03:59Z</time>
      </trkpt>
      <trkpt lat="31.20466192745889" lon="121.61640761224795">
        <ele>5.81710368860513</ele>
        <time>2019-10-21T14:04:02Z</time>
      </trkpt>
      <trkpt lat="31.204597787052446" lon="121.61627995859835">
        <ele>7.660659177228808</ele>
        <time>2019-10-21T14:04:08Z</time>
      </trkpt>
      <trkpt lat="31.204367314836258" lon="121.61599375897862">
        <ele>6.52859977260232</ele>
        <time>2019-10-21T14:04:19Z</time>
      </trkpt>
      <trkpt lat="31.20417690398701" lon="121.6157777532837">
        <ele>7.520538385026157</ele>
        <time>2019-10-21T14:04:41Z</time>
      </trkpt>
      <trkpt lat="31.20390599557542" lon="121.61552705830103">
        <ele>7.658396254293621</ele>
        <time>2019-10-21T14:05:06Z</time>
      </trkpt>
      <trkpt lat="31.203815526750926" lon="121.61542650705151">
        <ele>6.370956776663661</ele>
        <time>2019-10-21T14:05:17Z</time>
      </trkpt>
      <trkpt lat="31.203672996717934" lon="121.61532921228226">
        <ele>5.843121728859842</ele>
        <time>2019-10-21T14:05:28Z</time>
      </trkpt>
      <trkpt lat="31.203666292986718" lon="121.6152454584101">
        <ele>5.500091106630862</ele>
        <time>2019-10-21T14:05:32Z</time>
      </trkpt>
      <trkpt lat="31.203698912722235" lon="121.61515140104133">
        <ele>6.052800525911152</ele>
        <time>2019-10-21T14:05:36Z</time>
      </trkpt>
      <trkpt lat="31.203796657625965" lon="121.61499716418491">
        <ele>6.575909996405244</ele>
        <time>2019-10-21T14:05:43Z</time>
      </trkpt>
      <trkpt lat="31.203709768828393" lon="121.6148312862418">
        <ele>7.373685693368316</ele>
        <time>2019-10-21T14:05:53Z</time>
      </trkpt>
      <trkpt lat="31.203655597673936" lon="121.61476732163963">
        <ele>6.53014291357249</ele>
        <time>2019-10-21T14:05:57Z</time>
      </trkpt>
      <trkpt lat="31.203672210310618" lon="121.61468302176493">
        <ele>6.747512958012521</ele>
        <time>2019-10-21T14:06:01Z</time>
      </trkpt>
      <trkpt lat="31.203775367539528" lon="121.6145377263738">
        <ele>7.146821744740009</ele>
        <time>2019-10-21T14:06:08Z</time>
      </trkpt>
      <trkpt lat="31.203986234112502" lon="121.61431137409718">
        <ele>7.624978248029947</ele>
        <time>2019-10-21T14:06:20Z</time>
      </trkpt>
      <trkpt lat="31.204093451565534" lon="121.61417176841866">
        <ele>8.16705451067537</ele>
        <time>2019-10-21T14:06:31Z</time>
      </trkpt>
      <trkpt lat="31.204184599268263" lon="121.61411727724258">
        <ele>8.461290316656232</ele>
        <time>2019-10-21T14:06:35Z</time>
      </trkpt>
      <trkpt lat="31.204412785662726" lon="121.61392588698861">
        <ele>8.36438911035657</ele>
        <time>2019-10-21T14:06:46Z</time>
      </trkpt>
      <trkpt lat="31.20462546305272" lon="121.61379792619692">
        <ele>7.840796395204961</ele>
        <time>2019-10-21T14:06:54Z</time>
      </trkpt>
      <trkpt lat="31.20482189495229" lon="121.61364204600332">
        <ele>8.387909485027194</ele>
        <time>2019-10-21T14:07:05Z</time>
      </trkpt>
      <trkpt lat="31.205105054408293" lon="121.61352844455672">
        <ele>8.223245415836573</ele>
        <time>2019-10-21T14:07:27Z</time>
      </trkpt>
      <trkpt lat="31.205243724287982" lon="121.61338313915333">
        <ele>8.157180786132812</ele>
        <time>2019-10-21T14:07:38Z</time>
      </trkpt>
      <trkpt lat="31.205242688632723" lon="121.61332350340818">
        <ele>8.217934431508183</ele>
        <time>2019-10-21T14:07:42Z</time>
      </trkpt>
      <trkpt lat="31.205273090611815" lon="121.61328094250416">
        <ele>8.508736609481275</ele>
        <time>2019-10-21T14:07:45Z</time>
      </trkpt>
      <trkpt lat="31.2053273038178" lon="121.61296378070726">
        <ele>8.785750574432313</ele>
        <time>2019-10-21T14:08:00Z</time>
      </trkpt>
      <trkpt lat="31.20536885637901" lon="121.61287811695189">
        <ele>8.146891265176237</ele>
        <time>2019-10-21T14:08:07Z</time>
      </trkpt>
      <trkpt lat="31.205194180332164" lon="121.61261925098714">
        <ele>7.841488213278353</ele>
        <time>2019-10-21T14:08:25Z</time>
      </trkpt>
      <trkpt lat="31.205165209802665" lon="121.61256747695573">
        <ele>7.945770217105746</ele>
        <time>2019-10-21T14:08:29Z</time>
      </trkpt>
      <trkpt lat="31.204930318368046" lon="121.61233463657135">
        <ele>8.200520953163505</ele>
        <time>2019-10-21T14:08:51Z</time>
      </trkpt>
      <trkpt lat="31.204853076946254" lon="121.61229343818546">
        <ele>7.407242896966636</ele>
        <time>2019-10-21T14:08:55Z</time>
      </trkpt>
      <trkpt lat="31.20483007434974" lon="121.61223705449069">
        <ele>7.937968008220196</ele>
        <time>2019-10-21T14:09:02Z</time>
      </trkpt>
      <trkpt lat="31.204650104852995" lon="121.61215411723384">
        <ele>7.925084794871509</ele>
        <time>2019-10-21T14:09:15Z</time>
      </trkpt>
      <trkpt lat="31.204607336489243" lon="121.61206222246722">
        <ele>8.530969018116593</ele>
        <time>2019-10-21T14:09:22Z</time>
      </trkpt>
      <trkpt lat="31.20449787392904" lon="121.61196328455897">
        <ele>8.205466203391552</ele>
        <time>2019-10-21T14:09:32Z</time>
      </trkpt>
      <trkpt lat="31.20444745960288" lon="121.61194133057751">
        <ele>8.169070250354707</ele>
        <time>2019-10-21T14:09:36Z</time>
      </trkpt>
      <trkpt lat="31.204212594780298" lon="121.61166619363216">
        <ele>8.168075767345726</ele>
        <time>2019-10-21T14:09:55Z</time>
      </trkpt>
      <trkpt lat="31.204170880885297" lon="121.61161197869059">
        <ele>7.744825971312821</ele>
        <time>2019-10-21T14:09:58Z</time>
      </trkpt>
      <trkpt lat="31.204144904946073" lon="121.61154149673975">
        <ele>7.8073201244696975</ele>
        <time>2019-10-21T14:10:02Z</time>
      </trkpt>
      <trkpt lat="31.204110503726824" lon="121.61149758245935">
        <ele>8.344798388890922</ele>
        <time>2019-10-21T14:10:05Z</time>
      </trkpt>
      <trkpt lat="31.204092941780083" lon="121.61141490020832">
        <ele>8.404228521510959</ele>
        <time>2019-10-21T14:10:09Z</time>
      </trkpt>
      <trkpt lat="31.204160827002028" lon="121.61127853360892">
        <ele>6.469507461413741</ele>
        <time>2019-10-21T14:10:16Z</time>
      </trkpt>
      <trkpt lat="31.204116404959272" lon="121.61121889603793">
        <ele>8.437159807421267</ele>
        <time>2019-10-21T14:10:20Z</time>
      </trkpt>
      <trkpt lat="31.204169375527073" lon="121.61108415609594">
        <ele>5.452946028672159</ele>
        <time>2019-10-21T14:10:28Z</time>
      </trkpt>
      <trkpt lat="31.204229025278785" lon="121.61108415116468">
        <ele>7.010607458651066</ele>
        <time>2019-10-21T14:10:35Z</time>
      </trkpt>
      <trkpt lat="31.20430993688979" lon="121.6109290756017">
        <ele>7.351087190210819</ele>
        <time>2019-10-21T14:10:48Z</time>
      </trkpt>
      <trkpt lat="31.204410508135833" lon="121.61095644840645">
        <ele>7.318609108217061</ele>
        <time>2019-10-21T14:10:52Z</time>
      </trkpt>
    </trkseg>
  </trk>
</gpx>