<?xml version="1.0" encoding="UTF-8"?>
<gpx xmlns="http://www.topografix.com/GPX/1/1" xmlns:gpxtpx="http://www.garmin.com/xmlschemas/TrackPointExtension/v1" xmlns:xsi="http://www.w3.org/2001/XMLSchema-instance" xsi:schemaLocation="http://www.topografix.com/GPX/1/1 http://www.topografix.com/GPX/1/1/gpx.xsd" version="1.1" creator="gpx.py -- https://github.com/tkrajina/gpxpy">
  <trk>
    <name>gpx from keep</name>
    <type>Run</type>
    <trkseg>
      <trkpt lat="31.20450209672832" lon="121.61065768665037">
        <ele>8.989844304975591</ele>
        <time>2020-06-02T22:58:29Z</time>
      </trkpt>
      <trkpt lat="31.2045763430064" lon="121.6107200342502">
        <ele>8.918322978541255</ele>
        <time>2020-06-02T22:58:33Z</time>
      </trkpt>
      <trkpt lat="31.20462372950422" lon="121.61080624087141">
        <ele>8.886020118370652</ele>
        <time>2020-06-02T22:58:37Z</time>
      </trkpt>
      <trkpt lat="31.20469000886073" lon="121.61063625392322">
        <ele>8.695614120922983</ele>
        <time>2020-06-02T22:58:44Z</time>
      </trkpt>
      <trkpt lat="31.20477922015948" lon="121.61062540239233">
        <ele>8.432140582241118</ele>
        <time>2020-06-02T22:58:48Z</time>
      </trkpt>
      <trkpt lat="31.20487263762299" lon="121.61041908361778">
        <ele>7.954186484217644</ele>
        <time>2020-06-02T22:58:56Z</time>
      </trkpt>
      <trkpt lat="31.205083049830208" lon="121.61040334204544">
        <ele>5.947797262109816</ele>
        <time>2020-06-02T22:58:59Z</time>
      </trkpt>
      <trkpt lat="31.20518700945308" lon="121.61024039779224">
        <ele>8.693640882149339</ele>
        <time>2020-06-02T22:59:06Z</time>
      </trkpt>
      <trkpt lat="31.205313170425573" lon="121.610121641502">
        <ele>8.54898355808109</ele>
        <time>2020-06-02T22:59:13Z</time>
      </trkpt>
      <trkpt lat="31.20536685147624" lon="121.61012705926338">
        <ele>9.406709083355963</ele>
        <time>2020-06-02T22:59:16Z</time>
      </trkpt>
      <trkpt lat="31.20543295193759" lon="121.61020811551919">
        <ele>7.821252055466175</ele>
        <time>2020-06-02T22:59:20Z</time>
      </trkpt>
      <trkpt lat="31.205491120614568" lon="121.61038649969473">
        <ele>7.446352659724653</ele>
        <time>2020-06-02T22:59:28Z</time>
      </trkpt>
      <trkpt lat="31.20561822711382" lon="121.61046565223785">
        <ele>7.15452884696424</ele>
        <time>2020-06-02T22:59:34Z</time>
      </trkpt>
      <trkpt lat="31.20586888045873" lon="121.6106716710398">
        <ele>7.134644349105656</ele>
        <time>2020-06-02T22:59:45Z</time>
      </trkpt>
      <trkpt lat="31.20603956705528" lon="121.61085031337348">
        <ele>7.144197805784643</ele>
        <time>2020-06-02T22:59:53Z</time>
      </trkpt>
      <trkpt lat="31.20629312944254" lon="121.61115229723936">
        <ele>9.50544798374176</ele>
        <time>2020-06-02T23:00:08Z</time>
      </trkpt>
      <trkpt lat="31.206461304321866" lon="121.61142256614309">
        <ele>4.340946735814214</ele>
        <time>2020-06-02T23:00:19Z</time>
      </trkpt>
      <trkpt lat="31.206525476808743" lon="121.61153831789629">
        <ele>4.528269265778363</ele>
        <time>2020-06-02T23:00:25Z</time>
      </trkpt>
      <trkpt lat="31.206544670121662" lon="121.6116144933532">
        <ele>2.848224900662899</ele>
        <time>2020-06-02T23:00:29Z</time>
      </trkpt>
      <trkpt lat="31.206465702215805" lon="121.61170368905445">
        <ele>10.21433995757252</ele>
        <time>2020-06-02T23:00:36Z</time>
      </trkpt>
      <trkpt lat="31.206429860672593" lon="121.61177173580441">
        <ele>8.19492544233799</ele>
        <time>2020-06-02T23:00:39Z</time>
      </trkpt>
      <trkpt lat="31.206280873274153" lon="121.61194714293376">
        <ele>6.450769303366542</ele>
        <time>2020-06-02T23:00:47Z</time>
      </trkpt>
      <trkpt lat="31.206189649826367" lon="121.61210546551415">
        <ele>6.472657925449312</ele>
        <time>2020-06-02T23:00:53Z</time>
      </trkpt>
      <trkpt lat="31.206048256046294" lon="121.61227571887967">
        <ele>7.59924341365695</ele>
        <time>2020-06-02T23:01:01Z</time>
      </trkpt>
      <trkpt lat="31.20589740696481" lon="121.61240070095819">
        <ele>7.180747646838427</ele>
        <time>2020-06-02T23:01:08Z</time>
      </trkpt>
      <trkpt lat="31.20573187296409" lon="121.61258017090745">
        <ele>7.8787443824112415</ele>
        <time>2020-06-02T23:01:18Z</time>
      </trkpt>
      <trkpt lat="31.205584012090036" lon="121.61269620547864">
        <ele>6.674710820429027</ele>
        <time>2020-06-02T23:01:24Z</time>
      </trkpt>
      <trkpt lat="31.205374509090074" lon="121.6129293500677">
        <ele>7.159884168766439</ele>
        <time>2020-06-02T23:01:34Z</time>
      </trkpt>
      <trkpt lat="31.2053394668969" lon="121.6130109469586">
        <ele>10.145704523660243</ele>
        <time>2020-06-02T23:01:38Z</time>
      </trkpt>
      <trkpt lat="31.205291980742615" lon="121.61305730482107">
        <ele>9.102162060327828</ele>
        <time>2020-06-02T23:01:41Z</time>
      </trkpt>
      <trkpt lat="31.20524804297983" lon="121.61307438619697">
        <ele>6.227262130007148</ele>
        <time>2020-06-02T23:01:44Z</time>
      </trkpt>
      <trkpt lat="31.20519187686614" lon="121.61312508184555">
        <ele>7.47431921120733</ele>
        <time>2020-06-02T23:01:48Z</time>
      </trkpt>
      <trkpt lat="31.20513921071633" lon="121.61320613736447">
        <ele>9.592454625293612</ele>
        <time>2020-06-02T23:01:52Z</time>
      </trkpt>
      <trkpt lat="31.205051035547775" lon="121.61327499726391">
        <ele>8.856921137310565</ele>
        <time>2020-06-02T23:01:56Z</time>
      </trkpt>
      <trkpt lat="31.204957997309528" lon="121.61332244266042">
        <ele>7.888723346404731</ele>
        <time>2020-06-02T23:02:00Z</time>
      </trkpt>
      <trkpt lat="31.20472542987759" lon="121.61357076282165">
        <ele>8.731573349796236</ele>
        <time>2020-06-02T23:02:12Z</time>
      </trkpt>
      <trkpt lat="31.204472787554707" lon="121.61382938255532">
        <ele>9.303078236989677</ele>
        <time>2020-06-02T23:02:25Z</time>
      </trkpt>
      <trkpt lat="31.204235050644606" lon="121.61409341949782">
        <ele>6.808826472610235</ele>
        <time>2020-06-02T23:02:40Z</time>
      </trkpt>
      <trkpt lat="31.20399925972786" lon="121.61429836208966">
        <ele>7.030483398586512</ele>
        <time>2020-06-02T23:02:51Z</time>
      </trkpt>
      <trkpt lat="31.203787593656912" lon="121.6145087220963">
        <ele>8.36215996928513</ele>
        <time>2020-06-02T23:03:02Z</time>
      </trkpt>
      <trkpt lat="31.203608468102086" lon="121.61471230114752">
        <ele>6.955098992213607</ele>
        <time>2020-06-02T23:03:12Z</time>
      </trkpt>
      <trkpt lat="31.203420999996915" lon="121.61484269443334">
        <ele>7.336978297680616</ele>
        <time>2020-06-02T23:03:20Z</time>
      </trkpt>
      <trkpt lat="31.20335559350592" lon="121.61491452929454">
        <ele>7.348356158472598</ele>
        <time>2020-06-02T23:03:23Z</time>
      </trkpt>
      <trkpt lat="31.20332294759166" lon="121.61503921657017">
        <ele>6.171126306056976</ele>
        <time>2020-06-02T23:03:30Z</time>
      </trkpt>
      <trkpt lat="31.20336793328041" lon="121.61506496284451">
        <ele>6.197540882974863</ele>
        <time>2020-06-02T23:03:59Z</time>
      </trkpt>
      <trkpt lat="31.203442256884028" lon="121.61533356815644">
        <ele>7.445503785274923</ele>
        <time>2020-06-02T23:04:23Z</time>
      </trkpt>
      <trkpt lat="31.203237593838423" lon="121.61558674390002">
        <ele>6.260691737756133</ele>
        <time>2020-06-02T23:04:38Z</time>
      </trkpt>
      <trkpt lat="31.203011787627695" lon="121.61583151638673">
        <ele>7.229302767664194</ele>
        <time>2020-06-02T23:04:49Z</time>
      </trkpt>
      <trkpt lat="31.202821807216466" lon="121.6160348141198">
        <ele>6.125426346436143</ele>
        <time>2020-06-02T23:04:59Z</time>
      </trkpt>
      <trkpt lat="31.202749910366553" lon="121.61608496270348">
        <ele>5.551223075017333</ele>
        <time>2020-06-02T23:05:02Z</time>
      </trkpt>
      <trkpt lat="31.20251811623134" lon="121.61634978749777">
        <ele>5.35654556658119</ele>
        <time>2020-06-02T23:05:17Z</time>
      </trkpt>
      <trkpt lat="31.202294736251613" lon="121.61660241214506">
        <ele>6.663571568205953</ele>
        <time>2020-06-02T23:05:28Z</time>
      </trkpt>
      <trkpt lat="31.202025785398458" lon="121.61687401022868">
        <ele>5.832302291877568</ele>
        <time>2020-06-02T23:05:42Z</time>
      </trkpt>
      <trkpt lat="31.20193047737661" lon="121.61702091716717">
        <ele>5.990386366844177</ele>
        <time>2020-06-02T23:05:49Z</time>
      </trkpt>
      <trkpt lat="31.201748986721256" lon="121.61712717596977">
        <ele>6.032876364886761</ele>
        <time>2020-06-02T23:06:00Z</time>
      </trkpt>
      <trkpt lat="31.201510398776538" lon="121.6173979526902">
        <ele>5.052770579233766</ele>
        <time>2020-06-02T23:06:11Z</time>
      </trkpt>
      <trkpt lat="31.20138906941555" lon="121.61753428869856">
        <ele>6.0500644613057375</ele>
        <time>2020-06-02T23:06:18Z</time>
      </trkpt>
      <trkpt lat="31.201280515544564" lon="121.61763701595876">
        <ele>6.44964665453881</ele>
        <time>2020-06-02T23:06:24Z</time>
      </trkpt>
      <trkpt lat="31.201077456916178" lon="121.61789206496866">
        <ele>4.761890237219632</ele>
        <time>2020-06-02T23:06:35Z</time>
      </trkpt>
      <trkpt lat="31.200887427719056" lon="121.61812976511666">
        <ele>5.79395314399153</ele>
        <time>2020-06-02T23:06:46Z</time>
      </trkpt>
      <trkpt lat="31.200666168578003" lon="121.61841489335744">
        <ele>5.630286640487611</ele>
        <time>2020-06-02T23:06:59Z</time>
      </trkpt>
      <trkpt lat="31.20043949602863" lon="121.61868809427078">
        <ele>4.528803964145482</ele>
        <time>2020-06-02T23:07:13Z</time>
      </trkpt>
      <trkpt lat="31.20025677984748" lon="121.61892687034891">
        <ele>4.789001791737974</ele>
        <time>2020-06-02T23:07:24Z</time>
      </trkpt>
      <trkpt lat="31.200023356257283" lon="121.61916890046844">
        <ele>5.913561114110053</ele>
        <time>2020-06-02T23:07:37Z</time>
      </trkpt>
      <trkpt lat="31.199859125550976" lon="121.6193572635429">
        <ele>4.212375381030142</ele>
        <time>2020-06-02T23:07:47Z</time>
      </trkpt>
      <trkpt lat="31.199618387442626" lon="121.61959007609038">
        <ele>5.206244254484773</ele>
        <time>2020-06-02T23:08:01Z</time>
      </trkpt>
      <trkpt lat="31.19949351970943" lon="121.61972965258516">
        <ele>6.229892713949084</ele>
        <time>2020-06-02T23:08:08Z</time>
      </trkpt>
      <trkpt lat="31.199227597283286" lon="121.61993021493434">
        <ele>5.017620729282498</ele>
        <time>2020-06-02T23:08:22Z</time>
      </trkpt>
      <trkpt lat="31.199173876385423" lon="121.619964636282">
        <ele>3.9873453807085752</ele>
        <time>2020-06-02T23:08:25Z</time>
      </trkpt>
      <trkpt lat="31.19907666402734" lon="121.62010285347341">
        <ele>5.163355217315257</ele>
        <time>2020-06-02T23:08:31Z</time>
      </trkpt>
      <trkpt lat="31.198989047431652" lon="121.62014080035993">
        <ele>5.811320855282247</ele>
        <time>2020-06-02T23:08:35Z</time>
      </trkpt>
      <trkpt lat="31.198789553040196" lon="121.62033864407411">
        <ele>5.929328217171133</ele>
        <time>2020-06-02T23:08:46Z</time>
      </trkpt>
      <trkpt lat="31.19869328394452" lon="121.62035409875828">
        <ele>7.229119551368058</ele>
        <time>2020-06-02T23:08:49Z</time>
      </trkpt>
      <trkpt lat="31.198652237600268" lon="121.62045220215272">
        <ele>6.1106279995292425</ele>
        <time>2020-06-02T23:08:52Z</time>
      </trkpt>
      <trkpt lat="31.19849478683379" lon="121.62063161256437">
        <ele>5.362736081704497</ele>
        <time>2020-06-02T23:08:59Z</time>
      </trkpt>
      <trkpt lat="31.198257575134143" lon="121.62085384476595">
        <ele>8.110894741490483</ele>
        <time>2020-06-02T23:09:10Z</time>
      </trkpt>
      <trkpt lat="31.198181886345967" lon="121.62089287353014">
        <ele>6.825215863995254</ele>
        <time>2020-06-02T23:09:14Z</time>
      </trkpt>
      <trkpt lat="31.198032054065596" lon="121.62104545251132">
        <ele>7.604120936244726</ele>
        <time>2020-06-02T23:09:22Z</time>
      </trkpt>
      <trkpt lat="31.197980509888897" lon="121.62107174258148">
        <ele>4.964958483353257</ele>
        <time>2020-06-02T23:09:25Z</time>
      </trkpt>
      <trkpt lat="31.197734890756266" lon="121.6212931587995">
        <ele>5.915131205692887</ele>
        <time>2020-06-02T23:09:39Z</time>
      </trkpt>
      <trkpt lat="31.19754030292482" lon="121.62146064326681">
        <ele>6.0441953130066395</ele>
        <time>2020-06-02T23:09:50Z</time>
      </trkpt>
      <trkpt lat="31.19747351271883" lon="121.62154302766538">
        <ele>4.73479378875345</ele>
        <time>2020-06-02T23:09:54Z</time>
      </trkpt>
      <trkpt lat="31.197191815508198" lon="121.6217769080249">
        <ele>5.246022197417915</ele>
        <time>2020-06-02T23:10:11Z</time>
      </trkpt>
      <trkpt lat="31.197090279866693" lon="121.62189452162846">
        <ele>6.156046770513058</ele>
        <time>2020-06-02T23:10:22Z</time>
      </trkpt>
      <trkpt lat="31.196856375953846" lon="121.62206065067447">
        <ele>4.0024459371343255</ele>
        <time>2020-06-02T23:10:37Z</time>
      </trkpt>
      <trkpt lat="31.196726905740135" lon="121.62218422681813">
        <ele>5.022283426485956</ele>
        <time>2020-06-02T23:10:44Z</time>
      </trkpt>
      <trkpt lat="31.196686697290243" lon="121.6222554967898">
        <ele>6.59922846686095</ele>
        <time>2020-06-02T23:10:47Z</time>
      </trkpt>
      <trkpt lat="31.19668606582957" lon="121.6225719943314">
        <ele>5.517137128859758</ele>
        <time>2020-06-02T23:10:57Z</time>
      </trkpt>
      <trkpt lat="31.19668298003032" lon="121.62266222820722">
        <ele>5.827325588092208</ele>
        <time>2020-06-02T23:11:00Z</time>
      </trkpt>
      <trkpt lat="31.19672084251501" lon="121.6229811565103">
        <ele>4.328908457420766</ele>
        <time>2020-06-02T23:11:12Z</time>
      </trkpt>
      <trkpt lat="31.1967444913699" lon="121.62316297360253">
        <ele>5.571779306046665</ele>
        <time>2020-06-02T23:11:19Z</time>
      </trkpt>
      <trkpt lat="31.196813202887267" lon="121.62352877008409">
        <ele>7.264499218203127</ele>
        <time>2020-06-02T23:11:32Z</time>
      </trkpt>
      <trkpt lat="31.196827477054082" lon="121.62361032857237">
        <ele>6.064406207762659</ele>
        <time>2020-06-02T23:11:35Z</time>
      </trkpt>
      <trkpt lat="31.196821962411704" lon="121.6236883659616">
        <ele>6.247436996549368</ele>
        <time>2020-06-02T23:11:38Z</time>
      </trkpt>
      <trkpt lat="31.19687370017424" lon="121.62395850866005">
        <ele>5.616924940608442</ele>
        <time>2020-06-02T23:11:48Z</time>
      </trkpt>
      <trkpt lat="31.196938478237435" lon="121.6239777413469">
        <ele>4.98534869402647</ele>
        <time>2020-06-02T23:11:52Z</time>
      </trkpt>
      <trkpt lat="31.196917178693905" lon="121.62387667546183">
        <ele>6.605000045150518</ele>
        <time>2020-06-02T23:11:59Z</time>
      </trkpt>
      <trkpt lat="31.19694332791433" lon="121.6235450170735">
        <ele>6.186644517816603</ele>
        <time>2020-06-02T23:12:13Z</time>
      </trkpt>
      <trkpt lat="31.196945592408028" lon="121.62346372798578">
        <ele>4.829774893820286</ele>
        <time>2020-06-02T23:12:16Z</time>
      </trkpt>
      <trkpt lat="31.19683540328103" lon="121.62309224375994">
        <ele>5.927499518729746</ele>
        <time>2020-06-02T23:12:31Z</time>
      </trkpt>
      <trkpt lat="31.196824214887624" lon="121.6229201800426">
        <ele>6.040553843602538</ele>
        <time>2020-06-02T23:12:38Z</time>
      </trkpt>
      <trkpt lat="31.196965466728855" lon="121.62269228263332">
        <ele>3.9874499486759305</ele>
        <time>2020-06-02T23:12:50Z</time>
      </trkpt>
      <trkpt lat="31.19714625263638" lon="121.62250800670904">
        <ele>5.767170207574964</ele>
        <time>2020-06-02T23:13:04Z</time>
      </trkpt>
      <trkpt lat="31.197441194599424" lon="121.62231504888359">
        <ele>5.635566861368716</ele>
        <time>2020-06-02T23:13:19Z</time>
      </trkpt>
      <trkpt lat="31.197562521290525" lon="121.6222004162282">
        <ele>5.832099719904363</ele>
        <time>2020-06-02T23:13:26Z</time>
      </trkpt>
      <trkpt lat="31.19764446067338" lon="121.6221500078586">
        <ele>6.641966418363154</ele>
        <time>2020-06-02T23:13:30Z</time>
      </trkpt>
      <trkpt lat="31.197867303236844" lon="121.62193537513969">
        <ele>7.048927959986031</ele>
        <time>2020-06-02T23:13:42Z</time>
      </trkpt>
      <trkpt lat="31.198066980156582" lon="121.62182615397114">
        <ele>6.25379241630435</ele>
        <time>2020-06-02T23:13:53Z</time>
      </trkpt>
      <trkpt lat="31.198233652666147" lon="121.62165027369427">
        <ele>4.902234949171543</ele>
        <time>2020-06-02T23:14:03Z</time>
      </trkpt>
      <trkpt lat="31.19837936604391" lon="121.62154728842395">
        <ele>5.5720988139510155</ele>
        <time>2020-06-02T23:14:10Z</time>
      </trkpt>
      <trkpt lat="31.19847849378372" lon="121.62139932327433">
        <ele>7.478304092772305</ele>
        <time>2020-06-02T23:14:17Z</time>
      </trkpt>
      <trkpt lat="31.19855585309629" lon="121.62132127331478">
        <ele>5.813505346886814</ele>
        <time>2020-06-02T23:14:21Z</time>
      </trkpt>
      <trkpt lat="31.198591998950857" lon="121.6212440394926">
        <ele>6.044308569282293</ele>
        <time>2020-06-02T23:14:24Z</time>
      </trkpt>
      <trkpt lat="31.198666124470016" lon="121.6211475622484">
        <ele>6.486147476360202</ele>
        <time>2020-06-02T23:14:28Z</time>
      </trkpt>
      <trkpt lat="31.198907061049606" lon="121.62099253742704">
        <ele>6.896133931353688</ele>
        <time>2020-06-02T23:14:39Z</time>
      </trkpt>
      <trkpt lat="31.199049600498782" lon="121.62081421468712">
        <ele>6.820271342992783</ele>
        <time>2020-06-02T23:14:47Z</time>
      </trkpt>
      <trkpt lat="31.199121249241852" lon="121.62075025499307">
        <ele>5.604177862405777</ele>
        <time>2020-06-02T23:14:51Z</time>
      </trkpt>
      <trkpt lat="31.199304345986263" lon="121.62067517526567">
        <ele>5.80855518579483</ele>
        <time>2020-06-02T23:14:59Z</time>
      </trkpt>
      <trkpt lat="31.199632914305045" lon="121.62071796472044">
        <ele>7.121303964406252</ele>
        <time>2020-06-02T23:15:13Z</time>
      </trkpt>
      <trkpt lat="31.1997370304332" lon="121.62071741412234">
        <ele>6.985341326333582</ele>
        <time>2020-06-02T23:15:17Z</time>
      </trkpt>
      <trkpt lat="31.199796427594155" lon="121.62070006576468">
        <ele>7.104874508455396</ele>
        <time>2020-06-02T23:15:20Z</time>
      </trkpt>
      <trkpt lat="31.19997835253289" lon="121.62070574152848">
        <ele>4.668282489292324</ele>
        <time>2020-06-02T23:15:31Z</time>
      </trkpt>
      <trkpt lat="31.200084873119398" lon="121.62073825165174">
        <ele>5.230683804489672</ele>
        <time>2020-06-02T23:15:39Z</time>
      </trkpt>
      <trkpt lat="31.200148589684417" lon="121.62073824637905">
        <ele>6.045700188726187</ele>
        <time>2020-06-02T23:15:43Z</time>
      </trkpt>
      <trkpt lat="31.200225835964076" lon="121.62076317114513">
        <ele>6.017906892113388</ele>
        <time>2020-06-02T23:15:50Z</time>
      </trkpt>
      <trkpt lat="31.200340803978175" lon="121.62075665785301">
        <ele>4.1169249759987</ele>
        <time>2020-06-02T23:15:56Z</time>
      </trkpt>
      <trkpt lat="31.20058963629132" lon="121.62082032001918">
        <ele>4.620449094101787</ele>
        <time>2020-06-02T23:16:11Z</time>
      </trkpt>
      <trkpt lat="31.200746006358827" lon="121.62088886749176">
        <ele>4.530561808496714</ele>
        <time>2020-06-02T23:16:18Z</time>
      </trkpt>
      <trkpt lat="31.201083240435644" lon="121.62094141147804">
        <ele>5.279596950858831</ele>
        <time>2020-06-02T23:16:32Z</time>
      </trkpt>
      <trkpt lat="31.201367059813375" lon="121.6209950437321">
        <ele>5.483987187035382</ele>
        <time>2020-06-02T23:16:44Z</time>
      </trkpt>
      <trkpt lat="31.20167608668512" lon="121.6210559904584">
        <ele>5.479378125630319</ele>
        <time>2020-06-02T23:16:57Z</time>
      </trkpt>
      <trkpt lat="31.201778564628253" lon="121.62106600851988">
        <ele>4.560254548676312</ele>
        <time>2020-06-02T23:17:01Z</time>
      </trkpt>
      <trkpt lat="31.202026040010445" lon="121.62113048300499">
        <ele>4.339147078804672</ele>
        <time>2020-06-02T23:17:11Z</time>
      </trkpt>
      <trkpt lat="31.2023006766633" lon="121.62115132625988">
        <ele>5.592019470408559</ele>
        <time>2020-06-02T23:17:22Z</time>
      </trkpt>
      <trkpt lat="31.202369263665833" lon="121.62116053412977">
        <ele>5.497172467410564</ele>
        <time>2020-06-02T23:17:25Z</time>
      </trkpt>
      <trkpt lat="31.202414865114065" lon="121.62111419160426">
        <ele>3.8306607389822602</ele>
        <time>2020-06-02T23:17:29Z</time>
      </trkpt>
      <trkpt lat="31.20240942566299" lon="121.620881142125">
        <ele>3.509457742795348</ele>
        <time>2020-06-02T23:17:39Z</time>
      </trkpt>
      <trkpt lat="31.202426349605332" lon="121.62077653857115">
        <ele>3.727146868593991</ele>
        <time>2020-06-02T23:17:43Z</time>
      </trkpt>
      <trkpt lat="31.202416873135565" lon="121.62051313518815">
        <ele>3.4680981812998652</ele>
        <time>2020-06-02T23:17:51Z</time>
      </trkpt>
      <trkpt lat="31.20246313028704" lon="121.62036001968987">
        <ele>4.246631390415132</ele>
        <time>2020-06-02T23:17:58Z</time>
      </trkpt>
      <trkpt lat="31.20246313028704" lon="121.62036001968987">
        <ele>4.246631390415132</ele>
        <time>2020-06-02T23:18:07Z</time>
      </trkpt>
      <trkpt lat="31.20245202796395" lon="121.62034674185495">
        <ele>5.126558723859489</ele>
        <time>2020-06-02T23:18:18Z</time>
      </trkpt>
      <trkpt lat="31.202741076284703" lon="121.62032937424624">
        <ele>4.8848648658022285</ele>
        <time>2020-06-02T23:18:50Z</time>
      </trkpt>
      <trkpt lat="31.202888376626273" lon="121.62025998718673">
        <ele>4.5844708401709795</ele>
        <time>2020-06-02T23:18:57Z</time>
      </trkpt>
      <trkpt lat="31.202866528676562" lon="121.62015294537487">
        <ele>3.794638673774898</ele>
        <time>2020-06-02T23:19:03Z</time>
      </trkpt>
      <trkpt lat="31.202765145320676" lon="121.61987680627996">
        <ele>4.850717259570956</ele>
        <time>2020-06-02T23:19:21Z</time>
      </trkpt>
      <trkpt lat="31.202790710709532" lon="121.61980200806637">
        <ele>4.217749765142798</ele>
        <time>2020-06-02T23:19:25Z</time>
      </trkpt>
      <trkpt lat="31.202725233338104" lon="121.61967111978998">
        <ele>4.529298918321729</ele>
        <time>2020-06-02T23:19:31Z</time>
      </trkpt>
      <trkpt lat="31.20269824015515" lon="121.61955594586102">
        <ele>4.083031492307782</ele>
        <time>2020-06-02T23:19:35Z</time>
      </trkpt>
      <trkpt lat="31.20265604832415" lon="121.61945486490575">
        <ele>3.3837711894884706</ele>
        <time>2020-06-02T23:19:39Z</time>
      </trkpt>
      <trkpt lat="31.20264343285102" lon="121.61933155864487">
        <ele>4.710973155684769</ele>
        <time>2020-06-02T23:19:43Z</time>
      </trkpt>
      <trkpt lat="31.202532365791935" lon="121.61897248273024">
        <ele>5.207347587682307</ele>
        <time>2020-06-02T23:19:58Z</time>
      </trkpt>
      <trkpt lat="31.202463142828105" lon="121.61878847231519">
        <ele>5.749758841469884</ele>
        <time>2020-06-02T23:20:09Z</time>
      </trkpt>
      <trkpt lat="31.202494679710192" lon="121.61870445600098">
        <ele>4.917471186257899</ele>
        <time>2020-06-02T23:20:16Z</time>
      </trkpt>
      <trkpt lat="31.20256983070653" lon="121.6186583776332">
        <ele>3.785766231827438</ele>
        <time>2020-06-02T23:20:22Z</time>
      </trkpt>
      <trkpt lat="31.202626241286076" lon="121.61864400927855">
        <ele>6.189808314666152</ele>
        <time>2020-06-02T23:20:26Z</time>
      </trkpt>
      <trkpt lat="31.202757036336966" lon="121.61853694807658">
        <ele>5.176041743718088</ele>
        <time>2020-06-02T23:20:36Z</time>
      </trkpt>
      <trkpt lat="31.20282321126871" lon="121.61851905565833">
        <ele>3.6712037278339267</ele>
        <time>2020-06-02T23:20:40Z</time>
      </trkpt>
      <trkpt lat="31.2028639286682" lon="121.61847216675697">
        <ele>5.328067300841212</ele>
        <time>2020-06-02T23:20:43Z</time>
      </trkpt>
      <trkpt lat="31.202809676271304" lon="121.61822663055739">
        <ele>4.718702708370984</ele>
        <time>2020-06-02T23:20:54Z</time>
      </trkpt>
      <trkpt lat="31.202663784594943" lon="121.61797459505404">
        <ele>6.399080589413643</ele>
        <time>2020-06-02T23:21:07Z</time>
      </trkpt>
      <trkpt lat="31.20261971112643" lon="121.61785128417853">
        <ele>5.583365265280008</ele>
        <time>2020-06-02T23:21:11Z</time>
      </trkpt>
      <trkpt lat="31.202556921654217" lon="121.61773529186075">
        <ele>6.045308439992368</ele>
        <time>2020-06-02T23:21:15Z</time>
      </trkpt>
      <trkpt lat="31.20250183135473" lon="121.6175084492561">
        <ele>5.555298384279013</ele>
        <time>2020-06-02T23:21:23Z</time>
      </trkpt>
      <trkpt lat="31.20245122503497" lon="121.61740952900234">
        <ele>6.0059031108394265</ele>
        <time>2020-06-02T23:21:27Z</time>
      </trkpt>
      <trkpt lat="31.2024811179664" lon="121.61733905956473">
        <ele>5.2424570536240935</ele>
        <time>2020-06-02T23:21:30Z</time>
      </trkpt>
      <trkpt lat="31.202695232599595" lon="121.6171422753444">
        <ele>5.968027767725289</ele>
        <time>2020-06-02T23:21:41Z</time>
      </trkpt>
      <trkpt lat="31.202831210522504" lon="121.61699644988902">
        <ele>4.2584877740591764</ele>
        <time>2020-06-02T23:21:48Z</time>
      </trkpt>
      <trkpt lat="31.2029123028447" lon="121.616972321417">
        <ele>5.203356562182307</ele>
        <time>2020-06-02T23:21:52Z</time>
      </trkpt>
      <trkpt lat="31.202960638816997" lon="121.6168945313445">
        <ele>5.558442099019885</ele>
        <time>2020-06-02T23:21:56Z</time>
      </trkpt>
      <trkpt lat="31.203078151420744" lon="121.616777164469">
        <ele>5.7409735741093755</ele>
        <time>2020-06-02T23:22:02Z</time>
      </trkpt>
      <trkpt lat="31.203231705621693" lon="121.61667985060704">
        <ele>5.508468518964946</ele>
        <time>2020-06-02T23:22:10Z</time>
      </trkpt>
      <trkpt lat="31.203389376061626" lon="121.61652968404323">
        <ele>5.654007305391133</ele>
        <time>2020-06-02T23:22:18Z</time>
      </trkpt>
      <trkpt lat="31.20360155723531" lon="121.61636514704725">
        <ele>5.990660001523793</ele>
        <time>2020-06-02T23:22:28Z</time>
      </trkpt>
      <trkpt lat="31.203726875810307" lon="121.61630686346616">
        <ele>5.812117015942931</ele>
        <time>2020-06-02T23:22:35Z</time>
      </trkpt>
      <trkpt lat="31.2038910377867" lon="121.6161716012847">
        <ele>6.884865593165159</ele>
        <time>2020-06-02T23:22:48Z</time>
      </trkpt>
      <trkpt lat="31.203985788765287" lon="121.6160360730532">
        <ele>7.650818392634392</ele>
        <time>2020-06-02T23:22:56Z</time>
      </trkpt>
      <trkpt lat="31.204143056392923" lon="121.61602603150597">
        <ele>7.134775348939002</ele>
        <time>2020-06-02T23:23:07Z</time>
      </trkpt>
      <trkpt lat="31.20423232101951" lon="121.61595934778443">
        <ele>3.0546724339947104</ele>
        <time>2020-06-02T23:23:14Z</time>
      </trkpt>
      <trkpt lat="31.204437683914733" lon="121.61613090003002">
        <ele>6.712689760141075</ele>
        <time>2020-06-02T23:23:32Z</time>
      </trkpt>
      <trkpt lat="31.204461208381165" lon="121.61620055538948">
        <ele>6.164369350299239</ele>
        <time>2020-06-02T23:23:36Z</time>
      </trkpt>
      <trkpt lat="31.204567714644636" lon="121.61625448342261">
        <ele>6.575418860651553</ele>
        <time>2020-06-02T23:23:43Z</time>
      </trkpt>
      <trkpt lat="31.2045996588476" lon="121.61630814646551">
        <ele>7.063737723976374</ele>
        <time>2020-06-02T23:23:47Z</time>
      </trkpt>
      <trkpt lat="31.204468287445316" lon="121.61616857209701">
        <ele>8.628926623612642</ele>
        <time>2020-06-02T23:24:05Z</time>
      </trkpt>
      <trkpt lat="31.2043663935693" lon="121.61611111996329">
        <ele>6.307221041992307</ele>
        <time>2020-06-02T23:24:13Z</time>
      </trkpt>
      <trkpt lat="31.204136156941406" lon="121.61586205132322">
        <ele>7.334540653042495</ele>
        <time>2020-06-02T23:24:32Z</time>
      </trkpt>
      <trkpt lat="31.203899948241716" lon="121.61561840154545">
        <ele>6.570073996670544</ele>
        <time>2020-06-02T23:24:43Z</time>
      </trkpt>
      <trkpt lat="31.203839566485122" lon="121.61552814798412">
        <ele>6.808833431452513</ele>
        <time>2020-06-02T23:24:47Z</time>
      </trkpt>
      <trkpt lat="31.20369517382677" lon="121.61539182279047">
        <ele>6.250167563557625</ele>
        <time>2020-06-02T23:24:54Z</time>
      </trkpt>
      <trkpt lat="31.20362878038941" lon="121.61535306827926">
        <ele>4.642140757292509</ele>
        <time>2020-06-02T23:24:57Z</time>
      </trkpt>
      <trkpt lat="31.20357785586525" lon="121.6152983204934">
        <ele>7.359980033710599</ele>
        <time>2020-06-02T23:25:01Z</time>
      </trkpt>
      <trkpt lat="31.203790093734955" lon="121.61506140424896">
        <ele>7.699431529268622</ele>
        <time>2020-06-02T23:25:11Z</time>
      </trkpt>
      <trkpt lat="31.204063922493525" lon="121.61477270898624">
        <ele>5.680892635136843</ele>
        <time>2020-06-02T23:25:26Z</time>
      </trkpt>
      <trkpt lat="31.20418633882604" lon="121.61461819659561">
        <ele>6.397311902604997</ele>
        <time>2020-06-02T23:25:33Z</time>
      </trkpt>
      <trkpt lat="31.20423707163357" lon="121.61458295490104">
        <ele>5.745523389428854</ele>
        <time>2020-06-02T23:25:36Z</time>
      </trkpt>
      <trkpt lat="31.204270751432126" lon="121.6145146454311">
        <ele>5.558613523840904</ele>
        <time>2020-06-02T23:25:40Z</time>
      </trkpt>
      <trkpt lat="31.204491670047574" lon="121.61426470976572">
        <ele>7.488837502896786</ele>
        <time>2020-06-02T23:26:00Z</time>
      </trkpt>
      <trkpt lat="31.20468161828054" lon="121.61408416640896">
        <ele>8.140636956319213</ele>
        <time>2020-06-02T23:26:18Z</time>
      </trkpt>
      <trkpt lat="31.204725283235927" lon="121.61406979642464">
        <ele>7.610298263840377</ele>
        <time>2020-06-02T23:26:22Z</time>
      </trkpt>
      <trkpt lat="31.204896254366204" lon="121.61388491610073">
        <ele>6.515973223373294</ele>
        <time>2020-06-02T23:26:36Z</time>
      </trkpt>
      <trkpt lat="31.20493858991057" lon="121.61383910242742">
        <ele>7.302214926108718</ele>
        <time>2020-06-02T23:26:40Z</time>
      </trkpt>
      <trkpt lat="31.20500946992288" lon="121.61370302085582">
        <ele>6.415624825283885</ele>
        <time>2020-06-02T23:26:50Z</time>
      </trkpt>
      <trkpt lat="31.20513457813302" lon="121.61356476545929">
        <ele>8.740777335129678</ele>
        <time>2020-06-02T23:27:02Z</time>
      </trkpt>
      <trkpt lat="31.205282422858435" lon="121.6134728604863">
        <ele>4.551868571899831</ele>
        <time>2020-06-02T23:27:13Z</time>
      </trkpt>
      <trkpt lat="31.205498975918598" lon="121.61324487111617">
        <ele>7.396949181333184</ele>
        <time>2020-06-02T23:27:34Z</time>
      </trkpt>
      <trkpt lat="31.205557835310692" lon="121.61321667461826">
        <ele>5.23591722548008</ele>
        <time>2020-06-02T23:27:37Z</time>
      </trkpt>
      <trkpt lat="31.205546760660766" lon="121.61316517150578">
        <ele>6.509844817221165</ele>
        <time>2020-06-02T23:27:41Z</time>
      </trkpt>
      <trkpt lat="31.205423507743657" lon="121.61302476487697">
        <ele>5.086743808351457</ele>
        <time>2020-06-02T23:27:48Z</time>
      </trkpt>
      <trkpt lat="31.20532062878974" lon="121.61283501958425">
        <ele>8.0509891519323</ele>
        <time>2020-06-02T23:27:58Z</time>
      </trkpt>
      <trkpt lat="31.205075167110486" lon="121.61260001410665">
        <ele>8.346224592998624</ele>
        <time>2020-06-02T23:28:12Z</time>
      </trkpt>
      <trkpt lat="31.204978695593365" lon="121.61253333613762">
        <ele>6.159066584892571</ele>
        <time>2020-06-02T23:28:16Z</time>
      </trkpt>
      <trkpt lat="31.20472079013404" lon="121.61225847922597">
        <ele>7.173518816940486</ele>
        <time>2020-06-02T23:28:30Z</time>
      </trkpt>
      <trkpt lat="31.204530626291053" lon="121.61203484900862">
        <ele>6.46366860717535</ele>
        <time>2020-06-02T23:28:41Z</time>
      </trkpt>
      <trkpt lat="31.204396292133293" lon="121.61184048970435">
        <ele>7.837112699635327</ele>
        <time>2020-06-02T23:28:56Z</time>
      </trkpt>
      <trkpt lat="31.204350764544078" lon="121.6118101314154">
        <ele>9.194917882792652</ele>
        <time>2020-06-02T23:28:59Z</time>
      </trkpt>
      <trkpt lat="31.204317186028973" lon="121.61175456068736">
        <ele>9.15563479065895</ele>
        <time>2020-06-02T23:29:03Z</time>
      </trkpt>
      <trkpt lat="31.20419417908698" lon="121.61163773051572">
        <ele>8.987259641289711</ele>
        <time>2020-06-02T23:29:10Z</time>
      </trkpt>
      <trkpt lat="31.204149238425078" lon="121.61154773152197">
        <ele>7.459053476341069</ele>
        <time>2020-06-02T23:29:14Z</time>
      </trkpt>
      <trkpt lat="31.204004819602044" lon="121.61141924500673">
        <ele>7.600871954113245</ele>
        <time>2020-06-02T23:29:21Z</time>
      </trkpt>
      <trkpt lat="31.203956605019993" lon="121.61135554168617">
        <ele>7.320322350598872</ele>
        <time>2020-06-02T23:29:24Z</time>
      </trkpt>
      <trkpt lat="31.20388235969998" lon="121.61129400910887">
        <ele>7.946721485815942</ele>
        <time>2020-06-02T23:29:28Z</time>
      </trkpt>
      <trkpt lat="31.20366754186509" lon="121.61103295990624">
        <ele>8.173783319070935</ele>
        <time>2020-06-02T23:29:42Z</time>
      </trkpt>
      <trkpt lat="31.20352473613914" lon="121.61091992309915">
        <ele>7.922101310454309</ele>
        <time>2020-06-02T23:29:55Z</time>
      </trkpt>
      <trkpt lat="31.20352483163614" lon="121.61078816788638">
        <ele>6.270568780601025</ele>
        <time>2020-06-02T23:30:17Z</time>
      </trkpt>
      <trkpt lat="31.20352483163614" lon="121.61078816788638">
        <ele>6.270568780601025</ele>
        <time>2020-06-02T23:30:17Z</time>
      </trkpt>
      <trkpt lat="31.203566885350924" lon="121.61074966788948">
        <ele>7.074683340266347</ele>
        <time>2020-06-02T23:30:47Z</time>
      </trkpt>
      <trkpt lat="31.203628469704707" lon="121.61069869547416">
        <ele>8.549231697805226</ele>
        <time>2020-06-02T23:30:51Z</time>
      </trkpt>
      <trkpt lat="31.20373125347328" lon="121.6106658834796">
        <ele>7.111645359545946</ele>
        <time>2020-06-02T23:30:58Z</time>
      </trkpt>
      <trkpt lat="31.203900794393586" lon="121.61055200571644">
        <ele>8.490999474190176</ele>
        <time>2020-06-02T23:31:11Z</time>
      </trkpt>
      <trkpt lat="31.204089377363402" lon="121.61034893169399">
        <ele>7.8879537135362625</ele>
        <time>2020-06-02T23:31:27Z</time>
      </trkpt>
      <trkpt lat="31.204260280023288" lon="121.61022447899013">
        <ele>8.26216846704483</ele>
        <time>2020-06-02T23:31:35Z</time>
      </trkpt>
      <trkpt lat="31.204394051463357" lon="121.61007861095256">
        <ele>10.139727941714227</ele>
        <time>2020-06-02T23:31:43Z</time>
      </trkpt>
      <trkpt lat="31.204447264041963" lon="121.60997748211058">
        <ele>8.030796034261584</ele>
        <time>2020-06-02T23:31:47Z</time>
      </trkpt>
      <trkpt lat="31.20468655580012" lon="121.60975840300145">
        <ele>8.184551812708378</ele>
        <time>2020-06-02T23:31:58Z</time>
      </trkpt>
      <trkpt lat="31.20472752919867" lon="121.60971149678359">
        <ele>10.82059033960104</ele>
        <time>2020-06-02T23:32:01Z</time>
      </trkpt>
      <trkpt lat="31.204856626476325" lon="121.60965726306448">
        <ele>8.118588278070092</ele>
        <time>2020-06-02T23:32:09Z</time>
      </trkpt>
      <trkpt lat="31.20484663779312" lon="121.60959328052589">
        <ele>8.472693676128983</ele>
        <time>2020-06-02T23:32:15Z</time>
      </trkpt>
      <trkpt lat="31.20480003398428" lon="121.60954665232006">
        <ele>8.525691086426377</ele>
        <time>2020-06-02T23:32:19Z</time>
      </trkpt>
      <trkpt lat="31.204746367077977" lon="121.60952008728447">
        <ele>7.623231168836355</ele>
        <time>2020-06-02T23:32:22Z</time>
      </trkpt>
      <trkpt lat="31.204686788789846" lon="121.6094135428894">
        <ele>8.468269460834563</ele>
        <time>2020-06-02T23:32:32Z</time>
      </trkpt>
      <trkpt lat="31.204709400772412" lon="121.60925168268858">
        <ele>7.413904302753508</ele>
        <time>2020-06-02T23:32:43Z</time>
      </trkpt>
      <trkpt lat="31.20475606081438" lon="121.60921426417669">
        <ele>7.893147153779864</ele>
        <time>2020-06-02T23:32:46Z</time>
      </trkpt>
      <trkpt lat="31.204782150223508" lon="121.60912262296337">
        <ele>6.353765862993896</ele>
        <time>2020-06-02T23:32:53Z</time>
      </trkpt>
      <trkpt lat="31.20481661876474" lon="121.60907029350227">
        <ele>8.618121732026339</ele>
        <time>2020-06-02T23:33:00Z</time>
      </trkpt>
    </trkseg>
  </trk>
</gpx>