<?xml version="1.0" encoding="UTF-8"?>
<gpx xmlns="http://www.topografix.com/GPX/1/1" xmlns:gpxtpx="http://www.garmin.com/xmlschemas/TrackPointExtension/v1" xmlns:xsi="http://www.w3.org/2001/XMLSchema-instance" xsi:schemaLocation="http://www.topografix.com/GPX/1/1 http://www.topografix.com/GPX/1/1/gpx.xsd" version="1.1" creator="gpx.py -- https://github.com/tkrajina/gpxpy">
  <trk>
    <name>gpx from keep</name>
    <type>Run</type>
    <trkseg>
      <trkpt lat="31.20426014084215" lon="121.6111725265359">
        <ele>6.004421234130859</ele>
        <time>2018-09-29T22:32:52Z</time>
      </trkpt>
      <trkpt lat="31.20414859353279" lon="121.61132218106822">
        <ele>2.2596702575683594</ele>
        <time>2018-09-29T22:33:02Z</time>
      </trkpt>
      <trkpt lat="31.204211169074956" lon="121.61139835365783">
        <ele>1.5346946716308594</ele>
        <time>2018-09-29T22:33:09Z</time>
      </trkpt>
      <trkpt lat="31.204172013987797" lon="121.61154745854599">
        <ele>1.9676339397181124</ele>
        <time>2018-09-29T22:33:30Z</time>
      </trkpt>
      <trkpt lat="31.20421396807054" lon="121.61164287962649">
        <ele>2.0334942178424242</ele>
        <time>2018-09-29T22:33:33Z</time>
      </trkpt>
      <trkpt lat="31.204378964263707" lon="121.61180796036435">
        <ele>1.811388663254455</ele>
        <time>2018-09-29T22:33:40Z</time>
      </trkpt>
      <trkpt lat="31.20458566696897" lon="121.61203457337064">
        <ele>1.571671407549612</ele>
        <time>2018-09-29T22:33:50Z</time>
      </trkpt>
      <trkpt lat="31.20468887699684" lon="121.61215438511404">
        <ele>1.850436262869465</ele>
        <time>2018-09-29T22:33:56Z</time>
      </trkpt>
      <trkpt lat="31.20482382473788" lon="121.6122544044364">
        <ele>1.611433520911124</ele>
        <time>2018-09-29T22:34:02Z</time>
      </trkpt>
      <trkpt lat="31.20489262037732" lon="121.61234765170649">
        <ele>1.728326345169684</ele>
        <time>2018-09-29T22:34:06Z</time>
      </trkpt>
      <trkpt lat="31.205025381491584" lon="121.61246908588058">
        <ele>1.6274253030414698</ele>
        <time>2018-09-29T22:34:13Z</time>
      </trkpt>
      <trkpt lat="31.20506112011966" lon="121.6125341425668">
        <ele>1.5095276112697213</ele>
        <time>2018-09-29T22:34:16Z</time>
      </trkpt>
      <trkpt lat="31.205327699342828" lon="121.61280872442289">
        <ele>1.5537428149052595</ele>
        <time>2018-09-29T22:34:30Z</time>
      </trkpt>
      <trkpt lat="31.20537538057837" lon="121.61285697236117">
        <ele>1.6791228318454472</ele>
        <time>2018-09-29T22:34:33Z</time>
      </trkpt>
      <trkpt lat="31.205395385870116" lon="121.61293016157201">
        <ele>1.9346900151243354</ele>
        <time>2018-09-29T22:34:36Z</time>
      </trkpt>
      <trkpt lat="31.205321032526825" lon="121.61300742449575">
        <ele>1.8858064194603052</ele>
        <time>2018-09-29T22:34:40Z</time>
      </trkpt>
      <trkpt lat="31.20516368625352" lon="121.61311586763857">
        <ele>1.7969717472432656</ele>
        <time>2018-09-29T22:34:47Z</time>
      </trkpt>
      <trkpt lat="31.204905347490087" lon="121.61338289606266">
        <ele>0.9875293398523688</ele>
        <time>2018-09-29T22:35:00Z</time>
      </trkpt>
      <trkpt lat="31.20474796908717" lon="121.613528474085">
        <ele>0.6307799515926789</ele>
        <time>2018-09-29T22:35:08Z</time>
      </trkpt>
      <trkpt lat="31.204552010074828" lon="121.61376838596648">
        <ele>0.7851206297366566</ele>
        <time>2018-09-29T22:35:19Z</time>
      </trkpt>
      <trkpt lat="31.204354973792086" lon="121.6139971818565">
        <ele>0.9032514057758938</ele>
        <time>2018-09-29T22:35:29Z</time>
      </trkpt>
      <trkpt lat="31.2040670743237" lon="121.61426230532489">
        <ele>0.8024614993079275</ele>
        <time>2018-09-29T22:35:44Z</time>
      </trkpt>
      <trkpt lat="31.203861376529144" lon="121.6144691413873">
        <ele>1.190722193390279</ele>
        <time>2018-09-29T22:35:55Z</time>
      </trkpt>
      <trkpt lat="31.203595984090718" lon="121.61472585499703">
        <ele>1.086296335470088</ele>
        <time>2018-09-29T22:36:10Z</time>
      </trkpt>
      <trkpt lat="31.203505396631368" lon="121.61475838921828">
        <ele>0.887000793428733</ele>
        <time>2018-09-29T22:36:14Z</time>
      </trkpt>
      <trkpt lat="31.203418301212302" lon="121.61482832874026">
        <ele>0.6960684306645142</ele>
        <time>2018-09-29T22:36:18Z</time>
      </trkpt>
      <trkpt lat="31.2033716125848" lon="121.61488931992241">
        <ele>0.8022208684595604</ele>
        <time>2018-09-29T22:36:21Z</time>
      </trkpt>
      <trkpt lat="31.203320219017872" lon="121.61505873258383">
        <ele>1.4294943340109718</ele>
        <time>2018-09-29T22:36:28Z</time>
      </trkpt>
      <trkpt lat="31.203358104328522" lon="121.61514194242442">
        <ele>2.3488340706206223</ele>
        <time>2018-09-29T22:36:53Z</time>
      </trkpt>
      <trkpt lat="31.20344641713464" lon="121.61522894251489">
        <ele>2.47979089679092</ele>
        <time>2018-09-29T22:36:57Z</time>
      </trkpt>
      <trkpt lat="31.203462857097445" lon="121.61534034268688">
        <ele>2.2773977162096024</ele>
        <time>2018-09-29T22:37:01Z</time>
      </trkpt>
      <trkpt lat="31.20342753776051" lon="121.61542057607585">
        <ele>2.6551979838984856</ele>
        <time>2018-09-29T22:37:04Z</time>
      </trkpt>
      <trkpt lat="31.203217218083637" lon="121.61563173927304">
        <ele>2.775809547161238</ele>
        <time>2018-09-29T22:37:15Z</time>
      </trkpt>
      <trkpt lat="31.202955077413844" lon="121.61587868265725">
        <ele>3.6055811476354442</ele>
        <time>2018-09-29T22:37:29Z</time>
      </trkpt>
      <trkpt lat="31.202745851821632" lon="121.61607574764334">
        <ele>3.7283210357209633</ele>
        <time>2018-09-29T22:37:40Z</time>
      </trkpt>
      <trkpt lat="31.202645963717796" lon="121.61619555577924">
        <ele>4.111752641259013</ele>
        <time>2018-09-29T22:37:46Z</time>
      </trkpt>
      <trkpt lat="31.202441043522715" lon="121.61642541337513">
        <ele>4.718508016785147</ele>
        <time>2018-09-29T22:37:57Z</time>
      </trkpt>
      <trkpt lat="31.20224154212086" lon="121.6166574366426">
        <ele>4.536433995870716</ele>
        <time>2018-09-29T22:38:08Z</time>
      </trkpt>
      <trkpt lat="31.201981805203992" lon="121.6169333698631">
        <ele>4.346700140059475</ele>
        <time>2018-09-29T22:38:22Z</time>
      </trkpt>
      <trkpt lat="31.201731040652458" lon="121.61718057020704">
        <ele>4.038045140177321</ele>
        <time>2018-09-29T22:38:36Z</time>
      </trkpt>
      <trkpt lat="31.201499809054994" lon="121.61741394412647">
        <ele>3.8004471832167113</ele>
        <time>2018-09-29T22:38:47Z</time>
      </trkpt>
      <trkpt lat="31.201232453763314" lon="121.61770965424134">
        <ele>4.356228588557915</ele>
        <time>2018-09-29T22:39:01Z</time>
      </trkpt>
      <trkpt lat="31.2010286072957" lon="121.61793814256421">
        <ele>5.111371906125807</ele>
        <time>2018-09-29T22:39:12Z</time>
      </trkpt>
      <trkpt lat="31.200804382140873" lon="121.61820863827174">
        <ele>6.058461946827904</ele>
        <time>2018-09-29T22:39:25Z</time>
      </trkpt>
      <trkpt lat="31.200610276529915" lon="121.61845311113996">
        <ele>6.419625666100771</ele>
        <time>2018-09-29T22:39:37Z</time>
      </trkpt>
      <trkpt lat="31.20038984796024" lon="121.61871818075714">
        <ele>6.795448378530487</ele>
        <time>2018-09-29T22:39:51Z</time>
      </trkpt>
      <trkpt lat="31.200142820867825" lon="121.61900764063836">
        <ele>6.637001493209965</ele>
        <time>2018-09-29T22:40:04Z</time>
      </trkpt>
      <trkpt lat="31.199886826403922" lon="121.61931362933522">
        <ele>6.727684951793176</ele>
        <time>2018-09-29T22:40:19Z</time>
      </trkpt>
      <trkpt lat="31.199650420572073" lon="121.61955240399605">
        <ele>7.107069784459835</ele>
        <time>2018-09-29T22:40:32Z</time>
      </trkpt>
      <trkpt lat="31.199419967245614" lon="121.61980120297363">
        <ele>7.445167276518816</ele>
        <time>2018-09-29T22:40:45Z</time>
      </trkpt>
      <trkpt lat="31.19917325643142" lon="121.6200380769725">
        <ele>7.6804538449112485</ele>
        <time>2018-09-29T22:40:59Z</time>
      </trkpt>
      <trkpt lat="31.199108367153492" lon="121.62012127868083">
        <ele>7.756555615143498</ele>
        <time>2018-09-29T22:41:03Z</time>
      </trkpt>
      <trkpt lat="31.198939892885853" lon="121.6202153285522">
        <ele>7.59538361847563</ele>
        <time>2018-09-29T22:41:11Z</time>
      </trkpt>
      <trkpt lat="31.198708643939845" lon="121.62044244170104">
        <ele>7.33297824502651</ele>
        <time>2018-09-29T22:41:23Z</time>
      </trkpt>
      <trkpt lat="31.19844377795297" lon="121.62066467779975">
        <ele>7.451064612296076</ele>
        <time>2018-09-29T22:41:35Z</time>
      </trkpt>
      <trkpt lat="31.198194364990723" lon="121.6208869107303">
        <ele>6.94378894968623</ele>
        <time>2018-09-29T22:41:48Z</time>
      </trkpt>
      <trkpt lat="31.19796665922817" lon="121.62109260976023">
        <ele>6.6097676291386875</ele>
        <time>2018-09-29T22:42:00Z</time>
      </trkpt>
      <trkpt lat="31.197716411550708" lon="121.62133136922375">
        <ele>6.853003825910875</ele>
        <time>2018-09-29T22:42:14Z</time>
      </trkpt>
      <trkpt lat="31.197440953508675" lon="121.62156389602013">
        <ele>6.938377317249582</ele>
        <time>2018-09-29T22:42:29Z</time>
      </trkpt>
      <trkpt lat="31.197196695611463" lon="121.62177717860136">
        <ele>7.060807811815437</ele>
        <time>2018-09-29T22:42:42Z</time>
      </trkpt>
      <trkpt lat="31.196910918364622" lon="121.62202108342471">
        <ele>6.892256776103245</ele>
        <time>2018-09-29T22:42:57Z</time>
      </trkpt>
      <trkpt lat="31.196685111617864" lon="121.6222191861831">
        <ele>7.4112068031370875</ele>
        <time>2018-09-29T22:43:09Z</time>
      </trkpt>
      <trkpt lat="31.196642479789215" lon="121.62227555262677">
        <ele>7.699404871309532</ele>
        <time>2018-09-29T22:43:12Z</time>
      </trkpt>
      <trkpt lat="31.196642630286924" lon="121.62238177471032">
        <ele>7.997621297730532</ele>
        <time>2018-09-29T22:43:16Z</time>
      </trkpt>
      <trkpt lat="31.196734892317398" lon="121.62278876724933">
        <ele>7.810693364089694</ele>
        <time>2018-09-29T22:43:31Z</time>
      </trkpt>
      <trkpt lat="31.196797871901353" lon="121.62319114967336">
        <ele>6.5782095575314905</ele>
        <time>2018-09-29T22:43:45Z</time>
      </trkpt>
      <trkpt lat="31.196869504356375" lon="121.62360897028361">
        <ele>5.977805270407902</ele>
        <time>2018-09-29T22:44:00Z</time>
      </trkpt>
      <trkpt lat="31.19693086232586" lon="121.62399806384599">
        <ele>5.781146465466357</ele>
        <time>2018-09-29T22:44:14Z</time>
      </trkpt>
      <trkpt lat="31.196971884340737" lon="121.62393004987118">
        <ele>5.522839547580922</ele>
        <time>2018-09-29T22:44:20Z</time>
      </trkpt>
      <trkpt lat="31.196932970668776" lon="121.62359108153419">
        <ele>6.358153586629019</ele>
        <time>2018-09-29T22:44:32Z</time>
      </trkpt>
      <trkpt lat="31.196873449371232" lon="121.62325021396404">
        <ele>6.648737443615296</ele>
        <time>2018-09-29T22:44:45Z</time>
      </trkpt>
      <trkpt lat="31.196820801673134" lon="121.62305810309435">
        <ele>6.770767294052227</ele>
        <time>2018-09-29T22:44:52Z</time>
      </trkpt>
      <trkpt lat="31.196806558329143" lon="121.62294863321311">
        <ele>6.769089583407819</ele>
        <time>2018-09-29T22:44:56Z</time>
      </trkpt>
      <trkpt lat="31.19681265835789" lon="121.62283157405686">
        <ele>6.280018008540402</ele>
        <time>2018-09-29T22:45:00Z</time>
      </trkpt>
      <trkpt lat="31.197027072171018" lon="121.62264160589537">
        <ele>6.193890436607457</ele>
        <time>2018-09-29T22:45:11Z</time>
      </trkpt>
      <trkpt lat="31.197159556741667" lon="121.62249174722743">
        <ele>6.471003642818051</ele>
        <time>2018-09-29T22:45:19Z</time>
      </trkpt>
      <trkpt lat="31.197427911507837" lon="121.62231288218392">
        <ele>5.720730108593866</ele>
        <time>2018-09-29T22:45:33Z</time>
      </trkpt>
      <trkpt lat="31.197603797649364" lon="121.6221437787629">
        <ele>5.542942537811989</ele>
        <time>2018-09-29T22:45:43Z</time>
      </trkpt>
      <trkpt lat="31.197750868911218" lon="121.62204025333052">
        <ele>5.880869277982249</ele>
        <time>2018-09-29T22:45:50Z</time>
      </trkpt>
      <trkpt lat="31.19786653118962" lon="121.62189852207365">
        <ele>6.373588800369667</ele>
        <time>2018-09-29T22:45:57Z</time>
      </trkpt>
      <trkpt lat="31.197918636568208" lon="121.62185597401137">
        <ele>6.283796674705535</ele>
        <time>2018-09-29T22:46:00Z</time>
      </trkpt>
      <trkpt lat="31.19806295103747" lon="121.62179228180572">
        <ele>6.2944386775705645</ele>
        <time>2018-09-29T22:46:07Z</time>
      </trkpt>
      <trkpt lat="31.19827900195372" lon="121.62158740213334">
        <ele>5.525591718158218</ele>
        <time>2018-09-29T22:46:19Z</time>
      </trkpt>
      <trkpt lat="31.19836774035348" lon="121.62151748127656">
        <ele>5.350259629578922</ele>
        <time>2018-09-29T22:46:23Z</time>
      </trkpt>
      <trkpt lat="31.198564881380562" lon="121.62124783553715">
        <ele>6.223681901476532</ele>
        <time>2018-09-29T22:46:36Z</time>
      </trkpt>
      <trkpt lat="31.198796348046432" lon="121.62107519790769">
        <ele>6.117339339450041</ele>
        <time>2018-09-29T22:46:47Z</time>
      </trkpt>
      <trkpt lat="31.198974369956186" lon="121.62093047545008">
        <ele>5.366573213584921</ele>
        <time>2018-09-29T22:46:57Z</time>
      </trkpt>
      <trkpt lat="31.199097328038455" lon="121.62080689400125">
        <ele>5.0421696818275095</ele>
        <time>2018-09-29T22:47:04Z</time>
      </trkpt>
      <trkpt lat="31.199328451437427" lon="121.6206987495329">
        <ele>5.617331235016852</ele>
        <time>2018-09-29T22:47:14Z</time>
      </trkpt>
      <trkpt lat="31.19967330773119" lon="121.62072311021002">
        <ele>5.531971100729454</ele>
        <time>2018-09-29T22:47:28Z</time>
      </trkpt>
      <trkpt lat="31.199999728144427" lon="121.62074638842587">
        <ele>5.263851952578364</ele>
        <time>2018-09-29T22:47:42Z</time>
      </trkpt>
      <trkpt lat="31.200348890708348" lon="121.6208002866646">
        <ele>4.483462817033164</ele>
        <time>2018-09-29T22:47:57Z</time>
      </trkpt>
      <trkpt lat="31.200682323353742" lon="121.62085797994979">
        <ele>3.7478994480207586</ele>
        <time>2018-09-29T22:48:11Z</time>
      </trkpt>
      <trkpt lat="31.201004089522417" lon="121.62092271978928">
        <ele>3.412591059446786</ele>
        <time>2018-09-29T22:48:25Z</time>
      </trkpt>
      <trkpt lat="31.201324776715083" lon="121.62098231077722">
        <ele>3.222683698639811</ele>
        <time>2018-09-29T22:48:39Z</time>
      </trkpt>
      <trkpt lat="31.201607792146973" lon="121.62102727139951">
        <ele>3.0486483180095956</ele>
        <time>2018-09-29T22:48:51Z</time>
      </trkpt>
      <trkpt lat="31.20194503600386" lon="121.62107087251859">
        <ele>3.085208567986001</ele>
        <time>2018-09-29T22:49:05Z</time>
      </trkpt>
      <trkpt lat="31.202213963717277" lon="121.62110553664327">
        <ele>3.105300895319962</ele>
        <time>2018-09-29T22:49:16Z</time>
      </trkpt>
      <trkpt lat="31.202469619209115" lon="121.62112800741049">
        <ele>3.209234327082129</ele>
        <time>2018-09-29T22:49:27Z</time>
      </trkpt>
      <trkpt lat="31.202507124800107" lon="121.62104670809701">
        <ele>3.319505071495616</ele>
        <time>2018-09-29T22:49:31Z</time>
      </trkpt>
      <trkpt lat="31.202432900293633" lon="121.62073643139308">
        <ele>3.1863567498771985</ele>
        <time>2018-09-29T22:49:42Z</time>
      </trkpt>
      <trkpt lat="31.20240565231109" lon="121.6203575854922">
        <ele>3.07208180955919</ele>
        <time>2018-09-29T22:49:57Z</time>
      </trkpt>
      <trkpt lat="31.202693614638555" lon="121.62034157295612">
        <ele>3.1837689222211623</ele>
        <time>2018-09-29T22:50:29Z</time>
      </trkpt>
      <trkpt lat="31.202785537195407" lon="121.62033424848042">
        <ele>2.9239287323700083</ele>
        <time>2018-09-29T22:50:38Z</time>
      </trkpt>
      <trkpt lat="31.202868820785557" lon="121.62029196630706">
        <ele>3.091294545868845</ele>
        <time>2018-09-29T22:50:42Z</time>
      </trkpt>
      <trkpt lat="31.20290818970441" lon="121.62024101582391">
        <ele>2.8567014064567537</ele>
        <time>2018-09-29T22:50:45Z</time>
      </trkpt>
      <trkpt lat="31.20280005055366" lon="121.61994428229382">
        <ele>2.9204698403862146</ele>
        <time>2018-09-29T22:50:56Z</time>
      </trkpt>
      <trkpt lat="31.202699789453952" lon="121.61963020054152">
        <ele>2.9089323574236445</ele>
        <time>2018-09-29T22:51:08Z</time>
      </trkpt>
      <trkpt lat="31.202621433603305" lon="121.61936760420035">
        <ele>2.572607450795804</ele>
        <time>2018-09-29T22:51:18Z</time>
      </trkpt>
      <trkpt lat="31.20258260201196" lon="121.61916245554977">
        <ele>2.6713601666947184</ele>
        <time>2018-09-29T22:51:26Z</time>
      </trkpt>
      <trkpt lat="31.20247966662941" lon="121.61880364758763">
        <ele>2.6594275474992237</ele>
        <time>2018-09-29T22:51:40Z</time>
      </trkpt>
      <trkpt lat="31.202456778983418" lon="121.61864700444251">
        <ele>3.274140556681992</ele>
        <time>2018-09-29T22:51:47Z</time>
      </trkpt>
      <trkpt lat="31.202723145019675" lon="121.61853640885218">
        <ele>4.071392631966038</ele>
        <time>2018-09-29T22:51:58Z</time>
      </trkpt>
      <trkpt lat="31.202845818411816" lon="121.61841661014144">
        <ele>3.9106803658294833</ele>
        <time>2018-09-29T22:52:05Z</time>
      </trkpt>
      <trkpt lat="31.202823806326617" lon="121.61819546235257">
        <ele>4.1332659241482155</ele>
        <time>2018-09-29T22:52:13Z</time>
      </trkpt>
      <trkpt lat="31.202686907505647" lon="121.6178970812271">
        <ele>4.722105777074496</ele>
        <time>2018-09-29T22:52:27Z</time>
      </trkpt>
      <trkpt lat="31.20253779472707" lon="121.61760872544865">
        <ele>4.734337353585058</ele>
        <time>2018-09-29T22:52:38Z</time>
      </trkpt>
      <trkpt lat="31.202428750461642" lon="121.61737890485905">
        <ele>4.9039656551091575</ele>
        <time>2018-09-29T22:52:48Z</time>
      </trkpt>
      <trkpt lat="31.20241472286873" lon="121.61730491560972">
        <ele>4.698221488794708</ele>
        <time>2018-09-29T22:52:51Z</time>
      </trkpt>
      <trkpt lat="31.20246901715245" lon="121.61723498591289">
        <ele>4.751627096765674</ele>
        <time>2018-09-29T22:52:55Z</time>
      </trkpt>
      <trkpt lat="31.202750391129445" lon="121.61701868110019">
        <ele>4.451046850670174</ele>
        <time>2018-09-29T22:53:09Z</time>
      </trkpt>
      <trkpt lat="31.202950642562133" lon="121.61685685868831">
        <ele>4.627697913706193</ele>
        <time>2018-09-29T22:53:20Z</time>
      </trkpt>
      <trkpt lat="31.20309150763436" lon="121.61670235804948">
        <ele>4.1498704891969584</ele>
        <time>2018-09-29T22:53:28Z</time>
      </trkpt>
      <trkpt lat="31.2032531586987" lon="121.61664434329923">
        <ele>4.523038664982533</ele>
        <time>2018-09-29T22:53:35Z</time>
      </trkpt>
      <trkpt lat="31.20341980426652" lon="121.61646436174703">
        <ele>3.962825690436887</ele>
        <time>2018-09-29T22:53:45Z</time>
      </trkpt>
      <trkpt lat="31.20362435400755" lon="121.61634210693028">
        <ele>3.851800277417066</ele>
        <time>2018-09-29T22:53:55Z</time>
      </trkpt>
      <trkpt lat="31.203696265451043" lon="121.6162767807023">
        <ele>3.995459332976898</ele>
        <time>2018-09-29T22:53:59Z</time>
      </trkpt>
      <trkpt lat="31.203837321219936" lon="121.61620602778802">
        <ele>4.170050577698744</ele>
        <time>2018-09-29T22:54:06Z</time>
      </trkpt>
      <trkpt lat="31.203976862205877" lon="121.61601330629131">
        <ele>4.116935102595027</ele>
        <time>2018-09-29T22:54:16Z</time>
      </trkpt>
      <trkpt lat="31.20404141028244" lon="121.61599378593523">
        <ele>4.288361999681635</ele>
        <time>2018-09-29T22:54:19Z</time>
      </trkpt>
      <trkpt lat="31.204158528513222" lon="121.61600705730305">
        <ele>4.013600355130675</ele>
        <time>2018-09-29T22:54:26Z</time>
      </trkpt>
      <trkpt lat="31.20420843976423" lon="121.61598265939466">
        <ele>3.6954207652523454</ele>
        <time>2018-09-29T22:54:29Z</time>
      </trkpt>
      <trkpt lat="31.204275105473684" lon="121.61601924454143">
        <ele>3.795290022396326</ele>
        <time>2018-09-29T22:54:33Z</time>
      </trkpt>
      <trkpt lat="31.204491809559396" lon="121.61624066670258">
        <ele>3.753386316404569</ele>
        <time>2018-09-29T22:54:46Z</time>
      </trkpt>
      <trkpt lat="31.204571184354574" lon="121.61631384062905">
        <ele>3.6919762718797067</ele>
        <time>2018-09-29T22:54:50Z</time>
      </trkpt>
      <trkpt lat="31.204648145480583" lon="121.61635828452893">
        <ele>4.003187315360211</ele>
        <time>2018-09-29T22:54:54Z</time>
      </trkpt>
      <trkpt lat="31.20463816232873" lon="121.61630570393383">
        <ele>4.544961801176608</ele>
        <time>2018-09-29T22:54:57Z</time>
      </trkpt>
      <trkpt lat="31.204404924970042" lon="121.61607832082868">
        <ele>5.5951481319568614</ele>
        <time>2018-09-29T22:55:11Z</time>
      </trkpt>
      <trkpt lat="31.204118290184617" lon="121.61583115382439">
        <ele>6.7909783733960225</ele>
        <time>2018-09-29T22:55:26Z</time>
      </trkpt>
      <trkpt lat="31.20390674326397" lon="121.61559996983434">
        <ele>6.888005379400116</ele>
        <time>2018-09-29T22:55:39Z</time>
      </trkpt>
      <trkpt lat="31.203738540642906" lon="121.61540835317183">
        <ele>5.601926320448836</ele>
        <time>2018-09-29T22:55:49Z</time>
      </trkpt>
      <trkpt lat="31.203659430522595" lon="121.61533978433062">
        <ele>5.338496573134925</ele>
        <time>2018-09-29T22:55:53Z</time>
      </trkpt>
      <trkpt lat="31.203656821337265" lon="121.6152251304052">
        <ele>4.539702238084377</ele>
        <time>2018-09-29T22:55:57Z</time>
      </trkpt>
      <trkpt lat="31.203710607536795" lon="121.61511074232152">
        <ele>4.677308372106001</ele>
        <time>2018-09-29T22:56:01Z</time>
      </trkpt>
      <trkpt lat="31.20391718745357" lon="121.614830998033">
        <ele>4.608021444077039</ele>
        <time>2018-09-29T22:56:15Z</time>
      </trkpt>
      <trkpt lat="31.20412069189088" lon="121.61465533687114">
        <ele>4.280485532630204</ele>
        <time>2018-09-29T22:56:26Z</time>
      </trkpt>
      <trkpt lat="31.204369283164546" lon="121.61438723937178">
        <ele>4.659368088295999</ele>
        <time>2018-09-29T22:56:41Z</time>
      </trkpt>
      <trkpt lat="31.20461595134307" lon="121.61414570318914">
        <ele>4.472818727201442</ele>
        <time>2018-09-29T22:56:55Z</time>
      </trkpt>
      <trkpt lat="31.204858551293107" lon="121.61390308062332">
        <ele>4.453820979912663</ele>
        <time>2018-09-29T22:57:10Z</time>
      </trkpt>
      <trkpt lat="31.205027917964244" lon="121.6136900080659">
        <ele>4.298140424834417</ele>
        <time>2018-09-29T22:57:25Z</time>
      </trkpt>
      <trkpt lat="31.20507186422618" lon="121.61366316867641">
        <ele>4.492608234046649</ele>
        <time>2018-09-29T22:57:29Z</time>
      </trkpt>
      <trkpt lat="31.205300350390733" lon="121.6134332826659">
        <ele>5.394257414227273</ele>
        <time>2018-09-29T22:57:54Z</time>
      </trkpt>
      <trkpt lat="31.205532353868993" lon="121.6132101709596">
        <ele>5.177524217854359</ele>
        <time>2018-09-29T22:58:22Z</time>
      </trkpt>
      <trkpt lat="31.205564649436983" lon="121.61317276010097">
        <ele>5.346277799301831</ele>
        <time>2018-09-29T22:58:26Z</time>
      </trkpt>
      <trkpt lat="31.205569035583117" lon="121.61311366552242">
        <ele>5.116982153984981</ele>
        <time>2018-09-29T22:58:36Z</time>
      </trkpt>
      <trkpt lat="31.205503711467994" lon="121.61308954526102">
        <ele>5.584717222894703</ele>
        <time>2018-09-29T22:58:54Z</time>
      </trkpt>
      <trkpt lat="31.205355534616206" lon="121.612923116868">
        <ele>5.840659756014389</ele>
        <time>2018-09-29T22:59:04Z</time>
      </trkpt>
      <trkpt lat="31.205350984245978" lon="121.61284965527935">
        <ele>5.2524588209938585</ele>
        <time>2018-09-29T22:59:10Z</time>
      </trkpt>
      <trkpt lat="31.205383005566446" lon="121.61281549680534">
        <ele>6.236460658980576</ele>
        <time>2018-09-29T22:59:31Z</time>
      </trkpt>
      <trkpt lat="31.205410409964703" lon="121.61279082641153">
        <ele>5.928751358740186</ele>
        <time>2018-09-29T22:59:37Z</time>
      </trkpt>
      <trkpt lat="31.205481771778828" lon="121.61272413511166">
        <ele>6.0957985452020935</ele>
        <time>2018-09-29T22:59:41Z</time>
      </trkpt>
      <trkpt lat="31.20552332980464" lon="121.61263060914787">
        <ele>6.245623306298292</ele>
        <time>2018-09-29T22:59:45Z</time>
      </trkpt>
      <trkpt lat="31.205515576729596" lon="121.6124915451621">
        <ele>5.76271666980567</ele>
        <time>2018-09-29T22:59:52Z</time>
      </trkpt>
      <trkpt lat="31.20542888024269" lon="121.612406432441">
        <ele>6.115520509721733</ele>
        <time>2018-09-29T23:00:06Z</time>
      </trkpt>
      <trkpt lat="31.20540802022884" lon="121.61238420535344">
        <ele>5.791910928390642</ele>
        <time>2018-09-29T23:00:32Z</time>
      </trkpt>
      <trkpt lat="31.205402859733827" lon="121.61239559127203">
        <ele>5.544028423670298</ele>
        <time>2018-09-29T23:00:57Z</time>
      </trkpt>
      <trkpt lat="31.205280901786768" lon="121.61232783048843">
        <ele>5.4373178832167355</ele>
        <time>2018-09-29T23:01:34Z</time>
      </trkpt>
      <trkpt lat="31.205160536897754" lon="121.6123031717956">
        <ele>5.648878856993164</ele>
        <time>2018-09-29T23:01:45Z</time>
      </trkpt>
      <trkpt lat="31.20503429255488" lon="121.61216845301713">
        <ele>5.783755979045715</ele>
        <time>2018-09-29T23:01:59Z</time>
      </trkpt>
      <trkpt lat="31.20490314077775" lon="121.61206789083602">
        <ele>5.680433002032952</ele>
        <time>2018-09-29T23:02:10Z</time>
      </trkpt>
      <trkpt lat="31.204691299959453" lon="121.61182392884359">
        <ele>3.400922303359142</ele>
        <time>2018-09-29T23:02:34Z</time>
      </trkpt>
      <trkpt lat="31.204554501691586" lon="121.61165911698136">
        <ele>2.920088616865078</ele>
        <time>2018-09-29T23:02:49Z</time>
      </trkpt>
      <trkpt lat="31.204447790088018" lon="121.61150541628822">
        <ele>2.4132481809385506</ele>
        <time>2018-09-29T23:03:02Z</time>
      </trkpt>
      <trkpt lat="31.204293373910016" lon="121.61133003087261">
        <ele>2.1714282356987322</ele>
        <time>2018-09-29T23:03:18Z</time>
      </trkpt>
    </trkseg>
  </trk>
</gpx>