<?xml version="1.0" encoding="UTF-8"?>
<gpx xmlns="http://www.topografix.com/GPX/1/1" xmlns:gpxtpx="http://www.garmin.com/xmlschemas/TrackPointExtension/v1" xmlns:xsi="http://www.w3.org/2001/XMLSchema-instance" xsi:schemaLocation="http://www.topografix.com/GPX/1/1 http://www.topografix.com/GPX/1/1/gpx.xsd" version="1.1" creator="gpx.py -- https://github.com/tkrajina/gpxpy">
  <trk>
    <name>gpx from keep</name>
    <type>Run</type>
    <trkseg>
      <trkpt lat="31.204912436042562" lon="121.61050149653114">
        <ele>8.885337897278227</ele>
        <time>2020-10-09T23:51:48Z</time>
      </trkpt>
      <trkpt lat="31.204960994513282" lon="121.61046597767647">
        <ele>8.79115796705852</ele>
        <time>2020-10-09T23:51:51Z</time>
      </trkpt>
      <trkpt lat="31.20497133935096" lon="121.61040714677254">
        <ele>8.685423190705478</ele>
        <time>2020-10-09T23:51:55Z</time>
      </trkpt>
      <trkpt lat="31.20504649688717" lon="121.61033204391619">
        <ele>8.531223178841174</ele>
        <time>2020-10-09T23:51:59Z</time>
      </trkpt>
      <trkpt lat="31.205145229288583" lon="121.61027645865593">
        <ele>8.286707323044538</ele>
        <time>2020-10-09T23:52:02Z</time>
      </trkpt>
      <trkpt lat="31.205244284062832" lon="121.6101474026303">
        <ele>7.704429450444877</ele>
        <time>2020-10-09T23:52:08Z</time>
      </trkpt>
      <trkpt lat="31.20530585090032" lon="121.61012001544714">
        <ele>7.612040424719453</ele>
        <time>2020-10-09T23:52:11Z</time>
      </trkpt>
      <trkpt lat="31.205462782724858" lon="121.61019970867424">
        <ele>6.982277358882129</ele>
        <time>2020-10-09T23:52:17Z</time>
      </trkpt>
      <trkpt lat="31.205504204485177" lon="121.61028808662678">
        <ele>6.9271110547706485</ele>
        <time>2020-10-09T23:52:20Z</time>
      </trkpt>
      <trkpt lat="31.20576487638854" lon="121.61051498132828">
        <ele>5.215121426619589</ele>
        <time>2020-10-09T23:52:32Z</time>
      </trkpt>
      <trkpt lat="31.20599469828271" lon="121.61065647884224">
        <ele>4.361120223067701</ele>
        <time>2020-10-09T23:52:41Z</time>
      </trkpt>
      <trkpt lat="31.206117114997298" lon="121.61084596934134">
        <ele>5.5086167780682445</ele>
        <time>2020-10-09T23:52:47Z</time>
      </trkpt>
      <trkpt lat="31.206181339343075" lon="121.61089394891701">
        <ele>6.412381413392723</ele>
        <time>2020-10-09T23:52:50Z</time>
      </trkpt>
      <trkpt lat="31.20621490096659" lon="121.61097527622601">
        <ele>7.182767782360315</ele>
        <time>2020-10-09T23:52:53Z</time>
      </trkpt>
      <trkpt lat="31.20643810457878" lon="121.61126397723142">
        <ele>5.940192753449082</ele>
        <time>2020-10-09T23:53:05Z</time>
      </trkpt>
      <trkpt lat="31.206504766783073" lon="121.61131412449404">
        <ele>7.231552366167307</ele>
        <time>2020-10-09T23:53:08Z</time>
      </trkpt>
      <trkpt lat="31.206648272986065" lon="121.61157598965778">
        <ele>4.247224583290517</ele>
        <time>2020-10-09T23:53:20Z</time>
      </trkpt>
      <trkpt lat="31.206598923824945" lon="121.61157924685006">
        <ele>6.765686306171119</ele>
        <time>2020-10-09T23:53:38Z</time>
      </trkpt>
      <trkpt lat="31.20637938651141" lon="121.61182812670837">
        <ele>8.810596616007388</ele>
        <time>2020-10-09T23:53:51Z</time>
      </trkpt>
      <trkpt lat="31.20623199488933" lon="121.61204338312903">
        <ele>10.735685924999416</ele>
        <time>2020-10-09T23:53:59Z</time>
      </trkpt>
      <trkpt lat="31.206156027116428" lon="121.61210790807228">
        <ele>9.438740004785359</ele>
        <time>2020-10-09T23:54:02Z</time>
      </trkpt>
      <trkpt lat="31.20603117238789" lon="121.61227843113682">
        <ele>8.085319592617452</ele>
        <time>2020-10-09T23:54:08Z</time>
      </trkpt>
      <trkpt lat="31.205799154837038" lon="121.61252920207525">
        <ele>8.20965315029025</ele>
        <time>2020-10-09T23:54:20Z</time>
      </trkpt>
      <trkpt lat="31.20567434521536" lon="121.61263954231019">
        <ele>9.250242971815169</ele>
        <time>2020-10-09T23:54:26Z</time>
      </trkpt>
      <trkpt lat="31.20551944342389" lon="121.61274446293126">
        <ele>9.980932506732643</ele>
        <time>2020-10-09T23:54:32Z</time>
      </trkpt>
      <trkpt lat="31.205390828785816" lon="121.61286510341347">
        <ele>7.477667661383748</ele>
        <time>2020-10-09T23:54:38Z</time>
      </trkpt>
      <trkpt lat="31.20521032836491" lon="121.61310746046446">
        <ele>7.541494014672935</ele>
        <time>2020-10-09T23:54:50Z</time>
      </trkpt>
      <trkpt lat="31.205097431783432" lon="121.61323568782935">
        <ele>7.953999117016792</ele>
        <time>2020-10-09T23:54:56Z</time>
      </trkpt>
      <trkpt lat="31.205038293953994" lon="121.61327282973451">
        <ele>9.758313642814755</ele>
        <time>2020-10-09T23:54:59Z</time>
      </trkpt>
      <trkpt lat="31.20484643619211" lon="121.6134739808214">
        <ele>9.18945396039635</ele>
        <time>2020-10-09T23:55:08Z</time>
      </trkpt>
      <trkpt lat="31.20479594525771" lon="121.61354636072706">
        <ele>7.626998885534704</ele>
        <time>2020-10-09T23:55:11Z</time>
      </trkpt>
      <trkpt lat="31.204728397549303" lon="121.61358865315344">
        <ele>7.7423391453921795</ele>
        <time>2020-10-09T23:55:14Z</time>
      </trkpt>
      <trkpt lat="31.20451971665053" lon="121.61380227201063">
        <ele>6.660212314687669</ele>
        <time>2020-10-09T23:55:24Z</time>
      </trkpt>
      <trkpt lat="31.204360927786777" lon="121.61401019245955">
        <ele>6.301360529847443</ele>
        <time>2020-10-09T23:55:33Z</time>
      </trkpt>
      <trkpt lat="31.20427302978035" lon="121.61406956276048">
        <ele>8.666989726014435</ele>
        <time>2020-10-09T23:55:36Z</time>
      </trkpt>
      <trkpt lat="31.204229598058635" lon="121.6141286581726">
        <ele>6.798154697753489</ele>
        <time>2020-10-09T23:55:39Z</time>
      </trkpt>
      <trkpt lat="31.204007117317808" lon="121.61430459584487">
        <ele>7.535562003962696</ele>
        <time>2020-10-09T23:55:48Z</time>
      </trkpt>
      <trkpt lat="31.203764749674786" lon="121.61458814406097">
        <ele>8.755516222678125</ele>
        <time>2020-10-09T23:56:01Z</time>
      </trkpt>
      <trkpt lat="31.203699869861637" lon="121.6146786825691">
        <ele>7.606406536884606</ele>
        <time>2020-10-09T23:56:05Z</time>
      </trkpt>
      <trkpt lat="31.203790000159906" lon="121.61485946931734">
        <ele>6.799647372215986</ele>
        <time>2020-10-09T23:56:20Z</time>
      </trkpt>
      <trkpt lat="31.20379858038228" lon="121.6149689744771">
        <ele>5.374350681900978</ele>
        <time>2020-10-09T23:56:23Z</time>
      </trkpt>
      <trkpt lat="31.203779004222177" lon="121.61503077621751">
        <ele>5.885158061049879</ele>
        <time>2020-10-09T23:56:38Z</time>
      </trkpt>
      <trkpt lat="31.203784129479835" lon="121.61506059158481">
        <ele>7.3731621745973825</ele>
        <time>2020-10-09T23:57:01Z</time>
      </trkpt>
      <trkpt lat="31.203784129479835" lon="121.61506059158481">
        <ele>7.3731621745973825</ele>
        <time>2020-10-09T23:57:05Z</time>
      </trkpt>
      <trkpt lat="31.203740189546625" lon="121.61507875572798">
        <ele>7.293501219712198</ele>
        <time>2020-10-09T23:57:07Z</time>
      </trkpt>
      <trkpt lat="31.203649251470367" lon="121.61520046541179">
        <ele>6.59891667868942</ele>
        <time>2020-10-09T23:57:13Z</time>
      </trkpt>
      <trkpt lat="31.203546120246596" lon="121.61531268875324">
        <ele>6.183743841946125</ele>
        <time>2020-10-09T23:57:19Z</time>
      </trkpt>
      <trkpt lat="31.203400730823358" lon="121.61538100519007">
        <ele>6.352308876812458</ele>
        <time>2020-10-09T23:57:25Z</time>
      </trkpt>
      <trkpt lat="31.203196071512465" lon="121.61562957265343">
        <ele>6.4348576022312045</ele>
        <time>2020-10-09T23:57:37Z</time>
      </trkpt>
      <trkpt lat="31.20294260297931" lon="121.61588112307858">
        <ele>6.501422666944563</ele>
        <time>2020-10-09T23:57:49Z</time>
      </trkpt>
      <trkpt lat="31.202820746064273" lon="121.61600933628752">
        <ele>7.624318500049412</ele>
        <time>2020-10-09T23:57:55Z</time>
      </trkpt>
      <trkpt lat="31.202755364221336" lon="121.61605108210348">
        <ele>6.700709922239184</ele>
        <time>2020-10-09T23:57:58Z</time>
      </trkpt>
      <trkpt lat="31.202714638872585" lon="121.61611098554317">
        <ele>6.832883210852742</ele>
        <time>2020-10-09T23:58:01Z</time>
      </trkpt>
      <trkpt lat="31.20245164102245" lon="121.6164004770612">
        <ele>6.175969358533621</ele>
        <time>2020-10-09T23:58:15Z</time>
      </trkpt>
      <trkpt lat="31.202219566429125" lon="121.6166720743276">
        <ele>3.629520076327026</ele>
        <time>2020-10-09T23:58:27Z</time>
      </trkpt>
      <trkpt lat="31.20211645906585" lon="121.61675285100395">
        <ele>5.551837258972228</ele>
        <time>2020-10-09T23:58:31Z</time>
      </trkpt>
      <trkpt lat="31.20190692353132" lon="121.61698432994926">
        <ele>3.8471100507304072</ele>
        <time>2020-10-09T23:58:41Z</time>
      </trkpt>
      <trkpt lat="31.201849128946836" lon="121.61702932584507">
        <ele>3.850164101459086</ele>
        <time>2020-10-09T23:58:44Z</time>
      </trkpt>
      <trkpt lat="31.201751385893697" lon="121.6171699983944">
        <ele>7.098270943388343</ele>
        <time>2020-10-09T23:58:50Z</time>
      </trkpt>
      <trkpt lat="31.201588303657562" lon="121.61730552602614">
        <ele>5.825523351319134</ele>
        <time>2020-10-09T23:58:56Z</time>
      </trkpt>
      <trkpt lat="31.201477004615437" lon="121.6174440299204">
        <ele>4.729261917062104</ele>
        <time>2020-10-09T23:59:02Z</time>
      </trkpt>
      <trkpt lat="31.201352722621913" lon="121.61754946910314">
        <ele>6.826481063850224</ele>
        <time>2020-10-09T23:59:08Z</time>
      </trkpt>
      <trkpt lat="31.201296799480847" lon="121.61762075317074">
        <ele>5.031475161202252</ele>
        <time>2020-10-09T23:59:11Z</time>
      </trkpt>
      <trkpt lat="31.201226250259637" lon="121.61767631888623">
        <ele>5.905923389829695</ele>
        <time>2020-10-09T23:59:14Z</time>
      </trkpt>
      <trkpt lat="31.201047358581384" lon="121.61789450664878">
        <ele>7.857786116190255</ele>
        <time>2020-10-09T23:59:23Z</time>
      </trkpt>
      <trkpt lat="31.200988701292747" lon="121.61798801361708">
        <ele>6.699544774368405</ele>
        <time>2020-10-09T23:59:26Z</time>
      </trkpt>
      <trkpt lat="31.200863309396013" lon="121.61811702923502">
        <ele>8.267721333540976</ele>
        <time>2020-10-09T23:59:32Z</time>
      </trkpt>
      <trkpt lat="31.200817947769284" lon="121.61819969356262">
        <ele>6.75320799741894</ele>
        <time>2020-10-09T23:59:35Z</time>
      </trkpt>
      <trkpt lat="31.20056875483018" lon="121.61849105666106">
        <ele>6.18735855538398</ele>
        <time>2020-10-09T23:59:47Z</time>
      </trkpt>
      <trkpt lat="31.20034940605424" lon="121.61876046198053">
        <ele>6.658706936985254</ele>
        <time>2020-10-09T23:59:59Z</time>
      </trkpt>
      <trkpt lat="31.200229690196164" lon="121.61890356571662">
        <ele>4.496670965105295</ele>
        <time>2020-10-10T00:00:05Z</time>
      </trkpt>
      <trkpt lat="31.200164018131645" lon="121.61895994122573">
        <ele>4.338165462948382</ele>
        <time>2020-10-10T00:00:08Z</time>
      </trkpt>
      <trkpt lat="31.199980760546847" lon="121.61919573371657">
        <ele>5.768433717079461</ele>
        <time>2020-10-10T00:00:18Z</time>
      </trkpt>
      <trkpt lat="31.199884430448254" lon="121.61927081056228">
        <ele>2.6210214607417583</ele>
        <time>2020-10-10T00:00:22Z</time>
      </trkpt>
      <trkpt lat="31.19967811381315" lon="121.61951635822821">
        <ele>5.6026335740461946</ele>
        <time>2020-10-10T00:00:33Z</time>
      </trkpt>
      <trkpt lat="31.199540250121853" lon="121.61963859204562">
        <ele>5.593387286178768</ele>
        <time>2020-10-10T00:00:39Z</time>
      </trkpt>
      <trkpt lat="31.19948540443247" lon="121.61971176714982">
        <ele>6.073570287786424</ele>
        <time>2020-10-10T00:00:42Z</time>
      </trkpt>
      <trkpt lat="31.199288920182024" lon="121.61988603691802">
        <ele>6.401546170935035</ele>
        <time>2020-10-10T00:00:51Z</time>
      </trkpt>
      <trkpt lat="31.199228838925105" lon="121.62003807237353">
        <ele>5.3093968806788325</ele>
        <time>2020-10-10T00:00:57Z</time>
      </trkpt>
      <trkpt lat="31.19918974276145" lon="121.62008793924448">
        <ele>5.741822483018041</ele>
        <time>2020-10-10T00:01:00Z</time>
      </trkpt>
      <trkpt lat="31.19906603856566" lon="121.62015109188138">
        <ele>5.514962966553867</ele>
        <time>2020-10-10T00:01:12Z</time>
      </trkpt>
      <trkpt lat="31.198996822090383" lon="121.62022372472966">
        <ele>5.599965745583177</ele>
        <time>2020-10-10T00:01:18Z</time>
      </trkpt>
      <trkpt lat="31.1988850657414" lon="121.62026980331382">
        <ele>5.711491905152798</ele>
        <time>2020-10-10T00:01:27Z</time>
      </trkpt>
      <trkpt lat="31.19868247335579" lon="121.62032158023469">
        <ele>6.689984674565494</ele>
        <time>2020-10-10T00:01:36Z</time>
      </trkpt>
      <trkpt lat="31.198636302290687" lon="121.62039475268854">
        <ele>7.768253307789564</ele>
        <time>2020-10-10T00:01:43Z</time>
      </trkpt>
      <trkpt lat="31.19862213503803" lon="121.62045843750386">
        <ele>6.66096534114331</ele>
        <time>2020-10-10T00:01:45Z</time>
      </trkpt>
      <trkpt lat="31.198572184665718" lon="121.6205158922792">
        <ele>9.78985601849854</ele>
        <time>2020-10-10T00:01:48Z</time>
      </trkpt>
      <trkpt lat="31.198458231094637" lon="121.62058771483301">
        <ele>6.900223148986697</ele>
        <time>2020-10-10T00:01:54Z</time>
      </trkpt>
      <trkpt lat="31.1982709671354" lon="121.6207557451692">
        <ele>6.531968195922673</ele>
        <time>2020-10-10T00:02:03Z</time>
      </trkpt>
      <trkpt lat="31.19804622848264" lon="121.62097634935479">
        <ele>5.476957240141928</ele>
        <time>2020-10-10T00:02:12Z</time>
      </trkpt>
      <trkpt lat="31.19776423046615" lon="121.62124112714898">
        <ele>4.069709702394903</ele>
        <time>2020-10-10T00:02:23Z</time>
      </trkpt>
      <trkpt lat="31.19750205626442" lon="121.62147582150637">
        <ele>5.515790459699929</ele>
        <time>2020-10-10T00:02:35Z</time>
      </trkpt>
      <trkpt lat="31.197349797774688" lon="121.62161322233202">
        <ele>4.529436904937029</ele>
        <time>2020-10-10T00:02:42Z</time>
      </trkpt>
      <trkpt lat="31.19727491360935" lon="121.6216592954277">
        <ele>6.409690368920565</ele>
        <time>2020-10-10T00:02:45Z</time>
      </trkpt>
      <trkpt lat="31.19700321921826" lon="121.62191837498594">
        <ele>3.7897446788847446</ele>
        <time>2020-10-10T00:02:57Z</time>
      </trkpt>
      <trkpt lat="31.19671825489383" lon="121.62216173650066">
        <ele>5.924852938391268</ele>
        <time>2020-10-10T00:03:09Z</time>
      </trkpt>
      <trkpt lat="31.19665254858596" lon="121.62224303474132">
        <ele>5.824552423320711</ele>
        <time>2020-10-10T00:03:15Z</time>
      </trkpt>
      <trkpt lat="31.196635335254747" lon="121.62235928444613">
        <ele>4.365053460933268</ele>
        <time>2020-10-10T00:03:21Z</time>
      </trkpt>
      <trkpt lat="31.196683387330086" lon="121.6225432714755">
        <ele>6.2093774843961</ele>
        <time>2020-10-10T00:03:27Z</time>
      </trkpt>
      <trkpt lat="31.19670178314079" lon="121.62281559601763">
        <ele>5.333132184110582</ele>
        <time>2020-10-10T00:03:36Z</time>
      </trkpt>
      <trkpt lat="31.196724181929728" lon="121.62290691084779">
        <ele>2.2245553210377693</ele>
        <time>2020-10-10T00:03:39Z</time>
      </trkpt>
      <trkpt lat="31.196728930724486" lon="121.62302071716815">
        <ele>4.383977675810456</ele>
        <time>2020-10-10T00:03:42Z</time>
      </trkpt>
      <trkpt lat="31.19670932396549" lon="121.62309415096524">
        <ele>4.094668323174119</ele>
        <time>2020-10-10T00:03:45Z</time>
      </trkpt>
      <trkpt lat="31.196723629837155" lon="121.62314942700677">
        <ele>4.4179840087890625</ele>
        <time>2020-10-10T00:03:48Z</time>
      </trkpt>
      <trkpt lat="31.19677021911411" lon="121.62318871326721">
        <ele>5.453289385885</ele>
        <time>2020-10-10T00:03:51Z</time>
      </trkpt>
      <trkpt lat="31.196751438625096" lon="121.62325076599433">
        <ele>3.7530428543686867</ele>
        <time>2020-10-10T00:03:54Z</time>
      </trkpt>
      <trkpt lat="31.196809367530385" lon="121.62356236976333">
        <ele>5.925032193772495</ele>
        <time>2020-10-10T00:04:12Z</time>
      </trkpt>
      <trkpt lat="31.196866522954288" lon="121.623837661483">
        <ele>5.778887414373457</ele>
        <time>2020-10-10T00:04:28Z</time>
      </trkpt>
      <trkpt lat="31.196863138198836" lon="121.6239482131081">
        <ele>3.1967049594968557</ele>
        <time>2020-10-10T00:04:34Z</time>
      </trkpt>
      <trkpt lat="31.196935092019164" lon="121.62408910528431">
        <ele>5.313544704578817</ele>
        <time>2020-10-10T00:04:43Z</time>
      </trkpt>
      <trkpt lat="31.196854285802136" lon="121.62409615686167">
        <ele>5.80422493442893</ele>
        <time>2020-10-10T00:04:49Z</time>
      </trkpt>
      <trkpt lat="31.196818015267404" lon="121.62404467795032">
        <ele>5.465015753172338</ele>
        <time>2020-10-10T00:04:52Z</time>
      </trkpt>
      <trkpt lat="31.196819483758592" lon="121.6239498424737">
        <ele>7.334276796318591</ele>
        <time>2020-10-10T00:04:55Z</time>
      </trkpt>
      <trkpt lat="31.19687044830675" lon="121.62372819321376">
        <ele>7.482634632848203</ele>
        <time>2020-10-10T00:05:01Z</time>
      </trkpt>
      <trkpt lat="31.196843349294934" lon="121.62348568447592">
        <ele>6.55761354137212</ele>
        <time>2020-10-10T00:05:07Z</time>
      </trkpt>
      <trkpt lat="31.19680958647705" lon="121.6233756759965">
        <ele>5.0598452147096395</ele>
        <time>2020-10-10T00:05:10Z</time>
      </trkpt>
      <trkpt lat="31.19681906381674" lon="121.62315375457145">
        <ele>4.531775453127921</ele>
        <time>2020-10-10T00:05:16Z</time>
      </trkpt>
      <trkpt lat="31.196786395660705" lon="121.62303398983062">
        <ele>5.280118942260742</ele>
        <time>2020-10-10T00:05:19Z</time>
      </trkpt>
      <trkpt lat="31.196814459085672" lon="121.62291584534893">
        <ele>4.773156577721238</ele>
        <time>2020-10-10T00:05:22Z</time>
      </trkpt>
      <trkpt lat="31.1970292070687" lon="121.62267141257668">
        <ele>4.547775166109204</ele>
        <time>2020-10-10T00:05:31Z</time>
      </trkpt>
      <trkpt lat="31.197158991278208" lon="121.62251207024832">
        <ele>4.103474648669362</ele>
        <time>2020-10-10T00:05:37Z</time>
      </trkpt>
      <trkpt lat="31.197229829184977" lon="121.62244892762908">
        <ele>4.131718487478793</ele>
        <time>2020-10-10T00:05:40Z</time>
      </trkpt>
      <trkpt lat="31.197313381571277" lon="121.62241098439432">
        <ele>2.97388497274369</ele>
        <time>2020-10-10T00:05:43Z</time>
      </trkpt>
      <trkpt lat="31.197427352933936" lon="121.6223272438955">
        <ele>6.243939887732267</ele>
        <time>2020-10-10T00:05:46Z</time>
      </trkpt>
      <trkpt lat="31.19749522550778" lon="121.62224865548697">
        <ele>5.4572746101766825</ele>
        <time>2020-10-10T00:05:49Z</time>
      </trkpt>
      <trkpt lat="31.19757717446902" lon="121.62218984694839">
        <ele>6.774197767488658</ele>
        <time>2020-10-10T00:05:52Z</time>
      </trkpt>
      <trkpt lat="31.197641799512777" lon="121.62210556789022">
        <ele>6.243812101893127</ele>
        <time>2020-10-10T00:05:55Z</time>
      </trkpt>
      <trkpt lat="31.19773159979166" lon="121.62205678455656">
        <ele>7.063249532133341</ele>
        <time>2020-10-10T00:05:58Z</time>
      </trkpt>
      <trkpt lat="31.197890394612763" lon="121.62189526834952">
        <ele>6.4406615905463696</ele>
        <time>2020-10-10T00:06:05Z</time>
      </trkpt>
      <trkpt lat="31.198108783566195" lon="121.621782522725">
        <ele>6.1193218333646655</ele>
        <time>2020-10-10T00:06:14Z</time>
      </trkpt>
      <trkpt lat="31.198305835477736" lon="121.62159525839681">
        <ele>4.980590257793665</ele>
        <time>2020-10-10T00:06:23Z</time>
      </trkpt>
      <trkpt lat="31.19842070630402" lon="121.62143184613763">
        <ele>5.680805720388889</ele>
        <time>2020-10-10T00:06:29Z</time>
      </trkpt>
      <trkpt lat="31.198522488081377" lon="121.62133536729085">
        <ele>7.373259178362787</ele>
        <time>2020-10-10T00:06:33Z</time>
      </trkpt>
      <trkpt lat="31.1986180897487" lon="121.62118767223342">
        <ele>6.0624243300408125</ele>
        <time>2020-10-10T00:06:39Z</time>
      </trkpt>
      <trkpt lat="31.19886231831258" lon="121.62099768990787">
        <ele>5.3327475264668465</ele>
        <time>2020-10-10T00:06:48Z</time>
      </trkpt>
      <trkpt lat="31.19905259855853" lon="121.62079985195452">
        <ele>3.4521007975563407</ele>
        <time>2020-10-10T00:06:57Z</time>
      </trkpt>
      <trkpt lat="31.199262621772764" lon="121.62064699557264">
        <ele>5.050037681125104</ele>
        <time>2020-10-10T00:07:09Z</time>
      </trkpt>
      <trkpt lat="31.199381674522815" lon="121.62062395139685">
        <ele>6.1746759451925755</ele>
        <time>2020-10-10T00:07:18Z</time>
      </trkpt>
      <trkpt lat="31.19952264118593" lon="121.62064534810463">
        <ele>6.528414769098163</ele>
        <time>2020-10-10T00:07:27Z</time>
      </trkpt>
      <trkpt lat="31.199716806909475" lon="121.62061416794495">
        <ele>4.781341304071248</ele>
        <time>2020-10-10T00:07:42Z</time>
      </trkpt>
      <trkpt lat="31.199861532039087" lon="121.62067025130857">
        <ele>5.654672872275114</ele>
        <time>2020-10-10T00:07:51Z</time>
      </trkpt>
      <trkpt lat="31.200155156716026" lon="121.62068296361694">
        <ele>6.325396952219307</ele>
        <time>2020-10-10T00:08:03Z</time>
      </trkpt>
      <trkpt lat="31.200453552989668" lon="121.620796213148">
        <ele>6.325099934823811</ele>
        <time>2020-10-10T00:08:12Z</time>
      </trkpt>
      <trkpt lat="31.200644963597128" lon="121.6208056819695">
        <ele>4.957352322526276</ele>
        <time>2020-10-10T00:08:24Z</time>
      </trkpt>
      <trkpt lat="31.200702145608012" lon="121.6208308793214">
        <ele>5.729322860017419</ele>
        <time>2020-10-10T00:08:27Z</time>
      </trkpt>
      <trkpt lat="31.20075746145083" lon="121.6208268098931">
        <ele>5.704699726775289</ele>
        <time>2020-10-10T00:08:30Z</time>
      </trkpt>
      <trkpt lat="31.20104371704318" lon="121.62088423603375">
        <ele>5.421418187208474</ele>
        <time>2020-10-10T00:08:49Z</time>
      </trkpt>
      <trkpt lat="31.201315594190184" lon="121.62094925092511">
        <ele>5.5573225459083915</ele>
        <time>2020-10-10T00:09:04Z</time>
      </trkpt>
      <trkpt lat="31.20160617747544" lon="121.6210161610233">
        <ele>6.10380235593766</ele>
        <time>2020-10-10T00:09:14Z</time>
      </trkpt>
      <trkpt lat="31.201881595222197" lon="121.62106654196809">
        <ele>4.950538299046457</ele>
        <time>2020-10-10T00:09:23Z</time>
      </trkpt>
      <trkpt lat="31.202083294261644" lon="121.62108955920941">
        <ele>4.670488982461393</ele>
        <time>2020-10-10T00:09:29Z</time>
      </trkpt>
      <trkpt lat="31.202164062450766" lon="121.62111692223226">
        <ele>3.9310111571103334</ele>
        <time>2020-10-10T00:09:32Z</time>
      </trkpt>
      <trkpt lat="31.20224621688471" lon="121.62111637345879">
        <ele>5.289812106639147</ele>
        <time>2020-10-10T00:09:35Z</time>
      </trkpt>
      <trkpt lat="31.20241020740287" lon="121.6211583628481">
        <ele>4.672966280020773</ele>
        <time>2020-10-10T00:09:41Z</time>
      </trkpt>
      <trkpt lat="31.202471806992392" lon="121.62111093504627">
        <ele>4.455934314057231</ele>
        <time>2020-10-10T00:09:44Z</time>
      </trkpt>
      <trkpt lat="31.20247110087547" lon="121.62101283758369">
        <ele>4.343343731015921</ele>
        <time>2020-10-10T00:09:47Z</time>
      </trkpt>
      <trkpt lat="31.202420584312584" lon="121.62084238967532">
        <ele>5.22085315361619</ele>
        <time>2020-10-10T00:09:53Z</time>
      </trkpt>
      <trkpt lat="31.202395523050946" lon="121.62044836947344">
        <ele>3.4864586843177676</ele>
        <time>2020-10-10T00:10:02Z</time>
      </trkpt>
      <trkpt lat="31.202388542390196" lon="121.62038414439769">
        <ele>6.074764339253306</ele>
        <time>2020-10-10T00:10:05Z</time>
      </trkpt>
      <trkpt lat="31.202441501206536" lon="121.62030229950105">
        <ele>6.200996031053364</ele>
        <time>2020-10-10T00:10:23Z</time>
      </trkpt>
      <trkpt lat="31.202437170863043" lon="121.62029498297969">
        <ele>5.221780183725059</ele>
        <time>2020-10-10T00:10:25Z</time>
      </trkpt>
      <trkpt lat="31.20265435972514" lon="121.62028575115494">
        <ele>5.067426432855427</ele>
        <time>2020-10-10T00:11:18Z</time>
      </trkpt>
      <trkpt lat="31.20270910900686" lon="121.62030444531923">
        <ele>4.8495714738965034</ele>
        <time>2020-10-10T00:11:21Z</time>
      </trkpt>
      <trkpt lat="31.202805672956398" lon="121.62026703992453">
        <ele>4.467980103567243</ele>
        <time>2020-10-10T00:11:24Z</time>
      </trkpt>
      <trkpt lat="31.202875357813213" lon="121.62026405320299">
        <ele>5.377507798373699</ele>
        <time>2020-10-10T00:11:27Z</time>
      </trkpt>
      <trkpt lat="31.2029033459425" lon="121.62020659969154">
        <ele>5.121295472607017</ele>
        <time>2020-10-10T00:11:30Z</time>
      </trkpt>
      <trkpt lat="31.20282440401674" lon="121.61999035011046">
        <ele>5.071182087995112</ele>
        <time>2020-10-10T00:11:45Z</time>
      </trkpt>
      <trkpt lat="31.20275723211864" lon="121.61992450288402">
        <ele>5.472876284513951</ele>
        <time>2020-10-10T00:11:51Z</time>
      </trkpt>
      <trkpt lat="31.202775487539515" lon="121.61983967840261">
        <ele>6.245660510845482</ele>
        <time>2020-10-10T00:11:54Z</time>
      </trkpt>
      <trkpt lat="31.202697722456826" lon="121.61953236860212">
        <ele>5.225865337066352</ele>
        <time>2020-10-10T00:12:12Z</time>
      </trkpt>
      <trkpt lat="31.20261802124203" lon="121.61925893111167">
        <ele>5.855064527131617</ele>
        <time>2020-10-10T00:12:27Z</time>
      </trkpt>
      <trkpt lat="31.202519173971613" lon="121.61888061142254">
        <ele>5.4147980669513345</ele>
        <time>2020-10-10T00:12:49Z</time>
      </trkpt>
      <trkpt lat="31.20244508316791" lon="121.61868359214093">
        <ele>4.774849618785083</ele>
        <time>2020-10-10T00:13:01Z</time>
      </trkpt>
      <trkpt lat="31.202464128383262" lon="121.6186185474517">
        <ele>5.02722757961601</ele>
        <time>2020-10-10T00:13:05Z</time>
      </trkpt>
      <trkpt lat="31.202779038912265" lon="121.61849656510873">
        <ele>3.961532087996602</ele>
        <time>2020-10-10T00:13:26Z</time>
      </trkpt>
      <trkpt lat="31.202865308030237" lon="121.6184485883363">
        <ele>6.931144338101149</ele>
        <time>2020-10-10T00:13:32Z</time>
      </trkpt>
      <trkpt lat="31.202852362327164" lon="121.61838002248254">
        <ele>5.177983498200774</ele>
        <time>2020-10-10T00:13:38Z</time>
      </trkpt>
      <trkpt lat="31.202815256997273" lon="121.61833991516993">
        <ele>5.84143337700516</ele>
        <time>2020-10-10T00:13:41Z</time>
      </trkpt>
      <trkpt lat="31.202831078371325" lon="121.61824424492032">
        <ele>7.568001846782863</ele>
        <time>2020-10-10T00:13:47Z</time>
      </trkpt>
      <trkpt lat="31.2027406503333" lon="121.6181125376267">
        <ele>4.040679989382625</ele>
        <time>2020-10-10T00:13:59Z</time>
      </trkpt>
      <trkpt lat="31.20273909256443" lon="121.61804288583586">
        <ele>5.133934335783124</ele>
        <time>2020-10-10T00:14:05Z</time>
      </trkpt>
      <trkpt lat="31.202681131874268" lon="121.61798001402349">
        <ele>5.169205268844962</ele>
        <time>2020-10-10T00:14:11Z</time>
      </trkpt>
      <trkpt lat="31.202603260760217" lon="121.6177607641626">
        <ele>5.498553947545588</ele>
        <time>2020-10-10T00:14:23Z</time>
      </trkpt>
      <trkpt lat="31.202556390528006" lon="121.6177239089422">
        <ele>5.175562524236739</ele>
        <time>2020-10-10T00:14:26Z</time>
      </trkpt>
      <trkpt lat="31.20249584216214" lon="121.61753338406882">
        <ele>5.2130225002765656</ele>
        <time>2020-10-10T00:14:41Z</time>
      </trkpt>
      <trkpt lat="31.202498340533463" lon="121.61747348725353">
        <ele>4.754458395764232</ele>
        <time>2020-10-10T00:14:44Z</time>
      </trkpt>
      <trkpt lat="31.20242548636306" lon="121.6173897461962">
        <ele>6.82243552710861</ele>
        <time>2020-10-10T00:14:50Z</time>
      </trkpt>
      <trkpt lat="31.20241578074695" lon="121.61733256031651">
        <ele>4.60353584587574</ele>
        <time>2020-10-10T00:14:53Z</time>
      </trkpt>
      <trkpt lat="31.202434017034534" lon="121.61725965237216">
        <ele>6.5919142151251435</ele>
        <time>2020-10-10T00:14:57Z</time>
      </trkpt>
      <trkpt lat="31.20253220928631" lon="121.61721655075358">
        <ele>4.928829067386687</ele>
        <time>2020-10-10T00:15:03Z</time>
      </trkpt>
      <trkpt lat="31.202748766129382" lon="121.61701678401977">
        <ele>3.71208874322474</ele>
        <time>2020-10-10T00:15:13Z</time>
      </trkpt>
      <trkpt lat="31.20293897553612" lon="121.61686553269055">
        <ele>5.944829475134611</ele>
        <time>2020-10-10T00:15:22Z</time>
      </trkpt>
      <trkpt lat="31.203082003346" lon="121.616717807778">
        <ele>5.226802488788962</ele>
        <time>2020-10-10T00:15:28Z</time>
      </trkpt>
      <trkpt lat="31.20323471539975" lon="121.61665084965917">
        <ele>3.6277860086411238</ele>
        <time>2020-10-10T00:15:34Z</time>
      </trkpt>
      <trkpt lat="31.203444491727772" lon="121.61644918164006">
        <ele>5.408455641940236</ele>
        <time>2020-10-10T00:15:43Z</time>
      </trkpt>
      <trkpt lat="31.203658586463405" lon="121.61626729745667">
        <ele>6.022818898782134</ele>
        <time>2020-10-10T00:15:52Z</time>
      </trkpt>
      <trkpt lat="31.2037947414711" lon="121.61621849913081">
        <ele>6.91891360655427</ele>
        <time>2020-10-10T00:15:58Z</time>
      </trkpt>
      <trkpt lat="31.203855261956186" lon="121.61615642599716">
        <ele>6.849802256561816</ele>
        <time>2020-10-10T00:16:01Z</time>
      </trkpt>
      <trkpt lat="31.203927505901223" lon="121.61602388100147">
        <ele>7.235812128521502</ele>
        <time>2020-10-10T00:16:07Z</time>
      </trkpt>
      <trkpt lat="31.203969834319565" lon="121.61598972622491">
        <ele>5.161583143286407</ele>
        <time>2020-10-10T00:16:10Z</time>
      </trkpt>
      <trkpt lat="31.204218764753843" lon="121.61595880682091">
        <ele>7.615488187409937</ele>
        <time>2020-10-10T00:16:25Z</time>
      </trkpt>
      <trkpt lat="31.20451625110199" lon="121.61619811147905">
        <ele>6.647496063262224</ele>
        <time>2020-10-10T00:16:37Z</time>
      </trkpt>
      <trkpt lat="31.204622954838428" lon="121.61633145383983">
        <ele>5.626858651638031</ele>
        <time>2020-10-10T00:16:43Z</time>
      </trkpt>
      <trkpt lat="31.204568486586943" lon="121.61629920477132">
        <ele>6.466414330527186</ele>
        <time>2020-10-10T00:16:46Z</time>
      </trkpt>
      <trkpt lat="31.204358315621146" lon="121.61605013639627">
        <ele>7.4795413156971335</ele>
        <time>2020-10-10T00:17:08Z</time>
      </trkpt>
      <trkpt lat="31.204131337986794" lon="121.61579456180094">
        <ele>7.2212830651551485</ele>
        <time>2020-10-10T00:17:32Z</time>
      </trkpt>
      <trkpt lat="31.204077446836106" lon="121.61572328151952">
        <ele>7.36352024693042</ele>
        <time>2020-10-10T00:17:38Z</time>
      </trkpt>
      <trkpt lat="31.203854506468243" lon="121.61549751839334">
        <ele>6.620814721100032</ele>
        <time>2020-10-10T00:17:53Z</time>
      </trkpt>
      <trkpt lat="31.20378164773045" lon="121.61541214428618">
        <ele>5.19182157702744</ele>
        <time>2020-10-10T00:17:56Z</time>
      </trkpt>
      <trkpt lat="31.20363125666711" lon="121.61531268171206">
        <ele>5.508023054338992</ele>
        <time>2020-10-10T00:18:02Z</time>
      </trkpt>
      <trkpt lat="31.203625628989485" lon="121.61523841446187">
        <ele>6.486493340693414</ele>
        <time>2020-10-10T00:18:05Z</time>
      </trkpt>
      <trkpt lat="31.203823780686548" lon="121.61498631981155">
        <ele>7.004400512203574</ele>
        <time>2020-10-10T00:18:17Z</time>
      </trkpt>
      <trkpt lat="31.20384582811531" lon="121.61488900964996">
        <ele>5.31104401499033</ele>
        <time>2020-10-10T00:18:23Z</time>
      </trkpt>
      <trkpt lat="31.20408953015669" lon="121.61463365487332">
        <ele>6.809194888919592</ele>
        <time>2020-10-10T00:18:47Z</time>
      </trkpt>
      <trkpt lat="31.204348428765073" lon="121.61436040613043">
        <ele>6.9379969872534275</ele>
        <time>2020-10-10T00:19:09Z</time>
      </trkpt>
      <trkpt lat="31.204566900005826" lon="121.61411724562781">
        <ele>8.605844870209694</ele>
        <time>2020-10-10T00:19:28Z</time>
      </trkpt>
      <trkpt lat="31.204644213538405" lon="121.61407007419257">
        <ele>7.432464687153697</ele>
        <time>2020-10-10T00:19:34Z</time>
      </trkpt>
      <trkpt lat="31.204741917247798" lon="121.61395757439901">
        <ele>8.704605427570641</ele>
        <time>2020-10-10T00:19:43Z</time>
      </trkpt>
      <trkpt lat="31.20485451816901" lon="121.61386269214229">
        <ele>7.454004064202309</ele>
        <time>2020-10-10T00:19:52Z</time>
      </trkpt>
      <trkpt lat="31.205081668767455" lon="121.61361058053923">
        <ele>9.245203098282218</ele>
        <time>2020-10-10T00:20:13Z</time>
      </trkpt>
      <trkpt lat="31.20527076961756" lon="121.61346608468448">
        <ele>7.439203716814518</ele>
        <time>2020-10-10T00:20:28Z</time>
      </trkpt>
      <trkpt lat="31.20538395754305" lon="121.61331454633871">
        <ele>7.269957178272307</ele>
        <time>2020-10-10T00:20:40Z</time>
      </trkpt>
      <trkpt lat="31.20539783241763" lon="121.61325707777114">
        <ele>7.455894503742456</ele>
        <time>2020-10-10T00:20:43Z</time>
      </trkpt>
      <trkpt lat="31.205539998567165" lon="121.61314511257069">
        <ele>7.3249028557911515</ele>
        <time>2020-10-10T00:20:55Z</time>
      </trkpt>
      <trkpt lat="31.205593742073283" lon="121.61307273115995">
        <ele>6.790522079914808</ele>
        <time>2020-10-10T00:21:01Z</time>
      </trkpt>
      <trkpt lat="31.20556424086641" lon="121.6130076754609">
        <ele>9.0791109316051</ele>
        <time>2020-10-10T00:21:07Z</time>
      </trkpt>
      <trkpt lat="31.20561057746706" lon="121.6130418271746">
        <ele>6.878947112709284</ele>
        <time>2020-10-10T00:21:21Z</time>
      </trkpt>
      <trkpt lat="31.205357756119408" lon="121.61285778705161">
        <ele>8.736602335236967</ele>
        <time>2020-10-10T00:21:36Z</time>
      </trkpt>
      <trkpt lat="31.205357808378082" lon="121.61279245723179">
        <ele>7.722051465883851</ele>
        <time>2020-10-10T00:21:45Z</time>
      </trkpt>
      <trkpt lat="31.205488047558145" lon="121.61267425595814">
        <ele>7.217935808002949</ele>
        <time>2020-10-10T00:22:06Z</time>
      </trkpt>
      <trkpt lat="31.205527408650475" lon="121.61261569938748">
        <ele>6.1519997008144855</ele>
        <time>2020-10-10T00:22:09Z</time>
      </trkpt>
      <trkpt lat="31.205745518028575" lon="121.61246821308951">
        <ele>8.407973129302263</ele>
        <time>2020-10-10T00:22:24Z</time>
      </trkpt>
      <trkpt lat="31.205833707723862" lon="121.61237820632421">
        <ele>7.243241751566529</ele>
        <time>2020-10-10T00:22:30Z</time>
      </trkpt>
      <trkpt lat="31.205896908409745" lon="121.61234485783154">
        <ele>5.977385072037578</ele>
        <time>2020-10-10T00:22:33Z</time>
      </trkpt>
      <trkpt lat="31.206003845885476" lon="121.61220361396971">
        <ele>6.973355234600604</ele>
        <time>2020-10-10T00:22:39Z</time>
      </trkpt>
      <trkpt lat="31.20626868816266" lon="121.61192627013104">
        <ele>6.247129040770233</ele>
        <time>2020-10-10T00:22:51Z</time>
      </trkpt>
      <trkpt lat="31.20651127538631" lon="121.61167413632845">
        <ele>7.333454021252692</ele>
        <time>2020-10-10T00:23:09Z</time>
      </trkpt>
      <trkpt lat="31.206558208502482" lon="121.61163889052192">
        <ele>7.548124482855201</ele>
        <time>2020-10-10T00:23:19Z</time>
      </trkpt>
      <trkpt lat="31.206499505488956" lon="121.61146132946514">
        <ele>7.408422000706196</ele>
        <time>2020-10-10T00:23:31Z</time>
      </trkpt>
      <trkpt lat="31.20646051397159" lon="121.61139166141481">
        <ele>6.0985571863129735</ele>
        <time>2020-10-10T00:23:35Z</time>
      </trkpt>
      <trkpt lat="31.20636321821674" lon="121.61133528165821">
        <ele>7.597793315537274</ele>
        <time>2020-10-10T00:23:39Z</time>
      </trkpt>
      <trkpt lat="31.20617788279207" lon="121.61117128359848">
        <ele>8.390915804542601</ele>
        <time>2020-10-10T00:23:48Z</time>
      </trkpt>
      <trkpt lat="31.20612046025114" lon="121.61109212774728">
        <ele>7.144707217812538</ele>
        <time>2020-10-10T00:23:51Z</time>
      </trkpt>
      <trkpt lat="31.206091541548435" lon="121.61096525573014">
        <ele>8.051429593004286</ele>
        <time>2020-10-10T00:23:54Z</time>
      </trkpt>
      <trkpt lat="31.2060205318484" lon="121.61092703648076">
        <ele>7.77922417037189</ele>
        <time>2020-10-10T00:23:57Z</time>
      </trkpt>
      <trkpt lat="31.205964176997277" lon="121.61087010999123">
        <ele>7.081201272085309</ele>
        <time>2020-10-10T00:24:00Z</time>
      </trkpt>
      <trkpt lat="31.20586560950137" lon="121.61069579950073">
        <ele>7.451077774167061</ele>
        <time>2020-10-10T00:24:06Z</time>
      </trkpt>
      <trkpt lat="31.205832870502554" lon="121.61060037370878">
        <ele>6.718917803838849</ele>
        <time>2020-10-10T00:24:09Z</time>
      </trkpt>
      <trkpt lat="31.205765415572113" lon="121.61051931896772">
        <ele>6.547170684672892</ele>
        <time>2020-10-10T00:24:12Z</time>
      </trkpt>
      <trkpt lat="31.205702546040577" lon="121.61047160959545">
        <ele>8.685112375766039</ele>
        <time>2020-10-10T00:24:15Z</time>
      </trkpt>
      <trkpt lat="31.20552714787372" lon="121.61043421146509">
        <ele>5.854358815588057</ele>
        <time>2020-10-10T00:24:24Z</time>
      </trkpt>
      <trkpt lat="31.205419874094353" lon="121.61029839569947">
        <ele>7.42757410928607</ele>
        <time>2020-10-10T00:24:33Z</time>
      </trkpt>
      <trkpt lat="31.205403384118938" lon="121.61022818001662">
        <ele>8.005066899582744</ele>
        <time>2020-10-10T00:24:39Z</time>
      </trkpt>
      <trkpt lat="31.20535515538529" lon="121.61018046882099">
        <ele>7.605779479257762</ele>
        <time>2020-10-10T00:24:45Z</time>
      </trkpt>
      <trkpt lat="31.20517805209545" lon="121.61025449617347">
        <ele>8.193418636918068</ele>
        <time>2020-10-10T00:25:06Z</time>
      </trkpt>
      <trkpt lat="31.205023936360234" lon="121.61041175123565">
        <ele>8.358674722723663</ele>
        <time>2020-10-10T00:25:25Z</time>
      </trkpt>
      <trkpt lat="31.204945547298085" lon="121.61045540582231">
        <ele>9.21705868281424</ele>
        <time>2020-10-10T00:25:29Z</time>
      </trkpt>
      <trkpt lat="31.204945547298085" lon="121.61045540582231">
        <ele>9.21705868281424</ele>
        <time>2020-10-10T00:25:34Z</time>
      </trkpt>
    </trkseg>
  </trk>
</gpx>