<?xml version="1.0" encoding="UTF-8"?>
<gpx xmlns="http://www.topografix.com/GPX/1/1" xmlns:gpxtpx="http://www.garmin.com/xmlschemas/TrackPointExtension/v1" xmlns:xsi="http://www.w3.org/2001/XMLSchema-instance" xsi:schemaLocation="http://www.topografix.com/GPX/1/1 http://www.topografix.com/GPX/1/1/gpx.xsd" version="1.1" creator="gpx.py -- https://github.com/tkrajina/gpxpy">
  <trk>
    <name>gpx from keep</name>
    <type>Run</type>
    <trkseg>
      <trkpt lat="31.20446808160066" lon="121.61045029427864">
        <ele>8.44729232788086</ele>
        <time>2019-04-11T23:00:37Z</time>
      </trkpt>
      <trkpt lat="31.20451874789728" lon="121.6105009868655">
        <ele>7.155361175537109</ele>
        <time>2019-04-11T23:00:40Z</time>
      </trkpt>
      <trkpt lat="31.204542020920293" lon="121.6105636102136">
        <ele>5.965847015380859</ele>
        <time>2019-04-11T23:00:43Z</time>
      </trkpt>
      <trkpt lat="31.204626838016456" lon="121.61063110817203">
        <ele>4.231349945068359</ele>
        <time>2019-04-11T23:00:47Z</time>
      </trkpt>
      <trkpt lat="31.204661506396445" lon="121.61068261498778">
        <ele>5.593593597412109</ele>
        <time>2019-04-11T23:00:50Z</time>
      </trkpt>
      <trkpt lat="31.204586854315753" lon="121.61080732832707">
        <ele>5.010097503662109</ele>
        <time>2019-04-11T23:00:54Z</time>
      </trkpt>
      <trkpt lat="31.20437224146365" lon="121.61100660501954">
        <ele>4.150320382031758</ele>
        <time>2019-04-11T23:01:02Z</time>
      </trkpt>
      <trkpt lat="31.20428922943135" lon="121.61106760917247">
        <ele>4.09874089149028</ele>
        <time>2019-04-11T23:01:05Z</time>
      </trkpt>
      <trkpt lat="31.204112551867155" lon="121.61129615884667">
        <ele>4.421629729414811</ele>
        <time>2019-04-11T23:01:16Z</time>
      </trkpt>
      <trkpt lat="31.20411030575991" lon="121.61139971747038">
        <ele>4.439449612879258</ele>
        <time>2019-04-11T23:01:20Z</time>
      </trkpt>
      <trkpt lat="31.20419423342215" lon="121.61156561993494">
        <ele>4.609193648273674</ele>
        <time>2019-04-11T23:01:26Z</time>
      </trkpt>
      <trkpt lat="31.204282576337196" lon="121.61162823498671">
        <ele>3.762501313100401</ele>
        <time>2019-04-11T23:01:30Z</time>
      </trkpt>
      <trkpt lat="31.20446567400353" lon="121.61187816538894">
        <ele>2.5106363370450637</ele>
        <time>2019-04-11T23:01:40Z</time>
      </trkpt>
      <trkpt lat="31.204658271634127" lon="121.61211182711952">
        <ele>1.8388150122566174</ele>
        <time>2019-04-11T23:01:50Z</time>
      </trkpt>
      <trkpt lat="31.204890462735733" lon="121.61233301336392">
        <ele>1.9895674932560112</ele>
        <time>2019-04-11T23:02:01Z</time>
      </trkpt>
      <trkpt lat="31.205118045296217" lon="121.61255094490436">
        <ele>2.144576037077897</ele>
        <time>2019-04-11T23:02:12Z</time>
      </trkpt>
      <trkpt lat="31.20518009009025" lon="121.61260813785039">
        <ele>2.1264445949388886</ele>
        <time>2019-04-11T23:02:15Z</time>
      </trkpt>
      <trkpt lat="31.205238034556924" lon="121.61270707726676">
        <ele>2.4307939242521286</ele>
        <time>2019-04-11T23:02:19Z</time>
      </trkpt>
      <trkpt lat="31.20519776749955" lon="121.61288111295072">
        <ele>2.4758959862093732</ele>
        <time>2019-04-11T23:02:25Z</time>
      </trkpt>
      <trkpt lat="31.205157575413537" lon="121.61296081290057">
        <ele>2.437820956229153</ele>
        <time>2019-04-11T23:02:28Z</time>
      </trkpt>
      <trkpt lat="31.20495272969645" lon="121.61313214955894">
        <ele>2.3033730736258136</ele>
        <time>2019-04-11T23:02:42Z</time>
      </trkpt>
      <trkpt lat="31.204758141883744" lon="121.61335742748929">
        <ele>1.9783817275149715</ele>
        <time>2019-04-11T23:02:52Z</time>
      </trkpt>
      <trkpt lat="31.20465340612847" lon="121.6134517689862">
        <ele>1.9116905907999282</ele>
        <time>2019-04-11T23:02:56Z</time>
      </trkpt>
      <trkpt lat="31.204598302602296" lon="121.61352821539124">
        <ele>2.138016843063184</ele>
        <time>2019-04-11T23:02:59Z</time>
      </trkpt>
      <trkpt lat="31.204593905659735" lon="121.61359923597321">
        <ele>2.3011668448873266</ele>
        <time>2019-04-11T23:03:03Z</time>
      </trkpt>
      <trkpt lat="31.2043941601373" lon="121.61382722052534">
        <ele>2.6080439330011416</ele>
        <time>2019-04-11T23:03:14Z</time>
      </trkpt>
      <trkpt lat="31.204159376333234" lon="121.61412595334889">
        <ele>2.5306656507188947</ele>
        <time>2019-04-11T23:03:28Z</time>
      </trkpt>
      <trkpt lat="31.203955846789572" lon="121.61433495890326">
        <ele>2.1809524155163373</ele>
        <time>2019-04-11T23:03:38Z</time>
      </trkpt>
      <trkpt lat="31.203708069523778" lon="121.61460305692417">
        <ele>1.976398441574574</ele>
        <time>2019-04-11T23:03:50Z</time>
      </trkpt>
      <trkpt lat="31.20362857333525" lon="121.61466486456447">
        <ele>1.6940590431530183</ele>
        <time>2019-04-11T23:03:54Z</time>
      </trkpt>
      <trkpt lat="31.20361632417876" lon="121.61472016113268">
        <ele>1.5654717862536884</ele>
        <time>2019-04-11T23:03:58Z</time>
      </trkpt>
      <trkpt lat="31.20374041231235" lon="121.61482532049527">
        <ele>1.133443433971685</ele>
        <time>2019-04-11T23:04:05Z</time>
      </trkpt>
      <trkpt lat="31.203780757818357" lon="121.61488657554149">
        <ele>1.002731111110883</ele>
        <time>2019-04-11T23:04:08Z</time>
      </trkpt>
      <trkpt lat="31.203795054433268" lon="121.61497033003623">
        <ele>1.0424398689860297</ele>
        <time>2019-04-11T23:04:12Z</time>
      </trkpt>
      <trkpt lat="31.203773856717717" lon="121.61502616874493">
        <ele>1.0900439684295833</ele>
        <time>2019-04-11T23:04:19Z</time>
      </trkpt>
      <trkpt lat="31.203771389957197" lon="121.61505625579834">
        <ele>1.1825160115369684</ele>
        <time>2019-04-11T23:04:40Z</time>
      </trkpt>
      <trkpt lat="31.203771389957197" lon="121.61505625579834">
        <ele>1.158800242539435</ele>
        <time>2019-04-11T23:04:45Z</time>
      </trkpt>
      <trkpt lat="31.203751816238878" lon="121.61511507574366">
        <ele>1.1359511550080725</ele>
        <time>2019-04-11T23:04:49Z</time>
      </trkpt>
      <trkpt lat="31.20348943583826" lon="121.61533193795803">
        <ele>1.143236663922707</ele>
        <time>2019-04-11T23:04:59Z</time>
      </trkpt>
      <trkpt lat="31.20341972070238" lon="121.61536934851522">
        <ele>1.1245616099933358</ele>
        <time>2019-04-11T23:05:02Z</time>
      </trkpt>
      <trkpt lat="31.2031922895802" lon="121.61561412333447">
        <ele>1.3502279363282241</ele>
        <time>2019-04-11T23:05:18Z</time>
      </trkpt>
      <trkpt lat="31.202991959188967" lon="121.61587054830643">
        <ele>1.5741221547402588</ele>
        <time>2019-04-11T23:05:36Z</time>
      </trkpt>
      <trkpt lat="31.202736862944676" lon="121.61612074116874">
        <ele>1.50273229355183</ele>
        <time>2019-04-11T23:05:49Z</time>
      </trkpt>
      <trkpt lat="31.202495581778976" lon="121.61638231390748">
        <ele>2.0305599782067105</ele>
        <time>2019-04-11T23:06:04Z</time>
      </trkpt>
      <trkpt lat="31.20227764101418" lon="121.61661704945915">
        <ele>2.2406915638247327</ele>
        <time>2019-04-11T23:06:18Z</time>
      </trkpt>
      <trkpt lat="31.202027657876524" lon="121.61690084225432">
        <ele>1.2440126143417771</ele>
        <time>2019-04-11T23:06:31Z</time>
      </trkpt>
      <trkpt lat="31.20185666402364" lon="121.61708868084482">
        <ele>1.4262955385349656</ele>
        <time>2019-04-11T23:06:39Z</time>
      </trkpt>
      <trkpt lat="31.201795832218895" lon="121.61719059291524">
        <ele>1.4026626387813295</ele>
        <time>2019-04-11T23:06:43Z</time>
      </trkpt>
      <trkpt lat="31.201711689515427" lon="121.6172851887458">
        <ele>1.1854074098173584</ele>
        <time>2019-04-11T23:06:47Z</time>
      </trkpt>
      <trkpt lat="31.20146449011281" lon="121.61748766610812">
        <ele>1.053399772922205</ele>
        <time>2019-04-11T23:06:58Z</time>
      </trkpt>
      <trkpt lat="31.20125795631612" lon="121.61769339073811">
        <ele>0.9741873875811677</ele>
        <time>2019-04-11T23:07:08Z</time>
      </trkpt>
      <trkpt lat="31.2010099089025" lon="121.61792811634459">
        <ele>1.049449607210292</ele>
        <time>2019-04-11T23:07:20Z</time>
      </trkpt>
      <trkpt lat="31.200803327813645" lon="121.61817828435416">
        <ele>1.3527939774817241</ele>
        <time>2019-04-11T23:07:31Z</time>
      </trkpt>
      <trkpt lat="31.200587762027137" lon="121.6184634115744">
        <ele>1.1730350545935053</ele>
        <time>2019-04-11T23:07:45Z</time>
      </trkpt>
      <trkpt lat="31.20034099290989" lon="121.6187683220178">
        <ele>1.0870132590854453</ele>
        <time>2019-04-11T23:08:00Z</time>
      </trkpt>
      <trkpt lat="31.200145538591027" lon="121.61900140720181">
        <ele>0.8961317014941486</ele>
        <time>2019-04-11T23:08:11Z</time>
      </trkpt>
      <trkpt lat="31.199926730753095" lon="121.61926755498588">
        <ele>1.0680047950909426</ele>
        <time>2019-04-11T23:08:24Z</time>
      </trkpt>
      <trkpt lat="31.199696544449797" lon="121.61952258978936">
        <ele>0.9643975128392057</ele>
        <time>2019-04-11T23:08:37Z</time>
      </trkpt>
      <trkpt lat="31.19949351374173" lon="121.61973534361701">
        <ele>1.0924940203265265</ele>
        <time>2019-04-11T23:08:48Z</time>
      </trkpt>
      <trkpt lat="31.199263075215566" lon="121.61996869388712">
        <ele>1.347549442170049</ele>
        <time>2019-04-11T23:09:01Z</time>
      </trkpt>
      <trkpt lat="31.19910971073545" lon="121.62013266045845">
        <ele>1.5256612472346944</ele>
        <time>2019-04-11T23:09:11Z</time>
      </trkpt>
      <trkpt lat="31.19895398204189" lon="121.62022454126338">
        <ele>1.3917578090875153</ele>
        <time>2019-04-11T23:09:18Z</time>
      </trkpt>
      <trkpt lat="31.19885850385632" lon="121.62026113364266">
        <ele>1.463572872051948</ele>
        <time>2019-04-11T23:09:22Z</time>
      </trkpt>
      <trkpt lat="31.198796084878143" lon="121.62031560893635">
        <ele>1.063918565429958</ele>
        <time>2019-04-11T23:09:25Z</time>
      </trkpt>
      <trkpt lat="31.19867443945704" lon="121.62048119665309">
        <ele>1.1918560915274696</ele>
        <time>2019-04-11T23:09:32Z</time>
      </trkpt>
      <trkpt lat="31.19844105900105" lon="121.62067172380932">
        <ele>0.9738791522514347</ele>
        <time>2019-04-11T23:09:43Z</time>
      </trkpt>
      <trkpt lat="31.198204391048684" lon="121.62089232968913">
        <ele>0.34795781739223486</ele>
        <time>2019-04-11T23:09:55Z</time>
      </trkpt>
      <trkpt lat="31.197934360467414" lon="121.62112350497033">
        <ele>0.23593868461937006</ele>
        <time>2019-04-11T23:10:09Z</time>
      </trkpt>
      <trkpt lat="31.19766159049694" lon="121.62137852508657">
        <ele>1.1926911527168187</ele>
        <time>2019-04-11T23:10:23Z</time>
      </trkpt>
      <trkpt lat="31.197444189355643" lon="121.62157988371476">
        <ele>1.3647074773615913</ele>
        <time>2019-04-11T23:10:34Z</time>
      </trkpt>
      <trkpt lat="31.197250157064126" lon="121.62173408827124">
        <ele>1.6240136081832972</ele>
        <time>2019-04-11T23:10:44Z</time>
      </trkpt>
      <trkpt lat="31.196979829284953" lon="121.6219828698185">
        <ele>2.9864487826391866</ele>
        <time>2019-04-11T23:10:58Z</time>
      </trkpt>
      <trkpt lat="31.196712762946206" lon="121.62222297755616">
        <ele>3.59432267813515</ele>
        <time>2019-04-11T23:11:12Z</time>
      </trkpt>
      <trkpt lat="31.19665956028116" lon="121.62227636413897">
        <ele>4.358734723366794</ele>
        <time>2019-04-11T23:11:15Z</time>
      </trkpt>
      <trkpt lat="31.19662992705791" lon="121.6223465490927">
        <ele>4.883608878705907</ele>
        <time>2019-04-11T23:11:18Z</time>
      </trkpt>
      <trkpt lat="31.196642014287498" lon="121.622446537517">
        <ele>5.0192160985195216</ele>
        <time>2019-04-11T23:11:22Z</time>
      </trkpt>
      <trkpt lat="31.19670017469038" lon="121.62256332204915">
        <ele>4.903263050435392</ele>
        <time>2019-04-11T23:11:30Z</time>
      </trkpt>
      <trkpt lat="31.196746384211202" lon="121.62293346395255">
        <ele>5.17954508437105</ele>
        <time>2019-04-11T23:11:54Z</time>
      </trkpt>
      <trkpt lat="31.19680338970037" lon="121.62310931733082">
        <ele>4.751620714742657</ele>
        <time>2019-04-11T23:12:07Z</time>
      </trkpt>
      <trkpt lat="31.19678641833109" lon="121.62324778247815">
        <ele>4.080813274623019</ele>
        <time>2019-04-11T23:12:15Z</time>
      </trkpt>
      <trkpt lat="31.19685636084616" lon="121.62348812206744">
        <ele>4.1841755890759345</ele>
        <time>2019-04-11T23:12:30Z</time>
      </trkpt>
      <trkpt lat="31.19691342585804" lon="121.62384036719737">
        <ele>4.121793969552186</ele>
        <time>2019-04-11T23:12:52Z</time>
      </trkpt>
      <trkpt lat="31.196936824041668" lon="121.62400077293383">
        <ele>3.4205915055160006</ele>
        <time>2019-04-11T23:13:02Z</time>
      </trkpt>
      <trkpt lat="31.196956443236715" lon="121.62391867087689">
        <ele>3.620683466056043</ele>
        <time>2019-04-11T23:13:10Z</time>
      </trkpt>
      <trkpt lat="31.196951441984965" lon="121.62379186222255">
        <ele>4.390168823218666</ele>
        <time>2019-04-11T23:13:18Z</time>
      </trkpt>
      <trkpt lat="31.196976251154503" lon="121.62344611282116">
        <ele>5.215347848750021</ele>
        <time>2019-04-11T23:13:40Z</time>
      </trkpt>
      <trkpt lat="31.196926108316458" lon="121.62319953900673">
        <ele>5.1672404623967125</ele>
        <time>2019-04-11T23:13:55Z</time>
      </trkpt>
      <trkpt lat="31.19688366286002" lon="121.62309413653496">
        <ele>5.366076561063892</ele>
        <time>2019-04-11T23:14:02Z</time>
      </trkpt>
      <trkpt lat="31.196880775260954" lon="121.62301230459687">
        <ele>5.002434646337633</ele>
        <time>2019-04-11T23:14:08Z</time>
      </trkpt>
      <trkpt lat="31.196840833454882" lon="121.62285135250464">
        <ele>5.179318377159845</ele>
        <time>2019-04-11T23:14:18Z</time>
      </trkpt>
      <trkpt lat="31.196848219294537" lon="121.62279471921137">
        <ele>4.970780107793253</ele>
        <time>2019-04-11T23:14:22Z</time>
      </trkpt>
      <trkpt lat="31.197092162251074" lon="121.62262588415155">
        <ele>5.324876019020081</ele>
        <time>2019-04-11T23:14:45Z</time>
      </trkpt>
      <trkpt lat="31.19717498568943" lon="121.62251423670754">
        <ele>5.581838986520843</ele>
        <time>2019-04-11T23:14:56Z</time>
      </trkpt>
      <trkpt lat="31.197358153782886" lon="121.62238008964619">
        <ele>5.697805237628387</ele>
        <time>2019-04-11T23:15:10Z</time>
      </trkpt>
      <trkpt lat="31.197621443071057" lon="121.62212453795716">
        <ele>5.939931654799068</ele>
        <time>2019-04-11T23:15:25Z</time>
      </trkpt>
      <trkpt lat="31.197779097026846" lon="121.62201342419395">
        <ele>6.199495116061954</ele>
        <time>2019-04-11T23:15:33Z</time>
      </trkpt>
      <trkpt lat="31.197958510842717" lon="121.62184025389485">
        <ele>6.865545960750659</ele>
        <time>2019-04-11T23:15:43Z</time>
      </trkpt>
      <trkpt lat="31.19807679037527" lon="121.62178198341219">
        <ele>6.833000474866168</ele>
        <time>2019-04-11T23:15:49Z</time>
      </trkpt>
      <trkpt lat="31.198304811732683" lon="121.62154052002643">
        <ele>5.989460915506548</ele>
        <time>2019-04-11T23:16:00Z</time>
      </trkpt>
      <trkpt lat="31.198391649387133" lon="121.62147303805423">
        <ele>6.164243838220493</ele>
        <time>2019-04-11T23:16:04Z</time>
      </trkpt>
      <trkpt lat="31.198561604218803" lon="121.6212692436723">
        <ele>7.326398852138659</ele>
        <time>2019-04-11T23:16:15Z</time>
      </trkpt>
      <trkpt lat="31.19886715403322" lon="121.62103860870971">
        <ele>7.750241713253899</ele>
        <time>2019-04-11T23:16:29Z</time>
      </trkpt>
      <trkpt lat="31.1989906589516" lon="121.62091123387627">
        <ele>7.305336864154079</ele>
        <time>2019-04-11T23:16:36Z</time>
      </trkpt>
      <trkpt lat="31.199061802414874" lon="121.6208134007068">
        <ele>7.37730313896909</ele>
        <time>2019-04-11T23:16:40Z</time>
      </trkpt>
      <trkpt lat="31.199145377828433" lon="121.62075242092324">
        <ele>7.345702245760748</ele>
        <time>2019-04-11T23:16:44Z</time>
      </trkpt>
      <trkpt lat="31.19930160915748" lon="121.62069875175409">
        <ele>7.81902087162711</ele>
        <time>2019-04-11T23:16:50Z</time>
      </trkpt>
      <trkpt lat="31.19940817015312" lon="121.62069386509066">
        <ele>7.962742311050327</ele>
        <time>2019-04-11T23:16:54Z</time>
      </trkpt>
      <trkpt lat="31.199670839649595" lon="121.6207488545599">
        <ele>7.898885549186538</ele>
        <time>2019-04-11T23:17:04Z</time>
      </trkpt>
      <trkpt lat="31.199942240337318" lon="121.62075316795469">
        <ele>7.762353788138931</ele>
        <time>2019-04-11T23:17:15Z</time>
      </trkpt>
      <trkpt lat="31.200233142199313" lon="121.62077644908256">
        <ele>7.21537542826011</ele>
        <time>2019-04-11T23:17:28Z</time>
      </trkpt>
      <trkpt lat="31.200551390743236" lon="121.62083468565713">
        <ele>6.73534083752201</ele>
        <time>2019-04-11T23:17:42Z</time>
      </trkpt>
      <trkpt lat="31.200822188952994" lon="121.6208945519644">
        <ele>6.232240220141236</ele>
        <time>2019-04-11T23:17:53Z</time>
      </trkpt>
      <trkpt lat="31.20114641478392" lon="121.62094140624988">
        <ele>5.956208541344296</ele>
        <time>2019-04-11T23:18:07Z</time>
      </trkpt>
      <trkpt lat="31.201455183292996" lon="121.62099070062557">
        <ele>5.758905317299366</ele>
        <time>2019-04-11T23:18:19Z</time>
      </trkpt>
      <trkpt lat="31.201777491351347" lon="121.62105571107837">
        <ele>5.713531483576666</ele>
        <time>2019-04-11T23:18:33Z</time>
      </trkpt>
      <trkpt lat="31.20212530887645" lon="121.6210998532492">
        <ele>5.492491414189558</ele>
        <time>2019-04-11T23:18:47Z</time>
      </trkpt>
      <trkpt lat="31.20236278347142" lon="121.62113587487289">
        <ele>5.564940844494039</ele>
        <time>2019-04-11T23:18:57Z</time>
      </trkpt>
      <trkpt lat="31.202442764978766" lon="121.62113884910866">
        <ele>6.186954125920984</ele>
        <time>2019-04-11T23:19:15Z</time>
      </trkpt>
      <trkpt lat="31.202442764978766" lon="121.62113884910866">
        <ele>6.391605339388768</ele>
        <time>2019-04-11T23:19:44Z</time>
      </trkpt>
      <trkpt lat="31.20250153463449" lon="121.62119954522555">
        <ele>6.2834256608566506</ele>
        <time>2019-04-11T23:19:52Z</time>
      </trkpt>
      <trkpt lat="31.20249722711896" lon="121.62117163398769">
        <ele>6.104554869025385</ele>
        <time>2019-04-11T23:19:59Z</time>
      </trkpt>
      <trkpt lat="31.20249722711896" lon="121.62117163398769">
        <ele>6.208295680166572</ele>
        <time>2019-04-11T23:20:05Z</time>
      </trkpt>
      <trkpt lat="31.202483955782224" lon="121.62115862773102">
        <ele>5.723979185873887</ele>
        <time>2019-04-11T23:20:27Z</time>
      </trkpt>
      <trkpt lat="31.202467701659536" lon="121.62114589270155">
        <ele>5.8247031255003705</ele>
        <time>2019-04-11T23:20:30Z</time>
      </trkpt>
      <trkpt lat="31.202466348659442" lon="121.62114345393256">
        <ele>5.767448808720836</ele>
        <time>2019-04-11T23:20:37Z</time>
      </trkpt>
      <trkpt lat="31.202466348659442" lon="121.62114345393256">
        <ele>5.907661016584612</ele>
        <time>2019-04-11T23:20:39Z</time>
      </trkpt>
      <trkpt lat="31.202443738351068" lon="121.62074320527005">
        <ele>5.987919848866902</ele>
        <time>2019-04-11T23:21:01Z</time>
      </trkpt>
      <trkpt lat="31.202420223352306" lon="121.62042316497666">
        <ele>5.7172620230994795</ele>
        <time>2019-04-11T23:21:12Z</time>
      </trkpt>
      <trkpt lat="31.20242679995825" lon="121.62035839672691">
        <ele>5.761994601077525</ele>
        <time>2019-04-11T23:21:15Z</time>
      </trkpt>
      <trkpt lat="31.20246750380218" lon="121.62032695792861">
        <ele>5.581038694012442</ele>
        <time>2019-04-11T23:21:22Z</time>
      </trkpt>
      <trkpt lat="31.202459057754535" lon="121.62036516892957">
        <ele>5.471552095651916</ele>
        <time>2019-04-11T23:21:50Z</time>
      </trkpt>
      <trkpt lat="31.202459057754535" lon="121.62036516892957">
        <ele>6.17455695740928</ele>
        <time>2019-04-11T23:22:02Z</time>
      </trkpt>
      <trkpt lat="31.202745114907" lon="121.62035593143028">
        <ele>6.507544809146474</ele>
        <time>2019-04-11T23:22:18Z</time>
      </trkpt>
      <trkpt lat="31.20290570815525" lon="121.62027976844901">
        <ele>6.014406448529144</ele>
        <time>2019-04-11T23:22:25Z</time>
      </trkpt>
      <trkpt lat="31.202906082675444" lon="121.62018275176169">
        <ele>6.076285348381276</ele>
        <time>2019-04-11T23:22:29Z</time>
      </trkpt>
      <trkpt lat="31.202785516679537" lon="121.61984238757607">
        <ele>5.893972346900661</ele>
        <time>2019-04-11T23:22:42Z</time>
      </trkpt>
      <trkpt lat="31.20269663057604" lon="121.61953941478492">
        <ele>6.172882485648621</ele>
        <time>2019-04-11T23:22:53Z</time>
      </trkpt>
      <trkpt lat="31.202612902674876" lon="121.61922695274944">
        <ele>6.158576780234256</ele>
        <time>2019-04-11T23:23:05Z</time>
      </trkpt>
      <trkpt lat="31.202512393666552" lon="121.61888250905709">
        <ele>5.865601333618983</ele>
        <time>2019-04-11T23:23:20Z</time>
      </trkpt>
      <trkpt lat="31.20247970407453" lon="121.61876679001551">
        <ele>6.071016084360004</ele>
        <time>2019-04-11T23:23:24Z</time>
      </trkpt>
      <trkpt lat="31.202481161382707" lon="121.61866651535487">
        <ele>6.0384937511947</ele>
        <time>2019-04-11T23:23:28Z</time>
      </trkpt>
      <trkpt lat="31.20270709532643" lon="121.61858871586682">
        <ele>6.196619616562565</ele>
        <time>2019-04-11T23:23:37Z</time>
      </trkpt>
      <trkpt lat="31.202859009262866" lon="121.61851092226364">
        <ele>5.9718915760285185</ele>
        <time>2019-04-11T23:23:44Z</time>
      </trkpt>
      <trkpt lat="31.20286858640514" lon="121.61842392567486">
        <ele>6.350913041229646</ele>
        <time>2019-04-11T23:23:47Z</time>
      </trkpt>
      <trkpt lat="31.202812947978266" lon="121.61820847210534">
        <ele>6.510624083233068</ele>
        <time>2019-04-11T23:23:54Z</time>
      </trkpt>
      <trkpt lat="31.202665460609857" lon="121.6179247271381">
        <ele>7.0182925868052735</ele>
        <time>2019-04-11T23:24:08Z</time>
      </trkpt>
      <trkpt lat="31.202512634866466" lon="121.6175515413515">
        <ele>6.868145872877285</ele>
        <time>2019-04-11T23:24:22Z</time>
      </trkpt>
      <trkpt lat="31.202460668819853" lon="121.61745695779635">
        <ele>7.112252512345357</ele>
        <time>2019-04-11T23:24:26Z</time>
      </trkpt>
      <trkpt lat="31.20242958874076" lon="121.61735315723628">
        <ele>6.969029888155646</ele>
        <time>2019-04-11T23:24:30Z</time>
      </trkpt>
      <trkpt lat="31.20245381665814" lon="121.61725260400424">
        <ele>6.660959759926307</ele>
        <time>2019-04-11T23:24:34Z</time>
      </trkpt>
      <trkpt lat="31.202612245840516" lon="121.61716260940017">
        <ele>7.342619033761345</ele>
        <time>2019-04-11T23:24:41Z</time>
      </trkpt>
      <trkpt lat="31.20284209721064" lon="121.61695308400233">
        <ele>7.255301016580063</ele>
        <time>2019-04-11T23:24:54Z</time>
      </trkpt>
      <trkpt lat="31.202896622651" lon="121.61692435014676">
        <ele>7.336458666203349</ele>
        <time>2019-04-11T23:24:57Z</time>
      </trkpt>
      <trkpt lat="31.203102885595463" lon="121.61671265640432">
        <ele>7.451371217685626</ele>
        <time>2019-04-11T23:25:08Z</time>
      </trkpt>
      <trkpt lat="31.203291418793654" lon="121.61661235800715">
        <ele>7.804176416353485</ele>
        <time>2019-04-11T23:25:18Z</time>
      </trkpt>
      <trkpt lat="31.20356520873681" lon="121.6163827675102">
        <ele>7.7819874421129995</ele>
        <time>2019-04-11T23:25:32Z</time>
      </trkpt>
      <trkpt lat="31.20380368291272" lon="121.61622500333871">
        <ele>7.797290750403327</ele>
        <time>2019-04-11T23:25:45Z</time>
      </trkpt>
      <trkpt lat="31.203883992526574" lon="121.61616699418641">
        <ele>7.820509140937162</ele>
        <time>2019-04-11T23:25:49Z</time>
      </trkpt>
      <trkpt lat="31.203992851470332" lon="121.61602170726303">
        <ele>8.35699815377425</ele>
        <time>2019-04-11T23:25:56Z</time>
      </trkpt>
      <trkpt lat="31.204149044001582" lon="121.61600136620773">
        <ele>8.645173475326771</ele>
        <time>2019-04-11T23:26:04Z</time>
      </trkpt>
      <trkpt lat="31.204206821645833" lon="121.61597317305186">
        <ele>8.24739508554697</ele>
        <time>2019-04-11T23:26:07Z</time>
      </trkpt>
      <trkpt lat="31.204309567000607" lon="121.61598942708255">
        <ele>8.250972952606482</ele>
        <time>2019-04-11T23:26:11Z</time>
      </trkpt>
      <trkpt lat="31.204508610661527" lon="121.61625069376363">
        <ele>8.319529376951685</ele>
        <time>2019-04-11T23:26:22Z</time>
      </trkpt>
      <trkpt lat="31.204620754508866" lon="121.61636506274272">
        <ele>8.926616863264137</ele>
        <time>2019-04-11T23:26:29Z</time>
      </trkpt>
      <trkpt lat="31.204609965009023" lon="121.6163048931506">
        <ele>9.126439284115122</ele>
        <time>2019-04-11T23:26:32Z</time>
      </trkpt>
      <trkpt lat="31.204396475099283" lon="121.61612683783098">
        <ele>9.17443647130495</ele>
        <time>2019-04-11T23:26:48Z</time>
      </trkpt>
      <trkpt lat="31.20416082010782" lon="121.61587316206351">
        <ele>10.205196205749118</ele>
        <time>2019-04-11T23:27:13Z</time>
      </trkpt>
      <trkpt lat="31.203956067590614" lon="121.61562463096584">
        <ele>10.190728342357481</ele>
        <time>2019-04-11T23:27:35Z</time>
      </trkpt>
      <trkpt lat="31.203764054519024" lon="121.61537799360346">
        <ele>8.853365318382473</ele>
        <time>2019-04-11T23:27:56Z</time>
      </trkpt>
      <trkpt lat="31.20365270364992" lon="121.61528205130958">
        <ele>8.135937331979981</ele>
        <time>2019-04-11T23:28:06Z</time>
      </trkpt>
      <trkpt lat="31.2036620210427" lon="121.61517091978924">
        <ele>7.837149351346987</ele>
        <time>2019-04-11T23:28:14Z</time>
      </trkpt>
      <trkpt lat="31.203796100789937" lon="121.61501369847015">
        <ele>7.661740342062252</ele>
        <time>2019-04-11T23:28:22Z</time>
      </trkpt>
      <trkpt lat="31.203853669161816" lon="121.61491394599487">
        <ele>7.668323493069536</ele>
        <time>2019-04-11T23:28:26Z</time>
      </trkpt>
      <trkpt lat="31.203968452141513" lon="121.61480795410107">
        <ele>7.841604905139</ele>
        <time>2019-04-11T23:28:32Z</time>
      </trkpt>
      <trkpt lat="31.20404658213334" lon="121.61475861551804">
        <ele>7.869375130413594</ele>
        <time>2019-04-11T23:28:36Z</time>
      </trkpt>
      <trkpt lat="31.204103785280132" lon="121.61476592929526">
        <ele>7.850342692751809</ele>
        <time>2019-04-11T23:28:40Z</time>
      </trkpt>
      <trkpt lat="31.204156875709355" lon="121.61482555710835">
        <ele>7.895477814079179</ele>
        <time>2019-04-11T23:28:46Z</time>
      </trkpt>
      <trkpt lat="31.204208126665947" lon="121.61481823438005">
        <ele>7.849551655190311</ele>
        <time>2019-04-11T23:28:50Z</time>
      </trkpt>
      <trkpt lat="31.20430616192468" lon="121.614950229799">
        <ele>7.5736607497769555</ele>
        <time>2019-04-11T23:29:00Z</time>
      </trkpt>
      <trkpt lat="31.204348904111846" lon="121.61506054487577">
        <ele>7.1983682184819315</ele>
        <time>2019-04-11T23:29:07Z</time>
      </trkpt>
      <trkpt lat="31.204420743948205" lon="121.61507300734499">
        <ele>6.625647036804324</ele>
        <time>2019-04-11T23:29:13Z</time>
      </trkpt>
      <trkpt lat="31.204471195456126" lon="121.61504996371276">
        <ele>6.43100992006152</ele>
        <time>2019-04-11T23:29:17Z</time>
      </trkpt>
      <trkpt lat="31.204509464013924" lon="121.61500632104013">
        <ele>6.400352447457578</ele>
        <time>2019-04-11T23:29:21Z</time>
      </trkpt>
      <trkpt lat="31.204574277289836" lon="121.6149927630215">
        <ele>5.951235947176244</ele>
        <time>2019-04-11T23:29:28Z</time>
      </trkpt>
      <trkpt lat="31.20463993519197" lon="121.6149436969044">
        <ele>6.918279115420475</ele>
        <time>2019-04-11T23:29:35Z</time>
      </trkpt>
      <trkpt lat="31.204665228516124" lon="121.61485506005744">
        <ele>8.550834419024383</ele>
        <time>2019-04-11T23:29:42Z</time>
      </trkpt>
      <trkpt lat="31.20472358492965" lon="121.61478376771315">
        <ele>7.663304737199056</ele>
        <time>2019-04-11T23:29:49Z</time>
      </trkpt>
      <trkpt lat="31.204988831138035" lon="121.61469673676905">
        <ele>6.327809548938255</ele>
        <time>2019-04-11T23:30:10Z</time>
      </trkpt>
      <trkpt lat="31.205035494225523" lon="121.6146647482108">
        <ele>6.6388288532925515</ele>
        <time>2019-04-11T23:30:14Z</time>
      </trkpt>
      <trkpt lat="31.20510283584566" lon="121.61454927210026">
        <ele>7.548301055963691</ele>
        <time>2019-04-11T23:30:22Z</time>
      </trkpt>
      <trkpt lat="31.20522304606228" lon="121.61443650165424">
        <ele>7.939535631243949</ele>
        <time>2019-04-11T23:30:33Z</time>
      </trkpt>
      <trkpt lat="31.205418047883693" lon="121.61437197326805">
        <ele>7.889768790482776</ele>
        <time>2019-04-11T23:30:48Z</time>
      </trkpt>
      <trkpt lat="31.205495358899537" lon="121.61432832612927">
        <ele>8.233127625355529</ele>
        <time>2019-04-11T23:30:55Z</time>
      </trkpt>
      <trkpt lat="31.20554559932592" lon="121.61423426369879">
        <ele>9.028126899544176</ele>
        <time>2019-04-11T23:31:02Z</time>
      </trkpt>
      <trkpt lat="31.205764247959415" lon="121.61410088281231">
        <ele>9.376813124586178</ele>
        <time>2019-04-11T23:31:21Z</time>
      </trkpt>
      <trkpt lat="31.205907518212964" lon="121.61396994699402">
        <ele>8.532892509165436</ele>
        <time>2019-04-11T23:31:35Z</time>
      </trkpt>
      <trkpt lat="31.206067937181057" lon="121.61375796005069">
        <ele>9.271268736250157</ele>
        <time>2019-04-11T23:31:45Z</time>
      </trkpt>
      <trkpt lat="31.206139030539337" lon="121.6136910004538">
        <ele>9.202657764439863</ele>
        <time>2019-04-11T23:31:49Z</time>
      </trkpt>
      <trkpt lat="31.206286857387283" lon="121.61362132363281">
        <ele>9.443542373467288</ele>
        <time>2019-04-11T23:31:56Z</time>
      </trkpt>
      <trkpt lat="31.20633705793649" lon="121.6135725270347">
        <ele>9.013218398633157</ele>
        <time>2019-04-11T23:31:59Z</time>
      </trkpt>
      <trkpt lat="31.206148513708854" lon="121.61337086610742">
        <ele>9.016941718680137</ele>
        <time>2019-04-11T23:32:10Z</time>
      </trkpt>
      <trkpt lat="31.206110087897382" lon="121.61327870470824">
        <ele>9.245716651942246</ele>
        <time>2019-04-11T23:32:17Z</time>
      </trkpt>
      <trkpt lat="31.20606647376834" lon="121.61323127052397">
        <ele>9.428547989029994</ele>
        <time>2019-04-11T23:32:20Z</time>
      </trkpt>
      <trkpt lat="31.20586621862935" lon="121.61309087065993">
        <ele>8.261979771290797</ele>
        <time>2019-04-11T23:32:28Z</time>
      </trkpt>
      <trkpt lat="31.205761062746735" lon="121.61303557999223">
        <ele>8.103558900933379</ele>
        <time>2019-04-11T23:32:36Z</time>
      </trkpt>
      <trkpt lat="31.20582242262462" lon="121.61293229487532">
        <ele>8.48092731941216</ele>
        <time>2019-04-11T23:32:40Z</time>
      </trkpt>
      <trkpt lat="31.205953770627225" lon="121.61278454667625">
        <ele>8.439032261303595</ele>
        <time>2019-04-11T23:32:47Z</time>
      </trkpt>
      <trkpt lat="31.205973886095588" lon="121.6127200282307">
        <ele>8.435049139600167</ele>
        <time>2019-04-11T23:32:50Z</time>
      </trkpt>
      <trkpt lat="31.205944900455094" lon="121.61268750108972">
        <ele>9.168421186992951</ele>
        <time>2019-04-11T23:33:04Z</time>
      </trkpt>
      <trkpt lat="31.205868703156764" lon="121.61269780841555">
        <ele>8.98797012230849</ele>
        <time>2019-04-11T23:34:00Z</time>
      </trkpt>
      <trkpt lat="31.20580635317178" lon="121.61268371743024">
        <ele>9.122198822618024</ele>
        <time>2019-04-11T23:34:04Z</time>
      </trkpt>
      <trkpt lat="31.20572753179377" lon="121.612583966399">
        <ele>9.247811308166689</ele>
        <time>2019-04-11T23:34:12Z</time>
      </trkpt>
      <trkpt lat="31.205667903605406" lon="121.61255659214481">
        <ele>9.482360195474335</ele>
        <time>2019-04-11T23:34:16Z</time>
      </trkpt>
      <trkpt lat="31.205596566024813" lon="121.6125931939761">
        <ele>9.34067754640629</ele>
        <time>2019-04-11T23:34:23Z</time>
      </trkpt>
      <trkpt lat="31.205278092305495" lon="121.61245307112905">
        <ele>8.55513520132552</ele>
        <time>2019-04-11T23:34:52Z</time>
      </trkpt>
      <trkpt lat="31.205144246759726" lon="121.6123313658775">
        <ele>8.775783705697087</ele>
        <time>2019-04-11T23:35:03Z</time>
      </trkpt>
      <trkpt lat="31.205059970375476" lon="121.61227146324288">
        <ele>8.3916860994294</ele>
        <time>2019-04-11T23:35:10Z</time>
      </trkpt>
      <trkpt lat="31.20484678241494" lon="121.61201882871299">
        <ele>8.472809257145258</ele>
        <time>2019-04-11T23:35:31Z</time>
      </trkpt>
      <trkpt lat="31.204777988313417" lon="121.61192205596589">
        <ele>8.451973253163757</ele>
        <time>2019-04-11T23:35:39Z</time>
      </trkpt>
      <trkpt lat="31.20465798476972" lon="121.61177865956125">
        <ele>8.130120068433428</ele>
        <time>2019-04-11T23:35:53Z</time>
      </trkpt>
      <trkpt lat="31.204597011437258" lon="121.61173637447567">
        <ele>8.026328072775343</ele>
        <time>2019-04-11T23:35:59Z</time>
      </trkpt>
      <trkpt lat="31.20437649573064" lon="121.61148644562772">
        <ele>7.8152154545925825</ele>
        <time>2019-04-11T23:36:21Z</time>
      </trkpt>
      <trkpt lat="31.204236143406085" lon="121.61135822952893">
        <ele>8.179850362469836</ele>
        <time>2019-04-11T23:36:36Z</time>
      </trkpt>
      <trkpt lat="31.204199057672298" lon="121.61127771715968">
        <ele>7.95114334614226</ele>
        <time>2019-04-11T23:36:43Z</time>
      </trkpt>
      <trkpt lat="31.204221070766607" lon="121.61120858570001">
        <ele>7.762679042953373</ele>
        <time>2019-04-11T23:36:51Z</time>
      </trkpt>
      <trkpt lat="31.20428103483143" lon="121.61115002370809">
        <ele>7.632880841300619</ele>
        <time>2019-04-11T23:36:57Z</time>
      </trkpt>
      <trkpt lat="31.204323688229266" lon="121.61103399005945">
        <ele>7.489412390479515</ele>
        <time>2019-04-11T23:37:04Z</time>
      </trkpt>
      <trkpt lat="31.204539364017624" lon="121.61086480576157">
        <ele>7.593428469555967</ele>
        <time>2019-04-11T23:37:26Z</time>
      </trkpt>
      <trkpt lat="31.204587098964016" lon="121.61084392702004">
        <ele>7.603315761176539</ele>
        <time>2019-04-11T23:37:29Z</time>
      </trkpt>
      <trkpt lat="31.20458633104469" lon="121.61078103148087">
        <ele>7.881426287517279</ele>
        <time>2019-04-11T23:37:33Z</time>
      </trkpt>
      <trkpt lat="31.20440562050557" lon="121.61059073194333">
        <ele>7.986723235297575</ele>
        <time>2019-04-11T23:37:52Z</time>
      </trkpt>
      <trkpt lat="31.20439589929343" lon="121.6105351562817">
        <ele>7.839382681072195</ele>
        <time>2019-04-11T23:37:58Z</time>
      </trkpt>
      <trkpt lat="31.204433867501695" lon="121.61052214009736">
        <ele>7.383903032647893</ele>
        <time>2019-04-11T23:38:12Z</time>
      </trkpt>
      <trkpt lat="31.204433867501695" lon="121.61052214009736">
        <ele>7.644399421835054</ele>
        <time>2019-04-11T23:38:15Z</time>
      </trkpt>
      <trkpt lat="31.20446290770724" lon="121.61048174298669">
        <ele>8.353002005281148</ele>
        <time>2019-04-11T23:38:25Z</time>
      </trkpt>
      <trkpt lat="31.204430673387684" lon="121.61043836870158">
        <ele>9.05016392400389</ele>
        <time>2019-04-11T23:38:29Z</time>
      </trkpt>
      <trkpt lat="31.204399988903198" lon="121.6105034366318">
        <ele>10.56469948329869</ele>
        <time>2019-04-11T23:38:36Z</time>
      </trkpt>
      <trkpt lat="31.20438773622876" lon="121.61057582267614">
        <ele>11.15737187358257</ele>
        <time>2019-04-11T23:38:40Z</time>
      </trkpt>
      <trkpt lat="31.20427217362406" lon="121.61065824786475">
        <ele>12.623250630282357</ele>
        <time>2019-04-11T23:38:48Z</time>
      </trkpt>
      <trkpt lat="31.204269175765827" lon="121.61067966528474">
        <ele>13.48929568755117</ele>
        <time>2019-04-11T23:38:52Z</time>
      </trkpt>
    </trkseg>
  </trk>
</gpx>