<?xml version="1.0" encoding="UTF-8"?>
<gpx xmlns="http://www.topografix.com/GPX/1/1" xmlns:gpxtpx="http://www.garmin.com/xmlschemas/TrackPointExtension/v1" xmlns:xsi="http://www.w3.org/2001/XMLSchema-instance" xsi:schemaLocation="http://www.topografix.com/GPX/1/1 http://www.topografix.com/GPX/1/1/gpx.xsd" version="1.1" creator="gpx.py -- https://github.com/tkrajina/gpxpy">
  <trk>
    <name>gpx from keep</name>
    <type>Run</type>
    <trkseg>
      <trkpt lat="31.204444237928506" lon="121.61080625570985">
        <ele>8.868001442049692</ele>
        <time>2019-11-07T23:47:59Z</time>
      </trkpt>
      <trkpt lat="31.20442428556434" lon="121.61102557766922">
        <ele>8.155456788963505</ele>
        <time>2019-11-07T23:48:03Z</time>
      </trkpt>
      <trkpt lat="31.20434613082498" lon="121.61111802877213">
        <ele>7.095458345487714</ele>
        <time>2019-11-07T23:48:07Z</time>
      </trkpt>
      <trkpt lat="31.20427806291748" lon="121.61113565576963">
        <ele>6.933071907609701</ele>
        <time>2019-11-07T23:48:11Z</time>
      </trkpt>
      <trkpt lat="31.204211627601" lon="121.6111454207842">
        <ele>6.76706425100565</ele>
        <time>2019-11-07T23:48:14Z</time>
      </trkpt>
      <trkpt lat="31.204183661909337" lon="121.61119801600582">
        <ele>6.670474073849618</ele>
        <time>2019-11-07T23:48:17Z</time>
      </trkpt>
      <trkpt lat="31.20416514324899" lon="121.61130808271973">
        <ele>6.947914147749543</ele>
        <time>2019-11-07T23:48:21Z</time>
      </trkpt>
      <trkpt lat="31.20412575520977" lon="121.61140676465621">
        <ele>6.998368133790791</ele>
        <time>2019-11-07T23:48:25Z</time>
      </trkpt>
      <trkpt lat="31.204086595389498" lon="121.6115621046269">
        <ele>6.435855901800096</ele>
        <time>2019-11-07T23:48:28Z</time>
      </trkpt>
      <trkpt lat="31.204151076359885" lon="121.61162743258217">
        <ele>7.392293660901487</ele>
        <time>2019-11-07T23:48:32Z</time>
      </trkpt>
      <trkpt lat="31.204191974150056" lon="121.61168517174337">
        <ele>6.970159698277712</ele>
        <time>2019-11-07T23:48:35Z</time>
      </trkpt>
      <trkpt lat="31.20426322249479" lon="121.61176459549853">
        <ele>5.7258627731353045</ele>
        <time>2019-11-07T23:48:39Z</time>
      </trkpt>
      <trkpt lat="31.204317398383655" lon="121.61183182135882">
        <ele>7.95233641564846</ele>
        <time>2019-11-07T23:48:42Z</time>
      </trkpt>
      <trkpt lat="31.20437266527741" lon="121.61189037208663">
        <ele>7.877593345940113</ele>
        <time>2019-11-07T23:48:46Z</time>
      </trkpt>
      <trkpt lat="31.20440787156532" lon="121.61194431582273">
        <ele>6.059725854545832</ele>
        <time>2019-11-07T23:48:49Z</time>
      </trkpt>
      <trkpt lat="31.20444877658461" lon="121.61199175285522">
        <ele>8.966006477363408</ele>
        <time>2019-11-07T23:48:52Z</time>
      </trkpt>
      <trkpt lat="31.20451458896908" lon="121.61208717012396">
        <ele>5.935108772478998</ele>
        <time>2019-11-07T23:48:56Z</time>
      </trkpt>
      <trkpt lat="31.20462353526992" lon="121.61215195074331">
        <ele>7.56860835198313</ele>
        <time>2019-11-07T23:49:00Z</time>
      </trkpt>
      <trkpt lat="31.20468663762858" lon="121.61224492781183">
        <ele>6.751810265704989</ele>
        <time>2019-11-07T23:49:04Z</time>
      </trkpt>
      <trkpt lat="31.20475679596026" lon="121.61232922924215">
        <ele>8.743191401474178</ele>
        <time>2019-11-07T23:49:08Z</time>
      </trkpt>
      <trkpt lat="31.204947955720115" lon="121.61231728574414">
        <ele>6.9257465628907084</ele>
        <time>2019-11-07T23:49:11Z</time>
      </trkpt>
      <trkpt lat="31.205003456577494" lon="121.6124219193396">
        <ele>7.696897151879966</ele>
        <time>2019-11-07T23:49:15Z</time>
      </trkpt>
      <trkpt lat="31.205121378778045" lon="121.61244956001526">
        <ele>6.406588055193424</ele>
        <time>2019-11-07T23:49:18Z</time>
      </trkpt>
      <trkpt lat="31.20518692931816" lon="121.61253115026807">
        <ele>9.208783796057105</ele>
        <time>2019-11-07T23:49:22Z</time>
      </trkpt>
      <trkpt lat="31.205311039935932" lon="121.61261897024404">
        <ele>6.830150144174695</ele>
        <time>2019-11-07T23:49:26Z</time>
      </trkpt>
      <trkpt lat="31.205287837225438" lon="121.6128152335964">
        <ele>8.03894654661417</ele>
        <time>2019-11-07T23:49:30Z</time>
      </trkpt>
      <trkpt lat="31.205249539148117" lon="121.61290008408173">
        <ele>7.502268555574119</ele>
        <time>2019-11-07T23:49:33Z</time>
      </trkpt>
      <trkpt lat="31.205158375503096" lon="121.61297734849498">
        <ele>5.901243655011058</ele>
        <time>2019-11-07T23:49:37Z</time>
      </trkpt>
      <trkpt lat="31.205073200056653" lon="121.61302560707087">
        <ele>8.902729233726859</ele>
        <time>2019-11-07T23:49:40Z</time>
      </trkpt>
      <trkpt lat="31.204999327773358" lon="121.61317795725395">
        <ele>7.810123730450869</ele>
        <time>2019-11-07T23:49:44Z</time>
      </trkpt>
      <trkpt lat="31.204947132799866" lon="121.61334575576637">
        <ele>6.095761745236814</ele>
        <time>2019-11-07T23:49:48Z</time>
      </trkpt>
      <trkpt lat="31.20488607483514" lon="121.61340973373122">
        <ele>8.615615982562304</ele>
        <time>2019-11-07T23:49:51Z</time>
      </trkpt>
      <trkpt lat="31.204816080198032" lon="121.61346042979926">
        <ele>7.838979370892048</ele>
        <time>2019-11-07T23:49:55Z</time>
      </trkpt>
      <trkpt lat="31.204732806997065" lon="121.61350245261006">
        <ele>7.395788215100765</ele>
        <time>2019-11-07T23:49:58Z</time>
      </trkpt>
      <trkpt lat="31.204651100828098" lon="121.61361657966137">
        <ele>6.342370797879994</ele>
        <time>2019-11-07T23:50:02Z</time>
      </trkpt>
      <trkpt lat="31.204546083547676" lon="121.61372230499036">
        <ele>7.669270801357925</ele>
        <time>2019-11-07T23:50:06Z</time>
      </trkpt>
      <trkpt lat="31.20446929885785" lon="121.61378628323352">
        <ele>7.429310577921569</ele>
        <time>2019-11-07T23:50:10Z</time>
      </trkpt>
      <trkpt lat="31.204422886625125" lon="121.61384375320112">
        <ele>7.7836220022290945</ele>
        <time>2019-11-07T23:50:13Z</time>
      </trkpt>
      <trkpt lat="31.20432986313077" lon="121.61387249390602">
        <ele>6.752682692371309</ele>
        <time>2019-11-07T23:50:17Z</time>
      </trkpt>
      <trkpt lat="31.20425062122189" lon="121.61395625970161">
        <ele>8.358792862854898</ele>
        <time>2019-11-07T23:50:21Z</time>
      </trkpt>
      <trkpt lat="31.20417681550605" lon="121.61402376090149">
        <ele>6.169409037567675</ele>
        <time>2019-11-07T23:50:25Z</time>
      </trkpt>
      <trkpt lat="31.204120903401723" lon="121.61409261574687">
        <ele>6.618492760695517</ele>
        <time>2019-11-07T23:50:28Z</time>
      </trkpt>
      <trkpt lat="31.20403216993852" lon="121.6141777368621">
        <ele>8.851203611120582</ele>
        <time>2019-11-07T23:50:32Z</time>
      </trkpt>
      <trkpt lat="31.203973298069236" lon="121.61421948531878">
        <ele>7.544727780856192</ele>
        <time>2019-11-07T23:50:35Z</time>
      </trkpt>
      <trkpt lat="31.2038965015808" lon="121.61429593103715">
        <ele>6.2488228203728795</ele>
        <time>2019-11-07T23:50:39Z</time>
      </trkpt>
      <trkpt lat="31.203830578396857" lon="121.61433957729412">
        <ele>9.014971863478422</ele>
        <time>2019-11-07T23:50:43Z</time>
      </trkpt>
      <trkpt lat="31.20374400650108" lon="121.61443255807617">
        <ele>6.719375087879598</ele>
        <time>2019-11-07T23:50:47Z</time>
      </trkpt>
      <trkpt lat="31.203648775979445" lon="121.61450466769492">
        <ele>5.834061840549111</ele>
        <time>2019-11-07T23:50:51Z</time>
      </trkpt>
      <trkpt lat="31.203586375823868" lon="121.61454993962789">
        <ele>8.213533787988126</ele>
        <time>2019-11-07T23:50:54Z</time>
      </trkpt>
      <trkpt lat="31.20351688638098" lon="121.61464102077672">
        <ele>7.414309869520366</ele>
        <time>2019-11-07T23:50:57Z</time>
      </trkpt>
      <trkpt lat="31.203429822842875" lon="121.61467463904931">
        <ele>6.679911306127906</ele>
        <time>2019-11-07T23:51:01Z</time>
      </trkpt>
      <trkpt lat="31.203471496237537" lon="121.61476815003212">
        <ele>6.816777473315597</ele>
        <time>2019-11-07T23:51:05Z</time>
      </trkpt>
      <trkpt lat="31.203418031262323" lon="121.61482697348701">
        <ele>6.601015722379088</ele>
        <time>2019-11-07T23:51:09Z</time>
      </trkpt>
      <trkpt lat="31.203391137634974" lon="121.61488552354558">
        <ele>6.348080066032708</ele>
        <time>2019-11-07T23:51:12Z</time>
      </trkpt>
      <trkpt lat="31.20335090914457" lon="121.61499991158092">
        <ele>7.04939529299736</ele>
        <time>2019-11-07T23:51:16Z</time>
      </trkpt>
      <trkpt lat="31.20334295819458" lon="121.61509965959608">
        <ele>7.077295160852373</ele>
        <time>2019-11-07T23:51:19Z</time>
      </trkpt>
      <trkpt lat="31.203339083291848" lon="121.61518883587213">
        <ele>5.310858719982207</ele>
        <time>2019-11-07T23:51:22Z</time>
      </trkpt>
      <trkpt lat="31.203348506269162" lon="121.6152639161122">
        <ele>6.271982779726386</ele>
        <time>2019-11-07T23:51:25Z</time>
      </trkpt>
      <trkpt lat="31.203426847881627" lon="121.61528234103884">
        <ele>5.915541240945458</ele>
        <time>2019-11-07T23:51:29Z</time>
      </trkpt>
      <trkpt lat="31.203472954846795" lon="121.61526661632156">
        <ele>7.5468852473422885</ele>
        <time>2019-11-07T23:51:33Z</time>
      </trkpt>
      <trkpt lat="31.203435296258636" lon="121.61523382234462">
        <ele>3.2992339869961143</ele>
        <time>2019-11-07T23:51:37Z</time>
      </trkpt>
      <trkpt lat="31.203412515851046" lon="121.61523951628904">
        <ele>5.262299455702305</ele>
        <time>2019-11-07T23:51:40Z</time>
      </trkpt>
      <trkpt lat="31.203412793976927" lon="121.61523165580131">
        <ele>5.7904595406726</ele>
        <time>2019-11-07T23:51:44Z</time>
      </trkpt>
      <trkpt lat="31.20339194572195" lon="121.61519886038643">
        <ele>6.179362534545362</ele>
        <time>2019-11-07T23:51:47Z</time>
      </trkpt>
      <trkpt lat="31.203358076454712" lon="121.61517338438743">
        <ele>6.9865755485370755</ele>
        <time>2019-11-07T23:51:51Z</time>
      </trkpt>
      <trkpt lat="31.20337676649124" lon="121.61519398272473">
        <ele>6.227769220247865</ele>
        <time>2019-11-07T23:51:55Z</time>
      </trkpt>
      <trkpt lat="31.203374333975262" lon="121.6151853092931">
        <ele>9.038979601114988</ele>
        <time>2019-11-07T23:51:59Z</time>
      </trkpt>
      <trkpt lat="31.20340470230391" lon="121.61518395152615">
        <ele>6.989109294489026</ele>
        <time>2019-11-07T23:52:03Z</time>
      </trkpt>
      <trkpt lat="31.20337000832025" lon="121.61517121499087">
        <ele>3.0613568807020783</ele>
        <time>2019-11-07T23:52:06Z</time>
      </trkpt>
      <trkpt lat="31.203373537403106" lon="121.61516633577632">
        <ele>5.680362141691148</ele>
        <time>2019-11-07T23:52:10Z</time>
      </trkpt>
      <trkpt lat="31.203364340434575" lon="121.61514194190867">
        <ele>3.50534048397094</ele>
        <time>2019-11-07T23:52:14Z</time>
      </trkpt>
      <trkpt lat="31.20337303019949" lon="121.61512676229772">
        <ele>5.360766019672155</ele>
        <time>2019-11-07T23:52:17Z</time>
      </trkpt>
      <trkpt lat="31.20335866364148" lon="121.61512269770951">
        <ele>5.952889123931527</ele>
        <time>2019-11-07T23:52:21Z</time>
      </trkpt>
      <trkpt lat="31.20335568715377" lon="121.61511592166023">
        <ele>6.425588397309184</ele>
        <time>2019-11-07T23:52:25Z</time>
      </trkpt>
      <trkpt lat="31.203348904939286" lon="121.61512025905044">
        <ele>6.525616774335504</ele>
        <time>2019-11-07T23:52:28Z</time>
      </trkpt>
      <trkpt lat="31.20333669090276" lon="121.61513489685369">
        <ele>6.883625308051705</ele>
        <time>2019-11-07T23:52:32Z</time>
      </trkpt>
      <trkpt lat="31.203328535475073" lon="121.61515902111222">
        <ele>7.33096747752279</ele>
        <time>2019-11-07T23:52:35Z</time>
      </trkpt>
      <trkpt lat="31.203411689422467" lon="121.61525415307796">
        <ele>7.274384495802224</ele>
        <time>2019-11-07T23:52:39Z</time>
      </trkpt>
      <trkpt lat="31.203472091178657" lon="121.6153229947599">
        <ele>6.9414189560338855</ele>
        <time>2019-11-07T23:52:43Z</time>
      </trkpt>
      <trkpt lat="31.20349346871355" lon="121.61537015556287">
        <ele>6.963991713710129</ele>
        <time>2019-11-07T23:52:46Z</time>
      </trkpt>
      <trkpt lat="31.203409091587712" lon="121.61543060639119">
        <ele>6.541210746392608</ele>
        <time>2019-11-07T23:52:50Z</time>
      </trkpt>
      <trkpt lat="31.20335152916149" lon="121.61552168321401">
        <ele>5.922739143483341</ele>
        <time>2019-11-07T23:52:54Z</time>
      </trkpt>
      <trkpt lat="31.203279882341832" lon="121.61559622703038">
        <ele>6.344630351290107</ele>
        <time>2019-11-07T23:52:58Z</time>
      </trkpt>
      <trkpt lat="31.20321366464848" lon="121.61566345193522">
        <ele>5.475991126149893</ele>
        <time>2019-11-07T23:53:02Z</time>
      </trkpt>
      <trkpt lat="31.203149086390297" lon="121.61571658217628">
        <ele>5.881321863271296</ele>
        <time>2019-11-07T23:53:05Z</time>
      </trkpt>
      <trkpt lat="31.203088805759275" lon="121.61581416320558">
        <ele>5.2964628944173455</ele>
        <time>2019-11-07T23:53:09Z</time>
      </trkpt>
      <trkpt lat="31.20300876807282" lon="121.61587217317648">
        <ele>5.020506788045168</ele>
        <time>2019-11-07T23:53:13Z</time>
      </trkpt>
      <trkpt lat="31.20294961435355" lon="121.61592286312694">
        <ele>6.259191460907459</ele>
        <time>2019-11-07T23:53:16Z</time>
      </trkpt>
      <trkpt lat="31.20286142500572" lon="121.61599984645659">
        <ele>5.71612923592329</ele>
        <time>2019-11-07T23:53:20Z</time>
      </trkpt>
      <trkpt lat="31.20280497319114" lon="121.6160605644468">
        <ele>4.867841497994959</ele>
        <time>2019-11-07T23:53:23Z</time>
      </trkpt>
      <trkpt lat="31.202718408780868" lon="121.61613917344926">
        <ele>4.0988583620637655</ele>
        <time>2019-11-07T23:53:27Z</time>
      </trkpt>
      <trkpt lat="31.202659256089756" lon="121.61618823660483">
        <ele>6.975643116980791</ele>
        <time>2019-11-07T23:53:30Z</time>
      </trkpt>
      <trkpt lat="31.202584078992732" lon="121.61626684425413">
        <ele>6.195286964997649</ele>
        <time>2019-11-07T23:53:34Z</time>
      </trkpt>
      <trkpt lat="31.20251977275856" lon="121.61631780484848">
        <ele>5.41790282074362</ele>
        <time>2019-11-07T23:53:37Z</time>
      </trkpt>
      <trkpt lat="31.20243944904286" lon="121.61639072071765">
        <ele>4.950661493465304</ele>
        <time>2019-11-07T23:53:41Z</time>
      </trkpt>
      <trkpt lat="31.202384605992588" lon="121.6164698681077">
        <ele>5.6217353558167815</ele>
        <time>2019-11-07T23:53:44Z</time>
      </trkpt>
      <trkpt lat="31.20230780537076" lon="121.61654413841232">
        <ele>5.147345646284521</ele>
        <time>2019-11-07T23:53:48Z</time>
      </trkpt>
      <trkpt lat="31.202229365267904" lon="121.61663168934358">
        <ele>5.6811738992109895</ele>
        <time>2019-11-07T23:53:52Z</time>
      </trkpt>
      <trkpt lat="31.202143076040972" lon="121.61670433373861">
        <ele>6.744496918283403</ele>
        <time>2019-11-07T23:53:56Z</time>
      </trkpt>
      <trkpt lat="31.202089615444667" lon="121.61675420839232">
        <ele>4.9439222645014524</ele>
        <time>2019-11-07T23:53:59Z</time>
      </trkpt>
      <trkpt lat="31.201998722007644" lon="121.61682116111703">
        <ele>5.231746667996049</ele>
        <time>2019-11-07T23:54:03Z</time>
      </trkpt>
      <trkpt lat="31.20195121666033" lon="121.61688106323479">
        <ele>6.403910745866597</ele>
        <time>2019-11-07T23:54:06Z</time>
      </trkpt>
      <trkpt lat="31.201901812986062" lon="121.61694123639552">
        <ele>6.207682634703815</ele>
        <time>2019-11-07T23:54:09Z</time>
      </trkpt>
      <trkpt lat="31.201837728356214" lon="121.61704287831276">
        <ele>4.304603102616966</ele>
        <time>2019-11-07T23:54:13Z</time>
      </trkpt>
      <trkpt lat="31.20177777807648" lon="121.61707378072012">
        <ele>6.024266286753118</ele>
        <time>2019-11-07T23:54:16Z</time>
      </trkpt>
      <trkpt lat="31.201735977965726" lon="121.6171212143962">
        <ele>5.6354081416502595</ele>
        <time>2019-11-07T23:54:19Z</time>
      </trkpt>
      <trkpt lat="31.201664121827754" lon="121.61712691196006">
        <ele>5.94982398301363</ele>
        <time>2019-11-07T23:54:22Z</time>
      </trkpt>
      <trkpt lat="31.201596510485878" lon="121.61722990854753">
        <ele>6.246788212098181</ele>
        <time>2019-11-07T23:54:25Z</time>
      </trkpt>
      <trkpt lat="31.201504515476792" lon="121.61731339275447">
        <ele>5.0167816104367375</ele>
        <time>2019-11-07T23:54:29Z</time>
      </trkpt>
      <trkpt lat="31.20143505609927" lon="121.61736408058272">
        <ele>3.7423362471163273</ele>
        <time>2019-11-07T23:54:32Z</time>
      </trkpt>
      <trkpt lat="31.201335196226378" lon="121.61744919114477">
        <ele>4.689252169802785</ele>
        <time>2019-11-07T23:54:36Z</time>
      </trkpt>
      <trkpt lat="31.201252725049383" lon="121.61749689849246">
        <ele>5.216693791560829</ele>
        <time>2019-11-07T23:54:39Z</time>
      </trkpt>
      <trkpt lat="31.201165907736964" lon="121.61755273685488">
        <ele>6.449114766903222</ele>
        <time>2019-11-07T23:54:42Z</time>
      </trkpt>
      <trkpt lat="31.20110158365423" lon="121.61761968522272">
        <ele>6.6277666334062815</ele>
        <time>2019-11-07T23:54:46Z</time>
      </trkpt>
      <trkpt lat="31.201062992283784" lon="121.6177121074676">
        <ele>5.3294424917548895</ele>
        <time>2019-11-07T23:54:50Z</time>
      </trkpt>
      <trkpt lat="31.201017115606838" lon="121.6177682129837">
        <ele>5.68142669275403</ele>
        <time>2019-11-07T23:54:53Z</time>
      </trkpt>
      <trkpt lat="31.200978787158004" lon="121.61786849427898">
        <ele>5.070381350815296</ele>
        <time>2019-11-07T23:54:57Z</time>
      </trkpt>
      <trkpt lat="31.20092040724539" lon="121.6179557678516">
        <ele>4.61558754183352</ele>
        <time>2019-11-07T23:55:01Z</time>
      </trkpt>
      <trkpt lat="31.200865557718405" lon="121.61803707839769">
        <ele>7.156140824779868</ele>
        <time>2019-11-07T23:55:05Z</time>
      </trkpt>
      <trkpt lat="31.200815874578222" lon="121.61810321120028">
        <ele>5.94220710452646</ele>
        <time>2019-11-07T23:55:08Z</time>
      </trkpt>
      <trkpt lat="31.20076453751616" lon="121.61819644576683">
        <ele>5.465512349270284</ele>
        <time>2019-11-07T23:55:12Z</time>
      </trkpt>
      <trkpt lat="31.200719466270673" lon="121.61825959657928">
        <ele>4.9624199056997895</ele>
        <time>2019-11-07T23:55:15Z</time>
      </trkpt>
      <trkpt lat="31.200635349360315" lon="121.61832491859526">
        <ele>4.104205120354891</ele>
        <time>2019-11-07T23:55:18Z</time>
      </trkpt>
      <trkpt lat="31.200553136222215" lon="121.61838427793647">
        <ele>5.331599022261798</ele>
        <time>2019-11-07T23:55:22Z</time>
      </trkpt>
      <trkpt lat="31.200505624088194" lon="121.61844769949494">
        <ele>6.613841265439987</ele>
        <time>2019-11-07T23:55:25Z</time>
      </trkpt>
      <trkpt lat="31.20043477952594" lon="121.618525757602">
        <ele>5.3375723185017705</ele>
        <time>2019-11-07T23:55:29Z</time>
      </trkpt>
      <trkpt lat="31.200385883503273" lon="121.61861682229609">
        <ele>4.753206207416952</ele>
        <time>2019-11-07T23:55:33Z</time>
      </trkpt>
      <trkpt lat="31.20032208688383" lon="121.61869596334776">
        <ele>6.138143231160939</ele>
        <time>2019-11-07T23:55:37Z</time>
      </trkpt>
      <trkpt lat="31.20026370145032" lon="121.61878621517978">
        <ele>4.332801827229559</ele>
        <time>2019-11-07T23:55:41Z</time>
      </trkpt>
      <trkpt lat="31.200220248004513" lon="121.61885695268663">
        <ele>4.641798953525722</ele>
        <time>2019-11-07T23:55:44Z</time>
      </trkpt>
      <trkpt lat="31.200146689898272" lon="121.61893609379631">
        <ele>4.665322313085198</ele>
        <time>2019-11-07T23:55:48Z</time>
      </trkpt>
      <trkpt lat="31.20008559293386" lon="121.61902580298099">
        <ele>6.43896162789315</ele>
        <time>2019-11-07T23:55:52Z</time>
      </trkpt>
      <trkpt lat="31.20001365422005" lon="121.61911171863383">
        <ele>5.598051987588406</ele>
        <time>2019-11-07T23:55:56Z</time>
      </trkpt>
      <trkpt lat="31.19992953598267" lon="121.6191764964382">
        <ele>5.784734864719212</ele>
        <time>2019-11-07T23:56:00Z</time>
      </trkpt>
      <trkpt lat="31.199876588818153" lon="121.61925021471833">
        <ele>6.732779249548912</ele>
        <time>2019-11-07T23:56:03Z</time>
      </trkpt>
      <trkpt lat="31.19980356070687" lon="121.61934019479058">
        <ele>5.334739835001528</ele>
        <time>2019-11-07T23:56:07Z</time>
      </trkpt>
      <trkpt lat="31.199746533742722" lon="121.61942583714708">
        <ele>4.846374427899718</ele>
        <time>2019-11-07T23:56:11Z</time>
      </trkpt>
      <trkpt lat="31.199681933949485" lon="121.619493051577">
        <ele>7.2897945726290345</ele>
        <time>2019-11-07T23:56:15Z</time>
      </trkpt>
      <trkpt lat="31.1996054145531" lon="121.6195502396925">
        <ele>5.297516908496618</ele>
        <time>2019-11-07T23:56:19Z</time>
      </trkpt>
      <trkpt lat="31.19950505363169" lon="121.61958981446432">
        <ele>4.870179871097207</ele>
        <time>2019-11-07T23:56:23Z</time>
      </trkpt>
      <trkpt lat="31.199442054187685" lon="121.61968196053094">
        <ele>5.618264930322766</ele>
        <time>2019-11-07T23:56:27Z</time>
      </trkpt>
      <trkpt lat="31.199409182203013" lon="121.61974375163852">
        <ele>7.113971925340593</ele>
        <time>2019-11-07T23:56:30Z</time>
      </trkpt>
      <trkpt lat="31.199354620495864" lon="121.61980446038942">
        <ele>5.799332321621478</ele>
        <time>2019-11-07T23:56:33Z</time>
      </trkpt>
      <trkpt lat="31.19927618316029" lon="121.61988007597385">
        <ele>4.4539081091061234</ele>
        <time>2019-11-07T23:56:37Z</time>
      </trkpt>
      <trkpt lat="31.199189343053177" lon="121.61995325303951">
        <ele>6.770750232972205</ele>
        <time>2019-11-07T23:56:41Z</time>
      </trkpt>
      <trkpt lat="31.199152679787257" lon="121.62001016583676">
        <ele>5.096305291168392</ele>
        <time>2019-11-07T23:56:44Z</time>
      </trkpt>
      <trkpt lat="31.19907860823712" lon="121.62005922266133">
        <ele>2.4415873466059566</ele>
        <time>2019-11-07T23:56:48Z</time>
      </trkpt>
      <trkpt lat="31.199010523125875" lon="121.62008795407344">
        <ele>5.920289102010429</ele>
        <time>2019-11-07T23:56:51Z</time>
      </trkpt>
      <trkpt lat="31.198945441462413" lon="121.62009690238298">
        <ele>5.761436027474701</ele>
        <time>2019-11-07T23:56:55Z</time>
      </trkpt>
      <trkpt lat="31.19890527478108" lon="121.62013349036577">
        <ele>6.626398142427206</ele>
        <time>2019-11-07T23:56:58Z</time>
      </trkpt>
      <trkpt lat="31.198903331037975" lon="121.6201765790591">
        <ele>5.116246642544866</ele>
        <time>2019-11-07T23:57:02Z</time>
      </trkpt>
      <trkpt lat="31.198518983908297" lon="121.62031752883217">
        <ele>4.607300986535847</ele>
        <time>2019-11-07T23:57:06Z</time>
      </trkpt>
      <trkpt lat="31.198472305983053" lon="121.62035763997726">
        <ele>5.6260059997439384</ele>
        <time>2019-11-07T23:57:09Z</time>
      </trkpt>
      <trkpt lat="31.198430517994993" lon="121.62038880783494">
        <ele>5.7618929436430335</ele>
        <time>2019-11-07T23:57:12Z</time>
      </trkpt>
      <trkpt lat="31.198412577558223" lon="121.62043135543998">
        <ele>6.701329772360623</ele>
        <time>2019-11-07T23:57:15Z</time>
      </trkpt>
      <trkpt lat="31.198385331675787" lon="121.620554659753">
        <ele>6.366649694740772</ele>
        <time>2019-11-07T23:57:18Z</time>
      </trkpt>
      <trkpt lat="31.1984047560296" lon="121.62064489862334">
        <ele>7.5159126576036215</ele>
        <time>2019-11-07T23:57:21Z</time>
      </trkpt>
      <trkpt lat="31.198380842074727" lon="121.62069503406602">
        <ele>7.99621485453099</ele>
        <time>2019-11-07T23:57:24Z</time>
      </trkpt>
      <trkpt lat="31.198319795892516" lon="121.62073297789101">
        <ele>6.583150655962527</ele>
        <time>2019-11-07T23:57:28Z</time>
      </trkpt>
      <trkpt lat="31.19826250292366" lon="121.62081021496527">
        <ele>6.475609943270683</ele>
        <time>2019-11-07T23:57:31Z</time>
      </trkpt>
      <trkpt lat="31.198195210508807" lon="121.62085737279357">
        <ele>6.0089667942374945</ele>
        <time>2019-11-07T23:57:35Z</time>
      </trkpt>
      <trkpt lat="31.198135504462208" lon="121.6209094077157">
        <ele>5.777680494822562</ele>
        <time>2019-11-07T23:57:38Z</time>
      </trkpt>
      <trkpt lat="31.19808529096744" lon="121.62095873186222">
        <ele>6.051819214597344</ele>
        <time>2019-11-07T23:57:41Z</time>
      </trkpt>
      <trkpt lat="31.19801959612405" lon="121.62103244612389">
        <ele>6.093076228164136</ele>
        <time>2019-11-07T23:57:45Z</time>
      </trkpt>
      <trkpt lat="31.19795634338403" lon="121.62110426306643">
        <ele>7.260154913179576</ele>
        <time>2019-11-07T23:57:49Z</time>
      </trkpt>
      <trkpt lat="31.19788604337441" lon="121.62117391250439">
        <ele>6.650283435359597</ele>
        <time>2019-11-07T23:57:53Z</time>
      </trkpt>
      <trkpt lat="31.19782444421552" lon="121.62122106920927">
        <ele>6.894389807246625</ele>
        <time>2019-11-07T23:57:56Z</time>
      </trkpt>
      <trkpt lat="31.19774034088051" lon="121.62126822769213">
        <ele>5.183317885734141</ele>
        <time>2019-11-07T23:58:00Z</time>
      </trkpt>
      <trkpt lat="31.1976597224719" lon="121.62135142678808">
        <ele>5.619620128534734</ele>
        <time>2019-11-07T23:58:04Z</time>
      </trkpt>
      <trkpt lat="31.19757940253762" lon="121.62140969507456">
        <ele>5.839646877720952</ele>
        <time>2019-11-07T23:58:08Z</time>
      </trkpt>
      <trkpt lat="31.19753024246736" lon="121.62148638752419">
        <ele>5.861839443445206</ele>
        <time>2019-11-07T23:58:12Z</time>
      </trkpt>
      <trkpt lat="31.197479759017746" lon="121.62153381373479">
        <ele>5.85832211188972</ele>
        <time>2019-11-07T23:58:15Z</time>
      </trkpt>
      <trkpt lat="31.197411357480792" lon="121.62160210697367">
        <ele>4.080582388676703</ele>
        <time>2019-11-07T23:58:19Z</time>
      </trkpt>
      <trkpt lat="31.197340265278676" lon="121.62165170253583">
        <ele>4.9802908059209585</ele>
        <time>2019-11-07T23:58:22Z</time>
      </trkpt>
      <trkpt lat="31.197294654429307" lon="121.62170590257492">
        <ele>6.335252413526177</ele>
        <time>2019-11-07T23:58:25Z</time>
      </trkpt>
      <trkpt lat="31.197217854029898" lon="121.62176823449829">
        <ele>4.715509260073304</ele>
        <time>2019-11-07T23:58:29Z</time>
      </trkpt>
      <trkpt lat="31.197146764900975" lon="121.62181484897138">
        <ele>5.2096348740160465</ele>
        <time>2019-11-07T23:58:32Z</time>
      </trkpt>
      <trkpt lat="31.19706942019653" lon="121.6218788065607">
        <ele>5.081334944814444</ele>
        <time>2019-11-07T23:58:36Z</time>
      </trkpt>
      <trkpt lat="31.196971446072144" lon="121.62196336007251">
        <ele>4.077239173464477</ele>
        <time>2019-11-07T23:58:40Z</time>
      </trkpt>
      <trkpt lat="31.196918776969007" lon="121.62202487646388">
        <ele>4.3082957630977035</ele>
        <time>2019-11-07T23:58:43Z</time>
      </trkpt>
      <trkpt lat="31.196851196006726" lon="121.62208585199348">
        <ele>4.827428640797734</ele>
        <time>2019-11-07T23:58:47Z</time>
      </trkpt>
      <trkpt lat="31.196808304609235" lon="121.62213219260212">
        <ele>5.3580507300794125</ele>
        <time>2019-11-07T23:58:50Z</time>
      </trkpt>
      <trkpt lat="31.19675428685967" lon="121.62218720529003">
        <ele>4.905022882856429</ele>
        <time>2019-11-07T23:58:53Z</time>
      </trkpt>
      <trkpt lat="31.19667394971344" lon="121.62225929150114">
        <ele>5.13078563567251</ele>
        <time>2019-11-07T23:58:57Z</time>
      </trkpt>
      <trkpt lat="31.19666330141696" lon="121.62232459738271">
        <ele>4.756351012736559</ele>
        <time>2019-11-07T23:59:01Z</time>
      </trkpt>
      <trkpt lat="31.196652908696883" lon="121.62240345178687">
        <ele>6.127151034772396</ele>
        <time>2019-11-07T23:59:05Z</time>
      </trkpt>
      <trkpt lat="31.1966709476862" lon="121.62251482036972">
        <ele>5.055766931734979</ele>
        <time>2019-11-07T23:59:09Z</time>
      </trkpt>
      <trkpt lat="31.196678714221328" lon="121.62259909215484">
        <ele>4.248156007379293</ele>
        <time>2019-11-07T23:59:12Z</time>
      </trkpt>
      <trkpt lat="31.19670493470208" lon="121.62266845873116">
        <ele>6.360171350650489</ele>
        <time>2019-11-07T23:59:15Z</time>
      </trkpt>
      <trkpt lat="31.1967183777957" lon="121.62276736196878">
        <ele>5.429595487192273</ele>
        <time>2019-11-07T23:59:19Z</time>
      </trkpt>
      <trkpt lat="31.19673049270626" lon="121.62284214867321">
        <ele>5.969007200561464</ele>
        <time>2019-11-07T23:59:22Z</time>
      </trkpt>
      <trkpt lat="31.19674151538957" lon="121.62292343851297">
        <ele>5.106990966014564</ele>
        <time>2019-11-07T23:59:25Z</time>
      </trkpt>
      <trkpt lat="31.1967641658468" lon="121.62303128199379">
        <ele>4.48435739800334</ele>
        <time>2019-11-07T23:59:29Z</time>
      </trkpt>
      <trkpt lat="31.19677574131088" lon="121.62310308737953">
        <ele>4.420976803638041</ele>
        <time>2019-11-07T23:59:33Z</time>
      </trkpt>
      <trkpt lat="31.19679219575194" lon="121.6231759760372">
        <ele>4.566327231004834</ele>
        <time>2019-11-07T23:59:37Z</time>
      </trkpt>
      <trkpt lat="31.19678835131032" lon="121.62321770512655">
        <ele>4.972677513957024</ele>
        <time>2019-11-07T23:59:40Z</time>
      </trkpt>
      <trkpt lat="31.196791266191013" lon="121.62327569151333">
        <ele>5.3939781580120325</ele>
        <time>2019-11-07T23:59:44Z</time>
      </trkpt>
      <trkpt lat="31.196805783950126" lon="121.62338136656041">
        <ele>6.191014667972922</ele>
        <time>2019-11-07T23:59:48Z</time>
      </trkpt>
      <trkpt lat="31.196838482876434" lon="121.62347376249599">
        <ele>4.358971603214741</ele>
        <time>2019-11-07T23:59:52Z</time>
      </trkpt>
      <trkpt lat="31.196849504539927" lon="121.62355450852932">
        <ele>4.236934259533882</ele>
        <time>2019-11-07T23:59:55Z</time>
      </trkpt>
      <trkpt lat="31.19688004569819" lon="121.6236368784797">
        <ele>5.003271880559623</ele>
        <time>2019-11-07T23:59:58Z</time>
      </trkpt>
      <trkpt lat="31.196904847697958" lon="121.6237574541166">
        <ele>4.877145036123693</ele>
        <time>2019-11-08T00:00:02Z</time>
      </trkpt>
      <trkpt lat="31.19692747116661" lon="121.6238856162665">
        <ele>5.848423965275288</ele>
        <time>2019-11-08T00:00:06Z</time>
      </trkpt>
      <trkpt lat="31.196965343656835" lon="121.623958230115">
        <ele>4.185994490981102</ele>
        <time>2019-11-08T00:00:10Z</time>
      </trkpt>
      <trkpt lat="31.196959706810922" lon="121.62391027087874">
        <ele>5.11526892054826</ele>
        <time>2019-11-08T00:00:13Z</time>
      </trkpt>
      <trkpt lat="31.19696519632581" lon="121.6238539108931">
        <ele>5.861886407248676</ele>
        <time>2019-11-08T00:00:17Z</time>
      </trkpt>
      <trkpt lat="31.196975084433912" lon="121.62374633891932">
        <ele>5.642580321058631</ele>
        <time>2019-11-08T00:00:21Z</time>
      </trkpt>
      <trkpt lat="31.196987381076898" lon="121.62366532055779">
        <ele>6.480587688274682</ele>
        <time>2019-11-08T00:00:24Z</time>
      </trkpt>
      <trkpt lat="31.196981765473037" lon="121.62359893539613">
        <ele>5.929849853739142</ele>
        <time>2019-11-08T00:00:27Z</time>
      </trkpt>
      <trkpt lat="31.196962634409502" lon="121.62349732601639">
        <ele>5.414607969112694</ele>
        <time>2019-11-08T00:00:31Z</time>
      </trkpt>
      <trkpt lat="31.196950801734307" lon="121.623414412171">
        <ele>6.824708104133606</ele>
        <time>2019-11-08T00:00:34Z</time>
      </trkpt>
      <trkpt lat="31.19693655173931" lon="121.62331171784376">
        <ele>5.061860231682658</ele>
        <time>2019-11-08T00:00:38Z</time>
      </trkpt>
      <trkpt lat="31.196903043029966" lon="121.62321579887224">
        <ele>5.906964695081115</ele>
        <time>2019-11-08T00:00:42Z</time>
      </trkpt>
      <trkpt lat="31.196893106593894" lon="121.6231336969163">
        <ele>5.6685009859502316</ele>
        <time>2019-11-08T00:00:45Z</time>
      </trkpt>
      <trkpt lat="31.19688342913507" lon="121.62306189145428">
        <ele>4.61207618098706</ele>
        <time>2019-11-08T00:00:48Z</time>
      </trkpt>
      <trkpt lat="31.19683957362126" lon="121.62300309509763">
        <ele>5.9892315194010735</ele>
        <time>2019-11-08T00:00:51Z</time>
      </trkpt>
      <trkpt lat="31.19680441055409" lon="121.62293020752554">
        <ele>6.271589511074126</ele>
        <time>2019-11-08T00:00:55Z</time>
      </trkpt>
      <trkpt lat="31.196810999387843" lon="121.62285948405737">
        <ele>4.962021077983081</ele>
        <time>2019-11-08T00:00:59Z</time>
      </trkpt>
      <trkpt lat="31.19685171283252" lon="121.622821815914">
        <ele>5.425821149721742</ele>
        <time>2019-11-08T00:01:02Z</time>
      </trkpt>
      <trkpt lat="31.19690872385671" lon="121.62275840419208">
        <ele>5.154233291745186</ele>
        <time>2019-11-08T00:01:06Z</time>
      </trkpt>
      <trkpt lat="31.196975503026156" lon="121.62268848820729">
        <ele>5.146665681153536</ele>
        <time>2019-11-08T00:01:10Z</time>
      </trkpt>
      <trkpt lat="31.197021399784703" lon="121.62262290931895">
        <ele>6.035802453756332</ele>
        <time>2019-11-08T00:01:13Z</time>
      </trkpt>
      <trkpt lat="31.197085479702455" lon="121.6225421543061">
        <ele>4.855709970928729</ele>
        <time>2019-11-08T00:01:17Z</time>
      </trkpt>
      <trkpt lat="31.19714735139793" lon="121.62249554186059">
        <ele>4.96243648044765</ele>
        <time>2019-11-08T00:01:20Z</time>
      </trkpt>
      <trkpt lat="31.197238490945914" lon="121.62246166266465">
        <ele>4.269027626141906</ele>
        <time>2019-11-08T00:01:24Z</time>
      </trkpt>
      <trkpt lat="31.197292229749642" lon="121.62241396685768">
        <ele>3.6857235999777913</ele>
        <time>2019-11-08T00:01:27Z</time>
      </trkpt>
      <trkpt lat="31.197351122794284" lon="121.62236383177039">
        <ele>4.637868649326265</ele>
        <time>2019-11-08T00:01:30Z</time>
      </trkpt>
      <trkpt lat="31.197415695414815" lon="121.62232616096132">
        <ele>5.205002211034298</ele>
        <time>2019-11-08T00:01:33Z</time>
      </trkpt>
      <trkpt lat="31.1974756820733" lon="121.62226789636078">
        <ele>5.310672620311379</ele>
        <time>2019-11-08T00:01:36Z</time>
      </trkpt>
      <trkpt lat="31.197551416455948" lon="121.6221901200563">
        <ele>6.160691224038601</ele>
        <time>2019-11-08T00:01:40Z</time>
      </trkpt>
      <trkpt lat="31.197618732345255" lon="121.62212399622791">
        <ele>5.98687481507659</ele>
        <time>2019-11-08T00:01:43Z</time>
      </trkpt>
      <trkpt lat="31.197685486586007" lon="121.62207494385784">
        <ele>6.422299586236477</ele>
        <time>2019-11-08T00:01:46Z</time>
      </trkpt>
      <trkpt lat="31.197757698186937" lon="121.62199499946017">
        <ele>5.554779572412372</ele>
        <time>2019-11-08T00:01:50Z</time>
      </trkpt>
      <trkpt lat="31.197844270246563" lon="121.62192345398002">
        <ele>6.639863452874124</ele>
        <time>2019-11-08T00:01:54Z</time>
      </trkpt>
      <trkpt lat="31.197927829309737" lon="121.62187900649948">
        <ele>5.722173623740673</ele>
        <time>2019-11-08T00:01:58Z</time>
      </trkpt>
      <trkpt lat="31.19798264994536" lon="121.62183293544486">
        <ele>5.605596523731947</ele>
        <time>2019-11-08T00:02:01Z</time>
      </trkpt>
      <trkpt lat="31.198038547475182" lon="121.6217936387261">
        <ele>11.42426275741309</ele>
        <time>2019-11-08T00:02:05Z</time>
      </trkpt>
      <trkpt lat="31.198073558266284" lon="121.62176274407368">
        <ele>9.883177812211215</ele>
        <time>2019-11-08T00:02:08Z</time>
      </trkpt>
      <trkpt lat="31.198125389910174" lon="121.6217223636644">
        <ele>7.9890162255615</ele>
        <time>2019-11-08T00:02:12Z</time>
      </trkpt>
      <trkpt lat="31.198217914227087" lon="121.62166165622195">
        <ele>7.393585431389511</ele>
        <time>2019-11-08T00:02:16Z</time>
      </trkpt>
      <trkpt lat="31.198288746510567" lon="121.62160203436446">
        <ele>6.465987173840404</ele>
        <time>2019-11-08T00:02:20Z</time>
      </trkpt>
      <trkpt lat="31.198355761448312" lon="121.62156165245456">
        <ele>6.6863380856812</ele>
        <time>2019-11-08T00:02:23Z</time>
      </trkpt>
      <trkpt lat="31.19841142235341" lon="121.62149092131762">
        <ele>5.3819512808695436</ele>
        <time>2019-11-08T00:02:27Z</time>
      </trkpt>
      <trkpt lat="31.198448918618023" lon="121.62141883657526">
        <ele>7.459648914635181</ele>
        <time>2019-11-08T00:02:30Z</time>
      </trkpt>
      <trkpt lat="31.198482879803652" lon="121.62135596540776">
        <ele>7.295140407048166</ele>
        <time>2019-11-08T00:02:33Z</time>
      </trkpt>
      <trkpt lat="31.198536377125905" lon="121.6212798141927">
        <ele>7.0522545129060745</ele>
        <time>2019-11-08T00:02:37Z</time>
      </trkpt>
      <trkpt lat="31.198573310668284" lon="121.62122588498639">
        <ele>6.508330728858709</ele>
        <time>2019-11-08T00:02:40Z</time>
      </trkpt>
      <trkpt lat="31.198622440088393" lon="121.62117656143081">
        <ele>4.560376347973943</ele>
        <time>2019-11-08T00:02:44Z</time>
      </trkpt>
      <trkpt lat="31.198668608330212" lon="121.62110772695897">
        <ele>5.231300880201161</ele>
        <time>2019-11-08T00:02:48Z</time>
      </trkpt>
      <trkpt lat="31.198720443268446" lon="121.62106355172368">
        <ele>6.560629454441369</ele>
        <time>2019-11-08T00:02:51Z</time>
      </trkpt>
      <trkpt lat="31.19877661273587" lon="121.62102262791228">
        <ele>7.699600496329367</ele>
        <time>2019-11-08T00:02:54Z</time>
      </trkpt>
      <trkpt lat="31.19885121896856" lon="121.62098197350002">
        <ele>6.480387101881206</ele>
        <time>2019-11-08T00:02:58Z</time>
      </trkpt>
      <trkpt lat="31.198928544462497" lon="121.62093400209893">
        <ele>6.45802135951817</ele>
        <time>2019-11-08T00:03:02Z</time>
      </trkpt>
      <trkpt lat="31.198978498900082" lon="121.62087356735722">
        <ele>6.066776121035218</ele>
        <time>2019-11-08T00:03:05Z</time>
      </trkpt>
      <trkpt lat="31.199037119800582" lon="121.6208220744345">
        <ele>5.956772272475064</ele>
        <time>2019-11-08T00:03:08Z</time>
      </trkpt>
      <trkpt lat="31.199121743336892" lon="121.62079469741568">
        <ele>4.947496943175793</ele>
        <time>2019-11-08T00:03:12Z</time>
      </trkpt>
      <trkpt lat="31.19917816919974" lon="121.62076705171094">
        <ele>5.721001231111586</ele>
        <time>2019-11-08T00:03:15Z</time>
      </trkpt>
      <trkpt lat="31.19923678757954" lon="121.62071772650877">
        <ele>6.328564148396254</ele>
        <time>2019-11-08T00:03:18Z</time>
      </trkpt>
      <trkpt lat="31.199294572562437" lon="121.6206868287123">
        <ele>4.831769256852567</ele>
        <time>2019-11-08T00:03:22Z</time>
      </trkpt>
      <trkpt lat="31.1993575026253" lon="121.62066189227333">
        <ele>6.53864914458245</ele>
        <time>2019-11-08T00:03:26Z</time>
      </trkpt>
      <trkpt lat="31.199439356442046" lon="121.62068844268053">
        <ele>6.658479646779597</ele>
        <time>2019-11-08T00:03:29Z</time>
      </trkpt>
      <trkpt lat="31.199526101210015" lon="121.62070523697005">
        <ele>6.617605239152908</ele>
        <time>2019-11-08T00:03:33Z</time>
      </trkpt>
      <trkpt lat="31.199624794058366" lon="121.62070522880317">
        <ele>6.316899465397</ele>
        <time>2019-11-08T00:03:37Z</time>
      </trkpt>
      <trkpt lat="31.19969988973509" lon="121.62071308133622">
        <ele>7.160390064120293</ele>
        <time>2019-11-08T00:03:40Z</time>
      </trkpt>
      <trkpt lat="31.199762267317006" lon="121.62069762966895">
        <ele>4.634087419137359</ele>
        <time>2019-11-08T00:03:43Z</time>
      </trkpt>
      <trkpt lat="31.199854682750903" lon="121.6207358317815">
        <ele>5.79841882456094</ele>
        <time>2019-11-08T00:03:47Z</time>
      </trkpt>
      <trkpt lat="31.199922454873327" lon="121.62074639482039">
        <ele>6.171943957917392</ele>
        <time>2019-11-08T00:03:50Z</time>
      </trkpt>
      <trkpt lat="31.199986429060445" lon="121.62075885510473">
        <ele>6.153144887648523</ele>
        <time>2019-11-08T00:03:53Z</time>
      </trkpt>
      <trkpt lat="31.200085641011373" lon="121.62078025515665">
        <ele>5.04331667535007</ele>
        <time>2019-11-08T00:03:57Z</time>
      </trkpt>
      <trkpt lat="31.200184587994215" lon="121.62079596441546">
        <ele>4.872690690681338</ele>
        <time>2019-11-08T00:04:01Z</time>
      </trkpt>
      <trkpt lat="31.20027946619683" lon="121.62081329994274">
        <ele>5.163444397971034</ele>
        <time>2019-11-08T00:04:05Z</time>
      </trkpt>
      <trkpt lat="31.200379225698317" lon="121.62082982208445">
        <ele>6.719920017756522</ele>
        <time>2019-11-08T00:04:09Z</time>
      </trkpt>
      <trkpt lat="31.200483865323594" lon="121.62084661480164">
        <ele>4.978814523667097</ele>
        <time>2019-11-08T00:04:13Z</time>
      </trkpt>
      <trkpt lat="31.200568713019265" lon="121.62086259617682">
        <ele>5.878185207955539</ele>
        <time>2019-11-08T00:04:16Z</time>
      </trkpt>
      <trkpt lat="31.200680397127396" lon="121.6208839951113">
        <ele>5.224606651812792</ele>
        <time>2019-11-08T00:04:20Z</time>
      </trkpt>
      <trkpt lat="31.200751965125594" lon="121.62089455777586">
        <ele>5.339676436036825</ele>
        <time>2019-11-08T00:04:23Z</time>
      </trkpt>
      <trkpt lat="31.200827323697467" lon="121.62090999792848">
        <ele>5.195261576212943</ele>
        <time>2019-11-08T00:04:26Z</time>
      </trkpt>
      <trkpt lat="31.200905378260686" lon="121.62093952927525">
        <ele>3.8660998307168484</ele>
        <time>2019-11-08T00:04:29Z</time>
      </trkpt>
      <trkpt lat="31.201000795455172" lon="121.62095984553808">
        <ele>4.26539502479136</ele>
        <time>2019-11-08T00:04:33Z</time>
      </trkpt>
      <trkpt lat="31.201089170830926" lon="121.62097311666658">
        <ele>6.0195474633947015</ele>
        <time>2019-11-08T00:04:36Z</time>
      </trkpt>
      <trkpt lat="31.201166714424055" lon="121.62097392321483">
        <ele>5.579751566052437</ele>
        <time>2019-11-08T00:04:39Z</time>
      </trkpt>
      <trkpt lat="31.20123882350546" lon="121.62098556975182">
        <ele>5.338261891156435</ele>
        <time>2019-11-08T00:04:42Z</time>
      </trkpt>
      <trkpt lat="31.201343181922606" lon="121.62101157599058">
        <ele>5.546095605939627</ele>
        <time>2019-11-08T00:04:46Z</time>
      </trkpt>
      <trkpt lat="31.20141908866042" lon="121.62102159626824">
        <ele>5.342664156109095</ele>
        <time>2019-11-08T00:04:49Z</time>
      </trkpt>
      <trkpt lat="31.20148822354755" lon="121.62102565536705">
        <ele>4.822849252261221</ele>
        <time>2019-11-08T00:04:52Z</time>
      </trkpt>
      <trkpt lat="31.20154380081784" lon="121.6210305285511">
        <ele>5.197416867129505</ele>
        <time>2019-11-08T00:04:56Z</time>
      </trkpt>
      <trkpt lat="31.201605335648104" lon="121.62104217593792">
        <ele>5.1052701491862535</ele>
        <time>2019-11-08T00:05:00Z</time>
      </trkpt>
      <trkpt lat="31.20167067525018" lon="121.62104569337197">
        <ele>4.692870404571295</ele>
        <time>2019-11-08T00:05:04Z</time>
      </trkpt>
      <trkpt lat="31.20173085322222" lon="121.62105842481498">
        <ele>4.613347187638283</ele>
        <time>2019-11-08T00:05:08Z</time>
      </trkpt>
      <trkpt lat="31.20177611670851" lon="121.6210730543988">
        <ele>4.905278103426099</ele>
        <time>2019-11-08T00:05:11Z</time>
      </trkpt>
      <trkpt lat="31.201850950181722" lon="121.62107277721798">
        <ele>5.386973691172898</ele>
        <time>2019-11-08T00:05:15Z</time>
      </trkpt>
      <trkpt lat="31.201928468907877" lon="121.62109634670581">
        <ele>4.709271132014692</ele>
        <time>2019-11-08T00:05:19Z</time>
      </trkpt>
      <trkpt lat="31.202014397547508" lon="121.62111557968359">
        <ele>4.141356446780264</ele>
        <time>2019-11-08T00:05:23Z</time>
      </trkpt>
      <trkpt lat="31.202093009997554" lon="121.62113074844929">
        <ele>3.7705278415232897</ele>
        <time>2019-11-08T00:05:26Z</time>
      </trkpt>
      <trkpt lat="31.202152915036823" lon="121.62114510579416">
        <ele>4.82684216555208</ele>
        <time>2019-11-08T00:05:29Z</time>
      </trkpt>
      <trkpt lat="31.202213923333776" lon="121.62114239087705">
        <ele>4.297935284674168</ele>
        <time>2019-11-08T00:05:32Z</time>
      </trkpt>
      <trkpt lat="31.202260290354353" lon="121.62113967717143">
        <ele>3.8100720066577196</ele>
        <time>2019-11-08T00:05:35Z</time>
      </trkpt>
      <trkpt lat="31.202319637967086" lon="121.62116785487449">
        <ele>5.8951011234894395</ele>
        <time>2019-11-08T00:05:39Z</time>
      </trkpt>
      <trkpt lat="31.202364915697455" lon="121.6211694770463">
        <ele>4.578402075916529</ele>
        <time>2019-11-08T00:05:42Z</time>
      </trkpt>
      <trkpt lat="31.202418864985944" lon="121.62117543428396">
        <ele>5.32078053150326</ele>
        <time>2019-11-08T00:05:46Z</time>
      </trkpt>
      <trkpt lat="31.20244624335847" lon="121.62118112273302">
        <ele>5.441401490010321</ele>
        <time>2019-11-08T00:05:49Z</time>
      </trkpt>
      <trkpt lat="31.202476342895405" lon="121.62117786840484">
        <ele>4.192970797419548</ele>
        <time>2019-11-08T00:05:52Z</time>
      </trkpt>
      <trkpt lat="31.202474165487732" lon="121.62118545620407">
        <ele>4.128234026022255</ele>
        <time>2019-11-08T00:05:56Z</time>
      </trkpt>
      <trkpt lat="31.202469826437703" lon="121.62118626952225">
        <ele>4.949338053353131</ele>
        <time>2019-11-08T00:06:00Z</time>
      </trkpt>
      <trkpt lat="31.20246958295996" lon="121.62116106780013">
        <ele>3.9852817971259356</ele>
        <time>2019-11-08T00:06:04Z</time>
      </trkpt>
      <trkpt lat="31.202459015240464" lon="121.62115510696877">
        <ele>4.772787472233176</ele>
        <time>2019-11-08T00:06:08Z</time>
      </trkpt>
      <trkpt lat="31.202463357558802" lon="121.62115131279576">
        <ele>4.8820489859208465</ele>
        <time>2019-11-08T00:06:12Z</time>
      </trkpt>
      <trkpt lat="31.20244355996006" lon="121.62115565022124">
        <ele>5.1027129059657454</ele>
        <time>2019-11-08T00:06:16Z</time>
      </trkpt>
      <trkpt lat="31.202431607133576" lon="121.62117651717517">
        <ele>5.096071773208678</ele>
        <time>2019-11-08T00:06:17Z</time>
      </trkpt>
      <trkpt lat="31.2024557538938" lon="121.62116215289109">
        <ele>5.063406960107386</ele>
        <time>2019-11-08T00:06:21Z</time>
      </trkpt>
      <trkpt lat="31.202451702029457" lon="121.6211483329065">
        <ele>4.952643760479987</ele>
        <time>2019-11-08T00:06:24Z</time>
      </trkpt>
      <trkpt lat="31.202460110181036" lon="121.6211456223431">
        <ele>4.964838858693838</ele>
        <time>2019-11-08T00:06:27Z</time>
      </trkpt>
      <trkpt lat="31.202455783312868" lon="121.62113532520213">
        <ele>4.756233091466129</ele>
        <time>2019-11-08T00:06:30Z</time>
      </trkpt>
      <trkpt lat="31.202436230104258" lon="121.62116405141306">
        <ele>4.7576871160417795</ele>
        <time>2019-11-08T00:06:51Z</time>
      </trkpt>
      <trkpt lat="31.20245847832034" lon="121.62115022925273">
        <ele>4.7110657608136535</ele>
        <time>2019-11-08T00:06:55Z</time>
      </trkpt>
      <trkpt lat="31.2024516862766" lon="121.62116269520092">
        <ele>4.579721114598215</ele>
        <time>2019-11-08T00:06:59Z</time>
      </trkpt>
      <trkpt lat="31.202459290536147" lon="121.62115131313236">
        <ele>4.87480959109962</ele>
        <time>2019-11-08T00:07:03Z</time>
      </trkpt>
      <trkpt lat="31.202461462289463" lon="121.62114887407216">
        <ele>4.598791664466262</ele>
        <time>2019-11-08T00:07:06Z</time>
      </trkpt>
      <trkpt lat="31.202456843486644" lon="121.6211575460284">
        <ele>4.992110847495496</ele>
        <time>2019-11-08T00:07:09Z</time>
      </trkpt>
      <trkpt lat="31.202466330828155" lon="121.62115971313624">
        <ele>5.263731906190515</ele>
        <time>2019-11-08T00:07:12Z</time>
      </trkpt>
      <trkpt lat="31.202463087909855" lon="121.62114995788453">
        <ele>4.704977958463132</ele>
        <time>2019-11-08T00:07:15Z</time>
      </trkpt>
      <trkpt lat="31.20247045280223" lon="121.62110958022272">
        <ele>5.2850846676155925</ele>
        <time>2019-11-08T00:07:18Z</time>
      </trkpt>
      <trkpt lat="31.20245126746647" lon="121.62104996457313">
        <ele>5.396791322156787</ele>
        <time>2019-11-08T00:07:22Z</time>
      </trkpt>
      <trkpt lat="31.202428066998873" lon="121.620942655125">
        <ele>5.134314367547631</ele>
        <time>2019-11-08T00:07:26Z</time>
      </trkpt>
      <trkpt lat="31.202405408414972" lon="121.62083534519309">
        <ele>4.443014757707715</ele>
        <time>2019-11-08T00:07:30Z</time>
      </trkpt>
      <trkpt lat="31.202412270565215" lon="121.6207581123707">
        <ele>4.824770207516849</ele>
        <time>2019-11-08T00:07:33Z</time>
      </trkpt>
      <trkpt lat="31.20240754160452" lon="121.62061801016026">
        <ele>4.9592732805758715</ele>
        <time>2019-11-08T00:07:37Z</time>
      </trkpt>
      <trkpt lat="31.20240627672565" lon="121.62053373154846">
        <ele>4.605602281168103</ele>
        <time>2019-11-08T00:07:40Z</time>
      </trkpt>
      <trkpt lat="31.20236953130699" lon="121.62041368437136">
        <ele>3.28500500228256</ele>
        <time>2019-11-08T00:07:44Z</time>
      </trkpt>
      <trkpt lat="31.202373163070398" lon="121.62031368696509">
        <ele>4.732156231068075</ele>
        <time>2019-11-08T00:07:48Z</time>
      </trkpt>
      <trkpt lat="31.202418201550984" lon="121.62028549970233">
        <ele>4.104534012265503</ele>
        <time>2019-11-08T00:07:51Z</time>
      </trkpt>
      <trkpt lat="31.20242443099799" lon="121.62029173208677">
        <ele>4.614407277666032</ele>
        <time>2019-11-08T00:07:55Z</time>
      </trkpt>
      <trkpt lat="31.202441474567678" lon="121.62032723107788">
        <ele>4.617306365631521</ele>
        <time>2019-11-08T00:07:59Z</time>
      </trkpt>
      <trkpt lat="31.20243657385777" lon="121.62034620114376">
        <ele>4.616361991502345</ele>
        <time>2019-11-08T00:08:02Z</time>
      </trkpt>
      <trkpt lat="31.20242786245395" lon="121.62037899224484">
        <ele>4.812141966074705</ele>
        <time>2019-11-08T00:08:06Z</time>
      </trkpt>
      <trkpt lat="31.202414831439725" lon="121.6203944400169">
        <ele>4.5525068854913116</ele>
        <time>2019-11-08T00:08:10Z</time>
      </trkpt>
      <trkpt lat="31.20239586738312" lon="121.62038007887139">
        <ele>4.5469267927110195</ele>
        <time>2019-11-08T00:08:13Z</time>
      </trkpt>
      <trkpt lat="31.202409669135687" lon="121.62040446724036">
        <ele>4.515091503039002</ele>
        <time>2019-11-08T00:08:17Z</time>
      </trkpt>
      <trkpt lat="31.202424871265357" lon="121.6203871223323">
        <ele>4.603486366569996</ele>
        <time>2019-11-08T00:08:20Z</time>
      </trkpt>
      <trkpt lat="31.20243870726715" lon="121.62037953333679">
        <ele>5.027905139140785</ele>
        <time>2019-11-08T00:08:23Z</time>
      </trkpt>
      <trkpt lat="31.202442780962468" lon="121.6203733001208">
        <ele>5.255328482948244</ele>
        <time>2019-11-08T00:08:27Z</time>
      </trkpt>
      <trkpt lat="31.202488332196534" lon="121.62037275436167">
        <ele>5.636268004775047</ele>
        <time>2019-11-08T00:08:38Z</time>
      </trkpt>
      <trkpt lat="31.20257971653574" lon="121.62036163601114">
        <ele>4.067753018811345</ele>
        <time>2019-11-08T00:08:42Z</time>
      </trkpt>
      <trkpt lat="31.202647787045557" lon="121.62034699664994">
        <ele>3.903336100280285</ele>
        <time>2019-11-08T00:08:45Z</time>
      </trkpt>
      <trkpt lat="31.202741064115642" lon="121.62034075604411">
        <ele>4.387868694961071</ele>
        <time>2019-11-08T00:08:49Z</time>
      </trkpt>
      <trkpt lat="31.20281674927722" lon="121.62030470740693">
        <ele>5.0072062108665705</ele>
        <time>2019-11-08T00:08:53Z</time>
      </trkpt>
      <trkpt lat="31.202897622662743" lon="121.62023424179388">
        <ele>4.955741876736283</ele>
        <time>2019-11-08T00:08:57Z</time>
      </trkpt>
      <trkpt lat="31.202870323125303" lon="121.62015430004617">
        <ele>3.461103874258697</ele>
        <time>2019-11-08T00:09:00Z</time>
      </trkpt>
      <trkpt lat="31.202816469384427" lon="121.62005810037063">
        <ele>4.763781100511551</ele>
        <time>2019-11-08T00:09:04Z</time>
      </trkpt>
      <trkpt lat="31.202771027670007" lon="121.61995512466335">
        <ele>4.650226082652807</ele>
        <time>2019-11-08T00:09:08Z</time>
      </trkpt>
      <trkpt lat="31.20274779811079" lon="121.61987165871565">
        <ele>4.452403294853866</ele>
        <time>2019-11-08T00:09:11Z</time>
      </trkpt>
      <trkpt lat="31.202724597055642" lon="121.61976082139044">
        <ele>3.684108342975378</ele>
        <time>2019-11-08T00:09:15Z</time>
      </trkpt>
      <trkpt lat="31.202718745663564" lon="121.6196524211732">
        <ele>4.8108354937285185</ele>
        <time>2019-11-08T00:09:19Z</time>
      </trkpt>
      <trkpt lat="31.20269634955607" lon="121.61954889992955">
        <ele>5.140204396098852</ele>
        <time>2019-11-08T00:09:23Z</time>
      </trkpt>
      <trkpt lat="31.2026679686834" lon="121.61946407806776">
        <ele>5.252392364665866</ele>
        <time>2019-11-08T00:09:26Z</time>
      </trkpt>
      <trkpt lat="31.202633098018413" lon="121.61936218312788">
        <ele>5.337369177490473</ele>
        <time>2019-11-08T00:09:30Z</time>
      </trkpt>
      <trkpt lat="31.20261179940494" lon="121.6192451102918">
        <ele>5.850208833813667</ele>
        <time>2019-11-08T00:09:34Z</time>
      </trkpt>
      <trkpt lat="31.202586687992373" lon="121.61914402669406">
        <ele>5.554761522449553</ele>
        <time>2019-11-08T00:09:38Z</time>
      </trkpt>
      <trkpt lat="31.202562921901166" lon="121.61905269889844">
        <ele>4.31011500582099</ele>
        <time>2019-11-08T00:09:42Z</time>
      </trkpt>
      <trkpt lat="31.202529111065246" lon="121.61897356703767">
        <ele>4.93056555557996</ele>
        <time>2019-11-08T00:09:45Z</time>
      </trkpt>
      <trkpt lat="31.20252295383407" lon="121.61889632971496">
        <ele>3.842787504196167</ele>
        <time>2019-11-08T00:09:48Z</time>
      </trkpt>
      <trkpt lat="31.20248809163948" lon="121.61878413406659">
        <ele>4.7719922959804535</ele>
        <time>2019-11-08T00:09:52Z</time>
      </trkpt>
      <trkpt lat="31.202472437590362" lon="121.61871340124887">
        <ele>5.604764415882528</ele>
        <time>2019-11-08T00:09:55Z</time>
      </trkpt>
      <trkpt lat="31.20255951579132" lon="121.6186700320384">
        <ele>6.505407877266407</ele>
        <time>2019-11-08T00:09:59Z</time>
      </trkpt>
      <trkpt lat="31.202637354802054" lon="121.61864698950241">
        <ele>5.373224075883627</ele>
        <time>2019-11-08T00:10:03Z</time>
      </trkpt>
      <trkpt lat="31.202695693983507" lon="121.6186022674885">
        <ele>4.244552214629948</ele>
        <time>2019-11-08T00:10:06Z</time>
      </trkpt>
      <trkpt lat="31.20275888264016" lon="121.61858816955487">
        <ele>4.64596704673022</ele>
        <time>2019-11-08T00:10:10Z</time>
      </trkpt>
      <trkpt lat="31.202789581806854" lon="121.61852773089959">
        <ele>6.618754760362208</ele>
        <time>2019-11-08T00:10:13Z</time>
      </trkpt>
      <trkpt lat="31.202785908737667" lon="121.61840550346054">
        <ele>5.19494323246181</ele>
        <time>2019-11-08T00:10:17Z</time>
      </trkpt>
      <trkpt lat="31.20280849407438" lon="121.6183244677948">
        <ele>4.447823976166546</ele>
        <time>2019-11-08T00:10:21Z</time>
      </trkpt>
      <trkpt lat="31.202789603374047" lon="121.61823557579511">
        <ele>5.170372666791081</ele>
        <time>2019-11-08T00:10:24Z</time>
      </trkpt>
      <trkpt lat="31.202775613554028" lon="121.61812581465021">
        <ele>4.864029204472899</ele>
        <time>2019-11-08T00:10:28Z</time>
      </trkpt>
      <trkpt lat="31.20278245885235" lon="121.61805833035602">
        <ele>5.28781037312001</ele>
        <time>2019-11-08T00:10:31Z</time>
      </trkpt>
      <trkpt lat="31.202710428895674" lon="121.6179653765047">
        <ele>5.2722667921334505</ele>
        <time>2019-11-08T00:10:35Z</time>
      </trkpt>
      <trkpt lat="31.202698844646967" lon="121.61788976266882">
        <ele>6.159352075308561</ele>
        <time>2019-11-08T00:10:38Z</time>
      </trkpt>
      <trkpt lat="31.202619482063707" lon="121.61780846274874">
        <ele>5.940835566259921</ele>
        <time>2019-11-08T00:10:42Z</time>
      </trkpt>
      <trkpt lat="31.20258294821305" lon="121.61773772891326">
        <ele>5.841009048745036</ele>
        <time>2019-11-08T00:10:45Z</time>
      </trkpt>
      <trkpt lat="31.202540719560794" lon="121.61766780841897">
        <ele>6.891632691025734</ele>
        <time>2019-11-08T00:10:48Z</time>
      </trkpt>
      <trkpt lat="31.202485500811168" lon="121.61757268352578">
        <ele>5.529296915046871</ele>
        <time>2019-11-08T00:10:52Z</time>
      </trkpt>
      <trkpt lat="31.202484815579133" lon="121.61744069424043">
        <ele>4.597761709243059</ele>
        <time>2019-11-08T00:10:56Z</time>
      </trkpt>
      <trkpt lat="31.20247730062031" lon="121.6173612840987">
        <ele>4.430813851766288</ele>
        <time>2019-11-08T00:10:59Z</time>
      </trkpt>
      <trkpt lat="31.202512902143123" lon="121.61727536546809">
        <ele>4.529922930523753</ele>
        <time>2019-11-08T00:11:03Z</time>
      </trkpt>
      <trkpt lat="31.202581268547025" lon="121.61723335045745">
        <ele>5.215935965999961</ele>
        <time>2019-11-08T00:11:07Z</time>
      </trkpt>
      <trkpt lat="31.20260710700889" lon="121.61714932939564">
        <ele>6.876241531223059</ele>
        <time>2019-11-08T00:11:11Z</time>
      </trkpt>
      <trkpt lat="31.202640229325212" lon="121.61710352267032">
        <ele>4.802279122173786</ele>
        <time>2019-11-08T00:11:14Z</time>
      </trkpt>
      <trkpt lat="31.202667091897343" lon="121.61708238011866">
        <ele>4.506758255884051</ele>
        <time>2019-11-08T00:11:17Z</time>
      </trkpt>
      <trkpt lat="31.20271512419753" lon="121.61703901131018">
        <ele>5.619197761639953</ele>
        <time>2019-11-08T00:11:21Z</time>
      </trkpt>
      <trkpt lat="31.202772100010414" lon="121.61699970714947">
        <ele>5.62208556663245</ele>
        <time>2019-11-08T00:11:25Z</time>
      </trkpt>
      <trkpt lat="31.202836671933348" lon="121.61695579476496">
        <ele>6.556773389689624</ele>
        <time>2019-11-08T00:11:29Z</time>
      </trkpt>
      <trkpt lat="31.20289119789145" lon="121.61692651884913">
        <ele>5.988914418965578</ele>
        <time>2019-11-08T00:11:32Z</time>
      </trkpt>
      <trkpt lat="31.202948733053002" lon="121.61686905530391">
        <ele>4.392357625998557</ele>
        <time>2019-11-08T00:11:36Z</time>
      </trkpt>
      <trkpt lat="31.203016595326737" lon="121.61678611365926">
        <ele>5.2597091775387526</ele>
        <time>2019-11-08T00:11:40Z</time>
      </trkpt>
      <trkpt lat="31.20308064128071" lon="121.6167245837395">
        <ele>6.427409064956009</ele>
        <time>2019-11-08T00:11:43Z</time>
      </trkpt>
      <trkpt lat="31.203166614326385" lon="121.6166999125293">
        <ele>6.2806476121768355</ele>
        <time>2019-11-08T00:11:47Z</time>
      </trkpt>
      <trkpt lat="31.203229557205287" lon="121.61665789698779">
        <ele>6.71352581307292</ele>
        <time>2019-11-08T00:11:50Z</time>
      </trkpt>
      <trkpt lat="31.203288173826785" lon="121.61660314307858">
        <ele>5.5567890694364905</ele>
        <time>2019-11-08T00:11:53Z</time>
      </trkpt>
      <trkpt lat="31.203342464369044" lon="121.61653537968033">
        <ele>5.351341092959046</ele>
        <time>2019-11-08T00:11:56Z</time>
      </trkpt>
      <trkpt lat="31.20344392034831" lon="121.61648035091766">
        <ele>5.6725162817165256</ele>
        <time>2019-11-08T00:12:00Z</time>
      </trkpt>
      <trkpt lat="31.203501172867153" lon="121.61643426991444">
        <ele>5.173273853957653</ele>
        <time>2019-11-08T00:12:03Z</time>
      </trkpt>
      <trkpt lat="31.203562482494036" lon="121.61639875895438">
        <ele>6.0383452931419015</ele>
        <time>2019-11-08T00:12:06Z</time>
      </trkpt>
      <trkpt lat="31.203644428584248" lon="121.61633072166514">
        <ele>6.53504884429276</ele>
        <time>2019-11-08T00:12:10Z</time>
      </trkpt>
      <trkpt lat="31.20368975720295" lon="121.61627786539607">
        <ele>6.431246256455779</ele>
        <time>2019-11-08T00:12:13Z</time>
      </trkpt>
      <trkpt lat="31.203777360473254" lon="121.6162491280144">
        <ele>6.22939732298255</ele>
        <time>2019-11-08T00:12:17Z</time>
      </trkpt>
      <trkpt lat="31.203850634392825" lon="121.6161762123068">
        <ele>6.533630781807005</ele>
        <time>2019-11-08T00:12:21Z</time>
      </trkpt>
      <trkpt lat="31.203890831631345" lon="121.61610113079077">
        <ele>5.942826698534191</ele>
        <time>2019-11-08T00:12:24Z</time>
      </trkpt>
      <trkpt lat="31.203933750219917" lon="121.61601493610796">
        <ele>6.500297426246107</ele>
        <time>2019-11-08T00:12:28Z</time>
      </trkpt>
      <trkpt lat="31.203975269444303" lon="121.61597617366866">
        <ele>6.5384047804400325</ele>
        <time>2019-11-08T00:12:31Z</time>
      </trkpt>
      <trkpt lat="31.204022190480433" lon="121.61596017829207">
        <ele>6.2240272257477045</ele>
        <time>2019-11-08T00:12:34Z</time>
      </trkpt>
      <trkpt lat="31.20407424769439" lon="121.61596098711343">
        <ele>6.892335795797408</ele>
        <time>2019-11-08T00:12:38Z</time>
      </trkpt>
      <trkpt lat="31.2041333412672" lon="121.61597616059413">
        <ele>4.010515266098082</ele>
        <time>2019-11-08T00:12:42Z</time>
      </trkpt>
      <trkpt lat="31.20416183975304" lon="121.61594417523519">
        <ele>5.331105079501867</ele>
        <time>2019-11-08T00:12:46Z</time>
      </trkpt>
      <trkpt lat="31.204223655113434" lon="121.6159479647179">
        <ele>5.160013720393181</ele>
        <time>2019-11-08T00:12:49Z</time>
      </trkpt>
      <trkpt lat="31.204303030165875" lon="121.61602168160712">
        <ele>6.502681742422283</ele>
        <time>2019-11-08T00:12:52Z</time>
      </trkpt>
      <trkpt lat="31.20435234167662" lon="121.6160598943783">
        <ele>6.881279891356826</ele>
        <time>2019-11-08T00:12:55Z</time>
      </trkpt>
      <trkpt lat="31.204388908281203" lon="121.61609973438868">
        <ele>6.77935731690377</ele>
        <time>2019-11-08T00:12:59Z</time>
      </trkpt>
      <trkpt lat="31.204417050131287" lon="121.61616071617195">
        <ele>6.703464242629707</ele>
        <time>2019-11-08T00:13:03Z</time>
      </trkpt>
      <trkpt lat="31.204453603310082" lon="121.61621492111902">
        <ele>5.355495545081794</ele>
        <time>2019-11-08T00:13:07Z</time>
      </trkpt>
      <trkpt lat="31.20449667945294" lon="121.61625204994628">
        <ele>4.862319779582322</ele>
        <time>2019-11-08T00:13:10Z</time>
      </trkpt>
      <trkpt lat="31.20454084008895" lon="121.61628917862731">
        <ele>6.781231893226504</ele>
        <time>2019-11-08T00:13:14Z</time>
      </trkpt>
      <trkpt lat="31.204582273204597" lon="121.6163436539235">
        <ele>6.2068965109065175</ele>
        <time>2019-11-08T00:13:18Z</time>
      </trkpt>
      <trkpt lat="31.204621849890415" lon="121.61635340802026">
        <ele>7.525119015946984</ele>
        <time>2019-11-08T00:13:21Z</time>
      </trkpt>
      <trkpt lat="31.20466442091035" lon="121.61635042308053">
        <ele>7.433684788644314</ele>
        <time>2019-11-08T00:13:25Z</time>
      </trkpt>
      <trkpt lat="31.20462165349485" lon="121.61627290961361">
        <ele>6.545290457084775</ele>
        <time>2019-11-08T00:13:28Z</time>
      </trkpt>
      <trkpt lat="31.20458050516032" lon="121.61620352695836">
        <ele>6.768498040735722</ele>
        <time>2019-11-08T00:13:31Z</time>
      </trkpt>
      <trkpt lat="31.20451493322474" lon="121.61615718455323">
        <ele>6.46985206566751</ele>
        <time>2019-11-08T00:13:34Z</time>
      </trkpt>
      <trkpt lat="31.20443474860456" lon="121.61607967356716">
        <ele>6.35246202442795</ele>
        <time>2019-11-08T00:13:38Z</time>
      </trkpt>
      <trkpt lat="31.204369498328575" lon="121.6159780383562">
        <ele>5.322390631772578</ele>
        <time>2019-11-08T00:13:42Z</time>
      </trkpt>
      <trkpt lat="31.204285516827724" lon="121.6159010691994">
        <ele>6.852877433411777</ele>
        <time>2019-11-08T00:13:46Z</time>
      </trkpt>
      <trkpt lat="31.204212627951897" lon="121.61585011908204">
        <ele>8.596331024542451</ele>
        <time>2019-11-08T00:13:49Z</time>
      </trkpt>
      <trkpt lat="31.204122421817974" lon="121.61576013989604">
        <ele>7.186256672255695</ele>
        <time>2019-11-08T00:13:53Z</time>
      </trkpt>
      <trkpt lat="31.204046006951305" lon="121.61571027395485">
        <ele>6.908582779578865</ele>
        <time>2019-11-08T00:13:56Z</time>
      </trkpt>
      <trkpt lat="31.203981534451927" lon="121.61564658358667">
        <ele>7.127489902079105</ele>
        <time>2019-11-08T00:13:59Z</time>
      </trkpt>
      <trkpt lat="31.203896471422212" lon="121.61556527671807">
        <ele>6.372594834305346</ele>
        <time>2019-11-08T00:14:03Z</time>
      </trkpt>
      <trkpt lat="31.203835793025295" lon="121.61550321193921">
        <ele>5.52372984867543</ele>
        <time>2019-11-08T00:14:06Z</time>
      </trkpt>
      <trkpt lat="31.203759687241057" lon="121.61541051981128">
        <ele>5.172377140261233</ele>
        <time>2019-11-08T00:14:10Z</time>
      </trkpt>
      <trkpt lat="31.20367079252045" lon="121.61536851460323">
        <ele>7.351687825284898</ele>
        <time>2019-11-08T00:14:14Z</time>
      </trkpt>
      <trkpt lat="31.203593558486883" lon="121.61532433996155">
        <ele>5.074444849975407</ele>
        <time>2019-11-08T00:14:18Z</time>
      </trkpt>
      <trkpt lat="31.203518508918517" lon="121.61526281785154">
        <ele>6.056345648132265</ele>
        <time>2019-11-08T00:14:22Z</time>
      </trkpt>
      <trkpt lat="31.20346840267996" lon="121.6152023777249">
        <ele>7.421863310039043</ele>
        <time>2019-11-08T00:14:25Z</time>
      </trkpt>
      <trkpt lat="31.20340989160354" lon="121.61514139603834">
        <ele>7.827882632613182</ele>
        <time>2019-11-08T00:14:28Z</time>
      </trkpt>
      <trkpt lat="31.20337228101394" lon="121.61505412038525">
        <ele>6.038434694521129</ele>
        <time>2019-11-08T00:14:32Z</time>
      </trkpt>
      <trkpt lat="31.203341703440476" lon="121.61498527546685">
        <ele>8.871591409668326</ele>
        <time>2019-11-08T00:14:36Z</time>
      </trkpt>
      <trkpt lat="31.203361256633013" lon="121.61494949478349">
        <ele>7.469473733566701</ele>
        <time>2019-11-08T00:14:40Z</time>
      </trkpt>
      <trkpt lat="31.2033807869309" lon="121.61493973523187">
        <ele>6.479904694482684</ele>
        <time>2019-11-08T00:14:43Z</time>
      </trkpt>
      <trkpt lat="31.203401123012345" lon="121.61493864933466">
        <ele>7.032862053252757</ele>
        <time>2019-11-08T00:14:47Z</time>
      </trkpt>
      <trkpt lat="31.203426931976207" lon="121.61488037055013">
        <ele>6.567262787371874</ele>
        <time>2019-11-08T00:14:50Z</time>
      </trkpt>
      <trkpt lat="31.20347795471873" lon="121.61482398692486">
        <ele>7.198539309203625</ele>
        <time>2019-11-08T00:14:53Z</time>
      </trkpt>
      <trkpt lat="31.203522469868343" lon="121.61476787476084">
        <ele>5.205951597541571</ele>
        <time>2019-11-08T00:14:56Z</time>
      </trkpt>
      <trkpt lat="31.20359869827355" lon="121.61472260209716">
        <ele>5.971609923988581</ele>
        <time>2019-11-08T00:15:00Z</time>
      </trkpt>
      <trkpt lat="31.203652723888414" lon="121.61464236482924">
        <ele>6.679126995615661</ele>
        <time>2019-11-08T00:15:04Z</time>
      </trkpt>
      <trkpt lat="31.203690737995082" lon="121.61457866315578">
        <ele>6.998339334502816</ele>
        <time>2019-11-08T00:15:07Z</time>
      </trkpt>
      <trkpt lat="31.20375504714886" lon="121.61452065136895">
        <ele>7.259940134361386</ele>
        <time>2019-11-08T00:15:11Z</time>
      </trkpt>
      <trkpt lat="31.20376595119197" lon="121.61445261466307">
        <ele>6.147046413272619</ele>
        <time>2019-11-08T00:15:14Z</time>
      </trkpt>
      <trkpt lat="31.20377363583728" lon="121.61434446109433">
        <ele>8.28814438637346</ele>
        <time>2019-11-08T00:15:18Z</time>
      </trkpt>
      <trkpt lat="31.20383903899186" lon="121.61427479300986">
        <ele>7.161003356799483</ele>
        <time>2019-11-08T00:15:22Z</time>
      </trkpt>
      <trkpt lat="31.203918250005568" lon="121.61422843491611">
        <ele>8.541959318332374</ele>
        <time>2019-11-08T00:15:26Z</time>
      </trkpt>
      <trkpt lat="31.203998552632086" lon="121.61417367370427">
        <ele>7.722307444550097</ele>
        <time>2019-11-08T00:15:30Z</time>
      </trkpt>
      <trkpt lat="31.204049047058437" lon="121.61409912721143">
        <ele>8.012032244354486</ele>
        <time>2019-11-08T00:15:33Z</time>
      </trkpt>
      <trkpt lat="31.204088187005134" lon="121.61398500600986">
        <ele>7.097807594574988</ele>
        <time>2019-11-08T00:15:37Z</time>
      </trkpt>
      <trkpt lat="31.204144893770312" lon="121.6139381070806">
        <ele>7.439421293325722</ele>
        <time>2019-11-08T00:15:40Z</time>
      </trkpt>
      <trkpt lat="31.204235770779928" lon="121.61388253112638">
        <ele>6.760426362976432</ele>
        <time>2019-11-08T00:15:44Z</time>
      </trkpt>
      <trkpt lat="31.204323671321763" lon="121.61381963649082">
        <ele>9.266668867319822</ele>
        <time>2019-11-08T00:15:48Z</time>
      </trkpt>
      <trkpt lat="31.20438444506562" lon="121.6137724658304">
        <ele>6.177563300356269</ele>
        <time>2019-11-08T00:15:51Z</time>
      </trkpt>
      <trkpt lat="31.20443603467177" lon="121.61368382244397">
        <ele>7.936236719600856</ele>
        <time>2019-11-08T00:15:54Z</time>
      </trkpt>
      <trkpt lat="31.204509316159665" lon="121.61359355051573">
        <ele>8.393947659060359</ele>
        <time>2019-11-08T00:15:58Z</time>
      </trkpt>
      <trkpt lat="31.20459665808721" lon="121.61354963004311">
        <ele>5.217907625250518</ele>
        <time>2019-11-08T00:16:02Z</time>
      </trkpt>
      <trkpt lat="31.204686457388256" lon="121.61348483687054">
        <ele>7.410723013803363</ele>
        <time>2019-11-08T00:16:06Z</time>
      </trkpt>
      <trkpt lat="31.204737158804676" lon="121.61348591695972">
        <ele>6.921317827887833</ele>
        <time>2019-11-08T00:16:10Z</time>
      </trkpt>
      <trkpt lat="31.20478376970321" lon="121.61351545976382">
        <ele>7.979342985898256</ele>
        <time>2019-11-08T00:16:14Z</time>
      </trkpt>
      <trkpt lat="31.204813312710485" lon="121.6135284686816">
        <ele>7.844802427105606</ele>
        <time>2019-11-08T00:16:17Z</time>
      </trkpt>
      <trkpt lat="31.204848555157227" lon="121.61353470037514">
        <ele>8.104629279114306</ele>
        <time>2019-11-08T00:16:21Z</time>
      </trkpt>
      <trkpt lat="31.204889765719432" lon="121.61353713659604">
        <ele>7.570966397412121</ele>
        <time>2019-11-08T00:16:25Z</time>
      </trkpt>
      <trkpt lat="31.204913106652022" lon="121.6135089433856">
        <ele>7.4036793587729335</ele>
        <time>2019-11-08T00:16:29Z</time>
      </trkpt>
      <trkpt lat="31.204956273041976" lon="121.61344117217718">
        <ele>7.06683827098459</ele>
        <time>2019-11-08T00:16:33Z</time>
      </trkpt>
      <trkpt lat="31.205000263118684" lon="121.6133606603308">
        <ele>7.971487521193922</ele>
        <time>2019-11-08T00:16:37Z</time>
      </trkpt>
      <trkpt lat="31.205050736270152" lon="121.61330942351701">
        <ele>8.971337035298347</ele>
        <time>2019-11-08T00:16:41Z</time>
      </trkpt>
      <trkpt lat="31.20509443624873" lon="121.61325168139729">
        <ele>8.788038783706725</ele>
        <time>2019-11-08T00:16:44Z</time>
      </trkpt>
      <trkpt lat="31.20513843148831" lon="121.61316412097422">
        <ele>7.749096998944879</ele>
        <time>2019-11-08T00:16:48Z</time>
      </trkpt>
      <trkpt lat="31.20515719262506" lon="121.61309906153795">
        <ele>7.845648146234453</ele>
        <time>2019-11-08T00:16:51Z</time>
      </trkpt>
      <trkpt lat="31.205197658667185" lon="121.61301638020231">
        <ele>7.640465177595615</ele>
        <time>2019-11-08T00:16:55Z</time>
      </trkpt>
      <trkpt lat="31.20521452411325" lon="121.61294806759268">
        <ele>7.913333415053785</ele>
        <time>2019-11-08T00:16:59Z</time>
      </trkpt>
      <trkpt lat="31.20524982855268" lon="121.61287731356168">
        <ele>7.654114916920662</ele>
        <time>2019-11-08T00:17:03Z</time>
      </trkpt>
      <trkpt lat="31.20527701108514" lon="121.61279110852041">
        <ele>8.318734338507056</ele>
        <time>2019-11-08T00:17:07Z</time>
      </trkpt>
      <trkpt lat="31.20521254954801" lon="121.61270491073837">
        <ele>7.947849626652896</ele>
        <time>2019-11-08T00:17:10Z</time>
      </trkpt>
      <trkpt lat="31.205191745051263" lon="121.61261301633691">
        <ele>7.42227544169873</ele>
        <time>2019-11-08T00:17:14Z</time>
      </trkpt>
      <trkpt lat="31.20517308108286" lon="121.61255690414075">
        <ele>8.7842425275594</ele>
        <time>2019-11-08T00:17:18Z</time>
      </trkpt>
      <trkpt lat="31.205168787601913" lon="121.6125002484573">
        <ele>8.124498691409826</ele>
        <time>2019-11-08T00:17:21Z</time>
      </trkpt>
      <trkpt lat="31.205143072595472" lon="121.612445763067">
        <ele>7.940558061935008</ele>
        <time>2019-11-08T00:17:24Z</time>
      </trkpt>
      <trkpt lat="31.205116531746953" lon="121.61240700043312">
        <ele>8.187098925933242</ele>
        <time>2019-11-08T00:17:28Z</time>
      </trkpt>
      <trkpt lat="31.205061519712075" lon="121.61237067983903">
        <ele>8.533321557566524</ele>
        <time>2019-11-08T00:17:32Z</time>
      </trkpt>
      <trkpt lat="31.20501735198742" lon="121.61233571371031">
        <ele>8.620396276004612</ele>
        <time>2019-11-08T00:17:36Z</time>
      </trkpt>
      <trkpt lat="31.205000529936456" lon="121.61235062470405">
        <ele>8.026116481050849</ele>
        <time>2019-11-08T00:17:39Z</time>
      </trkpt>
      <trkpt lat="31.20498915242116" lon="121.61233761362828">
        <ele>7.859764493070543</ele>
        <time>2019-11-08T00:17:42Z</time>
      </trkpt>
      <trkpt lat="31.20494470273019" lon="121.61231647276112">
        <ele>7.9263189835473895</ele>
        <time>2019-11-08T00:17:46Z</time>
      </trkpt>
      <trkpt lat="31.204893214071184" lon="121.61228177824033">
        <ele>8.054248733446002</ele>
        <time>2019-11-08T00:17:50Z</time>
      </trkpt>
      <trkpt lat="31.204843058672193" lon="121.61227581852957">
        <ele>8.422090562060475</ele>
        <time>2019-11-08T00:17:53Z</time>
      </trkpt>
      <trkpt lat="31.20480618827364" lon="121.61227067097246">
        <ele>8.222922536544502</ele>
        <time>2019-11-08T00:17:57Z</time>
      </trkpt>
      <trkpt lat="31.204765251900294" lon="121.61226416832737">
        <ele>8.665170849300921</ele>
        <time>2019-11-08T00:18:00Z</time>
      </trkpt>
      <trkpt lat="31.204712372481918" lon="121.61227447391249">
        <ele>8.512753144837916</ele>
        <time>2019-11-08T00:18:03Z</time>
      </trkpt>
      <trkpt lat="31.204666586051502" lon="121.61222893545877">
        <ele>8.180235897190869</ele>
        <time>2019-11-08T00:18:07Z</time>
      </trkpt>
      <trkpt lat="31.204642216501785" lon="121.61218691925676">
        <ele>6.9978596633300185</ele>
        <time>2019-11-08T00:18:10Z</time>
      </trkpt>
      <trkpt lat="31.204598865943513" lon="121.6121468021498">
        <ele>7.588457712903619</ele>
        <time>2019-11-08T00:18:14Z</time>
      </trkpt>
      <trkpt lat="31.204579918761212" lon="121.61210505643683">
        <ele>8.185957912355661</ele>
        <time>2019-11-08T00:18:18Z</time>
      </trkpt>
      <trkpt lat="31.20454388434332" lon="121.61207063140814">
        <ele>8.600320251658559</ele>
        <time>2019-11-08T00:18:22Z</time>
      </trkpt>
      <trkpt lat="31.20450758459021" lon="121.61202861590499">
        <ele>7.826460141688585</ele>
        <time>2019-11-08T00:18:26Z</time>
      </trkpt>
      <trkpt lat="31.204454447287684" lon="121.61202184311303">
        <ele>7.871799288317561</ele>
        <time>2019-11-08T00:18:30Z</time>
      </trkpt>
      <trkpt lat="31.20440348928293" lon="121.61200178684606">
        <ele>8.273170673288405</ele>
        <time>2019-11-08T00:18:34Z</time>
      </trkpt>
      <trkpt lat="31.20437830014623" lon="121.6119673607668">
        <ele>8.238427593372762</ele>
        <time>2019-11-08T00:18:37Z</time>
      </trkpt>
      <trkpt lat="31.204331136334076" lon="121.6119494728453">
        <ele>8.07604062743485</ele>
        <time>2019-11-08T00:18:40Z</time>
      </trkpt>
      <trkpt lat="31.204297270594644" lon="121.61191531849408">
        <ele>8.143690694123507</ele>
        <time>2019-11-08T00:18:44Z</time>
      </trkpt>
      <trkpt lat="31.204259054006098" lon="121.61189770088137">
        <ele>8.754930081777275</ele>
        <time>2019-11-08T00:18:47Z</time>
      </trkpt>
      <trkpt lat="31.204221113719935" lon="121.61187330600347">
        <ele>7.955349967814982</ele>
        <time>2019-11-08T00:18:51Z</time>
      </trkpt>
      <trkpt lat="31.20419347882604" lon="121.61184592826322">
        <ele>7.957790198735893</ele>
        <time>2019-11-08T00:18:55Z</time>
      </trkpt>
      <trkpt lat="31.204159070066094" lon="121.61181258707329">
        <ele>7.4633511090651155</ele>
        <time>2019-11-08T00:18:58Z</time>
      </trkpt>
      <trkpt lat="31.20414094173916" lon="121.61176297906528">
        <ele>7.989955841563642</ele>
        <time>2019-11-08T00:19:02Z</time>
      </trkpt>
      <trkpt lat="31.204130187694187" lon="121.61164234436917">
        <ele>7.5910398457199335</ele>
        <time>2019-11-08T00:19:06Z</time>
      </trkpt>
      <trkpt lat="31.20411590243522" lon="121.6115295710379">
        <ele>9.018718166276813</ele>
        <time>2019-11-08T00:19:10Z</time>
      </trkpt>
      <trkpt lat="31.204141716548577" lon="121.61145447595288">
        <ele>7.3697351813316345</ele>
        <time>2019-11-08T00:19:14Z</time>
      </trkpt>
      <trkpt lat="31.204151232614194" lon="121.61141923290238">
        <ele>7.751023691147566</ele>
        <time>2019-11-08T00:19:18Z</time>
      </trkpt>
      <trkpt lat="31.20416781349304" lon="121.6113633859874">
        <ele>6.737882228568196</ele>
        <time>2019-11-08T00:19:22Z</time>
      </trkpt>
      <trkpt lat="31.20416781349304" lon="121.6113633859874">
        <ele>6.737882228568196</ele>
        <time>2019-11-08T00:19:24Z</time>
      </trkpt>
    </trkseg>
  </trk>
</gpx>