<?xml version="1.0" encoding="UTF-8"?>
<gpx xmlns="http://www.topografix.com/GPX/1/1" xmlns:gpxtpx="http://www.garmin.com/xmlschemas/TrackPointExtension/v1" xmlns:xsi="http://www.w3.org/2001/XMLSchema-instance" xsi:schemaLocation="http://www.topografix.com/GPX/1/1 http://www.topografix.com/GPX/1/1/gpx.xsd" version="1.1" creator="gpx.py -- https://github.com/tkrajina/gpxpy">
  <trk>
    <name>gpx from keep</name>
    <type>Run</type>
    <trkseg>
      <trkpt lat="31.20473902830606" lon="121.61071432764092">
        <ele>8.813491214515686</ele>
        <time>2020-11-11T23:16:20Z</time>
      </trkpt>
      <trkpt lat="31.20478546772034" lon="121.61060940673644">
        <ele>8.895758467790685</ele>
        <time>2020-11-11T23:16:23Z</time>
      </trkpt>
      <trkpt lat="31.20491994660287" lon="121.61061535990983">
        <ele>8.800976617202611</ele>
        <time>2020-11-11T23:16:27Z</time>
      </trkpt>
      <trkpt lat="31.2049753083769" lon="121.6105451392675">
        <ele>8.768825589679182</ele>
        <time>2020-11-11T23:16:31Z</time>
      </trkpt>
      <trkpt lat="31.20498402369219" lon="121.61049037528736">
        <ele>8.860782445408404</ele>
        <time>2020-11-11T23:16:34Z</time>
      </trkpt>
      <trkpt lat="31.205190861107134" lon="121.61016069141674">
        <ele>8.258290993981063</ele>
        <time>2020-11-11T23:16:51Z</time>
      </trkpt>
      <trkpt lat="31.205332924926658" lon="121.6101766751285">
        <ele>7.972889345139265</ele>
        <time>2020-11-11T23:16:54Z</time>
      </trkpt>
      <trkpt lat="31.20540254199861" lon="121.61026911746386">
        <ele>7.730225270614028</ele>
        <time>2020-11-11T23:17:00Z</time>
      </trkpt>
      <trkpt lat="31.20558145216975" lon="121.61032495089731">
        <ele>7.518015678040683</ele>
        <time>2020-11-11T23:17:04Z</time>
      </trkpt>
      <trkpt lat="31.205822905386313" lon="121.61050657226585">
        <ele>5.200803489424288</ele>
        <time>2020-11-11T23:17:11Z</time>
      </trkpt>
      <trkpt lat="31.205805504983683" lon="121.61057353663377">
        <ele>6.084194547496736</ele>
        <time>2020-11-11T23:17:14Z</time>
      </trkpt>
      <trkpt lat="31.20588162869656" lon="121.61066489239967">
        <ele>6.937342980876565</ele>
        <time>2020-11-11T23:17:20Z</time>
      </trkpt>
      <trkpt lat="31.205928514134172" lon="121.61069416768147">
        <ele>6.75109404604882</ele>
        <time>2020-11-11T23:17:23Z</time>
      </trkpt>
      <trkpt lat="31.206007048447386" lon="121.61082591693354">
        <ele>7.657554886303842</ele>
        <time>2020-11-11T23:17:29Z</time>
      </trkpt>
      <trkpt lat="31.206144442226623" lon="121.61092512853384">
        <ele>8.26176063530147</ele>
        <time>2020-11-11T23:17:35Z</time>
      </trkpt>
      <trkpt lat="31.2061753048687" lon="121.6109893766847">
        <ele>7.942907780408859</ele>
        <time>2020-11-11T23:17:38Z</time>
      </trkpt>
      <trkpt lat="31.206212889434056" lon="121.61113034494942">
        <ele>6.500846618786454</ele>
        <time>2020-11-11T23:17:44Z</time>
      </trkpt>
      <trkpt lat="31.206255959677804" lon="121.61118510311019">
        <ele>8.345631308853626</ele>
        <time>2020-11-11T23:17:47Z</time>
      </trkpt>
      <trkpt lat="31.20646598188499" lon="121.61133093563294">
        <ele>8.112850581295788</ele>
        <time>2020-11-11T23:17:56Z</time>
      </trkpt>
      <trkpt lat="31.206517174471422" lon="121.61140087395366">
        <ele>7.250446519814432</ele>
        <time>2020-11-11T23:17:59Z</time>
      </trkpt>
      <trkpt lat="31.206610341694617" lon="121.61153912415895">
        <ele>7.079020821489394</ele>
        <time>2020-11-11T23:18:05Z</time>
      </trkpt>
      <trkpt lat="31.206609748838336" lon="121.61160635520395">
        <ele>5.3553391713649035</ele>
        <time>2020-11-11T23:18:08Z</time>
      </trkpt>
      <trkpt lat="31.206501203742253" lon="121.61172645776725">
        <ele>6.346502294763923</ele>
        <time>2020-11-11T23:18:14Z</time>
      </trkpt>
      <trkpt lat="31.206309692642883" lon="121.61184385566922">
        <ele>7.752263605594635</ele>
        <time>2020-11-11T23:18:23Z</time>
      </trkpt>
      <trkpt lat="31.20626815232622" lon="121.61191786642826">
        <ele>7.751455930992961</ele>
        <time>2020-11-11T23:18:26Z</time>
      </trkpt>
      <trkpt lat="31.206180788204676" lon="121.61199404944121">
        <ele>7.869937120005488</ele>
        <time>2020-11-11T23:18:30Z</time>
      </trkpt>
      <trkpt lat="31.20613735474641" lon="121.61206128270204">
        <ele>7.4070237297564745</ele>
        <time>2020-11-11T23:18:33Z</time>
      </trkpt>
      <trkpt lat="31.206008492822303" lon="121.61215508926298">
        <ele>7.903249215334654</ele>
        <time>2020-11-11T23:18:39Z</time>
      </trkpt>
      <trkpt lat="31.205796524105644" lon="121.61242673325448">
        <ele>8.033391767181456</ele>
        <time>2020-11-11T23:18:51Z</time>
      </trkpt>
      <trkpt lat="31.20572756156547" lon="121.61254628612419">
        <ele>7.106126553378999</ele>
        <time>2020-11-11T23:18:57Z</time>
      </trkpt>
      <trkpt lat="31.205870404596627" lon="121.61260374348082">
        <ele>6.67744018509984</ele>
        <time>2020-11-11T23:19:03Z</time>
      </trkpt>
      <trkpt lat="31.20596085496267" lon="121.61274090240435">
        <ele>6.219412826001644</ele>
        <time>2020-11-11T23:19:09Z</time>
      </trkpt>
      <trkpt lat="31.205962976464722" lon="121.61280053954353">
        <ele>6.299637276679277</ele>
        <time>2020-11-11T23:19:12Z</time>
      </trkpt>
      <trkpt lat="31.20591817941881" lon="121.61287508967668">
        <ele>7.11206872574985</ele>
        <time>2020-11-11T23:19:24Z</time>
      </trkpt>
      <trkpt lat="31.205920352632983" lon="121.6128699390241">
        <ele>6.863460288383067</ele>
        <time>2020-11-11T23:19:25Z</time>
      </trkpt>
      <trkpt lat="31.205702967976432" lon="121.61312422635935">
        <ele>7.108736193738878</ele>
        <time>2020-11-11T23:19:49Z</time>
      </trkpt>
      <trkpt lat="31.205636538662798" lon="121.61312558722544">
        <ele>6.373788005672395</ele>
        <time>2020-11-11T23:19:52Z</time>
      </trkpt>
      <trkpt lat="31.205530467396034" lon="121.61319607528362">
        <ele>6.842833116650581</ele>
        <time>2020-11-11T23:19:58Z</time>
      </trkpt>
      <trkpt lat="31.205479438233436" lon="121.61326438999474">
        <ele>7.722315720282495</ele>
        <time>2020-11-11T23:20:01Z</time>
      </trkpt>
      <trkpt lat="31.205415423230967" lon="121.61329746616902">
        <ele>7.585426688194275</ele>
        <time>2020-11-11T23:20:04Z</time>
      </trkpt>
      <trkpt lat="31.205173098651212" lon="121.61354145028345">
        <ele>7.278430208563805</ele>
        <time>2020-11-11T23:20:17Z</time>
      </trkpt>
      <trkpt lat="31.205072386430384" lon="121.61368729370766">
        <ele>7.2128286845982075</ele>
        <time>2020-11-11T23:20:24Z</time>
      </trkpt>
      <trkpt lat="31.204815968683967" lon="121.61392016127375">
        <ele>6.522703283466399</ele>
        <time>2020-11-11T23:20:36Z</time>
      </trkpt>
      <trkpt lat="31.20472996170396" lon="121.61398793464981">
        <ele>8.468682933598757</ele>
        <time>2020-11-11T23:20:40Z</time>
      </trkpt>
      <trkpt lat="31.2046721340528" lon="121.61407766166678">
        <ele>7.789420806802809</ele>
        <time>2020-11-11T23:20:44Z</time>
      </trkpt>
      <trkpt lat="31.20442600131744" lon="121.61432787244327">
        <ele>7.999564812518656</ele>
        <time>2020-11-11T23:20:56Z</time>
      </trkpt>
      <trkpt lat="31.204184238930885" lon="121.61453823467744">
        <ele>6.606572317890823</ele>
        <time>2020-11-11T23:21:08Z</time>
      </trkpt>
      <trkpt lat="31.20396440688983" lon="121.6147830173319">
        <ele>8.421703496947885</ele>
        <time>2020-11-11T23:21:20Z</time>
      </trkpt>
      <trkpt lat="31.203828728533274" lon="121.61490961119095">
        <ele>6.163491740822792</ele>
        <time>2020-11-11T23:21:27Z</time>
      </trkpt>
      <trkpt lat="31.20377551886937" lon="121.61498605274959">
        <ele>6.546056537888944</ele>
        <time>2020-11-11T23:21:31Z</time>
      </trkpt>
      <trkpt lat="31.20376516317917" lon="121.6150456852624">
        <ele>6.193833706900477</ele>
        <time>2020-11-11T23:21:38Z</time>
      </trkpt>
      <trkpt lat="31.203671016292514" lon="121.61511697978905">
        <ele>8.323380798101425</ele>
        <time>2020-11-11T23:22:15Z</time>
      </trkpt>
      <trkpt lat="31.203587938075998" lon="121.61524194123498">
        <ele>6.071336871944368</ele>
        <time>2020-11-11T23:22:21Z</time>
      </trkpt>
      <trkpt lat="31.20336847763157" lon="121.61536772645917">
        <ele>6.1603095810860395</ele>
        <time>2020-11-11T23:22:31Z</time>
      </trkpt>
      <trkpt lat="31.20319855064098" lon="121.61558647608257">
        <ele>6.225554916076362</ele>
        <time>2020-11-11T23:22:42Z</time>
      </trkpt>
      <trkpt lat="31.20295076249826" lon="121.61585320493049">
        <ele>5.627877344377339</ele>
        <time>2020-11-11T23:22:54Z</time>
      </trkpt>
      <trkpt lat="31.20287152748954" lon="121.6159228695854">
        <ele>6.411276374012232</ele>
        <time>2020-11-11T23:22:58Z</time>
      </trkpt>
      <trkpt lat="31.202804474487166" lon="121.61601313221887">
        <ele>5.757089274935424</ele>
        <time>2020-11-11T23:23:02Z</time>
      </trkpt>
      <trkpt lat="31.2025841078627" lon="121.61623567474889">
        <ele>5.599253389053047</ele>
        <time>2020-11-11T23:23:14Z</time>
      </trkpt>
      <trkpt lat="31.2023447202949" lon="121.6165007695748">
        <ele>4.798320392146707</ele>
        <time>2020-11-11T23:23:26Z</time>
      </trkpt>
      <trkpt lat="31.202138148823632" lon="121.6167539333443">
        <ele>3.298124902881682</ele>
        <time>2020-11-11T23:23:38Z</time>
      </trkpt>
      <trkpt lat="31.201990522194404" lon="121.61689054610868">
        <ele>4.59721963852644</ele>
        <time>2020-11-11T23:23:45Z</time>
      </trkpt>
      <trkpt lat="31.20192075424168" lon="121.61698134746338">
        <ele>4.595517832785845</ele>
        <time>2020-11-11T23:23:49Z</time>
      </trkpt>
      <trkpt lat="31.201785887238884" lon="121.61709979892335">
        <ele>5.746179749257863</ele>
        <time>2020-11-11T23:24:03Z</time>
      </trkpt>
      <trkpt lat="31.20169473433839" lon="121.61715374133361">
        <ele>4.729415140114725</ele>
        <time>2020-11-11T23:24:07Z</time>
      </trkpt>
      <trkpt lat="31.201433068725628" lon="121.61745650074901">
        <ele>5.237462206743658</ele>
        <time>2020-11-11T23:24:19Z</time>
      </trkpt>
      <trkpt lat="31.201233565861084" lon="121.61768146772704">
        <ele>4.19364860560745</ele>
        <time>2020-11-11T23:24:30Z</time>
      </trkpt>
      <trkpt lat="31.201144553354283" lon="121.61776359505883">
        <ele>4.18808742146939</ele>
        <time>2020-11-11T23:24:34Z</time>
      </trkpt>
      <trkpt lat="31.200956136483754" lon="121.61801701544701">
        <ele>3.875506150536239</ele>
        <time>2020-11-11T23:24:45Z</time>
      </trkpt>
      <trkpt lat="31.200719172416463" lon="121.618282362037">
        <ele>4.85213415697217</ele>
        <time>2020-11-11T23:24:58Z</time>
      </trkpt>
      <trkpt lat="31.200495783127877" lon="121.61852737864116">
        <ele>5.813624707981944</ele>
        <time>2020-11-11T23:25:11Z</time>
      </trkpt>
      <trkpt lat="31.20037961290061" lon="121.61865097047362">
        <ele>4.8035919815301895</ele>
        <time>2020-11-11T23:25:18Z</time>
      </trkpt>
      <trkpt lat="31.200336154012945" lon="121.61872739961449">
        <ele>4.524522837251425</ele>
        <time>2020-11-11T23:25:21Z</time>
      </trkpt>
      <trkpt lat="31.200134199448488" lon="121.61895398147904">
        <ele>5.056735617108643</ele>
        <time>2020-11-11T23:25:32Z</time>
      </trkpt>
      <trkpt lat="31.200072864329883" lon="121.61901144055416">
        <ele>4.832215186208487</ele>
        <time>2020-11-11T23:25:35Z</time>
      </trkpt>
      <trkpt lat="31.199870310468253" lon="121.61929113720046">
        <ele>5.056338742375374</ele>
        <time>2020-11-11T23:25:48Z</time>
      </trkpt>
      <trkpt lat="31.199811150502114" lon="121.61934209120204">
        <ele>4.054341699928045</ele>
        <time>2020-11-11T23:25:51Z</time>
      </trkpt>
      <trkpt lat="31.199780722809486" lon="121.61940063086601">
        <ele>4.05028301756829</ele>
        <time>2020-11-11T23:25:54Z</time>
      </trkpt>
      <trkpt lat="31.199666169231254" lon="121.61953045140882">
        <ele>4.515613276511431</ele>
        <time>2020-11-11T23:26:01Z</time>
      </trkpt>
      <trkpt lat="31.199387744974196" lon="121.619760555492">
        <ele>5.747103901579976</ele>
        <time>2020-11-11T23:26:14Z</time>
      </trkpt>
      <trkpt lat="31.19924199712292" lon="121.61990202978835">
        <ele>4.364260578528047</ele>
        <time>2020-11-11T23:26:22Z</time>
      </trkpt>
      <trkpt lat="31.199111904556172" lon="121.62010935449925">
        <ele>4.429429526440799</ele>
        <time>2020-11-11T23:26:32Z</time>
      </trkpt>
      <trkpt lat="31.19892541928975" lon="121.62031234628996">
        <ele>5.385091175325215</ele>
        <time>2020-11-11T23:26:42Z</time>
      </trkpt>
      <trkpt lat="31.198833705844343" lon="121.62037793468657">
        <ele>6.044453991577029</ele>
        <time>2020-11-11T23:26:46Z</time>
      </trkpt>
      <trkpt lat="31.198697861027195" lon="121.62038417880504">
        <ele>4.770353404805064</ele>
        <time>2020-11-11T23:26:49Z</time>
      </trkpt>
      <trkpt lat="31.19861106156578" lon="121.62041833129288">
        <ele>5.72520013153553</ele>
        <time>2020-11-11T23:26:52Z</time>
      </trkpt>
      <trkpt lat="31.198547758997087" lon="121.62053784474807">
        <ele>7.197335720062256</ele>
        <time>2020-11-11T23:26:58Z</time>
      </trkpt>
      <trkpt lat="31.19850296586086" lon="121.62058987907172">
        <ele>8.343601898290217</ele>
        <time>2020-11-11T23:27:02Z</time>
      </trkpt>
      <trkpt lat="31.198453058807726" lon="121.62060695572498">
        <ele>7.1048574559390545</ele>
        <time>2020-11-11T23:27:06Z</time>
      </trkpt>
      <trkpt lat="31.19841179497778" lon="121.62065465374951">
        <ele>7.721440221183002</ele>
        <time>2020-11-11T23:27:10Z</time>
      </trkpt>
      <trkpt lat="31.198209155063896" lon="121.62074978848551">
        <ele>8.02989300340414</ele>
        <time>2020-11-11T23:27:26Z</time>
      </trkpt>
      <trkpt lat="31.197978946767847" lon="121.62101348032432">
        <ele>7.687168892472982</ele>
        <time>2020-11-11T23:27:41Z</time>
      </trkpt>
      <trkpt lat="31.19772624222164" lon="121.62126795787329">
        <ele>7.14103345759213</ele>
        <time>2020-11-11T23:27:54Z</time>
      </trkpt>
      <trkpt lat="31.197489329781266" lon="121.62146064748501">
        <ele>4.862290064804256</ele>
        <time>2020-11-11T23:28:04Z</time>
      </trkpt>
      <trkpt lat="31.197432851980643" lon="121.62153463056491">
        <ele>6.727511499077082</ele>
        <time>2020-11-11T23:28:07Z</time>
      </trkpt>
      <trkpt lat="31.197200266047727" lon="121.621736260246">
        <ele>4.941923450678587</ele>
        <time>2020-11-11T23:28:18Z</time>
      </trkpt>
      <trkpt lat="31.19697390758308" lon="121.62194439137203">
        <ele>5.170558322221041</ele>
        <time>2020-11-11T23:28:29Z</time>
      </trkpt>
      <trkpt lat="31.196766794846567" lon="121.62215550002512">
        <ele>6.244460264220834</ele>
        <time>2020-11-11T23:28:47Z</time>
      </trkpt>
      <trkpt lat="31.196686185106778" lon="121.62222894122272">
        <ele>5.657042698003352</ele>
        <time>2020-11-11T23:28:54Z</time>
      </trkpt>
      <trkpt lat="31.19660562129472" lon="121.62226173593484">
        <ele>6.695228165946901</ele>
        <time>2020-11-11T23:29:00Z</time>
      </trkpt>
      <trkpt lat="31.196592251193998" lon="121.62233625517575">
        <ele>6.274439332075417</ele>
        <time>2020-11-11T23:29:04Z</time>
      </trkpt>
      <trkpt lat="31.196678384117682" lon="121.62265057681573">
        <ele>4.838389275595546</ele>
        <time>2020-11-11T23:29:23Z</time>
      </trkpt>
      <trkpt lat="31.196720913933028" lon="121.62291937568631">
        <ele>5.44983400311321</ele>
        <time>2020-11-11T23:29:39Z</time>
      </trkpt>
      <trkpt lat="31.196722347810592" lon="121.62308602087401">
        <ele>4.99621868878603</ele>
        <time>2020-11-11T23:29:51Z</time>
      </trkpt>
      <trkpt lat="31.196788086021925" lon="121.62344477357883">
        <ele>5.174419152550399</ele>
        <time>2020-11-11T23:30:16Z</time>
      </trkpt>
      <trkpt lat="31.196791208907072" lon="121.62355613912987">
        <ele>5.5232594376429915</ele>
        <time>2020-11-11T23:30:23Z</time>
      </trkpt>
      <trkpt lat="31.196898270293875" lon="121.62381679494854">
        <ele>5.999113927595317</ele>
        <time>2020-11-11T23:30:34Z</time>
      </trkpt>
      <trkpt lat="31.196946562924428" lon="121.62401919727378">
        <ele>5.22010332159698</ele>
        <time>2020-11-11T23:30:41Z</time>
      </trkpt>
      <trkpt lat="31.196949297593548" lon="121.6237709984591">
        <ele>4.815248057246208</ele>
        <time>2020-11-11T23:30:52Z</time>
      </trkpt>
      <trkpt lat="31.196918936714564" lon="121.62353580636261">
        <ele>6.991761814802885</ele>
        <time>2020-11-11T23:30:59Z</time>
      </trkpt>
      <trkpt lat="31.19692045063147" lon="121.62340086648551">
        <ele>6.510942506603897</ele>
        <time>2020-11-11T23:31:03Z</time>
      </trkpt>
      <trkpt lat="31.19684655810764" lon="121.62305918483214">
        <ele>6.177785648033023</ele>
        <time>2020-11-11T23:31:14Z</time>
      </trkpt>
      <trkpt lat="31.19681632258359" lon="121.62294565175111">
        <ele>6.058202864602208</ele>
        <time>2020-11-11T23:31:18Z</time>
      </trkpt>
      <trkpt lat="31.196844100487592" lon="121.62283970054378">
        <ele>5.310516774654388</ele>
        <time>2020-11-11T23:31:22Z</time>
      </trkpt>
      <trkpt lat="31.197033350142664" lon="121.6226050241869">
        <ele>5.546249479055405</ele>
        <time>2020-11-11T23:31:34Z</time>
      </trkpt>
      <trkpt lat="31.197096612899013" lon="121.62252752086117">
        <ele>4.970105898566544</ele>
        <time>2020-11-11T23:31:38Z</time>
      </trkpt>
      <trkpt lat="31.19734815449162" lon="121.62235136719181">
        <ele>4.52808397449553</ele>
        <time>2020-11-11T23:31:50Z</time>
      </trkpt>
      <trkpt lat="31.197569648567903" lon="121.62213158763944">
        <ele>5.926182736642659</ele>
        <time>2020-11-11T23:32:01Z</time>
      </trkpt>
      <trkpt lat="31.197661085767976" lon="121.62207386196809">
        <ele>6.024081269279122</ele>
        <time>2020-11-11T23:32:05Z</time>
      </trkpt>
      <trkpt lat="31.19780629326067" lon="121.62193971584786">
        <ele>5.689847586676478</ele>
        <time>2020-11-11T23:32:12Z</time>
      </trkpt>
      <trkpt lat="31.197969043171778" lon="121.6218776481922">
        <ele>6.794722435064614</ele>
        <time>2020-11-11T23:32:20Z</time>
      </trkpt>
      <trkpt lat="31.198151952866585" lon="121.62172967794872">
        <ele>4.643209778703749</ele>
        <time>2020-11-11T23:32:30Z</time>
      </trkpt>
      <trkpt lat="31.19822472696241" lon="121.62163076374985">
        <ele>4.5839440561831</ele>
        <time>2020-11-11T23:32:34Z</time>
      </trkpt>
      <trkpt lat="31.198310197707812" lon="121.62157357945324">
        <ele>4.981949456967413</ele>
        <time>2020-11-11T23:32:38Z</time>
      </trkpt>
      <trkpt lat="31.198521749016525" lon="121.62126789204288">
        <ele>6.790921011939645</ele>
        <time>2020-11-11T23:32:56Z</time>
      </trkpt>
      <trkpt lat="31.19864415875333" lon="121.62115108689378">
        <ele>5.806876756250858</ele>
        <time>2020-11-11T23:33:06Z</time>
      </trkpt>
      <trkpt lat="31.198700098435857" lon="121.62107249599735">
        <ele>6.8155129393562675</ele>
        <time>2020-11-11T23:33:10Z</time>
      </trkpt>
      <trkpt lat="31.198826257485738" lon="121.62099769289196">
        <ele>6.436724784784019</ele>
        <time>2020-11-11T23:33:20Z</time>
      </trkpt>
      <trkpt lat="31.198913423189836" lon="121.62087682461708">
        <ele>6.359987088479102</ele>
        <time>2020-11-11T23:33:29Z</time>
      </trkpt>
      <trkpt lat="31.19892244332655" lon="121.6208098893658">
        <ele>6.0340256206691265</ele>
        <time>2020-11-11T23:33:32Z</time>
      </trkpt>
      <trkpt lat="31.19911055209057" lon="121.62061313414273">
        <ele>4.803915869444609</ele>
        <time>2020-11-11T23:33:50Z</time>
      </trkpt>
      <trkpt lat="31.199194639595245" lon="121.6205797951125">
        <ele>4.660849397070706</ele>
        <time>2020-11-11T23:33:56Z</time>
      </trkpt>
      <trkpt lat="31.199306861666674" lon="121.62060525912106">
        <ele>6.315398569218814</ele>
        <time>2020-11-11T23:34:03Z</time>
      </trkpt>
      <trkpt lat="31.199369501835374" lon="121.62059766615037">
        <ele>5.98102162219584</ele>
        <time>2020-11-11T23:34:07Z</time>
      </trkpt>
      <trkpt lat="31.1996473494571" lon="121.62065780341165">
        <ele>6.164484586566687</ele>
        <time>2020-11-11T23:34:25Z</time>
      </trkpt>
      <trkpt lat="31.19994962607307" lon="121.62069300731054">
        <ele>5.481759073212743</ele>
        <time>2020-11-11T23:34:46Z</time>
      </trkpt>
      <trkpt lat="31.200238102433186" lon="121.620702739129">
        <ele>5.253423146903515</ele>
        <time>2020-11-11T23:35:05Z</time>
      </trkpt>
      <trkpt lat="31.200498852417685" lon="121.62077778204699">
        <ele>5.790230369195342</ele>
        <time>2020-11-11T23:35:22Z</time>
      </trkpt>
      <trkpt lat="31.200700486416398" lon="121.62086068834395">
        <ele>4.2393102971836925</ele>
        <time>2020-11-11T23:35:33Z</time>
      </trkpt>
      <trkpt lat="31.200975083440987" lon="121.62091784438603">
        <ele>3.5050736954435706</ele>
        <time>2020-11-11T23:35:45Z</time>
      </trkpt>
      <trkpt lat="31.201326665195115" lon="121.62099098224998">
        <ele>5.947100015357137</ele>
        <time>2020-11-11T23:35:57Z</time>
      </trkpt>
      <trkpt lat="31.20139848361425" lon="121.6210205140213">
        <ele>4.206724980846047</ele>
        <time>2020-11-11T23:36:00Z</time>
      </trkpt>
      <trkpt lat="31.201493109003223" lon="121.62102104816624">
        <ele>5.317668966948986</ele>
        <time>2020-11-11T23:36:03Z</time>
      </trkpt>
      <trkpt lat="31.201576587377204" lon="121.62104949498762">
        <ele>4.361885984428227</ele>
        <time>2020-11-11T23:36:06Z</time>
      </trkpt>
      <trkpt lat="31.20182681237354" lon="121.6210790119278">
        <ele>5.294118943624198</ele>
        <time>2020-11-11T23:36:15Z</time>
      </trkpt>
      <trkpt lat="31.202002191140217" lon="121.62112045846074">
        <ele>3.453931991942227</ele>
        <time>2020-11-11T23:36:22Z</time>
      </trkpt>
      <trkpt lat="31.202176246887014" lon="121.6211320964949">
        <ele>3.7792748073115945</ele>
        <time>2020-11-11T23:36:29Z</time>
      </trkpt>
      <trkpt lat="31.202324255583328" lon="121.6211602668682">
        <ele>1.7305386094376445</ele>
        <time>2020-11-11T23:36:35Z</time>
      </trkpt>
      <trkpt lat="31.202393145224594" lon="121.62114075012315">
        <ele>5.500636651180685</ele>
        <time>2020-11-11T23:36:39Z</time>
      </trkpt>
      <trkpt lat="31.202592404672945" lon="121.62116322552761">
        <ele>5.262847503647208</ele>
        <time>2020-11-11T23:36:48Z</time>
      </trkpt>
      <trkpt lat="31.202756626992855" lon="121.6212409849701">
        <ele>2.653096755966544</ele>
        <time>2020-11-11T23:36:56Z</time>
      </trkpt>
      <trkpt lat="31.202839416236298" lon="121.62140248515013">
        <ele>3.1495796889066696</ele>
        <time>2020-11-11T23:37:03Z</time>
      </trkpt>
      <trkpt lat="31.20309320544308" lon="121.62139623150873">
        <ele>5.58356590103358</ele>
        <time>2020-11-11T23:37:16Z</time>
      </trkpt>
      <trkpt lat="31.2031466447759" lon="121.62137292243517">
        <ele>3.777932352386415</ele>
        <time>2020-11-11T23:37:19Z</time>
      </trkpt>
      <trkpt lat="31.203193821668044" lon="121.62137346049923">
        <ele>4.733264331705868</ele>
        <time>2020-11-11T23:37:23Z</time>
      </trkpt>
      <trkpt lat="31.20319008347712" lon="121.62132116076363">
        <ele>4.898708169348538</ele>
        <time>2020-11-11T23:37:39Z</time>
      </trkpt>
      <trkpt lat="31.203202538357463" lon="121.62133687685561">
        <ele>4.521926494315267</ele>
        <time>2020-11-11T23:38:07Z</time>
      </trkpt>
      <trkpt lat="31.20322039888258" lon="121.6213680386105">
        <ele>5.053566266782582</ele>
        <time>2020-11-11T23:38:13Z</time>
      </trkpt>
      <trkpt lat="31.20321604995149" lon="121.62137779440981">
        <ele>5.073253829963505</ele>
        <time>2020-11-11T23:38:16Z</time>
      </trkpt>
      <trkpt lat="31.20321604995149" lon="121.62137779440981">
        <ele>5.073253829963505</ele>
        <time>2020-11-11T23:38:19Z</time>
      </trkpt>
      <trkpt lat="31.203199816545578" lon="121.62134636154705">
        <ele>5.187941818498075</ele>
        <time>2020-11-11T23:38:36Z</time>
      </trkpt>
      <trkpt lat="31.203199816545578" lon="121.62134636154705">
        <ele>5.187941818498075</ele>
        <time>2020-11-11T23:38:40Z</time>
      </trkpt>
      <trkpt lat="31.20319148065104" lon="121.62128349371201">
        <ele>5.1674073077738285</ele>
        <time>2020-11-11T23:38:44Z</time>
      </trkpt>
      <trkpt lat="31.2031363192037" lon="121.62089869627687">
        <ele>5.2561714462935925</ele>
        <time>2020-11-11T23:38:56Z</time>
      </trkpt>
      <trkpt lat="31.203112152471125" lon="121.62068163494095">
        <ele>4.608297053724527</ele>
        <time>2020-11-11T23:39:03Z</time>
      </trkpt>
      <trkpt lat="31.2030537844671" lon="121.62049871982971">
        <ele>4.546735753305256</ele>
        <time>2020-11-11T23:39:09Z</time>
      </trkpt>
      <trkpt lat="31.203013996289844" lon="121.62043476858807">
        <ele>4.5475399401038885</ele>
        <time>2020-11-11T23:39:12Z</time>
      </trkpt>
      <trkpt lat="31.202954658690953" lon="121.62039656329925">
        <ele>3.370334317907691</ele>
        <time>2020-11-11T23:39:15Z</time>
      </trkpt>
      <trkpt lat="31.202894279681257" lon="121.62031797976599">
        <ele>4.264402631670237</ele>
        <time>2020-11-11T23:39:18Z</time>
      </trkpt>
      <trkpt lat="31.202864002508065" lon="121.62023370258368">
        <ele>5.308755840174854</ele>
        <time>2020-11-11T23:39:21Z</time>
      </trkpt>
      <trkpt lat="31.20285217321317" lon="121.6201391257088">
        <ele>4.407688609324396</ele>
        <time>2020-11-11T23:39:24Z</time>
      </trkpt>
      <trkpt lat="31.202752690241237" lon="121.61986054730777">
        <ele>5.1928033996373415</ele>
        <time>2020-11-11T23:39:34Z</time>
      </trkpt>
      <trkpt lat="31.20272144170334" lon="121.61966705507149">
        <ele>5.1068284958601</ele>
        <time>2020-11-11T23:39:40Z</time>
      </trkpt>
      <trkpt lat="31.202690631703803" lon="121.61957193568287">
        <ele>6.387953427620232</ele>
        <time>2020-11-11T23:39:43Z</time>
      </trkpt>
      <trkpt lat="31.202677720524253" lon="121.61947274939745">
        <ele>3.98250450193882</ele>
        <time>2020-11-11T23:39:46Z</time>
      </trkpt>
      <trkpt lat="31.202644729575113" lon="121.61938846967514">
        <ele>4.937240852043033</ele>
        <time>2020-11-11T23:39:49Z</time>
      </trkpt>
      <trkpt lat="31.202642938501302" lon="121.61928521666586">
        <ele>4.634541556239128</ele>
        <time>2020-11-11T23:39:52Z</time>
      </trkpt>
      <trkpt lat="31.202539188742147" lon="121.6189288495928">
        <ele>4.944963030517101</ele>
        <time>2020-11-11T23:40:04Z</time>
      </trkpt>
      <trkpt lat="31.2025302974057" lon="121.61887383523839">
        <ele>5.045862998813391</ele>
        <time>2020-11-11T23:40:07Z</time>
      </trkpt>
      <trkpt lat="31.202464839222223" lon="121.61871990617203">
        <ele>5.627202086150646</ele>
        <time>2020-11-11T23:40:19Z</time>
      </trkpt>
      <trkpt lat="31.202607578975726" lon="121.61859848058954">
        <ele>5.751181674189866</ele>
        <time>2020-11-11T23:40:34Z</time>
      </trkpt>
      <trkpt lat="31.202655028674304" lon="121.61859739260959">
        <ele>6.142073738388717</ele>
        <time>2020-11-11T23:40:40Z</time>
      </trkpt>
      <trkpt lat="31.202704671243243" lon="121.61857272625754">
        <ele>5.0500977747142315</ele>
        <time>2020-11-11T23:40:43Z</time>
      </trkpt>
      <trkpt lat="31.202769853564615" lon="121.61846350206224">
        <ele>5.891541135497391</ele>
        <time>2020-11-11T23:40:47Z</time>
      </trkpt>
      <trkpt lat="31.202797322208845" lon="121.61837975602033">
        <ele>4.377515505999327</ele>
        <time>2020-11-11T23:40:50Z</time>
      </trkpt>
      <trkpt lat="31.202803105770002" lon="121.61829004912408">
        <ele>4.7857170747593045</ele>
        <time>2020-11-11T23:40:53Z</time>
      </trkpt>
      <trkpt lat="31.202760885485887" lon="121.61821308371356">
        <ele>5.650606259703636</ele>
        <time>2020-11-11T23:40:56Z</time>
      </trkpt>
      <trkpt lat="31.202730411954192" lon="121.61804722286595">
        <ele>5.052960081025958</ele>
        <time>2020-11-11T23:41:02Z</time>
      </trkpt>
      <trkpt lat="31.2026630697807" lon="121.61787458843786">
        <ele>4.998872112482786</ele>
        <time>2020-11-11T23:41:11Z</time>
      </trkpt>
      <trkpt lat="31.202609980366976" lon="121.6178206595245">
        <ele>5.1786995977163315</ele>
        <time>2020-11-11T23:41:14Z</time>
      </trkpt>
      <trkpt lat="31.202600541441715" lon="121.61776889506356">
        <ele>2.4325582766905427</ele>
        <time>2020-11-11T23:41:17Z</time>
      </trkpt>
      <trkpt lat="31.202541850124188" lon="121.61762065017646">
        <ele>6.465737436898053</ele>
        <time>2020-11-11T23:41:26Z</time>
      </trkpt>
      <trkpt lat="31.202518946782376" lon="121.61747348554893">
        <ele>5.4209224078804255</ele>
        <time>2020-11-11T23:41:36Z</time>
      </trkpt>
      <trkpt lat="31.20244557862898" lon="121.617360473642">
        <ele>5.34453047439456</ele>
        <time>2020-11-11T23:41:45Z</time>
      </trkpt>
      <trkpt lat="31.202429376947954" lon="121.6172916340442">
        <ele>7.0915861222893</ele>
        <time>2020-11-11T23:41:49Z</time>
      </trkpt>
      <trkpt lat="31.202559341774844" lon="121.61719676341986">
        <ele>5.899921577423811</ele>
        <time>2020-11-11T23:42:01Z</time>
      </trkpt>
      <trkpt lat="31.202727350865523" lon="121.61701217826885">
        <ele>5.0264258198440075</ele>
        <time>2020-11-11T23:42:19Z</time>
      </trkpt>
      <trkpt lat="31.202740689141137" lon="121.61695688683">
        <ele>5.123294238001108</ele>
        <time>2020-11-11T23:42:22Z</time>
      </trkpt>
      <trkpt lat="31.20282018680107" lon="121.61689887947479">
        <ele>5.7968596471473575</ele>
        <time>2020-11-11T23:42:28Z</time>
      </trkpt>
      <trkpt lat="31.202865750847085" lon="121.61688478203791">
        <ele>4.863550610840321</ele>
        <time>2020-11-11T23:42:31Z</time>
      </trkpt>
      <trkpt lat="31.202960706907685" lon="121.6168227077422">
        <ele>4.813044828362763</ele>
        <time>2020-11-11T23:42:37Z</time>
      </trkpt>
      <trkpt lat="31.20300957219679" lon="121.6167581978008">
        <ele>7.43752459064126</ele>
        <time>2020-11-11T23:42:40Z</time>
      </trkpt>
      <trkpt lat="31.203142504501304" lon="121.61667741867569">
        <ele>6.169733094982803</ele>
        <time>2020-11-11T23:42:46Z</time>
      </trkpt>
      <trkpt lat="31.20320600591585" lon="121.61661805680977">
        <ele>5.994267214089632</ele>
        <time>2020-11-11T23:42:49Z</time>
      </trkpt>
      <trkpt lat="31.203272189834685" lon="121.61658932159878">
        <ele>4.536166705191135</ele>
        <time>2020-11-11T23:42:52Z</time>
      </trkpt>
      <trkpt lat="31.203532411986515" lon="121.61637138663724">
        <ele>5.337158725596964</ele>
        <time>2020-11-11T23:43:04Z</time>
      </trkpt>
      <trkpt lat="31.2035980805924" lon="121.61631337904339">
        <ele>6.080642964690924</ele>
        <time>2020-11-11T23:43:07Z</time>
      </trkpt>
      <trkpt lat="31.20381672371795" lon="121.61619654310203">
        <ele>5.536947033368051</ele>
        <time>2020-11-11T23:43:16Z</time>
      </trkpt>
      <trkpt lat="31.203941578540295" lon="121.61605261023844">
        <ele>6.942497172392905</ele>
        <time>2020-11-11T23:43:22Z</time>
      </trkpt>
      <trkpt lat="31.204080943025637" lon="121.6160515145457">
        <ele>6.257082657888532</ele>
        <time>2020-11-11T23:43:28Z</time>
      </trkpt>
      <trkpt lat="31.204149850694034" lon="121.61600868427196">
        <ele>5.696741980500519</ele>
        <time>2020-11-11T23:43:31Z</time>
      </trkpt>
      <trkpt lat="31.204222501503978" lon="121.6160233145181">
        <ele>6.56556495744735</ele>
        <time>2020-11-11T23:43:34Z</time>
      </trkpt>
      <trkpt lat="31.204282656176446" lon="121.61606396576109">
        <ele>5.411875938996673</ele>
        <time>2020-11-11T23:43:37Z</time>
      </trkpt>
      <trkpt lat="31.204368251534127" lon="121.61615448628397">
        <ele>5.569607053883374</ele>
        <time>2020-11-11T23:43:41Z</time>
      </trkpt>
      <trkpt lat="31.20446419387582" lon="121.61619730266578">
        <ele>6.278562361374497</ele>
        <time>2020-11-11T23:43:44Z</time>
      </trkpt>
      <trkpt lat="31.204587697926524" lon="121.6163414851697">
        <ele>7.071964635513723</ele>
        <time>2020-11-11T23:43:50Z</time>
      </trkpt>
      <trkpt lat="31.20445448930484" lon="121.61613631944905">
        <ele>7.199250731617212</ele>
        <time>2020-11-11T23:44:02Z</time>
      </trkpt>
      <trkpt lat="31.2042607827734" lon="121.6159674767008">
        <ele>7.328212128952146</ele>
        <time>2020-11-11T23:44:11Z</time>
      </trkpt>
      <trkpt lat="31.204142676298098" lon="121.61584876964974">
        <ele>6.394446639344096</ele>
        <time>2020-11-11T23:44:17Z</time>
      </trkpt>
      <trkpt lat="31.203974483221216" lon="121.61564848149102">
        <ele>6.713398516178131</ele>
        <time>2020-11-11T23:44:26Z</time>
      </trkpt>
      <trkpt lat="31.203974483221216" lon="121.61564848149102">
        <ele>6.713398516178131</ele>
        <time>2020-11-11T23:44:30Z</time>
      </trkpt>
      <trkpt lat="31.20390919375386" lon="121.61558858567962">
        <ele>7.266488288529217</ele>
        <time>2020-11-11T23:44:32Z</time>
      </trkpt>
      <trkpt lat="31.20365590310294" lon="121.61534276616484">
        <ele>1.349399927072227</ele>
        <time>2020-11-11T23:44:56Z</time>
      </trkpt>
      <trkpt lat="31.203607122982607" lon="121.61531566525387">
        <ele>4.21564662642777</ele>
        <time>2020-11-11T23:44:59Z</time>
      </trkpt>
      <trkpt lat="31.203549973857594" lon="121.61524790748362">
        <ele>6.758580032736063</ele>
        <time>2020-11-11T23:45:05Z</time>
      </trkpt>
      <trkpt lat="31.203649584620766" lon="121.61513053414986">
        <ele>6.7203754261136055</ele>
        <time>2020-11-11T23:45:11Z</time>
      </trkpt>
      <trkpt lat="31.203709815225793" lon="121.61508688980686">
        <ele>5.943505774252117</ele>
        <time>2020-11-11T23:45:14Z</time>
      </trkpt>
      <trkpt lat="31.203802405579694" lon="121.61493563455547">
        <ele>5.954333200119436</ele>
        <time>2020-11-11T23:45:20Z</time>
      </trkpt>
      <trkpt lat="31.20393942527827" lon="121.61482557509184">
        <ele>6.548599848523736</ele>
        <time>2020-11-11T23:45:26Z</time>
      </trkpt>
      <trkpt lat="31.203999956094556" lon="121.61474804819191">
        <ele>6.755394486710429</ele>
        <time>2020-11-11T23:45:29Z</time>
      </trkpt>
      <trkpt lat="31.204062632923208" lon="121.61469681336732">
        <ele>5.527868417091668</ele>
        <time>2020-11-11T23:45:32Z</time>
      </trkpt>
      <trkpt lat="31.20411042754045" lon="121.6146106132627">
        <ele>6.462671987712383</ele>
        <time>2020-11-11T23:45:35Z</time>
      </trkpt>
      <trkpt lat="31.204319107780986" lon="121.61440513348172">
        <ele>7.560713761486113</ele>
        <time>2020-11-11T23:45:51Z</time>
      </trkpt>
      <trkpt lat="31.204542182267392" lon="121.61416956280961">
        <ele>8.136092382483184</ele>
        <time>2020-11-11T23:46:15Z</time>
      </trkpt>
      <trkpt lat="31.204673205507103" lon="121.61409311220066">
        <ele>6.981124374084175</ele>
        <time>2020-11-11T23:46:27Z</time>
      </trkpt>
      <trkpt lat="31.204871296706" lon="121.61390063997847">
        <ele>7.038892542012036</ele>
        <time>2020-11-11T23:46:45Z</time>
      </trkpt>
      <trkpt lat="31.204934000131008" lon="121.61381579108755">
        <ele>7.70910663343966</ele>
        <time>2020-11-11T23:46:51Z</time>
      </trkpt>
      <trkpt lat="31.20498147082222" lon="121.61378949368338">
        <ele>6.90339021384716</ele>
        <time>2020-11-11T23:46:57Z</time>
      </trkpt>
      <trkpt lat="31.20518306915232" lon="121.61361572246439">
        <ele>7.331307730637491</ele>
        <time>2020-11-11T23:47:15Z</time>
      </trkpt>
      <trkpt lat="31.205389065588307" lon="121.61336767604764">
        <ele>6.459020911715925</ele>
        <time>2020-11-11T23:47:34Z</time>
      </trkpt>
      <trkpt lat="31.205463991031582" lon="121.61325517478882">
        <ele>7.164412509649992</ele>
        <time>2020-11-11T23:47:43Z</time>
      </trkpt>
      <trkpt lat="31.205523142544354" lon="121.61320122629044">
        <ele>5.602034337818623</ele>
        <time>2020-11-11T23:47:49Z</time>
      </trkpt>
      <trkpt lat="31.205546774094127" lon="121.61314863597687">
        <ele>6.419877344742417</ele>
        <time>2020-11-11T23:47:53Z</time>
      </trkpt>
      <trkpt lat="31.205527570736283" lon="121.61309035651308">
        <ele>7.420330912806094</ele>
        <time>2020-11-11T23:47:57Z</time>
      </trkpt>
      <trkpt lat="31.20537126330681" lon="121.612919591567">
        <ele>6.256200821138918</ele>
        <time>2020-11-11T23:48:08Z</time>
      </trkpt>
      <trkpt lat="31.205388117430775" lon="121.61286510363766">
        <ele>8.017202565446496</ele>
        <time>2020-11-11T23:48:17Z</time>
      </trkpt>
      <trkpt lat="31.20539170507822" lon="121.61278649070226">
        <ele>7.964929124340415</ele>
        <time>2020-11-11T23:48:35Z</time>
      </trkpt>
      <trkpt lat="31.205399568440775" lon="121.61278594789499">
        <ele>8.003014342859387</ele>
        <time>2020-11-11T23:48:39Z</time>
      </trkpt>
      <trkpt lat="31.205450850671546" lon="121.61273877594313">
        <ele>7.91145149525255</ele>
        <time>2020-11-11T23:48:42Z</time>
      </trkpt>
      <trkpt lat="31.20548397643403" lon="121.61267940681088">
        <ele>7.2491434486582875</ele>
        <time>2020-11-11T23:48:45Z</time>
      </trkpt>
      <trkpt lat="31.205475372085093" lon="121.61258859562365">
        <ele>6.465061577036977</ele>
        <time>2020-11-11T23:48:51Z</time>
      </trkpt>
      <trkpt lat="31.205313685870653" lon="121.61235764698384">
        <ele>6.190299472771585</ele>
        <time>2020-11-11T23:49:00Z</time>
      </trkpt>
      <trkpt lat="31.205018337113156" lon="121.61211477929933">
        <ele>6.694598619826138</ele>
        <time>2020-11-11T23:49:12Z</time>
      </trkpt>
      <trkpt lat="31.204892888565382" lon="121.61200174638307">
        <ele>7.91215546708554</ele>
        <time>2020-11-11T23:49:18Z</time>
      </trkpt>
      <trkpt lat="31.204833570649555" lon="121.61192259354765">
        <ele>8.014216048642993</ele>
        <time>2020-11-11T23:49:21Z</time>
      </trkpt>
      <trkpt lat="31.20492675783053" lon="121.61167589388464">
        <ele>7.553242705762386</ele>
        <time>2020-11-11T23:49:30Z</time>
      </trkpt>
      <trkpt lat="31.20493223048389" lon="121.61160974700738">
        <ele>6.004368185997009</ele>
        <time>2020-11-11T23:49:33Z</time>
      </trkpt>
      <trkpt lat="31.205026733631314" lon="121.61141238315653">
        <ele>3.8920462178066373</ele>
        <time>2020-11-11T23:49:39Z</time>
      </trkpt>
      <trkpt lat="31.20511107878539" lon="121.61138282685033">
        <ele>4.380986197851598</ele>
        <time>2020-11-11T23:49:42Z</time>
      </trkpt>
      <trkpt lat="31.205162098031117" lon="121.61132128399112">
        <ele>5.604814779944718</ele>
        <time>2020-11-11T23:49:45Z</time>
      </trkpt>
      <trkpt lat="31.20518873940964" lon="121.61122666919417">
        <ele>7.418469801545143</ele>
        <time>2020-11-11T23:49:48Z</time>
      </trkpt>
      <trkpt lat="31.205192323758418" lon="121.6111458819033">
        <ele>7.128098962828517</ele>
        <time>2020-11-11T23:49:51Z</time>
      </trkpt>
      <trkpt lat="31.205251215517457" lon="121.61107051172874">
        <ele>6.578583098016679</ele>
        <time>2020-11-11T23:49:54Z</time>
      </trkpt>
      <trkpt lat="31.205310743048834" lon="121.6108663685976">
        <ele>7.787308066152036</ele>
        <time>2020-11-11T23:50:01Z</time>
      </trkpt>
      <trkpt lat="31.205390812112384" lon="121.61075005931278">
        <ele>10.435787360183895</ele>
        <time>2020-11-11T23:50:07Z</time>
      </trkpt>
      <trkpt lat="31.205437192103677" lon="121.61072809616734">
        <ele>8.975887388922274</ele>
        <time>2020-11-11T23:50:10Z</time>
      </trkpt>
      <trkpt lat="31.205480336375548" lon="121.61068119177871">
        <ele>8.524169567972422</ele>
        <time>2020-11-11T23:50:13Z</time>
      </trkpt>
      <trkpt lat="31.205541336807304" lon="121.61068823542033">
        <ele>8.122183753177524</ele>
        <time>2020-11-11T23:50:16Z</time>
      </trkpt>
      <trkpt lat="31.20561649209126" lon="121.61061747115892">
        <ele>7.951335666701198</ele>
        <time>2020-11-11T23:50:22Z</time>
      </trkpt>
      <trkpt lat="31.205653435806745" lon="121.61052041264603">
        <ele>8.810067196376622</ele>
        <time>2020-11-11T23:50:28Z</time>
      </trkpt>
      <trkpt lat="31.205618540132757" lon="121.61040655105623">
        <ele>5.687684193253517</ele>
        <time>2020-11-11T23:50:34Z</time>
      </trkpt>
      <trkpt lat="31.205480120787353" lon="121.61022058262793">
        <ele>7.276387671008706</ele>
        <time>2020-11-11T23:50:49Z</time>
      </trkpt>
      <trkpt lat="31.20545766694164" lon="121.61014846942928">
        <ele>8.455515682697296</ele>
        <time>2020-11-11T23:50:55Z</time>
      </trkpt>
      <trkpt lat="31.20534844859117" lon="121.61007771872583">
        <ele>7.853531290777028</ele>
        <time>2020-11-11T23:51:01Z</time>
      </trkpt>
      <trkpt lat="31.205315180030723" lon="121.60996060143248">
        <ele>8.240165091119707</ele>
        <time>2020-11-11T23:51:07Z</time>
      </trkpt>
      <trkpt lat="31.20515742177773" lon="121.6098988008723">
        <ele>8.044139633886516</ele>
        <time>2020-11-11T23:51:16Z</time>
      </trkpt>
      <trkpt lat="31.205108104181676" lon="121.60985651133485">
        <ele>7.424080789089203</ele>
        <time>2020-11-11T23:51:19Z</time>
      </trkpt>
      <trkpt lat="31.205084024547666" lon="121.60978141485327">
        <ele>6.843804440461099</ele>
        <time>2020-11-11T23:51:22Z</time>
      </trkpt>
      <trkpt lat="31.20483854141951" lon="121.60953743116056">
        <ele>7.0386601611971855</ele>
        <time>2020-11-11T23:51:37Z</time>
      </trkpt>
      <trkpt lat="31.204739486014045" lon="121.60926794742362">
        <ele>9.320831167511642</ele>
        <time>2020-11-11T23:51:52Z</time>
      </trkpt>
      <trkpt lat="31.204757212897817" lon="121.609111780141">
        <ele>7.686702982522547</ele>
        <time>2020-11-11T23:51:58Z</time>
      </trkpt>
      <trkpt lat="31.204799262546373" lon="121.6090757173894">
        <ele>7.1351103549823165</ele>
        <time>2020-11-11T23:52:01Z</time>
      </trkpt>
      <trkpt lat="31.204824806358744" lon="121.60898841363252">
        <ele>7.843757093884051</ele>
        <time>2020-11-11T23:52:08Z</time>
      </trkpt>
      <trkpt lat="31.204824806358744" lon="121.60898841363252">
        <ele>7.843757093884051</ele>
        <time>2020-11-11T23:52:08Z</time>
      </trkpt>
    </trkseg>
  </trk>
</gpx>