<?xml version="1.0" encoding="UTF-8"?>
<gpx xmlns="http://www.topografix.com/GPX/1/1" xmlns:gpxtpx="http://www.garmin.com/xmlschemas/TrackPointExtension/v1" xmlns:xsi="http://www.w3.org/2001/XMLSchema-instance" xsi:schemaLocation="http://www.topografix.com/GPX/1/1 http://www.topografix.com/GPX/1/1/gpx.xsd" version="1.1" creator="gpx.py -- https://github.com/tkrajina/gpxpy">
  <trk>
    <name>gpx from keep</name>
    <type>Run</type>
    <trkseg>
      <trkpt lat="31.204960090565613" lon="121.61341487796504">
        <ele>9.93429183959961</ele>
        <time>2018-10-09T22:17:20Z</time>
      </trkpt>
      <trkpt lat="31.20469121738646" lon="121.61363040085527">
        <ele>10.03145980834961</ele>
        <time>2018-10-09T22:17:32Z</time>
      </trkpt>
      <trkpt lat="31.20443071749076" lon="121.61388197287373">
        <ele>9.970966983424702</ele>
        <time>2018-10-09T22:17:46Z</time>
      </trkpt>
      <trkpt lat="31.204193276975165" lon="121.61411565014578">
        <ele>9.570386672815381</ele>
        <time>2018-10-09T22:17:59Z</time>
      </trkpt>
      <trkpt lat="31.20393954918037" lon="121.61436938493586">
        <ele>9.048413003957045</ele>
        <time>2018-10-09T22:18:13Z</time>
      </trkpt>
      <trkpt lat="31.203868156542153" lon="121.61446724341228">
        <ele>9.153042630322304</ele>
        <time>2018-10-09T22:18:16Z</time>
      </trkpt>
      <trkpt lat="31.20372567005064" lon="121.61462989016168">
        <ele>8.5495641810164</ele>
        <time>2018-10-09T22:18:24Z</time>
      </trkpt>
      <trkpt lat="31.203700902283437" lon="121.61473858596142">
        <ele>8.08250416282634</ele>
        <time>2018-10-09T22:18:29Z</time>
      </trkpt>
      <trkpt lat="31.20381245495348" lon="121.61491584678224">
        <ele>7.785595578145532</ele>
        <time>2018-10-09T22:18:36Z</time>
      </trkpt>
      <trkpt lat="31.203829168526322" lon="121.61502589311762">
        <ele>8.077279288867821</ele>
        <time>2018-10-09T22:18:39Z</time>
      </trkpt>
      <trkpt lat="31.203576231954692" lon="121.61529506802987">
        <ele>7.978442637343143</ele>
        <time>2018-10-09T22:18:55Z</time>
      </trkpt>
      <trkpt lat="31.20342131743639" lon="121.61540295843609">
        <ele>7.253075185050662</ele>
        <time>2018-10-09T22:19:02Z</time>
      </trkpt>
      <trkpt lat="31.203187904860194" lon="121.61566562243127">
        <ele>7.276253263475972</ele>
        <time>2018-10-09T22:19:15Z</time>
      </trkpt>
      <trkpt lat="31.202975125314147" lon="121.61589629880727">
        <ele>7.325034309317566</ele>
        <time>2018-10-09T22:19:26Z</time>
      </trkpt>
      <trkpt lat="31.20275913144752" lon="121.61608225153064">
        <ele>7.3873640717309215</ele>
        <time>2018-10-09T22:19:37Z</time>
      </trkpt>
      <trkpt lat="31.202497763218346" lon="121.61636903287607">
        <ele>7.403523306330179</ele>
        <time>2018-10-09T22:19:50Z</time>
      </trkpt>
      <trkpt lat="31.202223647479567" lon="121.61665716708809">
        <ele>7.174227595893328</ele>
        <time>2018-10-09T22:20:04Z</time>
      </trkpt>
      <trkpt lat="31.202164994493142" lon="121.61675040768677">
        <ele>7.319000104650122</ele>
        <time>2018-10-09T22:20:08Z</time>
      </trkpt>
      <trkpt lat="31.201951950992232" lon="121.61696426991803">
        <ele>5.868628726884758</ele>
        <time>2018-10-09T22:20:19Z</time>
      </trkpt>
      <trkpt lat="31.201744072534858" lon="121.61716241018547">
        <ele>6.014731223878549</ele>
        <time>2018-10-09T22:20:30Z</time>
      </trkpt>
      <trkpt lat="31.201613280682004" lon="121.6172716454941">
        <ele>6.011246183481347</ele>
        <time>2018-10-09T22:20:37Z</time>
      </trkpt>
      <trkpt lat="31.20137740377705" lon="121.61754133631375">
        <ele>5.838043033715351</ele>
        <time>2018-10-09T22:20:51Z</time>
      </trkpt>
      <trkpt lat="31.201174660709896" lon="121.61775193859582">
        <ele>5.863434475345748</ele>
        <time>2018-10-09T22:21:01Z</time>
      </trkpt>
      <trkpt lat="31.200940659290747" lon="121.6180397823807">
        <ele>5.242049315154247</ele>
        <time>2018-10-09T22:21:16Z</time>
      </trkpt>
      <trkpt lat="31.200728671320647" lon="121.61827314667349">
        <ele>5.384802962065159</ele>
        <time>2018-10-09T22:21:26Z</time>
      </trkpt>
      <trkpt lat="31.20049927237659" lon="121.61856261018785">
        <ele>5.449729055979866</ele>
        <time>2018-10-09T22:21:40Z</time>
      </trkpt>
      <trkpt lat="31.200304641912123" lon="121.61878702482733">
        <ele>4.762564906952257</ele>
        <time>2018-10-09T22:21:50Z</time>
      </trkpt>
      <trkpt lat="31.20008720307984" lon="121.61904206338127">
        <ele>4.47970413480536</ele>
        <time>2018-10-09T22:22:02Z</time>
      </trkpt>
      <trkpt lat="31.199893649853013" lon="121.61926999678039">
        <ele>4.543765603560651</ele>
        <time>2018-10-09T22:22:14Z</time>
      </trkpt>
      <trkpt lat="31.19962683613284" lon="121.61954834089615">
        <ele>4.473242674014983</ele>
        <time>2018-10-09T22:22:28Z</time>
      </trkpt>
      <trkpt lat="31.199384713253423" lon="121.61980743890749">
        <ele>4.170518292912412</ele>
        <time>2018-10-09T22:22:42Z</time>
      </trkpt>
      <trkpt lat="31.19924764118186" lon="121.61994918322797">
        <ele>4.469410774719968</ele>
        <time>2018-10-09T22:22:50Z</time>
      </trkpt>
      <trkpt lat="31.199189803934217" lon="121.62003021665193">
        <ele>4.59833937212175</ele>
        <time>2018-10-09T22:22:54Z</time>
      </trkpt>
      <trkpt lat="31.199052232899373" lon="121.62013022623856">
        <ele>4.6275301531939945</ele>
        <time>2018-10-09T22:23:01Z</time>
      </trkpt>
      <trkpt lat="31.19898817235117" lon="121.62019879377">
        <ele>4.480160399082983</ele>
        <time>2018-10-09T22:23:04Z</time>
      </trkpt>
      <trkpt lat="31.198875034649156" lon="121.62026899115622">
        <ele>4.469187415821814</ele>
        <time>2018-10-09T22:23:08Z</time>
      </trkpt>
      <trkpt lat="31.198631434068584" lon="121.62038337131746">
        <ele>4.084015772306451</ele>
        <time>2018-10-09T22:23:18Z</time>
      </trkpt>
      <trkpt lat="31.198367301784" lon="121.62067985966156">
        <ele>3.909373493593094</ele>
        <time>2018-10-09T22:23:33Z</time>
      </trkpt>
      <trkpt lat="31.19811405301316" lon="121.62093867631005">
        <ele>4.453900529098824</ele>
        <time>2018-10-09T22:23:47Z</time>
      </trkpt>
      <trkpt lat="31.19786598125585" lon="121.62117228824553">
        <ele>4.42962231605857</ele>
        <time>2018-10-09T22:24:01Z</time>
      </trkpt>
      <trkpt lat="31.197590250583488" lon="121.6214072553201">
        <ele>4.4014527635046505</ele>
        <time>2018-10-09T22:24:15Z</time>
      </trkpt>
      <trkpt lat="31.197325092349246" lon="121.62164221943381">
        <ele>4.576775820778863</ele>
        <time>2018-10-09T22:24:29Z</time>
      </trkpt>
      <trkpt lat="31.197103337407533" lon="121.62185604148397">
        <ele>4.854180183658279</ele>
        <time>2018-10-09T22:24:41Z</time>
      </trkpt>
      <trkpt lat="31.19683627082241" lon="121.62209723426814">
        <ele>5.411155047425936</ele>
        <time>2018-10-09T22:24:55Z</time>
      </trkpt>
      <trkpt lat="31.196640294124588" lon="121.62229018546827">
        <ele>5.818644151955247</ele>
        <time>2018-10-09T22:25:06Z</time>
      </trkpt>
      <trkpt lat="31.196625832025532" lon="121.62237120810472">
        <ele>6.398565361054352</ele>
        <time>2018-10-09T22:25:09Z</time>
      </trkpt>
      <trkpt lat="31.19670004559588" lon="121.62267604633165">
        <ele>6.244784305212171</ele>
        <time>2018-10-09T22:25:19Z</time>
      </trkpt>
      <trkpt lat="31.196777414329677" lon="121.62306325506616">
        <ele>4.655756870069155</ele>
        <time>2018-10-09T22:25:33Z</time>
      </trkpt>
      <trkpt lat="31.196834701940883" lon="121.62346102753074">
        <ele>3.654650137352874</ele>
        <time>2018-10-09T22:25:48Z</time>
      </trkpt>
      <trkpt lat="31.196884756258406" lon="121.62378075837363">
        <ele>3.260668835802079</ele>
        <time>2018-10-09T22:25:59Z</time>
      </trkpt>
      <trkpt lat="31.19694465402135" lon="121.62402841000032">
        <ele>2.883394511081221</ele>
        <time>2018-10-09T22:26:08Z</time>
      </trkpt>
      <trkpt lat="31.196963430262045" lon="121.62397123628018">
        <ele>2.9493409127695855</ele>
        <time>2018-10-09T22:26:12Z</time>
      </trkpt>
      <trkpt lat="31.19693859938308" lon="121.62364635729037">
        <ele>3.4799059300024027</ele>
        <time>2018-10-09T22:26:23Z</time>
      </trkpt>
      <trkpt lat="31.196928743882854" lon="121.6232645705557">
        <ele>3.5067487685341234</ele>
        <time>2018-10-09T22:26:37Z</time>
      </trkpt>
      <trkpt lat="31.196831826966356" lon="121.62290256643485">
        <ele>3.2690724181517297</ele>
        <time>2018-10-09T22:26:50Z</time>
      </trkpt>
      <trkpt lat="31.196841711152647" lon="121.62279553266018">
        <ele>2.5085830643025275</ele>
        <time>2018-10-09T22:26:55Z</time>
      </trkpt>
      <trkpt lat="31.19703497167084" lon="121.6226096305755">
        <ele>2.8710239103401705</ele>
        <time>2018-10-09T22:27:05Z</time>
      </trkpt>
      <trkpt lat="31.197144662628375" lon="121.62247576104306">
        <ele>3.1383324285177707</ele>
        <time>2018-10-09T22:27:12Z</time>
      </trkpt>
      <trkpt lat="31.197298483713702" lon="121.62239824985089">
        <ele>3.266169399304367</ele>
        <time>2018-10-09T22:27:20Z</time>
      </trkpt>
      <trkpt lat="31.19755742153099" lon="121.62215462166282">
        <ele>3.0786662982666755</ele>
        <time>2018-10-09T22:27:34Z</time>
      </trkpt>
      <trkpt lat="31.197767738670123" lon="121.62198741124121">
        <ele>3.4464588761569956</ele>
        <time>2018-10-09T22:27:45Z</time>
      </trkpt>
      <trkpt lat="31.19790509869087" lon="121.62183917439647">
        <ele>4.359243931626082</ele>
        <time>2018-10-09T22:27:52Z</time>
      </trkpt>
      <trkpt lat="31.198189157130393" lon="121.62167683356114">
        <ele>3.8874864930191393</ele>
        <time>2018-10-09T22:28:06Z</time>
      </trkpt>
      <trkpt lat="31.198375621262496" lon="121.62150122164141">
        <ele>3.8812499400791225</ele>
        <time>2018-10-09T22:28:17Z</time>
      </trkpt>
      <trkpt lat="31.19859069956323" lon="121.62119282324015">
        <ele>4.461551772363812</ele>
        <time>2018-10-09T22:28:30Z</time>
      </trkpt>
      <trkpt lat="31.198879692181674" lon="121.62097817730502">
        <ele>4.720154318975865</ele>
        <time>2018-10-09T22:28:44Z</time>
      </trkpt>
      <trkpt lat="31.199138593604257" lon="121.62075784130084">
        <ele>4.248994795315156</ele>
        <time>2018-10-09T22:28:58Z</time>
      </trkpt>
      <trkpt lat="31.19927993747072" lon="121.62068113910084">
        <ele>4.425212488894154</ele>
        <time>2018-10-09T22:29:05Z</time>
      </trkpt>
      <trkpt lat="31.199365364052003" lon="121.62066324658164">
        <ele>4.5757477628040135</ele>
        <time>2018-10-09T22:29:09Z</time>
      </trkpt>
      <trkpt lat="31.199673042755492" lon="121.62071741941739">
        <ele>4.963394921296327</ele>
        <time>2018-10-09T22:29:23Z</time>
      </trkpt>
      <trkpt lat="31.19997097675484" lon="121.6207566884572">
        <ele>4.7307246293129595</ele>
        <time>2018-10-09T22:29:36Z</time>
      </trkpt>
      <trkpt lat="31.20027866161601" lon="121.62080517030195">
        <ele>4.626441878875099</ele>
        <time>2018-10-09T22:29:50Z</time>
      </trkpt>
      <trkpt lat="31.200607476403995" lon="121.62087072265845">
        <ele>3.5625585176303574</ele>
        <time>2018-10-09T22:30:04Z</time>
      </trkpt>
      <trkpt lat="31.200933052576097" lon="121.620922454679">
        <ele>3.226171149187607</ele>
        <time>2018-10-09T22:30:19Z</time>
      </trkpt>
      <trkpt lat="31.20121716200038" lon="121.62095874367728">
        <ele>3.2792994870840673</ele>
        <time>2018-10-09T22:30:29Z</time>
      </trkpt>
      <trkpt lat="31.201570385334172" lon="121.62101833189018">
        <ele>2.490254504211677</ele>
        <time>2018-10-09T22:30:44Z</time>
      </trkpt>
      <trkpt lat="31.201860434263065" lon="121.62107792519538">
        <ele>2.1956673521368444</ele>
        <time>2018-10-09T22:30:58Z</time>
      </trkpt>
      <trkpt lat="31.202192784920626" lon="121.62113317907375">
        <ele>2.0026440978088758</ele>
        <time>2018-10-09T22:31:12Z</time>
      </trkpt>
      <trkpt lat="31.20243189818964" lon="121.62115836105289">
        <ele>1.827726911528714</ele>
        <time>2018-10-09T22:31:23Z</time>
      </trkpt>
      <trkpt lat="31.20247719048773" lon="121.62114670487648">
        <ele>1.5123963534609075</ele>
        <time>2018-10-09T22:31:30Z</time>
      </trkpt>
      <trkpt lat="31.20245095957568" lon="121.62108356705815">
        <ele>1.7075250302307126</ele>
        <time>2018-10-09T22:32:04Z</time>
      </trkpt>
      <trkpt lat="31.202411427199547" lon="121.62078575348407">
        <ele>2.235027196433947</ele>
        <time>2018-10-09T22:32:15Z</time>
      </trkpt>
      <trkpt lat="31.202415431398684" lon="121.6205930782112">
        <ele>1.4365887805964377</ele>
        <time>2018-10-09T22:32:22Z</time>
      </trkpt>
      <trkpt lat="31.202380994984978" lon="121.62034268280729">
        <ele>1.4917268214332324</ele>
        <time>2018-10-09T22:32:33Z</time>
      </trkpt>
      <trkpt lat="31.20243822529434" lon="121.62032316641776">
        <ele>0.948931277470308</ele>
        <time>2018-10-09T22:32:39Z</time>
      </trkpt>
      <trkpt lat="31.202513566008257" lon="121.62035567959725">
        <ele>1.2382094402945896</ele>
        <time>2018-10-09T22:33:07Z</time>
      </trkpt>
      <trkpt lat="31.2027966708169" lon="121.62031825883899">
        <ele>1.0135741934853826</ele>
        <time>2018-10-09T22:33:19Z</time>
      </trkpt>
      <trkpt lat="31.20288863243807" lon="121.62027434994674">
        <ele>0.9082024109737503</ele>
        <time>2018-10-09T22:33:23Z</time>
      </trkpt>
      <trkpt lat="31.202911487204005" lon="121.6201998241043">
        <ele>1.0930593312408519</ele>
        <time>2018-10-09T22:33:27Z</time>
      </trkpt>
      <trkpt lat="31.202758951731756" lon="121.6198364277665">
        <ele>0.9020011954930851</ele>
        <time>2018-10-09T22:33:42Z</time>
      </trkpt>
      <trkpt lat="31.20269301646246" lon="121.61962505205281">
        <ele>0.9623893497629297</ele>
        <time>2018-10-09T22:33:52Z</time>
      </trkpt>
      <trkpt lat="31.202618815896233" lon="121.61927708847425">
        <ele>1.3053311373542655</ele>
        <time>2018-10-09T22:34:06Z</time>
      </trkpt>
      <trkpt lat="31.20251992488352" lon="121.61894185966347">
        <ele>1.6736858483890558</ele>
        <time>2018-10-09T22:34:20Z</time>
      </trkpt>
      <trkpt lat="31.202463793666922" lon="121.6186814224918">
        <ele>1.57238650547297</ele>
        <time>2018-10-09T22:34:30Z</time>
      </trkpt>
      <trkpt lat="31.20254084585532" lon="121.61863209176688">
        <ele>1.9574439852005696</ele>
        <time>2018-10-09T22:34:33Z</time>
      </trkpt>
      <trkpt lat="31.20277955199811" lon="121.61852556361495">
        <ele>1.6448070819269986</ele>
        <time>2018-10-09T22:34:45Z</time>
      </trkpt>
      <trkpt lat="31.202836286521045" lon="121.61845861829575">
        <ele>2.2188805444743522</ele>
        <time>2018-10-09T22:34:48Z</time>
      </trkpt>
      <trkpt lat="31.202825870545983" lon="121.61830061689565">
        <ele>2.180788409797067</ele>
        <time>2018-10-09T22:34:55Z</time>
      </trkpt>
      <trkpt lat="31.2027460611942" lon="121.61812446200194">
        <ele>1.9397581495840441</ele>
        <time>2018-10-09T22:35:03Z</time>
      </trkpt>
      <trkpt lat="31.202707700149094" lon="121.61798299304755">
        <ele>1.9928081890002431</ele>
        <time>2018-10-09T22:35:09Z</time>
      </trkpt>
      <trkpt lat="31.202715632319038" lon="121.6179127980695">
        <ele>2.238887210455836</ele>
        <time>2018-10-09T22:35:12Z</time>
      </trkpt>
      <trkpt lat="31.202643389253684" lon="121.61776021879774">
        <ele>2.3598914020230737</ele>
        <time>2018-10-09T22:35:19Z</time>
      </trkpt>
      <trkpt lat="31.202515582529685" lon="121.61758731636267">
        <ele>3.419844875912368</ele>
        <time>2018-10-09T22:35:26Z</time>
      </trkpt>
      <trkpt lat="31.202442096512357" lon="121.61731629649967">
        <ele>2.5771689525877477</ele>
        <time>2018-10-09T22:35:37Z</time>
      </trkpt>
      <trkpt lat="31.20245788550594" lon="121.61725070647076">
        <ele>2.7012200550080863</ele>
        <time>2018-10-09T22:35:40Z</time>
      </trkpt>
      <trkpt lat="31.202539275973425" lon="121.61719866228074">
        <ele>3.1704383794789237</ele>
        <time>2018-10-09T22:35:44Z</time>
      </trkpt>
      <trkpt lat="31.202796277729124" lon="121.61695064850973">
        <ele>2.450523357771992</ele>
        <time>2018-10-09T22:35:59Z</time>
      </trkpt>
      <trkpt lat="31.202989472091037" lon="121.61679641516373">
        <ele>2.56082378311217</ele>
        <time>2018-10-09T22:36:10Z</time>
      </trkpt>
      <trkpt lat="31.20308962552122" lon="121.61668555408141">
        <ele>2.1307576796393803</ele>
        <time>2018-10-09T22:36:16Z</time>
      </trkpt>
      <trkpt lat="31.203179120737712" lon="121.61666359288675">
        <ele>2.858528760236773</ele>
        <time>2018-10-09T22:36:20Z</time>
      </trkpt>
      <trkpt lat="31.203262680008102" lon="121.61661073417334">
        <ele>2.765911622795784</ele>
        <time>2018-10-09T22:36:23Z</time>
      </trkpt>
      <trkpt lat="31.203356333592485" lon="121.61649119962456">
        <ele>2.6793346417216455</ele>
        <time>2018-10-09T22:36:30Z</time>
      </trkpt>
      <trkpt lat="31.203647997871304" lon="121.61628274754909">
        <ele>2.570697838368183</ele>
        <time>2018-10-09T22:36:45Z</time>
      </trkpt>
      <trkpt lat="31.203718000698448" lon="121.61622880497775">
        <ele>3.0344024174378887</ele>
        <time>2018-10-09T22:36:48Z</time>
      </trkpt>
      <trkpt lat="31.203856062101668" lon="121.61617079105757">
        <ele>3.246499256225434</ele>
        <time>2018-10-09T22:36:56Z</time>
      </trkpt>
      <trkpt lat="31.203916313844324" lon="121.61610600741729">
        <ele>3.451543408564426</ele>
        <time>2018-10-09T22:37:00Z</time>
      </trkpt>
      <trkpt lat="31.203965198666857" lon="121.61601845704962">
        <ele>3.3700078930470383</ele>
        <time>2018-10-09T22:37:03Z</time>
      </trkpt>
      <trkpt lat="31.20401566709728" lon="121.61597779658047">
        <ele>3.4764400128799906</ele>
        <time>2018-10-09T22:37:06Z</time>
      </trkpt>
      <trkpt lat="31.20416181195573" lon="121.61597453198591">
        <ele>3.256232215195503</ele>
        <time>2018-10-09T22:37:14Z</time>
      </trkpt>
      <trkpt lat="31.204246155120885" lon="121.61595257057932">
        <ele>3.326518149184075</ele>
        <time>2018-10-09T22:37:17Z</time>
      </trkpt>
      <trkpt lat="31.20449292920652" lon="121.61620272108325">
        <ele>3.1957526762551396</ele>
        <time>2018-10-09T22:37:31Z</time>
      </trkpt>
      <trkpt lat="31.204584459161644" lon="121.61632549418171">
        <ele>2.9084439948096446</ele>
        <time>2018-10-09T22:37:38Z</time>
      </trkpt>
      <trkpt lat="31.204630533277143" lon="121.61634581823641">
        <ele>3.6752795876885003</ele>
        <time>2018-10-09T22:37:42Z</time>
      </trkpt>
      <trkpt lat="31.20450839093375" lon="121.6161951306919">
        <ele>3.850960178210798</ele>
        <time>2018-10-09T22:37:49Z</time>
      </trkpt>
      <trkpt lat="31.204331489663094" lon="121.6160322498772">
        <ele>4.184070207151628</ele>
        <time>2018-10-09T22:37:59Z</time>
      </trkpt>
      <trkpt lat="31.20406603061822" lon="121.61575472366717">
        <ele>5.0233005714902035</ele>
        <time>2018-10-09T22:38:13Z</time>
      </trkpt>
      <trkpt lat="31.203822501796918" lon="121.61550944713017">
        <ele>4.113973397815279</ele>
        <time>2018-10-09T22:38:27Z</time>
      </trkpt>
      <trkpt lat="31.203646691771638" lon="121.61533463544627">
        <ele>2.763240243127605</ele>
        <time>2018-10-09T22:38:38Z</time>
      </trkpt>
      <trkpt lat="31.203579755502634" lon="121.6152964229876">
        <ele>1.6445158885658984</ele>
        <time>2018-10-09T22:38:41Z</time>
      </trkpt>
      <trkpt lat="31.20355187132084" lon="121.61524844942743">
        <ele>1.2173772943058054</ele>
        <time>2018-10-09T22:38:48Z</time>
      </trkpt>
      <trkpt lat="31.20378199005494" lon="121.61502698123086">
        <ele>2.74428667935765</ele>
        <time>2018-10-09T22:39:06Z</time>
      </trkpt>
      <trkpt lat="31.2038889618802" lon="121.61486244273515">
        <ele>2.4381526333068138</ele>
        <time>2018-10-09T22:39:13Z</time>
      </trkpt>
      <trkpt lat="31.204127501307443" lon="121.61461955674886">
        <ele>3.4203766765053416</ele>
        <time>2018-10-09T22:39:28Z</time>
      </trkpt>
      <trkpt lat="31.204382064403998" lon="121.61434305547593">
        <ele>4.144854503977385</ele>
        <time>2018-10-09T22:39:43Z</time>
      </trkpt>
      <trkpt lat="31.204583701886854" lon="121.6141272735742">
        <ele>4.662942438588523</ele>
        <time>2018-10-09T22:39:53Z</time>
      </trkpt>
      <trkpt lat="31.204810272561613" lon="121.61392287239907">
        <ele>5.483315635417654</ele>
        <time>2018-10-09T22:40:07Z</time>
      </trkpt>
      <trkpt lat="31.205002694471947" lon="121.61369949753272">
        <ele>5.971255452765888</ele>
        <time>2018-10-09T22:40:18Z</time>
      </trkpt>
      <trkpt lat="31.205269702935198" lon="121.61344439911007">
        <ele>6.869508390358497</ele>
        <time>2018-10-09T22:40:32Z</time>
      </trkpt>
      <trkpt lat="31.2055077105333" lon="121.61317330695739">
        <ele>7.137701230433812</ele>
        <time>2018-10-09T22:40:46Z</time>
      </trkpt>
      <trkpt lat="31.20562276739199" lon="121.613055651016">
        <ele>7.295194602328735</ele>
        <time>2018-10-09T22:40:53Z</time>
      </trkpt>
      <trkpt lat="31.205743749223412" lon="121.6129870588358">
        <ele>7.309633627906884</ele>
        <time>2018-10-09T22:40:59Z</time>
      </trkpt>
      <trkpt lat="31.205965761948942" lon="121.61270755925169">
        <ele>7.267398965919625</ele>
        <time>2018-10-09T22:41:13Z</time>
      </trkpt>
      <trkpt lat="31.206049900248324" lon="121.6125988491866">
        <ele>7.530384333290193</ele>
        <time>2018-10-09T22:41:20Z</time>
      </trkpt>
      <trkpt lat="31.206272137898555" lon="121.61237329057266">
        <ele>7.3317275112859335</ele>
        <time>2018-10-09T22:41:33Z</time>
      </trkpt>
      <trkpt lat="31.2065307228504" lon="121.6121257687885">
        <ele>7.877430880692131</ele>
        <time>2018-10-09T22:41:48Z</time>
      </trkpt>
      <trkpt lat="31.206749696903433" lon="121.61190806741836">
        <ele>8.308754575637877</ele>
        <time>2018-10-09T22:42:09Z</time>
      </trkpt>
      <trkpt lat="31.206767390685" lon="121.61181643776608">
        <ele>7.626808996392477</ele>
        <time>2018-10-09T22:42:16Z</time>
      </trkpt>
      <trkpt lat="31.20660300697189" lon="121.61155783018322">
        <ele>8.032406829263799</ele>
        <time>2018-10-09T22:42:37Z</time>
      </trkpt>
      <trkpt lat="31.206369998020396" lon="121.61133338342887">
        <ele>7.824914793654905</ele>
        <time>2018-10-09T22:42:58Z</time>
      </trkpt>
      <trkpt lat="31.206143750233473" lon="121.61112980846968">
        <ele>7.888667961648409</ele>
        <time>2018-10-09T22:43:19Z</time>
      </trkpt>
      <trkpt lat="31.206072536728634" lon="121.61099995806417">
        <ele>7.162796382873182</ele>
        <time>2018-10-09T22:43:29Z</time>
      </trkpt>
      <trkpt lat="31.205921010859747" lon="121.61094656392689">
        <ele>7.000917386393255</ele>
        <time>2018-10-09T22:43:40Z</time>
      </trkpt>
      <trkpt lat="31.205874408864126" lon="121.61090075181036">
        <ele>6.983653091301811</ele>
        <time>2018-10-09T22:43:43Z</time>
      </trkpt>
      <trkpt lat="31.2057455143448" lon="121.61067086792849">
        <ele>7.216230658583349</ele>
        <time>2018-10-09T22:44:00Z</time>
      </trkpt>
      <trkpt lat="31.205699988062463" lon="121.61063671263592">
        <ele>6.984806901482294</ele>
        <time>2018-10-09T22:44:04Z</time>
      </trkpt>
      <trkpt lat="31.205514717450612" lon="121.61037511125502">
        <ele>7.794274771172489</ele>
        <time>2018-10-09T22:44:28Z</time>
      </trkpt>
      <trkpt lat="31.205447824865143" lon="121.61026450488028">
        <ele>6.94994514804084</ele>
        <time>2018-10-09T22:44:42Z</time>
      </trkpt>
      <trkpt lat="31.20549499330732" lon="121.61027751417421">
        <ele>7.071434989541814</ele>
        <time>2018-10-09T22:44:52Z</time>
      </trkpt>
      <trkpt lat="31.20550903279247" lon="121.61036209858773">
        <ele>6.888359815455843</ele>
        <time>2018-10-09T22:44:59Z</time>
      </trkpt>
      <trkpt lat="31.205506735252598" lon="121.61054319760024">
        <ele>6.690084513442486</ele>
        <time>2018-10-09T22:45:03Z</time>
      </trkpt>
      <trkpt lat="31.205463857133093" lon="121.61059742206847">
        <ele>7.047190876636002</ele>
        <time>2018-10-09T22:45:07Z</time>
      </trkpt>
      <trkpt lat="31.205463857133093" lon="121.61059742206847">
        <ele>7.047190876636002</ele>
        <time>2018-10-09T22:45:19Z</time>
      </trkpt>
      <trkpt lat="31.205239372006055" lon="121.61019267830666">
        <ele>7.831388310251853</ele>
        <time>2018-10-09T22:45:32Z</time>
      </trkpt>
      <trkpt lat="31.2053323616146" lon="121.61020676828994">
        <ele>7.653892328619669</ele>
        <time>2018-10-09T22:45:39Z</time>
      </trkpt>
      <trkpt lat="31.205402323676633" lon="121.61019374927241">
        <ele>7.527129536758103</ele>
        <time>2018-10-09T22:45:42Z</time>
      </trkpt>
      <trkpt lat="31.20544842391579" lon="121.6101834433126">
        <ele>7.581777187941164</ele>
        <time>2018-10-09T22:45:45Z</time>
      </trkpt>
      <trkpt lat="31.205393139525867" lon="121.61014440811829">
        <ele>7.462885407480847</ele>
        <time>2018-10-09T22:45:51Z</time>
      </trkpt>
      <trkpt lat="31.205347594054437" lon="121.61013682081025">
        <ele>7.565350349313896</ele>
        <time>2018-10-09T22:45:55Z</time>
      </trkpt>
      <trkpt lat="31.205304720584067" lon="121.61018562406598">
        <ele>7.480499218275135</ele>
        <time>2018-10-09T22:46:02Z</time>
      </trkpt>
      <trkpt lat="31.20527812692654" lon="121.6102176171293">
        <ele>7.52469890223734</ele>
        <time>2018-10-09T22:46:06Z</time>
      </trkpt>
      <trkpt lat="31.205173974026124" lon="121.61027022079186">
        <ele>7.3947873204821235</ele>
        <time>2018-10-09T22:46:12Z</time>
      </trkpt>
      <trkpt lat="31.205032089787235" lon="121.61038436878742">
        <ele>7.3822539200993305</ele>
        <time>2018-10-09T22:46:26Z</time>
      </trkpt>
      <trkpt lat="31.204978628894693" lon="121.61045106539126">
        <ele>7.275333567311911</ele>
        <time>2018-10-09T22:46:33Z</time>
      </trkpt>
      <trkpt lat="31.204881541060555" lon="121.61048116616804">
        <ele>7.498581447051031</ele>
        <time>2018-10-09T22:46:40Z</time>
      </trkpt>
    </trkseg>
  </trk>
</gpx>