<?xml version="1.0" encoding="UTF-8"?>
<gpx xmlns="http://www.topografix.com/GPX/1/1" xmlns:gpxtpx="http://www.garmin.com/xmlschemas/TrackPointExtension/v1" xmlns:xsi="http://www.w3.org/2001/XMLSchema-instance" xsi:schemaLocation="http://www.topografix.com/GPX/1/1 http://www.topografix.com/GPX/1/1/gpx.xsd" version="1.1" creator="gpx.py -- https://github.com/tkrajina/gpxpy">
  <trk>
    <name>gpx from keep</name>
    <type>Run</type>
    <trkseg>
      <trkpt lat="31.204442554057344" lon="121.61050777079937">
        <ele>8.813336993005361</ele>
        <time>2020-05-12T22:53:54Z</time>
      </trkpt>
      <trkpt lat="31.20449426584939" lon="121.61061295516328">
        <ele>8.860302687446875</ele>
        <time>2020-05-12T22:53:57Z</time>
      </trkpt>
      <trkpt lat="31.204557400356883" lon="121.61066879732253">
        <ele>8.845769461514166</ele>
        <time>2020-05-12T22:54:00Z</time>
      </trkpt>
      <trkpt lat="31.20465281253058" lon="121.61070701498872">
        <ele>8.86147658713162</ele>
        <time>2020-05-12T22:54:04Z</time>
      </trkpt>
      <trkpt lat="31.204679895420806" lon="121.61074957587955">
        <ele>8.838249896652997</ele>
        <time>2020-05-12T22:54:07Z</time>
      </trkpt>
      <trkpt lat="31.204789764123493" lon="121.61066769369951">
        <ele>8.506469182670116</ele>
        <time>2020-05-12T22:54:15Z</time>
      </trkpt>
      <trkpt lat="31.204890178237264" lon="121.61053619984098">
        <ele>8.47759829647839</ele>
        <time>2020-05-12T22:54:22Z</time>
      </trkpt>
      <trkpt lat="31.205025275718157" lon="121.6104347951667">
        <ele>8.885158579796553</ele>
        <time>2020-05-12T22:54:26Z</time>
      </trkpt>
      <trkpt lat="31.20524530813898" lon="121.61023388636646">
        <ele>7.851492994464934</ele>
        <time>2020-05-12T22:54:37Z</time>
      </trkpt>
      <trkpt lat="31.205272729628785" lon="121.6101812889627">
        <ele>5.942100475542247</ele>
        <time>2020-05-12T22:54:40Z</time>
      </trkpt>
      <trkpt lat="31.205336155424426" lon="121.61020975017472">
        <ele>7.458882198669016</ele>
        <time>2020-05-12T22:54:43Z</time>
      </trkpt>
      <trkpt lat="31.205401990014884" lon="121.61028294402429">
        <ele>7.032133718021214</ele>
        <time>2020-05-12T22:54:47Z</time>
      </trkpt>
      <trkpt lat="31.205494330481006" lon="121.61044831169829">
        <ele>6.504779671318829</ele>
        <time>2020-05-12T22:54:54Z</time>
      </trkpt>
      <trkpt lat="31.205581325709908" lon="121.61050361007801">
        <ele>7.595502013340592</ele>
        <time>2020-05-12T22:54:58Z</time>
      </trkpt>
      <trkpt lat="31.20547815872215" lon="121.61069312050063">
        <ele>6.195899435319006</ele>
        <time>2020-05-12T22:55:08Z</time>
      </trkpt>
      <trkpt lat="31.20545424746138" lon="121.61076442249517">
        <ele>8.14533138461411</ele>
        <time>2020-05-12T22:55:11Z</time>
      </trkpt>
      <trkpt lat="31.205407034830984" lon="121.6108129536592">
        <ele>8.00512650795281</ele>
        <time>2020-05-12T22:55:14Z</time>
      </trkpt>
      <trkpt lat="31.205297744266613" lon="121.6108446815745">
        <ele>6.680321673862636</ele>
        <time>2020-05-12T22:55:17Z</time>
      </trkpt>
      <trkpt lat="31.205184472398628" lon="121.61113015887602">
        <ele>7.468915949575603</ele>
        <time>2020-05-12T22:55:27Z</time>
      </trkpt>
      <trkpt lat="31.20513262058135" lon="121.61121826983083">
        <ele>6.889180137775838</ele>
        <time>2020-05-12T22:55:31Z</time>
      </trkpt>
      <trkpt lat="31.205054470746077" lon="121.61130312947012">
        <ele>7.165837395004928</ele>
        <time>2020-05-12T22:55:35Z</time>
      </trkpt>
      <trkpt lat="31.204944780976607" lon="121.61150564629297">
        <ele>6.746438828296959</ele>
        <time>2020-05-12T22:55:43Z</time>
      </trkpt>
      <trkpt lat="31.204824447032966" lon="121.61179816429238">
        <ele>7.9715104680508375</ele>
        <time>2020-05-12T22:55:53Z</time>
      </trkpt>
      <trkpt lat="31.204839579365785" lon="121.61186539328229">
        <ele>5.959100685082376</ele>
        <time>2020-05-12T22:55:56Z</time>
      </trkpt>
      <trkpt lat="31.204902418265338" lon="121.61194969670092">
        <ele>5.843302311375737</ele>
        <time>2020-05-12T22:56:00Z</time>
      </trkpt>
      <trkpt lat="31.204987679309607" lon="121.6121399928519">
        <ele>7.598477899096906</ele>
        <time>2020-05-12T22:56:07Z</time>
      </trkpt>
      <trkpt lat="31.20512502238343" lon="121.61229775304831">
        <ele>7.313235950656235</ele>
        <time>2020-05-12T22:56:15Z</time>
      </trkpt>
      <trkpt lat="31.20545916965144" lon="121.61250537500172">
        <ele>7.906555307097733</ele>
        <time>2020-05-12T22:56:29Z</time>
      </trkpt>
      <trkpt lat="31.20557350963452" lon="121.61260566559461">
        <ele>7.999923875555396</ele>
        <time>2020-05-12T22:56:36Z</time>
      </trkpt>
      <trkpt lat="31.20538023298001" lon="121.61289194095741">
        <ele>7.213296581059694</ele>
        <time>2020-05-12T22:56:50Z</time>
      </trkpt>
      <trkpt lat="31.20527983632786" lon="121.61298709719655">
        <ele>8.168747152201831</ele>
        <time>2020-05-12T22:56:57Z</time>
      </trkpt>
      <trkpt lat="31.205261072613222" lon="121.61305568092452">
        <ele>8.354247913695872</ele>
        <time>2020-05-12T22:57:00Z</time>
      </trkpt>
      <trkpt lat="31.20517827164962" lon="121.61318471930574">
        <ele>8.80449761915952</ele>
        <time>2020-05-12T22:57:07Z</time>
      </trkpt>
      <trkpt lat="31.20496553420816" lon="121.61338939680368">
        <ele>8.868510168977082</ele>
        <time>2020-05-12T22:57:18Z</time>
      </trkpt>
      <trkpt lat="31.204891491749667" lon="121.61341678113625">
        <ele>7.713583163917065</ele>
        <time>2020-05-12T22:57:21Z</time>
      </trkpt>
      <trkpt lat="31.20476313339454" lon="121.61355178483443">
        <ele>7.8250669334083796</ele>
        <time>2020-05-12T22:57:28Z</time>
      </trkpt>
      <trkpt lat="31.20473081439499" lon="121.61361684413858">
        <ele>7.747250321321189</ele>
        <time>2020-05-12T22:57:31Z</time>
      </trkpt>
      <trkpt lat="31.20471146344317" lon="121.61373747110156">
        <ele>8.074951265007257</ele>
        <time>2020-05-12T22:57:35Z</time>
      </trkpt>
      <trkpt lat="31.204582283491195" lon="121.61388033394473">
        <ele>7.909740739502013</ele>
        <time>2020-05-12T22:57:42Z</time>
      </trkpt>
      <trkpt lat="31.204248831170695" lon="121.61414925736567">
        <ele>8.151547308079898</ele>
        <time>2020-05-12T22:57:56Z</time>
      </trkpt>
      <trkpt lat="31.204093668235497" lon="121.61423573908047">
        <ele>6.7738003162667155</ele>
        <time>2020-05-12T22:58:03Z</time>
      </trkpt>
      <trkpt lat="31.203869003998456" lon="121.614427668666">
        <ele>7.764273752458394</ele>
        <time>2020-05-12T22:58:14Z</time>
      </trkpt>
      <trkpt lat="31.203812287755852" lon="121.61448459581503">
        <ele>7.087804421782494</ele>
        <time>2020-05-12T22:58:17Z</time>
      </trkpt>
      <trkpt lat="31.203760695782773" lon="121.61457296515307">
        <ele>7.107920887880027</ele>
        <time>2020-05-12T22:58:21Z</time>
      </trkpt>
      <trkpt lat="31.2036347804687" lon="121.61469820403357">
        <ele>7.064661386422813</ele>
        <time>2020-05-12T22:58:28Z</time>
      </trkpt>
      <trkpt lat="31.20356264108104" lon="121.61471826817784">
        <ele>5.353748417459428</ele>
        <time>2020-05-12T22:58:31Z</time>
      </trkpt>
      <trkpt lat="31.2033895485676" lon="121.61484242597942">
        <ele>5.824348494410515</ele>
        <time>2020-05-12T22:58:38Z</time>
      </trkpt>
      <trkpt lat="31.20333682205539" lon="121.61498636008385">
        <ele>6.807235988788307</ele>
        <time>2020-05-12T22:58:45Z</time>
      </trkpt>
      <trkpt lat="31.203303703937436" lon="121.61503135763142">
        <ele>7.50902693439275</ele>
        <time>2020-05-12T22:58:52Z</time>
      </trkpt>
      <trkpt lat="31.203344024508517" lon="121.61512025945406">
        <ele>7.193017719313502</ele>
        <time>2020-05-12T22:59:29Z</time>
      </trkpt>
      <trkpt lat="31.20346023610431" lon="121.61523897024146">
        <ele>5.769210589118302</ele>
        <time>2020-05-12T22:59:36Z</time>
      </trkpt>
      <trkpt lat="31.203458802173014" lon="121.61532679055199">
        <ele>6.092929090373218</ele>
        <time>2020-05-12T22:59:40Z</time>
      </trkpt>
      <trkpt lat="31.203294312838704" lon="121.61552927726916">
        <ele>6.3058607298880816</ele>
        <time>2020-05-12T22:59:50Z</time>
      </trkpt>
      <trkpt lat="31.20311084627586" lon="121.61572769818602">
        <ele>7.2153802663087845</ele>
        <time>2020-05-12T23:00:00Z</time>
      </trkpt>
      <trkpt lat="31.203026743470407" lon="121.61578381138933">
        <ele>6.241463415324688</ele>
        <time>2020-05-12T23:00:04Z</time>
      </trkpt>
      <trkpt lat="31.202778389506886" lon="121.61607411870547">
        <ele>6.2816667929291725</ele>
        <time>2020-05-12T23:00:18Z</time>
      </trkpt>
      <trkpt lat="31.202514582404355" lon="121.61635954515836">
        <ele>5.959769107401371</ele>
        <time>2020-05-12T23:00:33Z</time>
      </trkpt>
      <trkpt lat="31.2022912221842" lon="121.61659102895185">
        <ele>6.74938353523612</ele>
        <time>2020-05-12T23:00:44Z</time>
      </trkpt>
      <trkpt lat="31.202185614806748" lon="121.61673549912673">
        <ele>5.610004696063697</ele>
        <time>2020-05-12T23:00:51Z</time>
      </trkpt>
      <trkpt lat="31.20204396325011" lon="121.61686154123731">
        <ele>5.2941939029842615</ele>
        <time>2020-05-12T23:00:58Z</time>
      </trkpt>
      <trkpt lat="31.201951917951053" lon="121.61699896190046">
        <ele>5.646548089571297</ele>
        <time>2020-05-12T23:01:05Z</time>
      </trkpt>
      <trkpt lat="31.20181952401117" lon="121.61708299228802">
        <ele>5.403084021992981</ele>
        <time>2020-05-12T23:01:16Z</time>
      </trkpt>
      <trkpt lat="31.201746846954975" lon="121.6170965497949">
        <ele>4.887730126269162</ele>
        <time>2020-05-12T23:01:24Z</time>
      </trkpt>
      <trkpt lat="31.201695210275208" lon="121.61722285364465">
        <ele>6.496874266304076</ele>
        <time>2020-05-12T23:01:47Z</time>
      </trkpt>
      <trkpt lat="31.20156872678015" lon="121.61736271439105">
        <ele>4.95810198970139</ele>
        <time>2020-05-12T23:01:55Z</time>
      </trkpt>
      <trkpt lat="31.201479728562802" lon="121.61743102044223">
        <ele>5.384913446381688</ele>
        <time>2020-05-12T23:01:59Z</time>
      </trkpt>
      <trkpt lat="31.20145092969956" lon="121.6174914615873">
        <ele>5.113160663284361</ele>
        <time>2020-05-12T23:02:02Z</time>
      </trkpt>
      <trkpt lat="31.20120883428362" lon="121.61774109485938">
        <ele>5.209646349772811</ele>
        <time>2020-05-12T23:02:16Z</time>
      </trkpt>
      <trkpt lat="31.200972946555204" lon="121.6180172850762">
        <ele>6.468411726877093</ele>
        <time>2020-05-12T23:02:30Z</time>
      </trkpt>
      <trkpt lat="31.200730812792553" lon="121.61830079021932">
        <ele>4.669879193417728</ele>
        <time>2020-05-12T23:02:44Z</time>
      </trkpt>
      <trkpt lat="31.20049085108494" lon="121.61857860070128">
        <ele>4.668530374765396</ele>
        <time>2020-05-12T23:02:58Z</time>
      </trkpt>
      <trkpt lat="31.200330407385398" lon="121.61877943437187">
        <ele>4.222867892123759</ele>
        <time>2020-05-12T23:03:08Z</time>
      </trkpt>
      <trkpt lat="31.200250894188617" lon="121.61884909083743">
        <ele>4.2235454032197595</ele>
        <time>2020-05-12T23:03:12Z</time>
      </trkpt>
      <trkpt lat="31.20016941560335" lon="121.61898460264808">
        <ele>5.211696330457926</ele>
        <time>2020-05-12T23:03:18Z</time>
      </trkpt>
      <trkpt lat="31.199962245705613" lon="121.61927107513063">
        <ele>6.439282211475074</ele>
        <time>2020-05-12T23:03:32Z</time>
      </trkpt>
      <trkpt lat="31.199816227057056" lon="121.61941444917969">
        <ele>5.436799957416952</ele>
        <time>2020-05-12T23:03:40Z</time>
      </trkpt>
      <trkpt lat="31.199715836440124" lon="121.61948275061718">
        <ele>4.396296214312315</ele>
        <time>2020-05-12T23:03:44Z</time>
      </trkpt>
      <trkpt lat="31.199619728118844" lon="121.61960443913416">
        <ele>5.614894295111299</ele>
        <time>2020-05-12T23:03:50Z</time>
      </trkpt>
      <trkpt lat="31.199333949291244" lon="121.61986625019357">
        <ele>4.8857222609221935</ele>
        <time>2020-05-12T23:04:04Z</time>
      </trkpt>
      <trkpt lat="31.19927886221928" lon="121.61991069872741">
        <ele>4.737690018489957</ele>
        <time>2020-05-12T23:04:07Z</time>
      </trkpt>
      <trkpt lat="31.199231862989503" lon="121.61999877734236">
        <ele>5.522586742416024</ele>
        <time>2020-05-12T23:04:11Z</time>
      </trkpt>
      <trkpt lat="31.199098156303215" lon="121.62003428921014">
        <ele>5.893956039100885</ele>
        <time>2020-05-12T23:04:17Z</time>
      </trkpt>
      <trkpt lat="31.198999729465708" lon="121.62003917532344">
        <ele>4.888384231366217</ele>
        <time>2020-05-12T23:04:21Z</time>
      </trkpt>
      <trkpt lat="31.198940592089613" lon="121.62006763501951">
        <ele>5.080512807704508</ele>
        <time>2020-05-12T23:04:24Z</time>
      </trkpt>
      <trkpt lat="31.198808530270163" lon="121.62008607380217">
        <ele>6.126007619313896</ele>
        <time>2020-05-12T23:04:27Z</time>
      </trkpt>
      <trkpt lat="31.198681056232164" lon="121.62037903129634">
        <ele>6.1149384854361415</ele>
        <time>2020-05-12T23:04:37Z</time>
      </trkpt>
      <trkpt lat="31.19863376906683" lon="121.62048147101203">
        <ele>6.754319597966969</ele>
        <time>2020-05-12T23:04:40Z</time>
      </trkpt>
      <trkpt lat="31.198381101192293" lon="121.62070614469111">
        <ele>7.124304647557437</ele>
        <time>2020-05-12T23:04:50Z</time>
      </trkpt>
      <trkpt lat="31.198301330023188" lon="121.62075953652779">
        <ele>5.589909198693931</ele>
        <time>2020-05-12T23:04:53Z</time>
      </trkpt>
      <trkpt lat="31.198175645843726" lon="121.62089693888706">
        <ele>5.814523670822382</ele>
        <time>2020-05-12T23:05:00Z</time>
      </trkpt>
      <trkpt lat="31.1980521511325" lon="121.62101510019552">
        <ele>6.883671990595758</ele>
        <time>2020-05-12T23:05:07Z</time>
      </trkpt>
      <trkpt lat="31.19797672201859" lon="121.62106442623022">
        <ele>6.451068534515798</ele>
        <time>2020-05-12T23:05:11Z</time>
      </trkpt>
      <trkpt lat="31.197736796452066" lon="121.62128611302391">
        <ele>5.985661543905735</ele>
        <time>2020-05-12T23:05:25Z</time>
      </trkpt>
      <trkpt lat="31.197612753787187" lon="121.62140806641015">
        <ele>5.131912645883858</ele>
        <time>2020-05-12T23:05:32Z</time>
      </trkpt>
      <trkpt lat="31.197527015271344" lon="121.62146254125119">
        <ele>6.192369659431279</ele>
        <time>2020-05-12T23:05:36Z</time>
      </trkpt>
      <trkpt lat="31.197471085443897" lon="121.62153137560722">
        <ele>6.358207272365689</ele>
        <time>2020-05-12T23:05:40Z</time>
      </trkpt>
      <trkpt lat="31.197211632181563" lon="121.6217554989308">
        <ele>5.872846365906298</ele>
        <time>2020-05-12T23:05:54Z</time>
      </trkpt>
      <trkpt lat="31.197030061447872" lon="121.62191837276455">
        <ele>5.251532282680273</ele>
        <time>2020-05-12T23:06:04Z</time>
      </trkpt>
      <trkpt lat="31.19695627050529" lon="121.62195631588833">
        <ele>5.3385480074211955</ele>
        <time>2020-05-12T23:06:07Z</time>
      </trkpt>
      <trkpt lat="31.196896548588423" lon="121.62202081363607">
        <ele>6.173412162810564</ele>
        <time>2020-05-12T23:06:14Z</time>
      </trkpt>
      <trkpt lat="31.196729950371026" lon="121.62212921834258">
        <ele>6.082892703823745</ele>
        <time>2020-05-12T23:06:27Z</time>
      </trkpt>
      <trkpt lat="31.196657156014414" lon="121.62224466021354">
        <ele>6.158621354028583</ele>
        <time>2020-05-12T23:06:35Z</time>
      </trkpt>
      <trkpt lat="31.196644058934336" lon="121.62231755363015">
        <ele>6.356998755596578</ele>
        <time>2020-05-12T23:06:39Z</time>
      </trkpt>
      <trkpt lat="31.196682428130373" lon="121.6226706283644">
        <ele>5.086016048677266</ele>
        <time>2020-05-12T23:06:59Z</time>
      </trkpt>
      <trkpt lat="31.1967278738003" lon="121.62299687207894">
        <ele>4.604600845836103</ele>
        <time>2020-05-12T23:07:20Z</time>
      </trkpt>
      <trkpt lat="31.196732081884065" lon="121.62310905226616">
        <ele>4.810491144657135</ele>
        <time>2020-05-12T23:07:27Z</time>
      </trkpt>
      <trkpt lat="31.19671493434457" lon="121.62316595667907">
        <ele>5.089179287664592</ele>
        <time>2020-05-12T23:07:30Z</time>
      </trkpt>
      <trkpt lat="31.196770100285963" lon="121.62352227054497">
        <ele>5.733212323859334</ele>
        <time>2020-05-12T23:07:52Z</time>
      </trkpt>
      <trkpt lat="31.196837838607042" lon="121.62379051682582">
        <ele>5.245739242061973</ele>
        <time>2020-05-12T23:08:06Z</time>
      </trkpt>
      <trkpt lat="31.196919521753674" lon="121.6239585048668">
        <ele>4.828846937045455</ele>
        <time>2020-05-12T23:08:13Z</time>
      </trkpt>
      <trkpt lat="31.19693727662709" lon="121.62384795209336">
        <ele>5.693598547950387</ele>
        <time>2020-05-12T23:08:20Z</time>
      </trkpt>
      <trkpt lat="31.19686706798171" lon="121.62360571894146">
        <ele>4.614116933196783</ele>
        <time>2020-05-12T23:08:28Z</time>
      </trkpt>
      <trkpt lat="31.196855789954718" lon="121.62351250878842">
        <ele>5.249558732844889</ele>
        <time>2020-05-12T23:08:31Z</time>
      </trkpt>
      <trkpt lat="31.196740975732876" lon="121.62338760410121">
        <ele>5.572101894766092</ele>
        <time>2020-05-12T23:08:35Z</time>
      </trkpt>
      <trkpt lat="31.196742961507507" lon="121.62307951595547">
        <ele>3.6529065826907754</ele>
        <time>2020-05-12T23:08:46Z</time>
      </trkpt>
      <trkpt lat="31.196709743591533" lon="121.62296598320596">
        <ele>4.5687286388129</ele>
        <time>2020-05-12T23:08:50Z</time>
      </trkpt>
      <trkpt lat="31.19670956511264" lon="121.6228857764726">
        <ele>5.169240859337151</ele>
        <time>2020-05-12T23:08:53Z</time>
      </trkpt>
      <trkpt lat="31.196688777154364" lon="121.62280828090731">
        <ele>3.590461173094809</ele>
        <time>2020-05-12T23:08:56Z</time>
      </trkpt>
      <trkpt lat="31.196813566554983" lon="121.62274919907227">
        <ele>4.867613887414336</ele>
        <time>2020-05-12T23:09:00Z</time>
      </trkpt>
      <trkpt lat="31.196881954466583" lon="121.62269499925601">
        <ele>4.862680941820145</ele>
        <time>2020-05-12T23:09:04Z</time>
      </trkpt>
      <trkpt lat="31.196952212887464" lon="121.6226646446662">
        <ele>5.893650135025382</ele>
        <time>2020-05-12T23:09:07Z</time>
      </trkpt>
      <trkpt lat="31.197007625314615" lon="121.62257630327375">
        <ele>4.6145806806162</ele>
        <time>2020-05-12T23:09:11Z</time>
      </trkpt>
      <trkpt lat="31.197183180294" lon="121.62246112529563">
        <ele>4.940999080426991</ele>
        <time>2020-05-12T23:09:18Z</time>
      </trkpt>
      <trkpt lat="31.197245286584018" lon="121.62244648758796">
        <ele>4.028991739265621</ele>
        <time>2020-05-12T23:09:21Z</time>
      </trkpt>
      <trkpt lat="31.19748031376634" lon="121.62224811477002">
        <ele>6.619880826212466</ele>
        <time>2020-05-12T23:09:32Z</time>
      </trkpt>
      <trkpt lat="31.197707454837072" lon="121.62206925151592">
        <ele>5.623011503368616</ele>
        <time>2020-05-12T23:09:43Z</time>
      </trkpt>
      <trkpt lat="31.197886085936645" lon="121.62186898371883">
        <ele>6.238276861608028</ele>
        <time>2020-05-12T23:09:54Z</time>
      </trkpt>
      <trkpt lat="31.19796013612879" lon="121.62184160865868">
        <ele>5.698721079155803</ele>
        <time>2020-05-12T23:09:58Z</time>
      </trkpt>
      <trkpt lat="31.19814056856977" lon="121.6217266981019">
        <ele>7.463784511201084</ele>
        <time>2020-05-12T23:10:05Z</time>
      </trkpt>
      <trkpt lat="31.198301289397268" lon="121.621538352456">
        <ele>6.694231039844453</ele>
        <time>2020-05-12T23:10:16Z</time>
      </trkpt>
      <trkpt lat="31.198445619743065" lon="121.62145975539691">
        <ele>6.497667241841555</ele>
        <time>2020-05-12T23:10:23Z</time>
      </trkpt>
      <trkpt lat="31.198536607662277" lon="121.62131666816244">
        <ele>6.435917347669601</ele>
        <time>2020-05-12T23:10:29Z</time>
      </trkpt>
      <trkpt lat="31.19878170769859" lon="121.62107438615668">
        <ele>6.81568721216172</ele>
        <time>2020-05-12T23:10:43Z</time>
      </trkpt>
      <trkpt lat="31.199027915360233" lon="121.62080906766727">
        <ele>5.24857026245445</ele>
        <time>2020-05-12T23:10:57Z</time>
      </trkpt>
      <trkpt lat="31.199218069353588" lon="121.62072694175681">
        <ele>5.526931236498058</ele>
        <time>2020-05-12T23:11:05Z</time>
      </trkpt>
      <trkpt lat="31.199296175629588" lon="121.62070877888338">
        <ele>5.5910784443840384</ele>
        <time>2020-05-12T23:11:08Z</time>
      </trkpt>
      <trkpt lat="31.19947751392079" lon="121.62075537433796">
        <ele>6.206925115548074</ele>
        <time>2020-05-12T23:11:16Z</time>
      </trkpt>
      <trkpt lat="31.199621237935034" lon="121.62073422515324">
        <ele>6.60225482750684</ele>
        <time>2020-05-12T23:11:23Z</time>
      </trkpt>
      <trkpt lat="31.199679288518052" lon="121.62070847618944">
        <ele>3.704794542863965</ele>
        <time>2020-05-12T23:11:26Z</time>
      </trkpt>
      <trkpt lat="31.19989921003818" lon="121.62067919091484">
        <ele>6.794237891212106</ele>
        <time>2020-05-12T23:11:40Z</time>
      </trkpt>
      <trkpt lat="31.200112780288674" lon="121.62075640573183">
        <ele>4.750600626692176</ele>
        <time>2020-05-12T23:11:55Z</time>
      </trkpt>
      <trkpt lat="31.200170810079708" lon="121.62074989714986">
        <ele>5.351073584519327</ele>
        <time>2020-05-12T23:11:59Z</time>
      </trkpt>
      <trkpt lat="31.200240255676757" lon="121.62071737247958">
        <ele>4.298861515708268</ele>
        <time>2020-05-12T23:12:03Z</time>
      </trkpt>
      <trkpt lat="31.200555706519435" lon="121.62085528053046">
        <ele>5.415773186832666</ele>
        <time>2020-05-12T23:12:28Z</time>
      </trkpt>
      <trkpt lat="31.20078039294082" lon="121.6209324939064">
        <ele>4.899839288555086</ele>
        <time>2020-05-12T23:12:46Z</time>
      </trkpt>
      <trkpt lat="31.200907286239623" lon="121.62093031549327">
        <ele>5.428407830186188</ele>
        <time>2020-05-12T23:12:56Z</time>
      </trkpt>
      <trkpt lat="31.200965811716124" lon="121.62096662314954">
        <ele>4.556495821103454</ele>
        <time>2020-05-12T23:13:00Z</time>
      </trkpt>
      <trkpt lat="31.201248000957495" lon="121.62102323635558">
        <ele>6.175327502191067</ele>
        <time>2020-05-12T23:13:18Z</time>
      </trkpt>
      <trkpt lat="31.201560284619188" lon="121.62108120188547">
        <ele>4.685551171191037</ele>
        <time>2020-05-12T23:13:35Z</time>
      </trkpt>
      <trkpt lat="31.201934131868377" lon="121.62112452889856">
        <ele>4.328085543587804</ele>
        <time>2020-05-12T23:13:50Z</time>
      </trkpt>
      <trkpt lat="31.202217706443047" lon="121.62115404299374">
        <ele>5.6030380968004465</ele>
        <time>2020-05-12T23:14:01Z</time>
      </trkpt>
      <trkpt lat="31.202368198146736" lon="121.6211431910691">
        <ele>4.901908177882433</ele>
        <time>2020-05-12T23:14:09Z</time>
      </trkpt>
      <trkpt lat="31.20240526213138" lon="121.62096975588415">
        <ele>4.48928392957896</ele>
        <time>2020-05-12T23:14:15Z</time>
      </trkpt>
      <trkpt lat="31.202385130059596" lon="121.62078304575547">
        <ele>3.8614689791575074</ele>
        <time>2020-05-12T23:14:22Z</time>
      </trkpt>
      <trkpt lat="31.202385130059596" lon="121.62078304575547">
        <ele>3.8614689791575074</ele>
        <time>2020-05-12T23:14:27Z</time>
      </trkpt>
      <trkpt lat="31.202381666958395" lon="121.62072613797342">
        <ele>3.5689352694898844</ele>
        <time>2020-05-12T23:14:34Z</time>
      </trkpt>
      <trkpt lat="31.20236952509131" lon="121.62067139871914">
        <ele>4.767855627462268</ele>
        <time>2020-05-12T23:15:12Z</time>
      </trkpt>
      <trkpt lat="31.202393880049623" lon="121.6207150263253">
        <ele>4.620137679390609</ele>
        <time>2020-05-12T23:15:20Z</time>
      </trkpt>
      <trkpt lat="31.202401194531895" lon="121.62072071653482">
        <ele>4.61332465801388</ele>
        <time>2020-05-12T23:15:22Z</time>
      </trkpt>
      <trkpt lat="31.202428929962736" lon="121.62064700454161">
        <ele>4.714125933125615</ele>
        <time>2020-05-12T23:15:29Z</time>
      </trkpt>
      <trkpt lat="31.202388878582926" lon="121.6205760078769">
        <ele>3.880229494534433</ele>
        <time>2020-05-12T23:15:33Z</time>
      </trkpt>
      <trkpt lat="31.202351678499472" lon="121.62037439163902">
        <ele>5.199866343289614</ele>
        <time>2020-05-12T23:15:40Z</time>
      </trkpt>
      <trkpt lat="31.202394556073187" lon="121.62033861675846">
        <ele>4.94073361903429</ele>
        <time>2020-05-12T23:15:51Z</time>
      </trkpt>
      <trkpt lat="31.20241650089364" lon="121.62035460365003">
        <ele>5.888053059577942</ele>
        <time>2020-05-12T23:15:57Z</time>
      </trkpt>
      <trkpt lat="31.202431656890916" lon="121.62038034690433">
        <ele>5.584079937078059</ele>
        <time>2020-05-12T23:16:09Z</time>
      </trkpt>
      <trkpt lat="31.202432993990094" lon="121.6203976904482">
        <ele>3.9123922642320395</ele>
        <time>2020-05-12T23:16:22Z</time>
      </trkpt>
      <trkpt lat="31.202445218855228" lon="121.6203754678771">
        <ele>4.067105172201991</ele>
        <time>2020-05-12T23:16:29Z</time>
      </trkpt>
      <trkpt lat="31.20244603690119" lon="121.62037113189314">
        <ele>5.177091949619353</ele>
        <time>2020-05-12T23:16:30Z</time>
      </trkpt>
      <trkpt lat="31.202443318590387" lon="121.6203776359922">
        <ele>4.4957222901284695</ele>
        <time>2020-05-12T23:16:44Z</time>
      </trkpt>
      <trkpt lat="31.202421332288882" lon="121.62040040135824">
        <ele>4.379445135593414</ele>
        <time>2020-05-12T23:17:08Z</time>
      </trkpt>
      <trkpt lat="31.202408075123333" lon="121.62037384498241">
        <ele>5.747236431576312</ele>
        <time>2020-05-12T23:17:15Z</time>
      </trkpt>
      <trkpt lat="31.202462561910117" lon="121.62038440926685">
        <ele>6.239112348295748</ele>
        <time>2020-05-12T23:17:18Z</time>
      </trkpt>
      <trkpt lat="31.202736685942185" lon="121.62037815370388">
        <ele>5.513735949061811</ele>
        <time>2020-05-12T23:17:37Z</time>
      </trkpt>
      <trkpt lat="31.20279634722628" lon="121.62036730897574">
        <ele>5.842267475090921</ele>
        <time>2020-05-12T23:17:41Z</time>
      </trkpt>
      <trkpt lat="31.202823264040536" lon="121.62029766098436">
        <ele>5.130130159668624</ele>
        <time>2020-05-12T23:17:44Z</time>
      </trkpt>
      <trkpt lat="31.20279272519924" lon="121.62020444087374">
        <ele>4.606236399151385</ele>
        <time>2020-05-12T23:17:48Z</time>
      </trkpt>
      <trkpt lat="31.20278046754836" lon="121.62000227768938">
        <ele>4.302027013152838</ele>
        <time>2020-05-12T23:17:56Z</time>
      </trkpt>
      <trkpt lat="31.20274695757527" lon="121.6198974037739">
        <ele>4.862964832223952</ele>
        <time>2020-05-12T23:17:59Z</time>
      </trkpt>
      <trkpt lat="31.202699565017777" lon="121.61958548509882">
        <ele>4.435099029913545</ele>
        <time>2020-05-12T23:18:10Z</time>
      </trkpt>
      <trkpt lat="31.202643132535613" lon="121.61935974324892">
        <ele>5.22108425013721</ele>
        <time>2020-05-12T23:18:18Z</time>
      </trkpt>
      <trkpt lat="31.202569469398533" lon="121.61901340206745">
        <ele>5.004251033067703</ele>
        <time>2020-05-12T23:18:32Z</time>
      </trkpt>
      <trkpt lat="31.202513314062998" lon="121.61877735669015">
        <ele>4.092725245282054</ele>
        <time>2020-05-12T23:18:46Z</time>
      </trkpt>
      <trkpt lat="31.202528596816823" lon="121.61867952004164">
        <ele>4.420246711932123</ele>
        <time>2020-05-12T23:18:54Z</time>
      </trkpt>
      <trkpt lat="31.20257500528756" lon="121.61863561211172">
        <ele>5.900029895827174</ele>
        <time>2020-05-12T23:18:58Z</time>
      </trkpt>
      <trkpt lat="31.202827773052494" lon="121.61856621174032">
        <ele>5.86290396656841</ele>
        <time>2020-05-12T23:19:15Z</time>
      </trkpt>
      <trkpt lat="31.202872560281353" lon="121.61851661244582">
        <ele>5.544417126104236</ele>
        <time>2020-05-12T23:19:19Z</time>
      </trkpt>
      <trkpt lat="31.202878324684328" lon="121.61844641913814">
        <ele>6.314373781904578</ele>
        <time>2020-05-12T23:19:22Z</time>
      </trkpt>
      <trkpt lat="31.20281809279394" lon="121.61821524712204">
        <ele>5.536858302541077</ele>
        <time>2020-05-12T23:19:37Z</time>
      </trkpt>
      <trkpt lat="31.2026931422736" lon="121.61789843581677">
        <ele>6.478547831065953</ele>
        <time>2020-05-12T23:19:57Z</time>
      </trkpt>
      <trkpt lat="31.202670980125234" lon="121.61782634593798">
        <ele>5.8059124778956175</ele>
        <time>2020-05-12T23:20:03Z</time>
      </trkpt>
      <trkpt lat="31.202505112858084" lon="121.61747972028375">
        <ele>6.358052006922662</ele>
        <time>2020-05-12T23:20:22Z</time>
      </trkpt>
      <trkpt lat="31.20242289346329" lon="121.61726697104834">
        <ele>5.971043540164828</ele>
        <time>2020-05-12T23:20:35Z</time>
      </trkpt>
      <trkpt lat="31.20244680571432" lon="121.61721249239018">
        <ele>6.323295114561915</ele>
        <time>2020-05-12T23:20:39Z</time>
      </trkpt>
      <trkpt lat="31.20271944838292" lon="121.6170536465929">
        <ele>6.089940587058663</ele>
        <time>2020-05-12T23:21:00Z</time>
      </trkpt>
      <trkpt lat="31.202838626291964" lon="121.61689643866141">
        <ele>5.3086844542995095</ele>
        <time>2020-05-12T23:21:12Z</time>
      </trkpt>
      <trkpt lat="31.202935449753692" lon="121.61686661711163">
        <ele>5.794548927806318</ele>
        <time>2020-05-12T23:21:19Z</time>
      </trkpt>
      <trkpt lat="31.20311185961123" lon="121.61668446810486">
        <ele>5.620816326700151</ele>
        <time>2020-05-12T23:21:36Z</time>
      </trkpt>
      <trkpt lat="31.203324221550265" lon="121.61661723392608">
        <ele>5.403359916061163</ele>
        <time>2020-05-12T23:21:51Z</time>
      </trkpt>
      <trkpt lat="31.203399949567434" lon="121.61653049627681">
        <ele>6.277454276569188</ele>
        <time>2020-05-12T23:21:58Z</time>
      </trkpt>
      <trkpt lat="31.203640371124838" lon="121.61632042254433">
        <ele>7.0990373231470585</ele>
        <time>2020-05-12T23:22:17Z</time>
      </trkpt>
      <trkpt lat="31.20378577444682" lon="121.6162396409455">
        <ele>5.637060032226145</ele>
        <time>2020-05-12T23:22:25Z</time>
      </trkpt>
      <trkpt lat="31.203882716536675" lon="121.61608053235105">
        <ele>6.6424486339092255</ele>
        <time>2020-05-12T23:22:32Z</time>
      </trkpt>
      <trkpt lat="31.20409154642449" lon="121.61601980180768">
        <ele>7.418588110245764</ele>
        <time>2020-05-12T23:22:42Z</time>
      </trkpt>
      <trkpt lat="31.204175589633724" lon="121.61602928131465">
        <ele>6.468770056031644</ele>
        <time>2020-05-12T23:22:46Z</time>
      </trkpt>
      <trkpt lat="31.20427289231658" lon="121.61606721906324">
        <ele>6.141887653619051</ele>
        <time>2020-05-12T23:22:50Z</time>
      </trkpt>
      <trkpt lat="31.20441912546826" lon="121.61626208480737">
        <ele>5.701556690968573</ele>
        <time>2020-05-12T23:23:01Z</time>
      </trkpt>
      <trkpt lat="31.20445078844823" lon="121.61632658939187">
        <ele>6.210757709108293</ele>
        <time>2020-05-12T23:23:04Z</time>
      </trkpt>
      <trkpt lat="31.204438111216273" lon="121.6162553072603">
        <ele>7.103538286872208</ele>
        <time>2020-05-12T23:23:11Z</time>
      </trkpt>
      <trkpt lat="31.20435420970342" lon="121.61609241915518">
        <ele>5.922945508733392</ele>
        <time>2020-05-12T23:23:18Z</time>
      </trkpt>
      <trkpt lat="31.204232049387883" lon="121.61595988989168">
        <ele>6.508140902034938</ele>
        <time>2020-05-12T23:23:25Z</time>
      </trkpt>
      <trkpt lat="31.20419631382756" lon="121.61590053449149">
        <ele>6.58580606803298</ele>
        <time>2020-05-12T23:23:28Z</time>
      </trkpt>
      <trkpt lat="31.203948754041836" lon="121.61561677123149">
        <ele>7.391532877460122</ele>
        <time>2020-05-12T23:23:42Z</time>
      </trkpt>
      <trkpt lat="31.20370199437799" lon="121.61534465969788">
        <ele>6.136311107315123</ele>
        <time>2020-05-12T23:23:57Z</time>
      </trkpt>
      <trkpt lat="31.203555391011413" lon="121.61525414119326">
        <ele>7.037573717534542</ele>
        <time>2020-05-12T23:24:05Z</time>
      </trkpt>
      <trkpt lat="31.20360453703378" lon="121.61517471926035">
        <ele>5.535647988319397</ele>
        <time>2020-05-12T23:24:12Z</time>
      </trkpt>
      <trkpt lat="31.203798847463883" lon="121.61497358236429">
        <ele>5.586059695109725</ele>
        <time>2020-05-12T23:24:23Z</time>
      </trkpt>
      <trkpt lat="31.203908774913458" lon="121.61483940143452">
        <ele>6.348725515417755</ele>
        <time>2020-05-12T23:24:30Z</time>
      </trkpt>
      <trkpt lat="31.204037391404633" lon="121.61472663166143">
        <ele>4.856013900600374</ele>
        <time>2020-05-12T23:24:37Z</time>
      </trkpt>
      <trkpt lat="31.204230638145745" lon="121.61449757204672">
        <ele>6.090788630768657</ele>
        <time>2020-05-12T23:24:49Z</time>
      </trkpt>
      <trkpt lat="31.204454006060736" lon="121.61423679352899">
        <ele>6.422848437912762</ele>
        <time>2020-05-12T23:25:03Z</time>
      </trkpt>
      <trkpt lat="31.204605639681223" lon="121.6141557333657">
        <ele>4.949024980887771</ele>
        <time>2020-05-12T23:25:10Z</time>
      </trkpt>
      <trkpt lat="31.204633059784076" lon="121.61411398739813">
        <ele>7.838352450169623</ele>
        <time>2020-05-12T23:25:13Z</time>
      </trkpt>
      <trkpt lat="31.204717153304838" lon="121.61406491794932">
        <ele>8.739472337067127</ele>
        <time>2020-05-12T23:25:20Z</time>
      </trkpt>
      <trkpt lat="31.20481939472076" lon="121.614037260972">
        <ele>7.211291989311576</ele>
        <time>2020-05-12T23:25:27Z</time>
      </trkpt>
      <trkpt lat="31.204918690663433" lon="121.61396569172958">
        <ele>7.3950067004188895</ele>
        <time>2020-05-12T23:25:34Z</time>
      </trkpt>
      <trkpt lat="31.20499903765628" lon="121.6138575299347">
        <ele>8.620544774457812</ele>
        <time>2020-05-12T23:25:41Z</time>
      </trkpt>
      <trkpt lat="31.20518435860033" lon="121.61369541649016">
        <ele>8.298762460239232</ele>
        <time>2020-05-12T23:25:57Z</time>
      </trkpt>
      <trkpt lat="31.205242749062094" lon="121.61357939426387">
        <ele>8.206616225652397</ele>
        <time>2020-05-12T23:26:05Z</time>
      </trkpt>
      <trkpt lat="31.205252825471888" lon="121.6135257216375">
        <ele>7.769652105867863</ele>
        <time>2020-05-12T23:26:08Z</time>
      </trkpt>
      <trkpt lat="31.20546395294161" lon="121.61330179931724">
        <ele>4.782258220948279</ele>
        <time>2020-05-12T23:26:29Z</time>
      </trkpt>
      <trkpt lat="31.205574440482845" lon="121.61313562211804">
        <ele>6.37850256729871</ele>
        <time>2020-05-12T23:26:43Z</time>
      </trkpt>
      <trkpt lat="31.205634667301705" lon="121.61309278733204">
        <ele>6.9146340591832995</ele>
        <time>2020-05-12T23:26:49Z</time>
      </trkpt>
      <trkpt lat="31.20571899858597" lon="121.61308275058265">
        <ele>7.320738059468567</ele>
        <time>2020-05-12T23:26:53Z</time>
      </trkpt>
      <trkpt lat="31.205846221646826" lon="121.61300792321978">
        <ele>8.602260357700288</ele>
        <time>2020-05-12T23:27:04Z</time>
      </trkpt>
      <trkpt lat="31.206001185133776" lon="121.6128273731259">
        <ele>7.639329402707517</ele>
        <time>2020-05-12T23:27:19Z</time>
      </trkpt>
      <trkpt lat="31.205994207021774" lon="121.61273791777678">
        <ele>8.301812825724483</ele>
        <time>2020-05-12T23:27:26Z</time>
      </trkpt>
      <trkpt lat="31.205808344770958" lon="121.61256552620992">
        <ele>7.574044437147677</ele>
        <time>2020-05-12T23:27:49Z</time>
      </trkpt>
      <trkpt lat="31.205778035954413" lon="121.61249152346045">
        <ele>8.690403725020587</ele>
        <time>2020-05-12T23:27:55Z</time>
      </trkpt>
      <trkpt lat="31.205833651161694" lon="121.61245031436836">
        <ele>7.760554611682892</ele>
        <time>2020-05-12T23:28:02Z</time>
      </trkpt>
      <trkpt lat="31.20589526335993" lon="121.61236817115108">
        <ele>9.254246857017279</ele>
        <time>2020-05-12T23:28:10Z</time>
      </trkpt>
      <trkpt lat="31.206014095066422" lon="121.6122730108594">
        <ele>8.043938871473074</ele>
        <time>2020-05-12T23:28:20Z</time>
      </trkpt>
      <trkpt lat="31.206089815870513" lon="121.61217785374194">
        <ele>7.5767180398106575</ele>
        <time>2020-05-12T23:28:28Z</time>
      </trkpt>
      <trkpt lat="31.20613592406231" lon="121.6121583317568">
        <ele>7.55495766736567</ele>
        <time>2020-05-12T23:28:31Z</time>
      </trkpt>
      <trkpt lat="31.206348978760698" lon="121.61188126274642">
        <ele>6.890327975153923</ele>
        <time>2020-05-12T23:28:45Z</time>
      </trkpt>
      <trkpt lat="31.206399472646865" lon="121.61179911842935">
        <ele>7.219871493987739</ele>
        <time>2020-05-12T23:28:49Z</time>
      </trkpt>
      <trkpt lat="31.206564201705145" lon="121.61160147930741">
        <ele>6.882509601302445</ele>
        <time>2020-05-12T23:29:01Z</time>
      </trkpt>
      <trkpt lat="31.206561627791128" lon="121.61141822033598">
        <ele>7.887993794865906</ele>
        <time>2020-05-12T23:29:09Z</time>
      </trkpt>
      <trkpt lat="31.206545399255372" lon="121.61136508708455">
        <ele>8.722387450747192</ele>
        <time>2020-05-12T23:29:12Z</time>
      </trkpt>
      <trkpt lat="31.20643733247001" lon="121.61120813137427">
        <ele>9.037336827255785</ele>
        <time>2020-05-12T23:29:27Z</time>
      </trkpt>
      <trkpt lat="31.206266858590716" lon="121.6111124480153">
        <ele>5.278826623223722</ele>
        <time>2020-05-12T23:29:41Z</time>
      </trkpt>
      <trkpt lat="31.206206983341247" lon="121.61105010030177">
        <ele>8.518964054994285</ele>
        <time>2020-05-12T23:29:48Z</time>
      </trkpt>
      <trkpt lat="31.206164745017038" lon="121.61096958727624">
        <ele>7.6970864571630955</ele>
        <time>2020-05-12T23:29:51Z</time>
      </trkpt>
    </trkseg>
  </trk>
</gpx>