<?xml version="1.0" encoding="UTF-8"?>
<gpx xmlns="http://www.topografix.com/GPX/1/1" xmlns:gpxtpx="http://www.garmin.com/xmlschemas/TrackPointExtension/v1" xmlns:xsi="http://www.w3.org/2001/XMLSchema-instance" xsi:schemaLocation="http://www.topografix.com/GPX/1/1 http://www.topografix.com/GPX/1/1/gpx.xsd" version="1.1" creator="gpx.py -- https://github.com/tkrajina/gpxpy">
  <trk>
    <name>gpx from keep</name>
    <type>Run</type>
    <trkseg>
      <trkpt lat="31.23240846903753" lon="121.34380010931825">
        <ele>4.62446968536824</ele>
        <time>7591-10-12T12:51:06Z</time>
      </trkpt>
      <trkpt lat="31.23241262078634" lon="121.34379928482898">
        <ele>4.625486406497657</ele>
        <time>1970-01-01T00:00:00Z</time>
        <extensions>
          <gpxtpx:TrackPointExtension>
            <gpxtpx:hr>93</gpxtpx:hr>
          </gpxtpx:TrackPointExtension>
        </extensions>
      </trkpt>
      <trkpt lat="31.23242028804062" lon="121.3438011326644">
        <ele>4.6259511252865195</ele>
        <time>1970-01-01T00:00:01Z</time>
        <extensions>
          <gpxtpx:TrackPointExtension>
            <gpxtpx:hr>93</gpxtpx:hr>
          </gpxtpx:TrackPointExtension>
        </extensions>
      </trkpt>
      <trkpt lat="31.23242862620262" lon="121.34380284902905">
        <ele>4.625272320583463</ele>
        <time>1970-01-01T00:00:02Z</time>
        <extensions>
          <gpxtpx:TrackPointExtension>
            <gpxtpx:hr>93</gpxtpx:hr>
          </gpxtpx:TrackPointExtension>
        </extensions>
      </trkpt>
      <trkpt lat="31.232438449867594" lon="121.34380196962302">
        <ele>4.6221001874655485</ele>
        <time>1970-01-01T00:00:03Z</time>
        <extensions>
          <gpxtpx:TrackPointExtension>
            <gpxtpx:hr>93</gpxtpx:hr>
          </gpxtpx:TrackPointExtension>
        </extensions>
      </trkpt>
      <trkpt lat="31.23244775641887" lon="121.34380331815385">
        <ele>4.614387431181967</ele>
        <time>1970-01-01T00:00:04Z</time>
        <extensions>
          <gpxtpx:TrackPointExtension>
            <gpxtpx:hr>93</gpxtpx:hr>
          </gpxtpx:TrackPointExtension>
        </extensions>
      </trkpt>
      <trkpt lat="31.232455499891874" lon="121.34381138881919">
        <ele>4.5920792212709785</ele>
        <time>1970-01-01T00:00:06Z</time>
        <extensions>
          <gpxtpx:TrackPointExtension>
            <gpxtpx:hr>97</gpxtpx:hr>
          </gpxtpx:TrackPointExtension>
        </extensions>
      </trkpt>
      <trkpt lat="31.232457053856624" lon="121.34382007372376">
        <ele>4.572511659935117</ele>
        <time>1970-01-01T00:00:07Z</time>
        <extensions>
          <gpxtpx:TrackPointExtension>
            <gpxtpx:hr>97</gpxtpx:hr>
          </gpxtpx:TrackPointExtension>
        </extensions>
      </trkpt>
      <trkpt lat="31.232458135265436" lon="121.34382924469587">
        <ele>4.554506838321686</ele>
        <time>1970-01-01T00:00:08Z</time>
        <extensions>
          <gpxtpx:TrackPointExtension>
            <gpxtpx:hr>97</gpxtpx:hr>
          </gpxtpx:TrackPointExtension>
        </extensions>
      </trkpt>
      <trkpt lat="31.232459891328624" lon="121.34383731842543">
        <ele>4.540703723207116</ele>
        <time>1970-01-01T00:00:09Z</time>
        <extensions>
          <gpxtpx:TrackPointExtension>
            <gpxtpx:hr>97</gpxtpx:hr>
          </gpxtpx:TrackPointExtension>
        </extensions>
      </trkpt>
      <trkpt lat="31.232464543159633" lon="121.34384066436503">
        <ele>4.533078644424677</ele>
        <time>1970-01-01T00:00:10Z</time>
        <extensions>
          <gpxtpx:TrackPointExtension>
            <gpxtpx:hr>97</gpxtpx:hr>
          </gpxtpx:TrackPointExtension>
        </extensions>
      </trkpt>
      <trkpt lat="31.232471438546593" lon="121.34383753696156">
        <ele>4.533265184611082</ele>
        <time>1970-01-01T00:00:11Z</time>
        <extensions>
          <gpxtpx:TrackPointExtension>
            <gpxtpx:hr>98</gpxtpx:hr>
          </gpxtpx:TrackPointExtension>
        </extensions>
      </trkpt>
      <trkpt lat="31.23247912003873" lon="121.3438318557671">
        <ele>4.5423070546239614</ele>
        <time>1970-01-01T00:00:12Z</time>
        <extensions>
          <gpxtpx:TrackPointExtension>
            <gpxtpx:hr>98</gpxtpx:hr>
          </gpxtpx:TrackPointExtension>
        </extensions>
      </trkpt>
      <trkpt lat="31.232487892753944" lon="121.34382641056189">
        <ele>4.5606674188748</ele>
        <time>1970-01-01T00:00:13Z</time>
        <extensions>
          <gpxtpx:TrackPointExtension>
            <gpxtpx:hr>98</gpxtpx:hr>
          </gpxtpx:TrackPointExtension>
        </extensions>
      </trkpt>
      <trkpt lat="31.23249759547978" lon="121.34382112709726">
        <ele>4.588263365440071</ele>
        <time>1970-01-01T00:00:14Z</time>
        <extensions>
          <gpxtpx:TrackPointExtension>
            <gpxtpx:hr>98</gpxtpx:hr>
          </gpxtpx:TrackPointExtension>
        </extensions>
      </trkpt>
      <trkpt lat="31.23250823376157" lon="121.34381577716968">
        <ele>4.624242871999741</ele>
        <time>1970-01-01T00:00:15Z</time>
        <extensions>
          <gpxtpx:TrackPointExtension>
            <gpxtpx:hr>98</gpxtpx:hr>
          </gpxtpx:TrackPointExtension>
        </extensions>
      </trkpt>
      <trkpt lat="31.232519351550994" lon="121.34380936405121">
        <ele>4.668743835762143</ele>
        <time>1970-01-01T00:00:16Z</time>
        <extensions>
          <gpxtpx:TrackPointExtension>
            <gpxtpx:hr>98</gpxtpx:hr>
          </gpxtpx:TrackPointExtension>
        </extensions>
      </trkpt>
      <trkpt lat="31.232530494250444" lon="121.34380137209703">
        <ele>4.721360352821648</ele>
        <time>1970-01-01T00:00:17Z</time>
        <extensions>
          <gpxtpx:TrackPointExtension>
            <gpxtpx:hr>98</gpxtpx:hr>
          </gpxtpx:TrackPointExtension>
        </extensions>
      </trkpt>
      <trkpt lat="31.23254193718203" lon="121.34379341034939">
        <ele>4.781669681891799</ele>
        <time>1970-01-01T00:00:18Z</time>
        <extensions>
          <gpxtpx:TrackPointExtension>
            <gpxtpx:hr>98</gpxtpx:hr>
          </gpxtpx:TrackPointExtension>
        </extensions>
      </trkpt>
      <trkpt lat="31.232553950512408" lon="121.34378695966332">
        <ele>4.849292799830437</ele>
        <time>1970-01-01T00:00:19Z</time>
        <extensions>
          <gpxtpx:TrackPointExtension>
            <gpxtpx:hr>98</gpxtpx:hr>
          </gpxtpx:TrackPointExtension>
        </extensions>
      </trkpt>
      <trkpt lat="31.23256605015818" lon="121.34378239275871">
        <ele>4.923727328889072</ele>
        <time>1970-01-01T00:00:20Z</time>
        <extensions>
          <gpxtpx:TrackPointExtension>
            <gpxtpx:hr>98</gpxtpx:hr>
          </gpxtpx:TrackPointExtension>
        </extensions>
      </trkpt>
      <trkpt lat="31.232577462881217" lon="121.34377993335397">
        <ele>5.00463099963963</ele>
        <time>1970-01-01T00:00:21Z</time>
        <extensions>
          <gpxtpx:TrackPointExtension>
            <gpxtpx:hr>98</gpxtpx:hr>
          </gpxtpx:TrackPointExtension>
        </extensions>
      </trkpt>
      <trkpt lat="31.23258790701573" lon="121.3437783433061">
        <ele>5.09159863833338</ele>
        <time>1970-01-01T00:00:22Z</time>
        <extensions>
          <gpxtpx:TrackPointExtension>
            <gpxtpx:hr>98</gpxtpx:hr>
          </gpxtpx:TrackPointExtension>
        </extensions>
      </trkpt>
      <trkpt lat="31.232597451304127" lon="121.34377625845012">
        <ele>5.184062467887998</ele>
        <time>1970-01-01T00:00:23Z</time>
      </trkpt>
      <trkpt lat="31.232606201615646" lon="121.34377377802934">
        <ele>5.2815748648718</ele>
        <time>1970-01-01T00:00:24Z</time>
      </trkpt>
      <trkpt lat="31.23261443883628" lon="121.34377091364803">
        <ele>5.383664345368743</ele>
        <time>1970-01-01T00:00:25Z</time>
      </trkpt>
      <trkpt lat="31.23262197608468" lon="121.3437671335024">
        <ele>5.489596765488386</ele>
        <time>1970-01-01T00:00:26Z</time>
      </trkpt>
      <trkpt lat="31.232629960942447" lon="121.34376357051792">
        <ele>5.598912849090993</ele>
        <time>1970-01-01T00:00:27Z</time>
      </trkpt>
      <trkpt lat="31.232639394604725" lon="121.34376128907886">
        <ele>5.709257676266134</ele>
        <time>1970-01-01T00:00:28Z</time>
      </trkpt>
      <trkpt lat="31.232649819682905" lon="121.34375977717428">
        <ele>5.821269502863288</ele>
        <time>1970-01-01T00:00:29Z</time>
      </trkpt>
      <trkpt lat="31.232661114845968" lon="121.34375890107809">
        <ele>5.9348811991512775</ele>
        <time>1970-01-01T00:00:30Z</time>
      </trkpt>
      <trkpt lat="31.232673098599438" lon="121.34375886415006">
        <ele>6.048565521836281</ele>
        <time>1970-01-01T00:00:31Z</time>
      </trkpt>
      <trkpt lat="31.23268558479836" lon="121.34375939673006">
        <ele>6.161275026388466</ele>
        <time>1970-01-01T00:00:32Z</time>
      </trkpt>
      <trkpt lat="31.23269868334985" lon="121.34376020551714">
        <ele>6.271787902340293</ele>
        <time>1970-01-01T00:00:33Z</time>
      </trkpt>
      <trkpt lat="31.23271245300424" lon="121.34376130984754">
        <ele>6.379381696693599</ele>
        <time>1970-01-01T00:00:34Z</time>
      </trkpt>
      <trkpt lat="31.232726651893007" lon="121.34376244289446">
        <ele>6.482705662027001</ele>
        <time>1970-01-01T00:00:35Z</time>
      </trkpt>
      <trkpt lat="31.232740948248114" lon="121.34376342336778">
        <ele>6.581542043946683</ele>
        <time>1970-01-01T00:00:36Z</time>
      </trkpt>
      <trkpt lat="31.23275513527158" lon="121.34376402117056">
        <ele>6.673503025434911</ele>
        <time>1970-01-01T00:00:37Z</time>
      </trkpt>
      <trkpt lat="31.2327693153361" lon="121.34376412117102">
        <ele>6.75889150146395</ele>
        <time>1970-01-01T00:00:38Z</time>
      </trkpt>
      <trkpt lat="31.232784070507545" lon="121.34376356824892">
        <ele>6.83797100186348</ele>
        <time>1970-01-01T00:00:39Z</time>
      </trkpt>
      <trkpt lat="31.232799581070555" lon="121.34376232475678">
        <ele>6.910393208265305</ele>
        <time>1970-01-01T00:00:40Z</time>
      </trkpt>
      <trkpt lat="31.232815316627153" lon="121.34376053359627">
        <ele>6.976487588137388</ele>
        <time>1970-01-01T00:00:41Z</time>
      </trkpt>
      <trkpt lat="31.232830919289963" lon="121.34375811054277">
        <ele>7.035275027155876</ele>
        <time>1970-01-01T00:00:42Z</time>
      </trkpt>
      <trkpt lat="31.232846261447527" lon="121.34375515521943">
        <ele>7.087958961725235</ele>
        <time>1970-01-01T00:00:43Z</time>
      </trkpt>
      <trkpt lat="31.232861245574945" lon="121.34375234016741">
        <ele>7.132790541276336</ele>
        <time>1970-01-01T00:00:44Z</time>
      </trkpt>
      <trkpt lat="31.23287550670253" lon="121.34375008072327">
        <ele>7.171987051144242</ele>
        <time>1970-01-01T00:00:45Z</time>
      </trkpt>
      <trkpt lat="31.232888481813628" lon="121.34374848458707">
        <ele>7.205325259827077</ele>
        <time>1970-01-01T00:00:46Z</time>
      </trkpt>
      <trkpt lat="31.232900008566748" lon="121.34374742872397">
        <ele>7.234640604816377</ele>
        <time>1970-01-01T00:00:47Z</time>
      </trkpt>
      <trkpt lat="31.232910632769112" lon="121.34374654698487">
        <ele>7.259872632101178</ele>
        <time>1970-01-01T00:00:48Z</time>
      </trkpt>
      <trkpt lat="31.232917515234767" lon="121.34374606313705">
        <ele>7.274872093461454</ele>
        <time>1970-01-01T00:00:48Z</time>
      </trkpt>
      <trkpt lat="31.232928568228186" lon="121.34374592816316">
        <ele>7.297547210007906</ele>
        <time>1970-01-01T00:00:49Z</time>
      </trkpt>
      <trkpt lat="31.232940019130204" lon="121.34374670243383">
        <ele>7.319884962402284</ele>
        <time>1970-01-01T00:00:50Z</time>
      </trkpt>
      <trkpt lat="31.232951098377665" lon="121.34374737594642">
        <ele>7.3435618579387665</ele>
        <time>1970-01-01T00:00:51Z</time>
      </trkpt>
      <trkpt lat="31.23296111174634" lon="121.3437470317567">
        <ele>7.370132694020867</ele>
        <time>1970-01-01T00:00:52Z</time>
      </trkpt>
      <trkpt lat="31.232970239364683" lon="121.3437462728489">
        <ele>7.400491834618151</ele>
        <time>1970-01-01T00:00:53Z</time>
      </trkpt>
      <trkpt lat="31.232979899786965" lon="121.3437447769541">
        <ele>7.435402167029679</ele>
        <time>1970-01-01T00:00:54Z</time>
      </trkpt>
      <trkpt lat="31.232990962785834" lon="121.34374170619502">
        <ele>7.476173089817166</ele>
        <time>1970-01-01T00:00:55Z</time>
      </trkpt>
      <trkpt lat="31.233002510167573" lon="121.34373759060199">
        <ele>7.5237847417593</ele>
        <time>1970-01-01T00:00:56Z</time>
      </trkpt>
      <trkpt lat="31.23301330470208" lon="121.34373332302742">
        <ele>7.579379472881556</ele>
        <time>1970-01-01T00:00:57Z</time>
      </trkpt>
      <trkpt lat="31.233022897795212" lon="121.34373016945196">
        <ele>7.6440808130428195</ele>
        <time>1970-01-01T00:00:58Z</time>
        <extensions>
          <gpxtpx:TrackPointExtension>
            <gpxtpx:hr>108</gpxtpx:hr>
          </gpxtpx:TrackPointExtension>
        </extensions>
      </trkpt>
      <trkpt lat="31.233032016626485" lon="121.34372837976704">
        <ele>7.719118839129806</ele>
        <time>1970-01-01T00:00:59Z</time>
        <extensions>
          <gpxtpx:TrackPointExtension>
            <gpxtpx:hr>108</gpxtpx:hr>
          </gpxtpx:TrackPointExtension>
        </extensions>
      </trkpt>
      <trkpt lat="31.23304198129087" lon="121.34372728531977">
        <ele>7.805653561837971</ele>
        <time>1970-01-01T00:01:00Z</time>
        <extensions>
          <gpxtpx:TrackPointExtension>
            <gpxtpx:hr>108</gpxtpx:hr>
          </gpxtpx:TrackPointExtension>
        </extensions>
      </trkpt>
      <trkpt lat="31.23305291078335" lon="121.34372725124385">
        <ele>7.904679188504815</ele>
        <time>1970-01-01T00:01:01Z</time>
        <extensions>
          <gpxtpx:TrackPointExtension>
            <gpxtpx:hr>108</gpxtpx:hr>
          </gpxtpx:TrackPointExtension>
        </extensions>
      </trkpt>
      <trkpt lat="31.233063841805816" lon="121.34372774118685">
        <ele>8.016962957568467</ele>
        <time>1970-01-01T00:01:02Z</time>
        <extensions>
          <gpxtpx:TrackPointExtension>
            <gpxtpx:hr>108</gpxtpx:hr>
          </gpxtpx:TrackPointExtension>
        </extensions>
      </trkpt>
      <trkpt lat="31.233074083828853" lon="121.34372714103077">
        <ele>8.142396876588464</ele>
        <time>1970-01-01T00:01:04Z</time>
        <extensions>
          <gpxtpx:TrackPointExtension>
            <gpxtpx:hr>108</gpxtpx:hr>
          </gpxtpx:TrackPointExtension>
        </extensions>
      </trkpt>
      <trkpt lat="31.233085765382302" lon="121.34372419058407">
        <ele>8.324324000626802</ele>
        <time>1970-01-01T00:01:05Z</time>
        <extensions>
          <gpxtpx:TrackPointExtension>
            <gpxtpx:hr>108</gpxtpx:hr>
          </gpxtpx:TrackPointExtension>
        </extensions>
      </trkpt>
      <trkpt lat="31.233093846470975" lon="121.34372068356399">
        <ele>8.478524611331522</ele>
        <time>1970-01-01T00:01:06Z</time>
        <extensions>
          <gpxtpx:TrackPointExtension>
            <gpxtpx:hr>108</gpxtpx:hr>
          </gpxtpx:TrackPointExtension>
        </extensions>
      </trkpt>
      <trkpt lat="31.23310160637404" lon="121.3437165546977">
        <ele>8.640611288137734</ele>
        <time>1970-01-01T00:01:07Z</time>
        <extensions>
          <gpxtpx:TrackPointExtension>
            <gpxtpx:hr>108</gpxtpx:hr>
          </gpxtpx:TrackPointExtension>
        </extensions>
      </trkpt>
      <trkpt lat="31.233109204531374" lon="121.3437120223091">
        <ele>8.808731149882078</ele>
        <time>1970-01-01T00:01:08Z</time>
        <extensions>
          <gpxtpx:TrackPointExtension>
            <gpxtpx:hr>108</gpxtpx:hr>
          </gpxtpx:TrackPointExtension>
        </extensions>
      </trkpt>
      <trkpt lat="31.233116835623633" lon="121.3437072721482">
        <ele>8.981878359802067</ele>
        <time>1970-01-01T00:01:09Z</time>
        <extensions>
          <gpxtpx:TrackPointExtension>
            <gpxtpx:hr>108</gpxtpx:hr>
          </gpxtpx:TrackPointExtension>
        </extensions>
      </trkpt>
      <trkpt lat="31.23312467295325" lon="121.34370247846385">
        <ele>9.158216311596334</ele>
        <time>1970-01-01T00:01:10Z</time>
        <extensions>
          <gpxtpx:TrackPointExtension>
            <gpxtpx:hr>108</gpxtpx:hr>
          </gpxtpx:TrackPointExtension>
        </extensions>
      </trkpt>
      <trkpt lat="31.233132799041854" lon="121.34369802763652">
        <ele>9.336669106036425</ele>
        <time>1970-01-01T00:01:11Z</time>
        <extensions>
          <gpxtpx:TrackPointExtension>
            <gpxtpx:hr>104</gpxtpx:hr>
          </gpxtpx:TrackPointExtension>
        </extensions>
      </trkpt>
      <trkpt lat="31.233141285294206" lon="121.3436945254131">
        <ele>9.516103989444673</ele>
        <time>1970-01-01T00:01:12Z</time>
        <extensions>
          <gpxtpx:TrackPointExtension>
            <gpxtpx:hr>104</gpxtpx:hr>
          </gpxtpx:TrackPointExtension>
        </extensions>
      </trkpt>
      <trkpt lat="31.233150288717958" lon="121.34369217938318">
        <ele>9.695468910969794</ele>
        <time>1970-01-01T00:01:13Z</time>
        <extensions>
          <gpxtpx:TrackPointExtension>
            <gpxtpx:hr>104</gpxtpx:hr>
          </gpxtpx:TrackPointExtension>
        </extensions>
      </trkpt>
      <trkpt lat="31.23316005427801" lon="121.34369065957367">
        <ele>9.873615206219256</ele>
        <time>1970-01-01T00:01:14Z</time>
        <extensions>
          <gpxtpx:TrackPointExtension>
            <gpxtpx:hr>103</gpxtpx:hr>
          </gpxtpx:TrackPointExtension>
        </extensions>
      </trkpt>
      <trkpt lat="31.233170899239543" lon="121.34368956594247">
        <ele>10.049500131979585</ele>
        <time>1970-01-01T00:01:15Z</time>
        <extensions>
          <gpxtpx:TrackPointExtension>
            <gpxtpx:hr>103</gpxtpx:hr>
          </gpxtpx:TrackPointExtension>
        </extensions>
      </trkpt>
      <trkpt lat="31.233183303722363" lon="121.34368791600251">
        <ele>10.222384824417531</ele>
        <time>1970-01-01T00:01:16Z</time>
        <extensions>
          <gpxtpx:TrackPointExtension>
            <gpxtpx:hr>103</gpxtpx:hr>
          </gpxtpx:TrackPointExtension>
        </extensions>
      </trkpt>
      <trkpt lat="31.233196883839497" lon="121.34368637186653">
        <ele>10.391487067565322</ele>
        <time>1970-01-01T00:01:17Z</time>
        <extensions>
          <gpxtpx:TrackPointExtension>
            <gpxtpx:hr>103</gpxtpx:hr>
          </gpxtpx:TrackPointExtension>
        </extensions>
      </trkpt>
      <trkpt lat="31.233210611178325" lon="121.34368571487634">
        <ele>10.555940721184015</ele>
        <time>1970-01-01T00:01:18Z</time>
        <extensions>
          <gpxtpx:TrackPointExtension>
            <gpxtpx:hr>103</gpxtpx:hr>
          </gpxtpx:TrackPointExtension>
        </extensions>
      </trkpt>
      <trkpt lat="31.23322374544298" lon="121.34368505337302">
        <ele>10.714727343060076</ele>
        <time>1970-01-01T00:01:19Z</time>
        <extensions>
          <gpxtpx:TrackPointExtension>
            <gpxtpx:hr>103</gpxtpx:hr>
          </gpxtpx:TrackPointExtension>
        </extensions>
      </trkpt>
      <trkpt lat="31.23323595177373" lon="121.34368441678917">
        <ele>10.867298360913992</ele>
        <time>1970-01-01T00:01:20Z</time>
        <extensions>
          <gpxtpx:TrackPointExtension>
            <gpxtpx:hr>103</gpxtpx:hr>
          </gpxtpx:TrackPointExtension>
        </extensions>
      </trkpt>
      <trkpt lat="31.23324772720075" lon="121.34368423810606">
        <ele>11.012823871336877</ele>
        <time>1970-01-01T00:01:21Z</time>
        <extensions>
          <gpxtpx:TrackPointExtension>
            <gpxtpx:hr>103</gpxtpx:hr>
          </gpxtpx:TrackPointExtension>
        </extensions>
      </trkpt>
      <trkpt lat="31.2332596990099" lon="121.34368455993432">
        <ele>11.15096996538341</ele>
        <time>1970-01-01T00:01:22Z</time>
        <extensions>
          <gpxtpx:TrackPointExtension>
            <gpxtpx:hr>104</gpxtpx:hr>
          </gpxtpx:TrackPointExtension>
        </extensions>
      </trkpt>
      <trkpt lat="31.233272122572714" lon="121.34368517783601">
        <ele>11.281169041991234</ele>
        <time>1970-01-01T00:01:23Z</time>
        <extensions>
          <gpxtpx:TrackPointExtension>
            <gpxtpx:hr>104</gpxtpx:hr>
          </gpxtpx:TrackPointExtension>
        </extensions>
      </trkpt>
      <trkpt lat="31.233285594529463" lon="121.3436859624279">
        <ele>11.40250932611525</ele>
        <time>1970-01-01T00:01:24Z</time>
        <extensions>
          <gpxtpx:TrackPointExtension>
            <gpxtpx:hr>104</gpxtpx:hr>
          </gpxtpx:TrackPointExtension>
        </extensions>
      </trkpt>
      <trkpt lat="31.23330060770799" lon="121.34368690168854">
        <ele>11.515385948121548</ele>
        <time>1970-01-01T00:01:25Z</time>
        <extensions>
          <gpxtpx:TrackPointExtension>
            <gpxtpx:hr>104</gpxtpx:hr>
          </gpxtpx:TrackPointExtension>
        </extensions>
      </trkpt>
      <trkpt lat="31.233316846057726" lon="121.34368788118152">
        <ele>11.619465179741383</ele>
        <time>1970-01-01T00:01:26Z</time>
        <extensions>
          <gpxtpx:TrackPointExtension>
            <gpxtpx:hr>104</gpxtpx:hr>
          </gpxtpx:TrackPointExtension>
        </extensions>
      </trkpt>
      <trkpt lat="31.23333379050911" lon="121.3436887731458">
        <ele>11.714324682950974</ele>
        <time>1970-01-01T00:01:27Z</time>
        <extensions>
          <gpxtpx:TrackPointExtension>
            <gpxtpx:hr>107</gpxtpx:hr>
          </gpxtpx:TrackPointExtension>
        </extensions>
      </trkpt>
      <trkpt lat="31.233351717236964" lon="121.34368949695823">
        <ele>11.800876704975963</ele>
        <time>1970-01-01T00:01:28Z</time>
        <extensions>
          <gpxtpx:TrackPointExtension>
            <gpxtpx:hr>107</gpxtpx:hr>
          </gpxtpx:TrackPointExtension>
        </extensions>
      </trkpt>
      <trkpt lat="31.233370876594016" lon="121.34369003473684">
        <ele>11.878671429120004</ele>
        <time>1970-01-01T00:01:29Z</time>
        <extensions>
          <gpxtpx:TrackPointExtension>
            <gpxtpx:hr>107</gpxtpx:hr>
          </gpxtpx:TrackPointExtension>
        </extensions>
      </trkpt>
      <trkpt lat="31.23339093287932" lon="121.34369044943557">
        <ele>11.948193944059312</ele>
        <time>1970-01-01T00:01:30Z</time>
        <extensions>
          <gpxtpx:TrackPointExtension>
            <gpxtpx:hr>107</gpxtpx:hr>
          </gpxtpx:TrackPointExtension>
        </extensions>
      </trkpt>
      <trkpt lat="31.233411587704424" lon="121.34369071897788">
        <ele>12.008575077168643</ele>
        <time>1970-01-01T00:01:31Z</time>
        <extensions>
          <gpxtpx:TrackPointExtension>
            <gpxtpx:hr>107</gpxtpx:hr>
          </gpxtpx:TrackPointExtension>
        </extensions>
      </trkpt>
      <trkpt lat="31.233432297535778" lon="121.34369087604446">
        <ele>12.061679378151894</ele>
        <time>1970-01-01T00:01:32Z</time>
        <extensions>
          <gpxtpx:TrackPointExtension>
            <gpxtpx:hr>107</gpxtpx:hr>
          </gpxtpx:TrackPointExtension>
        </extensions>
      </trkpt>
      <trkpt lat="31.23345249735942" lon="121.34369115912703">
        <ele>12.107276003807783</ele>
        <time>1970-01-01T00:01:33Z</time>
        <extensions>
          <gpxtpx:TrackPointExtension>
            <gpxtpx:hr>112</gpxtpx:hr>
          </gpxtpx:TrackPointExtension>
        </extensions>
      </trkpt>
      <trkpt lat="31.233472136070464" lon="121.34369159436467">
        <ele>12.145975147373974</ele>
        <time>1970-01-01T00:01:34Z</time>
        <extensions>
          <gpxtpx:TrackPointExtension>
            <gpxtpx:hr>112</gpxtpx:hr>
          </gpxtpx:TrackPointExtension>
        </extensions>
      </trkpt>
      <trkpt lat="31.233491388126968" lon="121.34369165280498">
        <ele>12.178646474145353</ele>
        <time>1970-01-01T00:01:35Z</time>
        <extensions>
          <gpxtpx:TrackPointExtension>
            <gpxtpx:hr>112</gpxtpx:hr>
          </gpxtpx:TrackPointExtension>
        </extensions>
      </trkpt>
      <trkpt lat="31.233509963971933" lon="121.34369128308599">
        <ele>12.205170168541372</ele>
        <time>1970-01-01T00:01:36Z</time>
        <extensions>
          <gpxtpx:TrackPointExtension>
            <gpxtpx:hr>112</gpxtpx:hr>
          </gpxtpx:TrackPointExtension>
        </extensions>
      </trkpt>
      <trkpt lat="31.23352764264598" lon="121.34369076741295">
        <ele>12.226048089563847</ele>
        <time>1970-01-01T00:01:37Z</time>
        <extensions>
          <gpxtpx:TrackPointExtension>
            <gpxtpx:hr>112</gpxtpx:hr>
          </gpxtpx:TrackPointExtension>
        </extensions>
      </trkpt>
      <trkpt lat="31.233544555740913" lon="121.34369020453927">
        <ele>12.241861327551305</ele>
        <time>1970-01-01T00:01:38Z</time>
        <extensions>
          <gpxtpx:TrackPointExtension>
            <gpxtpx:hr>112</gpxtpx:hr>
          </gpxtpx:TrackPointExtension>
        </extensions>
      </trkpt>
      <trkpt lat="31.233560718810093" lon="121.34368961397423">
        <ele>12.253436357714236</ele>
        <time>1970-01-01T00:01:39Z</time>
        <extensions>
          <gpxtpx:TrackPointExtension>
            <gpxtpx:hr>114</gpxtpx:hr>
          </gpxtpx:TrackPointExtension>
        </extensions>
      </trkpt>
      <trkpt lat="31.233575788949178" lon="121.34368902212395">
        <ele>12.260954027064145</ele>
        <time>1970-01-01T00:01:40Z</time>
        <extensions>
          <gpxtpx:TrackPointExtension>
            <gpxtpx:hr>114</gpxtpx:hr>
          </gpxtpx:TrackPointExtension>
        </extensions>
      </trkpt>
      <trkpt lat="31.233589055004945" lon="121.34368899575965">
        <ele>12.26433105301112</ele>
        <time>1970-01-01T00:01:41Z</time>
        <extensions>
          <gpxtpx:TrackPointExtension>
            <gpxtpx:hr>114</gpxtpx:hr>
          </gpxtpx:TrackPointExtension>
        </extensions>
      </trkpt>
      <trkpt lat="31.233600019354807" lon="121.34369039320693">
        <ele>12.264099824242294</ele>
        <time>1970-01-01T00:01:42Z</time>
        <extensions>
          <gpxtpx:TrackPointExtension>
            <gpxtpx:hr>114</gpxtpx:hr>
          </gpxtpx:TrackPointExtension>
        </extensions>
      </trkpt>
      <trkpt lat="31.233608813905327" lon="121.34369377795952">
        <ele>12.26047190837562</ele>
        <time>1970-01-01T00:01:43Z</time>
        <extensions>
          <gpxtpx:TrackPointExtension>
            <gpxtpx:hr>114</gpxtpx:hr>
          </gpxtpx:TrackPointExtension>
        </extensions>
      </trkpt>
      <trkpt lat="31.233616138386036" lon="121.34369857708921">
        <ele>12.253746984526515</ele>
        <time>1970-01-01T00:01:44Z</time>
        <extensions>
          <gpxtpx:TrackPointExtension>
            <gpxtpx:hr>114</gpxtpx:hr>
          </gpxtpx:TrackPointExtension>
        </extensions>
      </trkpt>
      <trkpt lat="31.233622487033305" lon="121.34370342484753">
        <ele>12.195582898333669</ele>
        <time>1970-01-01T00:01:45Z</time>
        <extensions>
          <gpxtpx:TrackPointExtension>
            <gpxtpx:hr>114</gpxtpx:hr>
          </gpxtpx:TrackPointExtension>
        </extensions>
      </trkpt>
      <trkpt lat="31.2336280365103" lon="121.34370808258377">
        <ele>12.171775591559708</ele>
        <time>1970-01-01T00:01:46Z</time>
        <extensions>
          <gpxtpx:TrackPointExtension>
            <gpxtpx:hr>114</gpxtpx:hr>
          </gpxtpx:TrackPointExtension>
        </extensions>
      </trkpt>
      <trkpt lat="31.23363285231674" lon="121.3437125330019">
        <ele>12.14463118556887</ele>
        <time>1970-01-01T00:01:47Z</time>
        <extensions>
          <gpxtpx:TrackPointExtension>
            <gpxtpx:hr>114</gpxtpx:hr>
          </gpxtpx:TrackPointExtension>
        </extensions>
      </trkpt>
      <trkpt lat="31.23363700167207" lon="121.34371705476609">
        <ele>12.114327169954777</ele>
        <time>1970-01-01T00:01:48Z</time>
        <extensions>
          <gpxtpx:TrackPointExtension>
            <gpxtpx:hr>114</gpxtpx:hr>
          </gpxtpx:TrackPointExtension>
        </extensions>
      </trkpt>
      <trkpt lat="31.233640551469808" lon="121.34372172188563">
        <ele>12.08103837724775</ele>
        <time>1970-01-01T00:01:49Z</time>
        <extensions>
          <gpxtpx:TrackPointExtension>
            <gpxtpx:hr>114</gpxtpx:hr>
          </gpxtpx:TrackPointExtension>
        </extensions>
      </trkpt>
      <trkpt lat="31.233643722598483" lon="121.34372644362266">
        <ele>12.044773321598768</ele>
        <time>1970-01-01T00:01:50Z</time>
        <extensions>
          <gpxtpx:TrackPointExtension>
            <gpxtpx:hr>114</gpxtpx:hr>
          </gpxtpx:TrackPointExtension>
        </extensions>
      </trkpt>
      <trkpt lat="31.233646837006823" lon="121.34373142279459">
        <ele>12.005743865855038</ele>
        <time>1970-01-01T00:01:51Z</time>
        <extensions>
          <gpxtpx:TrackPointExtension>
            <gpxtpx:hr>114</gpxtpx:hr>
          </gpxtpx:TrackPointExtension>
        </extensions>
      </trkpt>
      <trkpt lat="31.23365007413386" lon="121.34373679350321">
        <ele>11.964331587776542</ele>
        <time>1970-01-01T00:01:52Z</time>
        <extensions>
          <gpxtpx:TrackPointExtension>
            <gpxtpx:hr>114</gpxtpx:hr>
          </gpxtpx:TrackPointExtension>
        </extensions>
      </trkpt>
      <trkpt lat="31.233653557211237" lon="121.34374271384411">
        <ele>11.920455143786967</ele>
        <time>1970-01-01T00:01:53Z</time>
        <extensions>
          <gpxtpx:TrackPointExtension>
            <gpxtpx:hr>114</gpxtpx:hr>
          </gpxtpx:TrackPointExtension>
        </extensions>
      </trkpt>
      <trkpt lat="31.2336573194925" lon="121.34374915417355">
        <ele>11.874217283912003</ele>
        <time>1970-01-01T00:01:54Z</time>
        <extensions>
          <gpxtpx:TrackPointExtension>
            <gpxtpx:hr>114</gpxtpx:hr>
          </gpxtpx:TrackPointExtension>
        </extensions>
      </trkpt>
      <trkpt lat="31.233661279478394" lon="121.3437556869434">
        <ele>11.826296890154481</ele>
        <time>1970-01-01T00:01:55Z</time>
        <extensions>
          <gpxtpx:TrackPointExtension>
            <gpxtpx:hr>114</gpxtpx:hr>
          </gpxtpx:TrackPointExtension>
        </extensions>
      </trkpt>
      <trkpt lat="31.23366551979608" lon="121.34376224427201">
        <ele>11.775599899701774</ele>
        <time>1970-01-01T00:01:56Z</time>
        <extensions>
          <gpxtpx:TrackPointExtension>
            <gpxtpx:hr>114</gpxtpx:hr>
          </gpxtpx:TrackPointExtension>
        </extensions>
      </trkpt>
      <trkpt lat="31.233669933414756" lon="121.3437688626632">
        <ele>11.72385239135474</ele>
        <time>1970-01-01T00:01:57Z</time>
        <extensions>
          <gpxtpx:TrackPointExtension>
            <gpxtpx:hr>113</gpxtpx:hr>
          </gpxtpx:TrackPointExtension>
        </extensions>
      </trkpt>
      <trkpt lat="31.233674435286524" lon="121.34377552786044">
        <ele>11.67105863802135</ele>
        <time>1970-01-01T00:01:58Z</time>
        <extensions>
          <gpxtpx:TrackPointExtension>
            <gpxtpx:hr>113</gpxtpx:hr>
          </gpxtpx:TrackPointExtension>
        </extensions>
      </trkpt>
      <trkpt lat="31.23367916027035" lon="121.34378237858763">
        <ele>11.616036407649517</ele>
        <time>1970-01-01T00:01:59Z</time>
        <extensions>
          <gpxtpx:TrackPointExtension>
            <gpxtpx:hr>113</gpxtpx:hr>
          </gpxtpx:TrackPointExtension>
        </extensions>
      </trkpt>
      <trkpt lat="31.233684237593394" lon="121.3437895827226">
        <ele>11.559010903351009</ele>
        <time>1970-01-01T00:02:00Z</time>
        <extensions>
          <gpxtpx:TrackPointExtension>
            <gpxtpx:hr>113</gpxtpx:hr>
          </gpxtpx:TrackPointExtension>
        </extensions>
      </trkpt>
      <trkpt lat="31.23368946182175" lon="121.34379702416076">
        <ele>11.500050071626902</ele>
        <time>1970-01-01T00:02:01Z</time>
        <extensions>
          <gpxtpx:TrackPointExtension>
            <gpxtpx:hr>113</gpxtpx:hr>
          </gpxtpx:TrackPointExtension>
        </extensions>
      </trkpt>
      <trkpt lat="31.2336945020052" lon="121.34380427335357">
        <ele>11.440103760920465</ele>
        <time>1970-01-01T00:02:02Z</time>
        <extensions>
          <gpxtpx:TrackPointExtension>
            <gpxtpx:hr>113</gpxtpx:hr>
          </gpxtpx:TrackPointExtension>
        </extensions>
      </trkpt>
      <trkpt lat="31.233699566317792" lon="121.34381127646347">
        <ele>11.378826731815934</ele>
        <time>1970-01-01T00:02:03Z</time>
        <extensions>
          <gpxtpx:TrackPointExtension>
            <gpxtpx:hr>114</gpxtpx:hr>
          </gpxtpx:TrackPointExtension>
        </extensions>
      </trkpt>
      <trkpt lat="31.23370487176509" lon="121.34381825547507">
        <ele>11.316795786842704</ele>
        <time>1970-01-01T00:02:04Z</time>
        <extensions>
          <gpxtpx:TrackPointExtension>
            <gpxtpx:hr>114</gpxtpx:hr>
          </gpxtpx:TrackPointExtension>
        </extensions>
      </trkpt>
      <trkpt lat="31.233710436827792" lon="121.34382539145878">
        <ele>11.253395396284759</ele>
        <time>1970-01-01T00:02:05Z</time>
        <extensions>
          <gpxtpx:TrackPointExtension>
            <gpxtpx:hr>114</gpxtpx:hr>
          </gpxtpx:TrackPointExtension>
        </extensions>
      </trkpt>
      <trkpt lat="31.233716241645503" lon="121.34383215541348">
        <ele>11.18721367418766</ele>
        <time>1970-01-01T00:02:06Z</time>
        <extensions>
          <gpxtpx:TrackPointExtension>
            <gpxtpx:hr>114</gpxtpx:hr>
          </gpxtpx:TrackPointExtension>
        </extensions>
      </trkpt>
      <trkpt lat="31.233722454930245" lon="121.34383769873898">
        <ele>11.11713338457048</ele>
        <time>1970-01-01T00:02:07Z</time>
        <extensions>
          <gpxtpx:TrackPointExtension>
            <gpxtpx:hr>114</gpxtpx:hr>
          </gpxtpx:TrackPointExtension>
        </extensions>
      </trkpt>
      <trkpt lat="31.233729518538624" lon="121.34384143515543">
        <ele>11.046102120541036</ele>
        <time>1970-01-01T00:02:08Z</time>
        <extensions>
          <gpxtpx:TrackPointExtension>
            <gpxtpx:hr>114</gpxtpx:hr>
          </gpxtpx:TrackPointExtension>
        </extensions>
      </trkpt>
      <trkpt lat="31.233737735012856" lon="121.3438433477381">
        <ele>10.973815076984465</ele>
        <time>1970-01-01T00:02:09Z</time>
        <extensions>
          <gpxtpx:TrackPointExtension>
            <gpxtpx:hr>114</gpxtpx:hr>
          </gpxtpx:TrackPointExtension>
        </extensions>
      </trkpt>
      <trkpt lat="31.233746562166534" lon="121.34384344609346">
        <ele>10.901801218278706</ele>
        <time>1970-01-01T00:02:10Z</time>
        <extensions>
          <gpxtpx:TrackPointExtension>
            <gpxtpx:hr>114</gpxtpx:hr>
          </gpxtpx:TrackPointExtension>
        </extensions>
      </trkpt>
      <trkpt lat="31.2337550673743" lon="121.34384161177466">
        <ele>10.828928233124316</ele>
        <time>1970-01-01T00:02:11Z</time>
        <extensions>
          <gpxtpx:TrackPointExtension>
            <gpxtpx:hr>116</gpxtpx:hr>
          </gpxtpx:TrackPointExtension>
        </extensions>
      </trkpt>
      <trkpt lat="31.233762098234926" lon="121.34383693734874">
        <ele>10.755550138652325</ele>
        <time>1970-01-01T00:02:12Z</time>
        <extensions>
          <gpxtpx:TrackPointExtension>
            <gpxtpx:hr>116</gpxtpx:hr>
          </gpxtpx:TrackPointExtension>
        </extensions>
      </trkpt>
      <trkpt lat="31.233767058785467" lon="121.34382965969188">
        <ele>10.681659381836653</ele>
        <time>1970-01-01T00:02:13Z</time>
        <extensions>
          <gpxtpx:TrackPointExtension>
            <gpxtpx:hr>116</gpxtpx:hr>
          </gpxtpx:TrackPointExtension>
        </extensions>
      </trkpt>
      <trkpt lat="31.233770789828224" lon="121.3438213442934">
        <ele>10.607633116655052</ele>
        <time>1970-01-01T00:02:14Z</time>
        <extensions>
          <gpxtpx:TrackPointExtension>
            <gpxtpx:hr>117</gpxtpx:hr>
          </gpxtpx:TrackPointExtension>
        </extensions>
      </trkpt>
      <trkpt lat="31.233775271096157" lon="121.34381348349196">
        <ele>10.533699853345752</ele>
        <time>1970-01-01T00:02:15Z</time>
        <extensions>
          <gpxtpx:TrackPointExtension>
            <gpxtpx:hr>117</gpxtpx:hr>
          </gpxtpx:TrackPointExtension>
        </extensions>
      </trkpt>
      <trkpt lat="31.233782426235575" lon="121.34380769472527">
        <ele>10.460096484981477</ele>
        <time>1970-01-01T00:02:16Z</time>
        <extensions>
          <gpxtpx:TrackPointExtension>
            <gpxtpx:hr>117</gpxtpx:hr>
          </gpxtpx:TrackPointExtension>
        </extensions>
      </trkpt>
      <trkpt lat="31.233792913135378" lon="121.34380434088193">
        <ele>10.386717544868588</ele>
        <time>1970-01-01T00:02:17Z</time>
        <extensions>
          <gpxtpx:TrackPointExtension>
            <gpxtpx:hr>117</gpxtpx:hr>
          </gpxtpx:TrackPointExtension>
        </extensions>
      </trkpt>
      <trkpt lat="31.233805869444527" lon="121.34380268489063">
        <ele>10.31430870294571</ele>
        <time>1970-01-01T00:02:18Z</time>
        <extensions>
          <gpxtpx:TrackPointExtension>
            <gpxtpx:hr>117</gpxtpx:hr>
          </gpxtpx:TrackPointExtension>
        </extensions>
      </trkpt>
      <trkpt lat="31.233820164256514" lon="121.34380175226259">
        <ele>10.241777619346976</ele>
        <time>1970-01-01T00:02:19Z</time>
        <extensions>
          <gpxtpx:TrackPointExtension>
            <gpxtpx:hr>117</gpxtpx:hr>
          </gpxtpx:TrackPointExtension>
        </extensions>
      </trkpt>
      <trkpt lat="31.233835254863187" lon="121.34379999089023">
        <ele>10.170796913094819</ele>
        <time>1970-01-01T00:02:20Z</time>
        <extensions>
          <gpxtpx:TrackPointExtension>
            <gpxtpx:hr>117</gpxtpx:hr>
          </gpxtpx:TrackPointExtension>
        </extensions>
      </trkpt>
      <trkpt lat="31.233850790234335" lon="121.34379677686432">
        <ele>10.102279839105904</ele>
        <time>1970-01-01T00:02:21Z</time>
        <extensions>
          <gpxtpx:TrackPointExtension>
            <gpxtpx:hr>117</gpxtpx:hr>
          </gpxtpx:TrackPointExtension>
        </extensions>
      </trkpt>
      <trkpt lat="31.233866321332442" lon="121.34379285437481">
        <ele>10.035359339788556</ele>
        <time>1970-01-01T00:02:22Z</time>
        <extensions>
          <gpxtpx:TrackPointExtension>
            <gpxtpx:hr>117</gpxtpx:hr>
          </gpxtpx:TrackPointExtension>
        </extensions>
      </trkpt>
      <trkpt lat="31.23388183406783" lon="121.343788522746">
        <ele>9.971209743991494</ele>
        <time>1970-01-01T00:02:23Z</time>
        <extensions>
          <gpxtpx:TrackPointExtension>
            <gpxtpx:hr>117</gpxtpx:hr>
          </gpxtpx:TrackPointExtension>
        </extensions>
      </trkpt>
      <trkpt lat="31.233897394118884" lon="121.34378312371341">
        <ele>9.910150364972651</ele>
        <time>1970-01-01T00:02:24Z</time>
        <extensions>
          <gpxtpx:TrackPointExtension>
            <gpxtpx:hr>117</gpxtpx:hr>
          </gpxtpx:TrackPointExtension>
        </extensions>
      </trkpt>
      <trkpt lat="31.233912802159928" lon="121.3437765749884">
        <ele>9.85177141148597</ele>
        <time>1970-01-01T00:02:25Z</time>
      </trkpt>
      <trkpt lat="31.23392761819058" lon="121.34376958391385">
        <ele>9.79654474556446</ele>
        <time>1970-01-01T00:02:26Z</time>
      </trkpt>
      <trkpt lat="31.233941622491287" lon="121.34376293646089">
        <ele>9.745368511416018</ele>
        <time>1970-01-01T00:02:27Z</time>
      </trkpt>
      <trkpt lat="31.233955342730734" lon="121.34375797739443">
        <ele>9.699156420305371</ele>
        <time>1970-01-01T00:02:28Z</time>
      </trkpt>
      <trkpt lat="31.233969439228503" lon="121.34375537006612">
        <ele>9.658820064738393</ele>
        <time>1970-01-01T00:02:29Z</time>
      </trkpt>
      <trkpt lat="31.233984094804146" lon="121.34375422808961">
        <ele>9.625340297818184</ele>
        <time>1970-01-01T00:02:30Z</time>
      </trkpt>
      <trkpt lat="31.233999370400287" lon="121.34375340680334">
        <ele>9.599830302409828</ele>
        <time>1970-01-01T00:02:31Z</time>
      </trkpt>
      <trkpt lat="31.23401495713874" lon="121.34375212201887">
        <ele>9.583442439325154</ele>
        <time>1970-01-01T00:02:32Z</time>
      </trkpt>
      <trkpt lat="31.234029921933853" lon="121.3437496237856">
        <ele>9.577530243434012</ele>
        <time>1970-01-01T00:02:33Z</time>
      </trkpt>
      <trkpt lat="31.234042690764024" lon="121.34374491820135">
        <ele>9.583799132145941</ele>
        <time>1970-01-01T00:02:34Z</time>
      </trkpt>
      <trkpt lat="31.23405447563466" lon="121.34373972550156">
        <ele>9.604485073126853</ele>
        <time>1970-01-01T00:02:34Z</time>
      </trkpt>
      <trkpt lat="31.234067054563404" lon="121.34373516217833">
        <ele>9.640089303255081</ele>
        <time>1970-01-01T00:02:35Z</time>
      </trkpt>
      <trkpt lat="31.234079376905047" lon="121.34373046200064">
        <ele>9.689780721440911</ele>
        <time>1970-01-01T00:02:36Z</time>
      </trkpt>
      <trkpt lat="31.23409037033178" lon="121.34372663212395">
        <ele>9.751590988598764</ele>
        <time>1970-01-01T00:02:37Z</time>
      </trkpt>
      <trkpt lat="31.234100230053475" lon="121.34372488910921">
        <ele>9.823777846060693</ele>
        <time>1970-01-01T00:02:38Z</time>
      </trkpt>
      <trkpt lat="31.234110241222638" lon="121.3437252992738">
        <ele>9.903003998100758</ele>
        <time>1970-01-01T00:02:39Z</time>
      </trkpt>
      <trkpt lat="31.234121214284535" lon="121.34372680374918">
        <ele>9.98878975212574</ele>
        <time>1970-01-01T00:02:40Z</time>
      </trkpt>
      <trkpt lat="31.234133134504546" lon="121.34372878901638">
        <ele>10.07940013334155</ele>
        <time>1970-01-01T00:02:41Z</time>
      </trkpt>
      <trkpt lat="31.234145854502483" lon="121.343731213925">
        <ele>10.173025070689619</ele>
        <time>1970-01-01T00:02:42Z</time>
      </trkpt>
      <trkpt lat="31.23415947309201" lon="121.34373400158904">
        <ele>10.270697175525129</ele>
        <time>1970-01-01T00:02:43Z</time>
      </trkpt>
      <trkpt lat="31.23417425696607" lon="121.34373731233217">
        <ele>10.37062466982752</ele>
        <time>1970-01-01T00:02:44Z</time>
      </trkpt>
      <trkpt lat="31.234189901098677" lon="121.34374130579614">
        <ele>10.471850621514022</ele>
        <time>1970-01-01T00:02:45Z</time>
      </trkpt>
      <trkpt lat="31.23420561559833" lon="121.34374561550202">
        <ele>10.573179540224373</ele>
        <time>1970-01-01T00:02:46Z</time>
      </trkpt>
      <trkpt lat="31.23422084633542" lon="121.34374975007208">
        <ele>10.674119959585369</ele>
        <time>1970-01-01T00:02:47Z</time>
      </trkpt>
      <trkpt lat="31.234234818986177" lon="121.34375338815558">
        <ele>10.774176109582186</ele>
        <time>1970-01-01T00:02:48Z</time>
      </trkpt>
      <trkpt lat="31.234246470719704" lon="121.34375630872839">
        <ele>10.871514867059886</ele>
        <time>1970-01-01T00:02:49Z</time>
      </trkpt>
      <trkpt lat="31.234255638704333" lon="121.34375794668058">
        <ele>10.96475835237652</ele>
        <time>1970-01-01T00:02:50Z</time>
      </trkpt>
      <trkpt lat="31.234262557452126" lon="121.34375714816812">
        <ele>11.053336925804615</ele>
        <time>1970-01-01T00:02:51Z</time>
      </trkpt>
      <trkpt lat="31.23426710749263" lon="121.34375275183615">
        <ele>11.139884442090988</ele>
        <time>1970-01-01T00:02:52Z</time>
      </trkpt>
      <trkpt lat="31.234269859559078" lon="121.3437442610813">
        <ele>11.222621684893966</ele>
        <time>1970-01-01T00:02:53Z</time>
      </trkpt>
      <trkpt lat="31.234271745938464" lon="121.34373233708303">
        <ele>11.30195298884064</ele>
        <time>1970-01-01T00:02:54Z</time>
      </trkpt>
      <trkpt lat="31.234273403790773" lon="121.34371854090733">
        <ele>11.376546361483634</ele>
        <time>1970-01-01T00:02:55Z</time>
      </trkpt>
      <trkpt lat="31.23427640995591" lon="121.34370443086199">
        <ele>11.445009086281061</ele>
        <time>1970-01-01T00:02:56Z</time>
      </trkpt>
      <trkpt lat="31.234281686741213" lon="121.3436915417801">
        <ele>11.50851110741496</ele>
        <time>1970-01-01T00:02:57Z</time>
      </trkpt>
      <trkpt lat="31.234287686053793" lon="121.34368145404791">
        <ele>11.566349991597235</ele>
        <time>1970-01-01T00:02:58Z</time>
      </trkpt>
      <trkpt lat="31.234293208122615" lon="121.34367529831935">
        <ele>11.61833188869059</ele>
        <time>1970-01-01T00:02:59Z</time>
      </trkpt>
      <trkpt lat="31.234297397926415" lon="121.34367197765077">
        <ele>11.66428866609931</ele>
        <time>1970-01-01T00:03:00Z</time>
      </trkpt>
      <trkpt lat="31.234299384810363" lon="121.34366876195877">
        <ele>11.704918701201677</ele>
        <time>1970-01-01T00:03:01Z</time>
      </trkpt>
      <trkpt lat="31.234299418333105" lon="121.34366387871323">
        <ele>11.73934681341052</ele>
        <time>1970-01-01T00:03:02Z</time>
      </trkpt>
      <trkpt lat="31.234298065339118" lon="121.3436568050319">
        <ele>11.76821028534323</ele>
        <time>1970-01-01T00:03:03Z</time>
      </trkpt>
      <trkpt lat="31.234296015348498" lon="121.34364837431667">
        <ele>11.791603727266192</ele>
        <time>1970-01-01T00:03:04Z</time>
      </trkpt>
      <trkpt lat="31.234293941126136" lon="121.34363993944369">
        <ele>11.80975918378681</ele>
        <time>1970-01-01T00:03:05Z</time>
      </trkpt>
      <trkpt lat="31.234292168161474" lon="121.34363183609858">
        <ele>11.824127168394625</ele>
        <time>1970-01-01T00:03:06Z</time>
      </trkpt>
      <trkpt lat="31.234290685092525" lon="121.34362328705079">
        <ele>11.833156789653003</ele>
        <time>1970-01-01T00:03:07Z</time>
      </trkpt>
      <trkpt lat="31.234289679422833" lon="121.34361436290254">
        <ele>11.838012104853988</ele>
        <time>1970-01-01T00:03:08Z</time>
      </trkpt>
      <trkpt lat="31.2342897692731" lon="121.34360651594461">
        <ele>11.837209951132536</ele>
        <time>1970-01-01T00:03:09Z</time>
      </trkpt>
      <trkpt lat="31.234291740699696" lon="121.34360143939266">
        <ele>11.831857237033546</ele>
        <time>1970-01-01T00:03:10Z</time>
      </trkpt>
      <trkpt lat="31.234296555438934" lon="121.34360001942494">
        <ele>11.820577003061771</ele>
        <time>1970-01-01T00:03:11Z</time>
      </trkpt>
      <trkpt lat="31.234303816049216" lon="121.34360094546439">
        <ele>11.804729264229536</ele>
        <time>1970-01-01T00:03:12Z</time>
      </trkpt>
      <trkpt lat="31.234311944848898" lon="121.3436017796331">
        <ele>11.784628931432962</ele>
        <time>1970-01-01T00:03:13Z</time>
      </trkpt>
      <trkpt lat="31.23431920221795" lon="121.34360116319448">
        <ele>11.764367273077369</ele>
        <time>1970-01-01T00:03:14Z</time>
      </trkpt>
      <trkpt lat="31.234326074069156" lon="121.3435999239932">
        <ele>11.741275442764163</ele>
        <time>1970-01-01T00:03:15Z</time>
      </trkpt>
      <trkpt lat="31.234335135318414" lon="121.3435999876451">
        <ele>11.714251447468996</ele>
        <time>1970-01-01T00:03:16Z</time>
      </trkpt>
      <trkpt lat="31.234346849645465" lon="121.34360236265266">
        <ele>11.685539713129401</ele>
        <time>1970-01-01T00:03:17Z</time>
      </trkpt>
      <trkpt lat="31.234360159648958" lon="121.34360566778582">
        <ele>11.655248395167291</ele>
        <time>1970-01-01T00:03:18Z</time>
      </trkpt>
      <trkpt lat="31.23437449721007" lon="121.34360859906657">
        <ele>11.621503374539316</ele>
        <time>1970-01-01T00:03:19Z</time>
      </trkpt>
      <trkpt lat="31.234389582869387" lon="121.34361145697027">
        <ele>11.585847191512585</ele>
        <time>1970-01-01T00:03:20Z</time>
      </trkpt>
      <trkpt lat="31.234405291659993" lon="121.34361431774741">
        <ele>11.54761889576912</ele>
        <time>1970-01-01T00:03:21Z</time>
      </trkpt>
      <trkpt lat="31.234421725309694" lon="121.34361720881103">
        <ele>11.50790843181312</ele>
        <time>1970-01-01T00:03:22Z</time>
      </trkpt>
      <trkpt lat="31.23443845149022" lon="121.34361993891534">
        <ele>11.465982801280916</ele>
        <time>1970-01-01T00:03:23Z</time>
      </trkpt>
      <trkpt lat="31.234455400046116" lon="121.3436224303725">
        <ele>11.422218500636518</ele>
        <time>1970-01-01T00:03:24Z</time>
      </trkpt>
      <trkpt lat="31.234472403255143" lon="121.34362472662397">
        <ele>11.377259191125631</ele>
        <time>1970-01-01T00:03:25Z</time>
      </trkpt>
      <trkpt lat="31.234489004011586" lon="121.34362688316192">
        <ele>11.330205995589495</ele>
        <time>1970-01-01T00:03:26Z</time>
      </trkpt>
      <trkpt lat="31.234505227746023" lon="121.34362883473362">
        <ele>11.281145202927291</ele>
        <time>1970-01-01T00:03:27Z</time>
      </trkpt>
      <trkpt lat="31.23452161307803" lon="121.34363037421359">
        <ele>11.23034873045981</ele>
        <time>1970-01-01T00:03:28Z</time>
      </trkpt>
      <trkpt lat="31.234538919560976" lon="121.34363135212288">
        <ele>11.178655818104744</ele>
        <time>1970-01-01T00:03:29Z</time>
      </trkpt>
      <trkpt lat="31.234557011487045" lon="121.34363144319887">
        <ele>11.125033346936107</ele>
        <time>1970-01-01T00:03:30Z</time>
      </trkpt>
      <trkpt lat="31.234575038362696" lon="121.34363045032012">
        <ele>11.069315216504037</ele>
        <time>1970-01-01T00:03:31Z</time>
      </trkpt>
      <trkpt lat="31.23459164221239" lon="121.34362864520187">
        <ele>11.011497097089887</ele>
        <time>1970-01-01T00:03:32Z</time>
      </trkpt>
      <trkpt lat="31.234605084760783" lon="121.34362561434597">
        <ele>10.952882088720798</ele>
        <time>1970-01-01T00:03:33Z</time>
      </trkpt>
      <trkpt lat="31.234613860459998" lon="121.34361983841218">
        <ele>10.893873608671129</ele>
        <time>1970-01-01T00:03:34Z</time>
      </trkpt>
      <trkpt lat="31.23462077226783" lon="121.34361172514755">
        <ele>10.833745998330414</ele>
        <time>1970-01-01T00:03:35Z</time>
      </trkpt>
      <trkpt lat="31.23462978973816" lon="121.3436039093169">
        <ele>10.772425902076066</ele>
        <time>1970-01-01T00:03:36Z</time>
      </trkpt>
      <trkpt lat="31.234641593687453" lon="121.34359875469283">
        <ele>10.70959853567183</ele>
        <time>1970-01-01T00:03:37Z</time>
      </trkpt>
      <trkpt lat="31.234655643946304" lon="121.34359616909573">
        <ele>10.646656386554241</ele>
        <time>1970-01-01T00:03:38Z</time>
      </trkpt>
      <trkpt lat="31.23467043524778" lon="121.34359496399028">
        <ele>10.58299992326647</ele>
        <time>1970-01-01T00:03:39Z</time>
      </trkpt>
      <trkpt lat="31.234684725514512" lon="121.34359504079296">
        <ele>10.517980975098908</ele>
        <time>1970-01-01T00:03:40Z</time>
      </trkpt>
      <trkpt lat="31.234697675705664" lon="121.34359648614637">
        <ele>10.451485969126225</ele>
        <time>1970-01-01T00:03:41Z</time>
      </trkpt>
      <trkpt lat="31.234708883722476" lon="121.34359933035384">
        <ele>10.383506295271218</ele>
        <time>1970-01-01T00:03:42Z</time>
      </trkpt>
      <trkpt lat="31.234719418327977" lon="121.3436030626368">
        <ele>10.316562111489475</ele>
        <time>1970-01-01T00:03:43Z</time>
      </trkpt>
      <trkpt lat="31.234730564925012" lon="121.34360653353995">
        <ele>10.249663356691599</ele>
        <time>1970-01-01T00:03:44Z</time>
      </trkpt>
      <trkpt lat="31.234742444293612" lon="121.34360916151232">
        <ele>10.18036272469908</ele>
        <time>1970-01-01T00:03:45Z</time>
      </trkpt>
      <trkpt lat="31.234754778907092" lon="121.34361124825807">
        <ele>10.110433117486537</ele>
        <time>1970-01-01T00:03:46Z</time>
      </trkpt>
      <trkpt lat="31.23476726034593" lon="121.34361351743588">
        <ele>10.041167463175952</ele>
        <time>1970-01-01T00:03:47Z</time>
      </trkpt>
      <trkpt lat="31.234779675605512" lon="121.34361641616728">
        <ele>9.97093567904085</ele>
        <time>1970-01-01T00:03:48Z</time>
      </trkpt>
      <trkpt lat="31.234791511365223" lon="121.34361925846339">
        <ele>9.90034036617726</ele>
        <time>1970-01-01T00:03:49Z</time>
      </trkpt>
      <trkpt lat="31.234802887446996" lon="121.34362127783756">
        <ele>9.827985791489482</ele>
        <time>1970-01-01T00:03:50Z</time>
      </trkpt>
      <trkpt lat="31.2348142979128" lon="121.34362234643612">
        <ele>9.815234410576522</ele>
        <time>1970-01-01T00:03:51Z</time>
      </trkpt>
      <trkpt lat="31.234825895936307" lon="121.34362241861541">
        <ele>9.757747064344585</ele>
        <time>1970-01-01T00:03:52Z</time>
      </trkpt>
      <trkpt lat="31.23483791608669" lon="121.34362133490292">
        <ele>9.697579237632453</ele>
        <time>1970-01-01T00:03:53Z</time>
      </trkpt>
      <trkpt lat="31.234850331284548" lon="121.3436189783755">
        <ele>9.637105115689337</ele>
        <time>1970-01-01T00:03:54Z</time>
      </trkpt>
      <trkpt lat="31.23486331002612" lon="121.34361563579469">
        <ele>9.576816969551146</ele>
        <time>1970-01-01T00:03:55Z</time>
        <extensions>
          <gpxtpx:TrackPointExtension>
            <gpxtpx:hr>120</gpxtpx:hr>
          </gpxtpx:TrackPointExtension>
        </extensions>
      </trkpt>
      <trkpt lat="31.23487708105019" lon="121.3436110999304">
        <ele>9.516810948960483</ele>
        <time>1970-01-01T00:03:56Z</time>
        <extensions>
          <gpxtpx:TrackPointExtension>
            <gpxtpx:hr>120</gpxtpx:hr>
          </gpxtpx:TrackPointExtension>
        </extensions>
      </trkpt>
      <trkpt lat="31.23489159149259" lon="121.34360582898074">
        <ele>9.457981712184846</ele>
        <time>1970-01-01T00:03:57Z</time>
        <extensions>
          <gpxtpx:TrackPointExtension>
            <gpxtpx:hr>120</gpxtpx:hr>
          </gpxtpx:TrackPointExtension>
        </extensions>
      </trkpt>
      <trkpt lat="31.234906542623555" lon="121.34360128147671">
        <ele>9.400040962733328</ele>
        <time>1970-01-01T00:03:58Z</time>
        <extensions>
          <gpxtpx:TrackPointExtension>
            <gpxtpx:hr>120</gpxtpx:hr>
          </gpxtpx:TrackPointExtension>
        </extensions>
      </trkpt>
      <trkpt lat="31.23492149221599" lon="121.34359827048381">
        <ele>9.342433080077171</ele>
        <time>1970-01-01T00:03:59Z</time>
        <extensions>
          <gpxtpx:TrackPointExtension>
            <gpxtpx:hr>120</gpxtpx:hr>
          </gpxtpx:TrackPointExtension>
        </extensions>
      </trkpt>
      <trkpt lat="31.234936090987436" lon="121.3435974430223">
        <ele>9.284578891471028</ele>
        <time>1970-01-01T00:04:00Z</time>
        <extensions>
          <gpxtpx:TrackPointExtension>
            <gpxtpx:hr>120</gpxtpx:hr>
          </gpxtpx:TrackPointExtension>
        </extensions>
      </trkpt>
      <trkpt lat="31.234950108646157" lon="121.34359909168167">
        <ele>9.226410360075533</ele>
        <time>1970-01-01T00:04:01Z</time>
        <extensions>
          <gpxtpx:TrackPointExtension>
            <gpxtpx:hr>120</gpxtpx:hr>
          </gpxtpx:TrackPointExtension>
        </extensions>
      </trkpt>
      <trkpt lat="31.234963513571767" lon="121.34360238396931">
        <ele>9.167910052463412</ele>
        <time>1970-01-01T00:04:02Z</time>
        <extensions>
          <gpxtpx:TrackPointExtension>
            <gpxtpx:hr>120</gpxtpx:hr>
          </gpxtpx:TrackPointExtension>
        </extensions>
      </trkpt>
      <trkpt lat="31.23497691291038" lon="121.34360657623446">
        <ele>9.109102583490312</ele>
        <time>1970-01-01T00:04:03Z</time>
        <extensions>
          <gpxtpx:TrackPointExtension>
            <gpxtpx:hr>120</gpxtpx:hr>
          </gpxtpx:TrackPointExtension>
        </extensions>
      </trkpt>
      <trkpt lat="31.23499078589349" lon="121.34361101322651">
        <ele>9.050025463104248</ele>
        <time>1970-01-01T00:04:04Z</time>
        <extensions>
          <gpxtpx:TrackPointExtension>
            <gpxtpx:hr>120</gpxtpx:hr>
          </gpxtpx:TrackPointExtension>
        </extensions>
      </trkpt>
      <trkpt lat="31.23500533372704" lon="121.34361509691236">
        <ele>8.990821249783039</ele>
        <time>1970-01-01T00:04:05Z</time>
        <extensions>
          <gpxtpx:TrackPointExtension>
            <gpxtpx:hr>120</gpxtpx:hr>
          </gpxtpx:TrackPointExtension>
        </extensions>
      </trkpt>
      <trkpt lat="31.235020416385076" lon="121.34361892093415">
        <ele>8.931486607529223</ele>
        <time>1970-01-01T00:04:06Z</time>
        <extensions>
          <gpxtpx:TrackPointExtension>
            <gpxtpx:hr>120</gpxtpx:hr>
          </gpxtpx:TrackPointExtension>
        </extensions>
      </trkpt>
      <trkpt lat="31.23503566001128" lon="121.34362214813845">
        <ele>8.872019966132939</ele>
        <time>1970-01-01T00:04:07Z</time>
        <extensions>
          <gpxtpx:TrackPointExtension>
            <gpxtpx:hr>120</gpxtpx:hr>
          </gpxtpx:TrackPointExtension>
        </extensions>
      </trkpt>
      <trkpt lat="31.2350509569282" lon="121.34362467416737">
        <ele>8.812445173971355</ele>
        <time>1970-01-01T00:04:08Z</time>
        <extensions>
          <gpxtpx:TrackPointExtension>
            <gpxtpx:hr>120</gpxtpx:hr>
          </gpxtpx:TrackPointExtension>
        </extensions>
      </trkpt>
      <trkpt lat="31.235066073275227" lon="121.34362633471966">
        <ele>8.75282780919224</ele>
        <time>1970-01-01T00:04:09Z</time>
        <extensions>
          <gpxtpx:TrackPointExtension>
            <gpxtpx:hr>120</gpxtpx:hr>
          </gpxtpx:TrackPointExtension>
        </extensions>
      </trkpt>
      <trkpt lat="31.235081045918083" lon="121.34362754378839">
        <ele>8.693277936428785</ele>
        <time>1970-01-01T00:04:10Z</time>
        <extensions>
          <gpxtpx:TrackPointExtension>
            <gpxtpx:hr>120</gpxtpx:hr>
          </gpxtpx:TrackPointExtension>
        </extensions>
      </trkpt>
      <trkpt lat="31.235095971460066" lon="121.34362916016781">
        <ele>8.633952006697655</ele>
        <time>1970-01-01T00:04:11Z</time>
        <extensions>
          <gpxtpx:TrackPointExtension>
            <gpxtpx:hr>120</gpxtpx:hr>
          </gpxtpx:TrackPointExtension>
        </extensions>
      </trkpt>
      <trkpt lat="31.235110803528094" lon="121.34363101060912">
        <ele>8.575083285570145</ele>
        <time>1970-01-01T00:04:12Z</time>
        <extensions>
          <gpxtpx:TrackPointExtension>
            <gpxtpx:hr>120</gpxtpx:hr>
          </gpxtpx:TrackPointExtension>
        </extensions>
      </trkpt>
      <trkpt lat="31.23512557988829" lon="121.3436320430837">
        <ele>8.516787416301668</ele>
        <time>1970-01-01T00:04:13Z</time>
        <extensions>
          <gpxtpx:TrackPointExtension>
            <gpxtpx:hr>120</gpxtpx:hr>
          </gpxtpx:TrackPointExtension>
        </extensions>
      </trkpt>
      <trkpt lat="31.23514030811971" lon="121.3436314551235">
        <ele>8.459283063188195</ele>
        <time>1970-01-01T00:04:14Z</time>
        <extensions>
          <gpxtpx:TrackPointExtension>
            <gpxtpx:hr>120</gpxtpx:hr>
          </gpxtpx:TrackPointExtension>
        </extensions>
      </trkpt>
      <trkpt lat="31.235154820080297" lon="121.34362936362939">
        <ele>8.402735673822463</ele>
        <time>1970-01-01T00:04:15Z</time>
      </trkpt>
      <trkpt lat="31.23516875507644" lon="121.34362538306661">
        <ele>8.347384000197053</ele>
        <time>1970-01-01T00:04:16Z</time>
      </trkpt>
      <trkpt lat="31.235181682460173" lon="121.34361904611261">
        <ele>8.293505236506462</ele>
        <time>1970-01-01T00:04:17Z</time>
      </trkpt>
      <trkpt lat="31.235194268472032" lon="121.34361235261066">
        <ele>8.24137713946402</ele>
        <time>1970-01-01T00:04:18Z</time>
      </trkpt>
      <trkpt lat="31.23520741687153" lon="121.3436075867663">
        <ele>8.19122118037194</ele>
        <time>1970-01-01T00:04:19Z</time>
      </trkpt>
      <trkpt lat="31.23522101698752" lon="121.34360473674757">
        <ele>8.143567143939435</ele>
        <time>1970-01-01T00:04:20Z</time>
      </trkpt>
      <trkpt lat="31.23523481770414" lon="121.34360301724074">
        <ele>8.098510219715536</ele>
        <time>1970-01-01T00:04:21Z</time>
      </trkpt>
      <trkpt lat="31.235248688371136" lon="121.34360157776878">
        <ele>8.056484545581043</ele>
        <time>1970-01-01T00:04:22Z</time>
      </trkpt>
      <trkpt lat="31.235262663936822" lon="121.3436000714528">
        <ele>8.017564716748893</ele>
        <time>1970-01-01T00:04:23Z</time>
      </trkpt>
      <trkpt lat="31.235276726992716" lon="121.34359850472252">
        <ele>7.982024306431413</ele>
        <time>1970-01-01T00:04:24Z</time>
      </trkpt>
      <trkpt lat="31.235290745059167" lon="121.34359693662877">
        <ele>7.950224069878459</ele>
        <time>1970-01-01T00:04:25Z</time>
      </trkpt>
      <trkpt lat="31.23530471070313" lon="121.34359554725135">
        <ele>7.921127621084452</ele>
        <time>1970-01-01T00:04:26Z</time>
      </trkpt>
      <trkpt lat="31.235318605225252" lon="121.34359436943372">
        <ele>7.89682649821043</ele>
        <time>1970-01-01T00:04:27Z</time>
      </trkpt>
      <trkpt lat="31.235332366083444" lon="121.34359337461115">
        <ele>7.876921092160046</ele>
        <time>1970-01-01T00:04:28Z</time>
      </trkpt>
      <trkpt lat="31.235345922501097" lon="121.3435923828649">
        <ele>7.861283080652356</ele>
        <time>1970-01-01T00:04:29Z</time>
      </trkpt>
      <trkpt lat="31.235359141139146" lon="121.34359096601757">
        <ele>7.849948946386576</ele>
        <time>1970-01-01T00:04:30Z</time>
      </trkpt>
      <trkpt lat="31.23537193609951" lon="121.34358895704939">
        <ele>7.842918332666159</ele>
        <time>1970-01-01T00:04:31Z</time>
      </trkpt>
      <trkpt lat="31.235384269635396" lon="121.34358626990624">
        <ele>7.840151806361973</ele>
        <time>1970-01-01T00:04:32Z</time>
      </trkpt>
      <trkpt lat="31.23539599366527" lon="121.34358225659903">
        <ele>7.84153519384563</ele>
        <time>1970-01-01T00:04:33Z</time>
      </trkpt>
      <trkpt lat="31.235406767869545" lon="121.34357637126277">
        <ele>7.846864831633866</ele>
        <time>1970-01-01T00:04:34Z</time>
      </trkpt>
      <trkpt lat="31.235416899876192" lon="121.34356964700766">
        <ele>7.855875764973462</ele>
        <time>1970-01-01T00:04:35Z</time>
      </trkpt>
      <trkpt lat="31.235427259157394" lon="121.34356420603675">
        <ele>7.868229300715029</ele>
        <time>1970-01-01T00:04:36Z</time>
      </trkpt>
      <trkpt lat="31.235437988729934" lon="121.34356116802769">
        <ele>7.883419726975262</ele>
        <time>1970-01-01T00:04:37Z</time>
      </trkpt>
      <trkpt lat="31.235448698659564" lon="121.34356071540547">
        <ele>7.900920759886503</ele>
        <time>1970-01-01T00:04:38Z</time>
      </trkpt>
      <trkpt lat="31.235459020023296" lon="121.34356230793593">
        <ele>7.920060060918331</ele>
        <time>1970-01-01T00:04:39Z</time>
      </trkpt>
      <trkpt lat="31.235468678386262" lon="121.34356500943956">
        <ele>7.940034941770136</ele>
        <time>1970-01-01T00:04:40Z</time>
      </trkpt>
      <trkpt lat="31.23548147808378" lon="121.34357017552729">
        <ele>7.9675473384559155</ele>
        <time>1970-01-01T00:04:41Z</time>
      </trkpt>
      <trkpt lat="31.23549060417577" lon="121.34357418782095">
        <ele>7.985239714384079</ele>
        <time>1970-01-01T00:04:42Z</time>
      </trkpt>
      <trkpt lat="31.235500179965847" lon="121.3435773834943">
        <ele>8.000690285116434</ele>
        <time>1970-01-01T00:04:43Z</time>
      </trkpt>
      <trkpt lat="31.235509891689706" lon="121.34357879979805">
        <ele>8.013240703381598</ele>
        <time>1970-01-01T00:04:44Z</time>
      </trkpt>
      <trkpt lat="31.235519048860432" lon="121.34357701459565">
        <ele>8.022478260099888</ele>
        <time>1970-01-01T00:04:45Z</time>
      </trkpt>
      <trkpt lat="31.235528130353085" lon="121.34357304512478">
        <ele>8.0282470472157</ele>
        <time>1970-01-01T00:04:46Z</time>
      </trkpt>
      <trkpt lat="31.235538142956333" lon="121.34356849438508">
        <ele>8.03050200548023</ele>
        <time>1970-01-01T00:04:47Z</time>
      </trkpt>
      <trkpt lat="31.235548003633507" lon="121.34356341776528">
        <ele>8.029372218996286</ele>
        <time>1970-01-01T00:04:48Z</time>
      </trkpt>
      <trkpt lat="31.235557484518747" lon="121.3435587929647">
        <ele>8.025083569809794</ele>
        <time>1970-01-01T00:04:49Z</time>
      </trkpt>
      <trkpt lat="31.235567534477596" lon="121.3435553578973">
        <ele>8.017866825684905</ele>
        <time>1970-01-01T00:04:50Z</time>
      </trkpt>
      <trkpt lat="31.235577682487452" lon="121.34355417473606">
        <ele>8.008120333775878</ele>
        <time>1970-01-01T00:04:51Z</time>
      </trkpt>
      <trkpt lat="31.235587854960695" lon="121.34355530034935">
        <ele>7.995984853245318</ele>
        <time>1970-01-01T00:04:52Z</time>
      </trkpt>
      <trkpt lat="31.23559832199344" lon="121.34355714007393">
        <ele>7.981948217377067</ele>
        <time>1970-01-01T00:04:53Z</time>
      </trkpt>
      <trkpt lat="31.235609374953384" lon="121.34355887444018">
        <ele>7.966222589835525</ele>
        <time>1970-01-01T00:04:54Z</time>
      </trkpt>
      <trkpt lat="31.235621594520772" lon="121.34356051209598">
        <ele>7.949238427914679</ele>
        <time>1970-01-01T00:04:55Z</time>
      </trkpt>
      <trkpt lat="31.23563487990588" lon="121.3435621830308">
        <ele>7.931204216554761</ele>
        <time>1970-01-01T00:04:56Z</time>
      </trkpt>
      <trkpt lat="31.235648729459232" lon="121.34356383839366">
        <ele>7.912559295073152</ele>
        <time>1970-01-01T00:04:57Z</time>
      </trkpt>
      <trkpt lat="31.235662733749425" lon="121.34356543877108">
        <ele>7.893690027296543</ele>
        <time>1970-01-01T00:04:58Z</time>
      </trkpt>
      <trkpt lat="31.235676818185773" lon="121.3435669299637">
        <ele>7.8750066086649895</ele>
        <time>1970-01-01T00:04:59Z</time>
      </trkpt>
      <trkpt lat="31.235684190830202" lon="121.34356767876982">
        <ele>7.865544690750539</ele>
        <time>1970-01-01T00:05:00Z</time>
      </trkpt>
      <trkpt lat="31.235698014899874" lon="121.34356941926961">
        <ele>7.847893588244915</ele>
        <time>1970-01-01T00:05:01Z</time>
      </trkpt>
      <trkpt lat="31.235711340134092" lon="121.34357154378121">
        <ele>7.831364938057959</ele>
        <time>1970-01-01T00:05:02Z</time>
      </trkpt>
      <trkpt lat="31.235724215708142" lon="121.34357362812423">
        <ele>7.8164108116179705</ele>
        <time>1970-01-01T00:05:03Z</time>
      </trkpt>
      <trkpt lat="31.235737087198157" lon="121.34357534129833">
        <ele>7.803329169750214</ele>
        <time>1970-01-01T00:05:04Z</time>
      </trkpt>
      <trkpt lat="31.235750242526848" lon="121.34357645052891">
        <ele>7.792331283912063</ele>
        <time>1970-01-01T00:05:05Z</time>
      </trkpt>
      <trkpt lat="31.23576374483959" lon="121.34357716340028">
        <ele>7.783570463769138</ele>
        <time>1970-01-01T00:05:06Z</time>
      </trkpt>
      <trkpt lat="31.235777530647706" lon="121.34357752793832">
        <ele>7.777289239689708</ele>
        <time>1970-01-01T00:05:07Z</time>
      </trkpt>
      <trkpt lat="31.23579133597736" lon="121.3435769619983">
        <ele>7.773613402619958</ele>
        <time>1970-01-01T00:05:08Z</time>
      </trkpt>
      <trkpt lat="31.235804939671905" lon="121.34357553069867">
        <ele>7.772674420848489</ele>
        <time>1970-01-01T00:05:09Z</time>
      </trkpt>
      <trkpt lat="31.23581821514856" lon="121.3435738175006">
        <ele>7.774140177294612</ele>
        <time>1970-01-01T00:05:10Z</time>
      </trkpt>
      <trkpt lat="31.235831051153582" lon="121.34357238008012">
        <ele>7.7780139576643705</ele>
        <time>1970-01-01T00:05:11Z</time>
      </trkpt>
      <trkpt lat="31.235843077173612" lon="121.34357103602125">
        <ele>7.784056653268635</ele>
        <time>1970-01-01T00:05:12Z</time>
      </trkpt>
      <trkpt lat="31.235853697608757" lon="121.34356874968893">
        <ele>7.791958654299378</ele>
        <time>1970-01-01T00:05:13Z</time>
      </trkpt>
      <trkpt lat="31.235861941754848" lon="121.34356428841431">
        <ele>7.80140748154372</ele>
        <time>1970-01-01T00:05:14Z</time>
      </trkpt>
      <trkpt lat="31.235870448546528" lon="121.34355939230988">
        <ele>7.812036303803325</ele>
        <time>1970-01-01T00:05:15Z</time>
      </trkpt>
      <trkpt lat="31.235876019581305" lon="121.34355751645728">
        <ele>7.817824047990143</ele>
        <time>1970-01-01T00:05:15Z</time>
      </trkpt>
      <trkpt lat="31.235888206133975" lon="121.34355514013176">
        <ele>7.829135074280202</ele>
        <time>1970-01-01T00:05:16Z</time>
      </trkpt>
      <trkpt lat="31.23590981738027" lon="121.34355326101412">
        <ele>7.8456487990915775</ele>
        <time>1970-01-01T00:05:18Z</time>
      </trkpt>
      <trkpt lat="31.235925223705365" lon="121.34355082649986">
        <ele>7.856323595158756</ele>
        <time>1970-01-01T00:05:19Z</time>
      </trkpt>
      <trkpt lat="31.23593925488405" lon="121.34354721726547">
        <ele>7.866352217271924</ele>
        <time>1970-01-01T00:05:20Z</time>
      </trkpt>
      <trkpt lat="31.235952455076657" lon="121.3435446904918">
        <ele>7.8755329651758075</ele>
        <time>1970-01-01T00:05:21Z</time>
      </trkpt>
      <trkpt lat="31.235965345822258" lon="121.34354329213475">
        <ele>7.883711115457118</ele>
        <time>1970-01-01T00:05:22Z</time>
      </trkpt>
      <trkpt lat="31.23597797713586" lon="121.34354252631992">
        <ele>7.89073774497956</ele>
        <time>1970-01-01T00:05:23Z</time>
      </trkpt>
      <trkpt lat="31.235990252884818" lon="121.34354267259155">
        <ele>7.896384499035776</ele>
        <time>1970-01-01T00:05:24Z</time>
      </trkpt>
      <trkpt lat="31.236001972702635" lon="121.34354267960396">
        <ele>7.9006687281653285</ele>
        <time>1970-01-01T00:05:25Z</time>
      </trkpt>
      <trkpt lat="31.236012762473077" lon="121.3435410889596">
        <ele>7.9035269524902105</ele>
        <time>1970-01-01T00:05:26Z</time>
      </trkpt>
      <trkpt lat="31.23602298060633" lon="121.34353845800074">
        <ele>7.904988154768944</ele>
        <time>1970-01-01T00:05:27Z</time>
      </trkpt>
      <trkpt lat="31.236033551810205" lon="121.34353640651568">
        <ele>7.904994533397257</ele>
        <time>1970-01-01T00:05:28Z</time>
      </trkpt>
      <trkpt lat="31.236044345767755" lon="121.34353514476642">
        <ele>7.903676861897111</ele>
        <time>1970-01-01T00:05:29Z</time>
      </trkpt>
      <trkpt lat="31.23605506688583" lon="121.34353314338026">
        <ele>7.9012471325695515</ele>
        <time>1970-01-01T00:05:30Z</time>
      </trkpt>
      <trkpt lat="31.23606539357747" lon="121.34352971552434">
        <ele>7.897425248287618</ele>
        <time>1970-01-01T00:05:31Z</time>
      </trkpt>
      <trkpt lat="31.23607518712333" lon="121.34352539521291">
        <ele>7.892508436925709</ele>
        <time>1970-01-01T00:05:32Z</time>
      </trkpt>
      <trkpt lat="31.236084887716157" lon="121.34352033461082">
        <ele>7.886437935754657</ele>
        <time>1970-01-01T00:05:33Z</time>
      </trkpt>
      <trkpt lat="31.236094850639788" lon="121.34351500999892">
        <ele>7.879134116694331</ele>
        <time>1970-01-01T00:05:34Z</time>
      </trkpt>
      <trkpt lat="31.236105340671752" lon="121.34350990283282">
        <ele>7.870507495477796</ele>
        <time>1970-01-01T00:05:35Z</time>
      </trkpt>
      <trkpt lat="31.236116242698834" lon="121.34350483561708">
        <ele>7.860602943226695</ele>
        <time>1970-01-01T00:05:36Z</time>
      </trkpt>
      <trkpt lat="31.236127021245483" lon="121.3434996317163">
        <ele>7.849484924226999</ele>
        <time>1970-01-01T00:05:37Z</time>
      </trkpt>
      <trkpt lat="31.23613765062462" lon="121.34349438770512">
        <ele>7.837115456350148</ele>
        <time>1970-01-01T00:05:38Z</time>
      </trkpt>
      <trkpt lat="31.236148212470873" lon="121.34348978820694">
        <ele>7.823549574241042</ele>
        <time>1970-01-01T00:05:39Z</time>
      </trkpt>
      <trkpt lat="31.236158959060276" lon="121.34348717119069">
        <ele>7.808980838395655</ele>
        <time>1970-01-01T00:05:40Z</time>
      </trkpt>
      <trkpt lat="31.236170280456093" lon="121.34348688625661">
        <ele>7.793624258600175</ele>
        <time>1970-01-01T00:05:41Z</time>
      </trkpt>
      <trkpt lat="31.236181461998008" lon="121.34348812903278">
        <ele>7.777760650962591</ele>
        <time>1970-01-01T00:05:42Z</time>
      </trkpt>
      <trkpt lat="31.23619203344233" lon="121.34349007553196">
        <ele>7.761582892388105</ele>
        <time>1970-01-01T00:05:43Z</time>
      </trkpt>
      <trkpt lat="31.236202413334023" lon="121.3434921389958">
        <ele>7.745204062201083</ele>
        <time>1970-01-01T00:05:44Z</time>
      </trkpt>
      <trkpt lat="31.23621294115276" lon="121.3434944068664">
        <ele>7.728996788151562</ele>
        <time>1970-01-01T00:05:45Z</time>
      </trkpt>
      <trkpt lat="31.2362239677334" lon="121.34349720825118">
        <ele>7.713020930998027</ele>
        <time>1970-01-01T00:05:46Z</time>
      </trkpt>
      <trkpt lat="31.236235617225823" lon="121.34350053888532">
        <ele>7.697739165276289</ele>
        <time>1970-01-01T00:05:47Z</time>
      </trkpt>
      <trkpt lat="31.23624727251047" lon="121.34350411403142">
        <ele>7.683196066878736</ele>
        <time>1970-01-01T00:05:48Z</time>
      </trkpt>
      <trkpt lat="31.23625889692582" lon="121.34350753573815">
        <ele>7.669916401617229</ele>
        <time>1970-01-01T00:05:49Z</time>
      </trkpt>
      <trkpt lat="31.236270860462863" lon="121.34351044898376">
        <ele>7.6576507315039635</ele>
        <time>1970-01-01T00:05:50Z</time>
      </trkpt>
      <trkpt lat="31.23628301986601" lon="121.34351247342713">
        <ele>7.646771168336272</ele>
        <time>1970-01-01T00:05:51Z</time>
      </trkpt>
      <trkpt lat="31.23629506508655" lon="121.34351348675224">
        <ele>7.637411209754646</ele>
        <time>1970-01-01T00:05:52Z</time>
      </trkpt>
      <trkpt lat="31.236306976008663" lon="121.34351380272918">
        <ele>7.6283704517409205</ele>
        <time>1970-01-01T00:05:53Z</time>
      </trkpt>
      <trkpt lat="31.23631902206917" lon="121.34351376822237">
        <ele>7.620625141076744</ele>
        <time>1970-01-01T00:05:54Z</time>
      </trkpt>
      <trkpt lat="31.236331336347025" lon="121.34351357422224">
        <ele>7.614183897152543</ele>
        <time>1970-01-01T00:05:55Z</time>
      </trkpt>
      <trkpt lat="31.236343675749392" lon="121.3435133487373">
        <ele>7.609049551188946</ele>
        <time>1970-01-01T00:05:56Z</time>
      </trkpt>
      <trkpt lat="31.236355936155693" lon="121.3435131296512">
        <ele>7.605234215036035</ele>
        <time>1970-01-01T00:05:57Z</time>
      </trkpt>
      <trkpt lat="31.236368072905517" lon="121.34351295612629">
        <ele>7.602776480838656</ele>
        <time>1970-01-01T00:05:58Z</time>
      </trkpt>
      <trkpt lat="31.2363800677671" lon="121.34351280984437">
        <ele>7.601749829016626</ele>
        <time>1970-01-01T00:05:59Z</time>
      </trkpt>
      <trkpt lat="31.236392138140705" lon="121.34351256759565">
        <ele>7.602251512929797</ele>
        <time>1970-01-01T00:06:00Z</time>
      </trkpt>
      <trkpt lat="31.236404293315708" lon="121.34351207149332">
        <ele>7.604384811595082</ele>
        <time>1970-01-01T00:06:01Z</time>
      </trkpt>
      <trkpt lat="31.23641603374305" lon="121.34351127988776">
        <ele>7.608254604972899</ele>
        <time>1970-01-01T00:06:02Z</time>
      </trkpt>
      <trkpt lat="31.236427177978882" lon="121.34351063399171">
        <ele>7.613963403739035</ele>
        <time>1970-01-01T00:06:03Z</time>
      </trkpt>
      <trkpt lat="31.236438350215693" lon="121.34351049573633">
        <ele>7.621608130633831</ele>
        <time>1970-01-01T00:06:04Z</time>
      </trkpt>
      <trkpt lat="31.236450070772275" lon="121.34351096321997">
        <ele>7.631284617818892</ele>
        <time>1970-01-01T00:06:05Z</time>
      </trkpt>
      <trkpt lat="31.236461969743676" lon="121.34351222139736">
        <ele>7.643089550547302</ele>
        <time>1970-01-01T00:06:06Z</time>
      </trkpt>
      <trkpt lat="31.23647377509062" lon="121.34351425396781">
        <ele>7.657113335095346</ele>
        <time>1970-01-01T00:06:07Z</time>
      </trkpt>
      <trkpt lat="31.236486035046653" lon="121.34351684092209">
        <ele>7.673420425504446</ele>
        <time>1970-01-01T00:06:08Z</time>
      </trkpt>
      <trkpt lat="31.23649857027985" lon="121.34351951414948">
        <ele>7.692034490406513</ele>
        <time>1970-01-01T00:06:09Z</time>
      </trkpt>
      <trkpt lat="31.236511309404747" lon="121.34352185633573">
        <ele>7.712936097756028</ele>
        <time>1970-01-01T00:06:10Z</time>
      </trkpt>
      <trkpt lat="31.236524296421504" lon="121.34352379955689">
        <ele>7.7360612554475665</ele>
        <time>1970-01-01T00:06:11Z</time>
      </trkpt>
      <trkpt lat="31.236536995182725" lon="121.34352508776162">
        <ele>7.761299415491521</ele>
        <time>1970-01-01T00:06:12Z</time>
      </trkpt>
      <trkpt lat="31.236549471644675" lon="121.34352589157211">
        <ele>7.788492898456752</ele>
        <time>1970-01-01T00:06:13Z</time>
      </trkpt>
      <trkpt lat="31.236562031382217" lon="121.34352702043263">
        <ele>7.817438315600157</ele>
        <time>1970-01-01T00:06:14Z</time>
      </trkpt>
      <trkpt lat="31.236574518416138" lon="121.34352856955822">
        <ele>7.847884268499911</ele>
        <time>1970-01-01T00:06:15Z</time>
      </trkpt>
      <trkpt lat="31.236586766075508" lon="121.3435300024328">
        <ele>7.879527821205556</ele>
        <time>1970-01-01T00:06:16Z</time>
      </trkpt>
      <trkpt lat="31.23659903015434" lon="121.34353067419963">
        <ele>7.912027323618531</ele>
        <time>1970-01-01T00:06:17Z</time>
      </trkpt>
      <trkpt lat="31.236611679834514" lon="121.34353109978755">
        <ele>7.945138221606612</ele>
        <time>1970-01-01T00:06:18Z</time>
      </trkpt>
      <trkpt lat="31.23662095722372" lon="121.34353176165504">
        <ele>7.969440312124789</ele>
        <time>1970-01-01T00:06:18Z</time>
      </trkpt>
      <trkpt lat="31.236633658182903" lon="121.34353321172635">
        <ele>8.002666872926056</ele>
        <time>1970-01-01T00:06:19Z</time>
      </trkpt>
      <trkpt lat="31.236645933774717" lon="121.34353498869255">
        <ele>8.035613047890365</ele>
        <time>1970-01-01T00:06:20Z</time>
      </trkpt>
      <trkpt lat="31.236657196925993" lon="121.34353602074286">
        <ele>8.068083995953202</ele>
        <time>1970-01-01T00:06:21Z</time>
      </trkpt>
      <trkpt lat="31.236666061868593" lon="121.34353484941263">
        <ele>8.099953840486705</ele>
        <time>1970-01-01T00:06:22Z</time>
      </trkpt>
      <trkpt lat="31.236673858259095" lon="121.34353297921724">
        <ele>8.131166888400912</ele>
        <time>1970-01-01T00:06:23Z</time>
      </trkpt>
      <trkpt lat="31.236682817510506" lon="121.34353232742062">
        <ele>8.161736946552992</ele>
        <time>1970-01-01T00:06:24Z</time>
      </trkpt>
      <trkpt lat="31.23669172482271" lon="121.34353225439509">
        <ele>8.19172232504934</ele>
        <time>1970-01-01T00:06:25Z</time>
      </trkpt>
      <trkpt lat="31.236699677793816" lon="121.34353242780148">
        <ele>8.22120030876249</ele>
        <time>1970-01-01T00:06:26Z</time>
      </trkpt>
      <trkpt lat="31.23670743385131" lon="121.34353273590025">
        <ele>8.250252483412623</ele>
        <time>1970-01-01T00:06:27Z</time>
      </trkpt>
      <trkpt lat="31.23671642813732" lon="121.34353316612459">
        <ele>8.278952991589904</ele>
        <time>1970-01-01T00:06:28Z</time>
      </trkpt>
      <trkpt lat="31.23672701497995" lon="121.34353369597359">
        <ele>8.307349507696927</ele>
        <time>1970-01-01T00:06:29Z</time>
      </trkpt>
      <trkpt lat="31.23673871504787" lon="121.34353428421267">
        <ele>8.335450576618314</ele>
        <time>1970-01-01T00:06:30Z</time>
      </trkpt>
      <trkpt lat="31.23675080259137" lon="121.34353488799762">
        <ele>8.363230785354972</ele>
        <time>1970-01-01T00:06:31Z</time>
      </trkpt>
      <trkpt lat="31.236762919445958" lon="121.34353548346988">
        <ele>8.390647874213755</ele>
        <time>1970-01-01T00:06:32Z</time>
      </trkpt>
      <trkpt lat="31.236775087690337" lon="121.34353606398633">
        <ele>8.417661529965699</ele>
        <time>1970-01-01T00:06:33Z</time>
      </trkpt>
      <trkpt lat="31.23678738738007" lon="121.34353663597388">
        <ele>8.444241247139871</ele>
        <time>1970-01-01T00:06:34Z</time>
      </trkpt>
      <trkpt lat="31.236799792650846" lon="121.34353720261154">
        <ele>8.470365759916604</ele>
        <time>1970-01-01T00:06:35Z</time>
      </trkpt>
      <trkpt lat="31.236812251314564" lon="121.34353775944686">
        <ele>8.49602150451392</ele>
        <time>1970-01-01T00:06:36Z</time>
      </trkpt>
      <trkpt lat="31.23682453103679" lon="121.34353829636161">
        <ele>8.521202174015343</ele>
        <time>1970-01-01T00:06:37Z</time>
      </trkpt>
      <trkpt lat="31.23683648863054" lon="121.34353880816252">
        <ele>8.54591357614845</ele>
        <time>1970-01-01T00:06:38Z</time>
      </trkpt>
      <trkpt lat="31.236847766035503" lon="121.34353928168109">
        <ele>8.570185344666243</ele>
        <time>1970-01-01T00:06:39Z</time>
      </trkpt>
      <trkpt lat="31.23685802299658" lon="121.343539705425">
        <ele>8.594082547351718</ele>
        <time>1970-01-01T00:06:40Z</time>
      </trkpt>
      <trkpt lat="31.236858023765294" lon="121.34353970545656">
        <ele>8.59408441465348</ele>
        <time>1970-01-01T00:06:40Z</time>
      </trkpt>
    </trkseg>
  </trk>
</gpx>