<?xml version="1.0" encoding="UTF-8"?>
<gpx xmlns="http://www.topografix.com/GPX/1/1" xmlns:gpxtpx="http://www.garmin.com/xmlschemas/TrackPointExtension/v1" xmlns:xsi="http://www.w3.org/2001/XMLSchema-instance" xsi:schemaLocation="http://www.topografix.com/GPX/1/1 http://www.topografix.com/GPX/1/1/gpx.xsd" version="1.1" creator="gpx.py -- https://github.com/tkrajina/gpxpy">
  <trk>
    <name>gpx from keep</name>
    <type>Run</type>
    <trkseg>
      <trkpt lat="31.20411336064676" lon="121.61130239398695">
        <ele>10.951781259659164</ele>
        <time>2019-10-02T09:27:31Z</time>
      </trkpt>
      <trkpt lat="31.204140447187292" lon="121.61133871857294">
        <ele>10.989415352258838</ele>
        <time>2019-10-02T09:27:35Z</time>
      </trkpt>
      <trkpt lat="31.204149650863062" lon="121.61135877887001">
        <ele>10.988944001800961</ele>
        <time>2019-10-02T09:27:36Z</time>
      </trkpt>
      <trkpt lat="31.204146602050272" lon="121.61144769819475">
        <ele>10.928206788360662</ele>
        <time>2019-10-02T09:27:40Z</time>
      </trkpt>
      <trkpt lat="31.204269748882247" lon="121.61173938353114">
        <ele>10.77032768289852</ele>
        <time>2019-10-02T09:27:52Z</time>
      </trkpt>
      <trkpt lat="31.204383813086686" lon="121.61184943669049">
        <ele>10.791935455284147</ele>
        <time>2019-10-02T09:27:59Z</time>
      </trkpt>
      <trkpt lat="31.204600491496063" lon="121.61214842853127">
        <ele>10.757763290558199</ele>
        <time>2019-10-02T09:28:13Z</time>
      </trkpt>
      <trkpt lat="31.204827812872537" lon="121.61235551848904">
        <ele>10.8582560267342</ele>
        <time>2019-10-02T09:28:24Z</time>
      </trkpt>
      <trkpt lat="31.204978723585043" lon="121.61249782443578">
        <ele>10.313298396867875</ele>
        <time>2019-10-02T09:28:31Z</time>
      </trkpt>
      <trkpt lat="31.2050179860449" lon="121.61256396507471">
        <ele>10.33550676466908</ele>
        <time>2019-10-02T09:28:34Z</time>
      </trkpt>
      <trkpt lat="31.205023052803522" lon="121.61267104144862">
        <ele>10.368357430434372</ele>
        <time>2019-10-02T09:28:38Z</time>
      </trkpt>
      <trkpt lat="31.20508536436731" lon="121.61273338458184">
        <ele>10.210257144845976</ele>
        <time>2019-10-02T09:28:42Z</time>
      </trkpt>
      <trkpt lat="31.205182676064155" lon="121.61276590600953">
        <ele>10.277874206020497</ele>
        <time>2019-10-02T09:28:45Z</time>
      </trkpt>
      <trkpt lat="31.205253127332174" lon="121.61282092910771">
        <ele>10.396037107491912</ele>
        <time>2019-10-02T09:28:49Z</time>
      </trkpt>
      <trkpt lat="31.205277210627063" lon="121.61288056422688">
        <ele>10.46161894097461</ele>
        <time>2019-10-02T09:28:52Z</time>
      </trkpt>
      <trkpt lat="31.20524538529041" lon="121.61300797290285">
        <ele>10.649323132726702</ele>
        <time>2019-10-02T09:28:59Z</time>
      </trkpt>
      <trkpt lat="31.205006519227894" lon="121.6133362633321">
        <ele>10.830219063723105</ele>
        <time>2019-10-02T09:29:13Z</time>
      </trkpt>
      <trkpt lat="31.204789718556764" lon="121.61353497631033">
        <ele>10.972173489920706</ele>
        <time>2019-10-02T09:29:23Z</time>
      </trkpt>
      <trkpt lat="31.204717576375256" lon="121.61355937855124">
        <ele>11.04729062382184</ele>
        <time>2019-10-02T09:29:27Z</time>
      </trkpt>
      <trkpt lat="31.20455554185124" lon="121.61375998259024">
        <ele>11.069202772642676</ele>
        <time>2019-10-02T09:29:36Z</time>
      </trkpt>
      <trkpt lat="31.20433438191511" lon="121.61398010648577">
        <ele>11.071744198094297</ele>
        <time>2019-10-02T09:29:46Z</time>
      </trkpt>
      <trkpt lat="31.20407031290126" lon="121.61427992405025">
        <ele>11.110519811382215</ele>
        <time>2019-10-02T09:30:00Z</time>
      </trkpt>
      <trkpt lat="31.203857564523013" lon="121.61448784477857">
        <ele>11.079985905021097</ele>
        <time>2019-10-02T09:30:11Z</time>
      </trkpt>
      <trkpt lat="31.203774005541426" lon="121.6145450450621">
        <ele>10.940725044571785</ele>
        <time>2019-10-02T09:30:15Z</time>
      </trkpt>
      <trkpt lat="31.203675205278625" lon="121.61466865550514">
        <ele>10.565484888061656</ele>
        <time>2019-10-02T09:30:21Z</time>
      </trkpt>
      <trkpt lat="31.20363987632894" lon="121.61476217287913">
        <ele>10.275560512191337</ele>
        <time>2019-10-02T09:30:25Z</time>
      </trkpt>
      <trkpt lat="31.203701950901053" lon="121.61477978636954">
        <ele>10.190655195576252</ele>
        <time>2019-10-02T09:30:33Z</time>
      </trkpt>
      <trkpt lat="31.203722218512056" lon="121.61485703543006">
        <ele>10.032979409651409</ele>
        <time>2019-10-02T09:30:40Z</time>
      </trkpt>
      <trkpt lat="31.203767694328505" lon="121.61494241377244">
        <ele>9.901441953669094</ele>
        <time>2019-10-02T09:30:44Z</time>
      </trkpt>
      <trkpt lat="31.203786863794527" lon="121.61503457030662">
        <ele>9.751490462409924</ele>
        <time>2019-10-02T09:30:48Z</time>
      </trkpt>
      <trkpt lat="31.20375045744467" lon="121.61511859953">
        <ele>9.678385031899182</ele>
        <time>2019-10-02T09:30:52Z</time>
      </trkpt>
      <trkpt lat="31.20375045744467" lon="121.61511859953">
        <ele>9.678385031899182</ele>
        <time>2019-10-02T09:30:59Z</time>
      </trkpt>
      <trkpt lat="31.20375043560221" lon="121.61514326523518">
        <ele>9.811097860595243</ele>
        <time>2019-10-02T09:31:31Z</time>
      </trkpt>
      <trkpt lat="31.203734410994514" lon="121.61517443746811">
        <ele>9.803325635256694</ele>
        <time>2019-10-02T09:31:37Z</time>
      </trkpt>
      <trkpt lat="31.203712161316066" lon="121.61519314183344">
        <ele>9.929281987730889</ele>
        <time>2019-10-02T09:31:42Z</time>
      </trkpt>
      <trkpt lat="31.20347528714496" lon="121.61538750419594">
        <ele>9.856990742228728</ele>
        <time>2019-10-02T09:31:56Z</time>
      </trkpt>
      <trkpt lat="31.20338305387318" lon="121.615440366282">
        <ele>9.899079876471161</ele>
        <time>2019-10-02T09:32:00Z</time>
      </trkpt>
      <trkpt lat="31.2031873589103" lon="121.6156696881613">
        <ele>9.981851435118612</ele>
        <time>2019-10-02T09:32:11Z</time>
      </trkpt>
      <trkpt lat="31.20291516955577" lon="121.61593452081377">
        <ele>9.25641239076525</ele>
        <time>2019-10-02T09:32:25Z</time>
      </trkpt>
      <trkpt lat="31.20264921132367" lon="121.61620206046433">
        <ele>9.039890871728971</ele>
        <time>2019-10-02T09:32:39Z</time>
      </trkpt>
      <trkpt lat="31.202454051170093" lon="121.61643273030319">
        <ele>8.359548209357728</ele>
        <time>2019-10-02T09:32:49Z</time>
      </trkpt>
      <trkpt lat="31.202299626854487" lon="121.61659157032744">
        <ele>9.12257302631859</ele>
        <time>2019-10-02T09:32:57Z</time>
      </trkpt>
      <trkpt lat="31.202134037999407" lon="121.6168002803856">
        <ele>9.074745029686717</ele>
        <time>2019-10-02T09:33:07Z</time>
      </trkpt>
      <trkpt lat="31.201967139953883" lon="121.61695857700408">
        <ele>8.749063851494894</ele>
        <time>2019-10-02T09:33:15Z</time>
      </trkpt>
      <trkpt lat="31.201822270314555" lon="121.6170464029866">
        <ele>8.734988887053204</ele>
        <time>2019-10-02T09:33:22Z</time>
      </trkpt>
      <trkpt lat="31.201741390537602" lon="121.61713178409909">
        <ele>8.923548875827251</ele>
        <time>2019-10-02T09:33:29Z</time>
      </trkpt>
      <trkpt lat="31.201608343052126" lon="121.6173310009444">
        <ele>8.785662400229485</ele>
        <time>2019-10-02T09:33:37Z</time>
      </trkpt>
      <trkpt lat="31.20135377207894" lon="121.61758551529937">
        <ele>8.7513513308182</ele>
        <time>2019-10-02T09:33:51Z</time>
      </trkpt>
      <trkpt lat="31.201265860258687" lon="121.6176513814351">
        <ele>8.629518693232981</ele>
        <time>2019-10-02T09:33:55Z</time>
      </trkpt>
      <trkpt lat="31.201066599256077" lon="121.61790453283702">
        <ele>8.093122065662003</ele>
        <time>2019-10-02T09:34:06Z</time>
      </trkpt>
      <trkpt lat="31.200857027533573" lon="121.61816310289565">
        <ele>8.357534591672282</ele>
        <time>2019-10-02T09:34:17Z</time>
      </trkpt>
      <trkpt lat="31.200628686711113" lon="121.61847994009798">
        <ele>8.005080389750646</ele>
        <time>2019-10-02T09:34:31Z</time>
      </trkpt>
      <trkpt lat="31.20037925640838" lon="121.61873525540014">
        <ele>8.306788181808432</ele>
        <time>2019-10-02T09:34:45Z</time>
      </trkpt>
      <trkpt lat="31.200206290704507" lon="121.61898378656906">
        <ele>8.043064102365374</ele>
        <time>2019-10-02T09:34:56Z</time>
      </trkpt>
      <trkpt lat="31.19996580793296" lon="121.6192347599564">
        <ele>9.02503629411047</ele>
        <time>2019-10-02T09:35:11Z</time>
      </trkpt>
      <trkpt lat="31.19972693377153" lon="121.61950117797316">
        <ele>8.858693444131506</ele>
        <time>2019-10-02T09:35:25Z</time>
      </trkpt>
      <trkpt lat="31.199503009405788" lon="121.6197296518">
        <ele>8.532041822714008</ele>
        <time>2019-10-02T09:35:36Z</time>
      </trkpt>
      <trkpt lat="31.199342881302" lon="121.61988088345507">
        <ele>8.48978263463194</ele>
        <time>2019-10-02T09:35:44Z</time>
      </trkpt>
      <trkpt lat="31.199123669872076" lon="121.62000881324416">
        <ele>9.090775917538174</ele>
        <time>2019-10-02T09:35:59Z</time>
      </trkpt>
      <trkpt lat="31.199033745369597" lon="121.62017765225562">
        <ele>9.11939893010722</ele>
        <time>2019-10-02T09:36:03Z</time>
      </trkpt>
      <trkpt lat="31.19883652407302" lon="121.62027793720485">
        <ele>9.117096600250242</ele>
        <time>2019-10-02T09:36:13Z</time>
      </trkpt>
      <trkpt lat="31.198641302553224" lon="121.62053566906313">
        <ele>9.670185530782872</ele>
        <time>2019-10-02T09:36:21Z</time>
      </trkpt>
      <trkpt lat="31.198537835078508" lon="121.62068905926304">
        <ele>9.822581176803194</ele>
        <time>2019-10-02T09:36:25Z</time>
      </trkpt>
      <trkpt lat="31.19836412075028" lon="121.62086304960079">
        <ele>10.551742286209336</ele>
        <time>2019-10-02T09:36:41Z</time>
      </trkpt>
      <trkpt lat="31.1982002464148" lon="121.62096360014606">
        <ele>9.813089026882075</ele>
        <time>2019-10-02T09:36:54Z</time>
      </trkpt>
      <trkpt lat="31.19814839507347" lon="121.62102295088589">
        <ele>10.210269141028807</ele>
        <time>2019-10-02T09:36:58Z</time>
      </trkpt>
      <trkpt lat="31.19793788906715" lon="121.62111998184696">
        <ele>9.303580082729011</ele>
        <time>2019-10-02T09:37:18Z</time>
      </trkpt>
      <trkpt lat="31.19781082522859" lon="121.62127770635104">
        <ele>9.341922319132436</ele>
        <time>2019-10-02T09:37:33Z</time>
      </trkpt>
      <trkpt lat="31.19751532140435" lon="121.62149424727313">
        <ele>9.196267440814056</ele>
        <time>2019-10-02T09:37:58Z</time>
      </trkpt>
      <trkpt lat="31.197432288361362" lon="121.621553870383">
        <ele>8.927513838661605</ele>
        <time>2019-10-02T09:38:05Z</time>
      </trkpt>
      <trkpt lat="31.197372886305097" lon="121.62157528291536">
        <ele>8.87412899545882</ele>
        <time>2019-10-02T09:38:09Z</time>
      </trkpt>
      <trkpt lat="31.197198836204773" lon="121.62180265056217">
        <ele>8.568298655811258</ele>
        <time>2019-10-02T09:38:29Z</time>
      </trkpt>
      <trkpt lat="31.19709791625213" lon="121.62185468703497">
        <ele>8.632042986556288</ele>
        <time>2019-10-02T09:38:36Z</time>
      </trkpt>
      <trkpt lat="31.196829188320972" lon="121.6221265003621">
        <ele>8.57315946446387</ele>
        <time>2019-10-02T09:38:54Z</time>
      </trkpt>
      <trkpt lat="31.19673990789117" lon="121.6221950647876">
        <ele>8.548702006201575</ele>
        <time>2019-10-02T09:38:58Z</time>
      </trkpt>
      <trkpt lat="31.19663228187831" lon="121.62242160874459">
        <ele>8.840051402642516</ele>
        <time>2019-10-02T09:39:05Z</time>
      </trkpt>
      <trkpt lat="31.196626479927343" lon="121.62251644988716">
        <ele>8.967780362611673</ele>
        <time>2019-10-02T09:39:08Z</time>
      </trkpt>
      <trkpt lat="31.196688200866415" lon="121.62283781666001">
        <ele>8.528908823690525</ele>
        <time>2019-10-02T09:39:18Z</time>
      </trkpt>
      <trkpt lat="31.196764788874003" lon="121.62319521690297">
        <ele>8.478046426488666</ele>
        <time>2019-10-02T09:39:30Z</time>
      </trkpt>
      <trkpt lat="31.196813762975246" lon="121.62351359611894">
        <ele>8.753791702205731</ele>
        <time>2019-10-02T09:39:40Z</time>
      </trkpt>
      <trkpt lat="31.196870031639463" lon="121.62385120917526">
        <ele>8.747657669921752</ele>
        <time>2019-10-02T09:39:51Z</time>
      </trkpt>
      <trkpt lat="31.19688279262907" lon="121.62406445249236">
        <ele>8.823914382652964</ele>
        <time>2019-10-02T09:39:58Z</time>
      </trkpt>
      <trkpt lat="31.196956772233747" lon="121.62386989819994">
        <ele>9.092602640223923</ele>
        <time>2019-10-02T09:40:10Z</time>
      </trkpt>
      <trkpt lat="31.196946309676665" lon="121.62377560503242">
        <ele>9.302967167228562</ele>
        <time>2019-10-02T09:40:13Z</time>
      </trkpt>
      <trkpt lat="31.196979791252236" lon="121.62366369541753">
        <ele>9.476294828231914</ele>
        <time>2019-10-02T09:40:17Z</time>
      </trkpt>
      <trkpt lat="31.196990475221085" lon="121.6235704836433">
        <ele>9.592411417728211</ele>
        <time>2019-10-02T09:40:20Z</time>
      </trkpt>
      <trkpt lat="31.196946376567844" lon="121.62348865654255">
        <ele>9.640536847834197</ele>
        <time>2019-10-02T09:40:27Z</time>
      </trkpt>
      <trkpt lat="31.196942695321884" lon="121.62339083897346">
        <ele>9.671592077509354</ele>
        <time>2019-10-02T09:40:34Z</time>
      </trkpt>
      <trkpt lat="31.196907872914174" lon="121.62325915297525">
        <ele>9.625668337185799</ele>
        <time>2019-10-02T09:40:42Z</time>
      </trkpt>
      <trkpt lat="31.1968559074171" lon="121.62318003525714">
        <ele>9.438753514442912</ele>
        <time>2019-10-02T09:40:50Z</time>
      </trkpt>
      <trkpt lat="31.19683946871248" lon="121.62309359825885">
        <ele>9.303547028398754</ele>
        <time>2019-10-02T09:40:54Z</time>
      </trkpt>
      <trkpt lat="31.196854862371794" lon="121.62291204844071">
        <ele>9.132560268857652</ele>
        <time>2019-10-02T09:41:01Z</time>
      </trkpt>
      <trkpt lat="31.196835960858635" lon="121.62284457866991">
        <ele>8.841691060479482</ele>
        <time>2019-10-02T09:41:07Z</time>
      </trkpt>
      <trkpt lat="31.196877515754842" lon="121.62278252313143">
        <ele>8.701067380960124</ele>
        <time>2019-10-02T09:41:13Z</time>
      </trkpt>
      <trkpt lat="31.196981718261732" lon="121.62270664275157">
        <ele>8.844821346661838</ele>
        <time>2019-10-02T09:41:20Z</time>
      </trkpt>
      <trkpt lat="31.19704230840802" lon="121.62259553942545">
        <ele>8.85137208115366</ele>
        <time>2019-10-02T09:41:27Z</time>
      </trkpt>
      <trkpt lat="31.1971836591822" lon="121.62251667474534">
        <ele>8.714973565957628</ele>
        <time>2019-10-02T09:41:37Z</time>
      </trkpt>
      <trkpt lat="31.197417057852743" lon="121.62232019940325">
        <ele>9.049443346788573</ele>
        <time>2019-10-02T09:41:57Z</time>
      </trkpt>
      <trkpt lat="31.197542180433295" lon="121.62220556645565">
        <ele>9.531979725314695</ele>
        <time>2019-10-02T09:42:07Z</time>
      </trkpt>
      <trkpt lat="31.19769000533035" lon="121.62215515264288">
        <ele>9.422917910365266</ele>
        <time>2019-10-02T09:42:21Z</time>
      </trkpt>
      <trkpt lat="31.19776247299898" lon="121.62208875732478">
        <ele>9.468640341165266</ele>
        <time>2019-10-02T09:42:25Z</time>
      </trkpt>
      <trkpt lat="31.197831756097642" lon="121.62196085006809">
        <ele>9.594405260425743</ele>
        <time>2019-10-02T09:42:35Z</time>
      </trkpt>
      <trkpt lat="31.197940546165785" lon="121.62190258063413">
        <ele>9.63069361092997</ele>
        <time>2019-10-02T09:42:43Z</time>
      </trkpt>
      <trkpt lat="31.198022441958415" lon="121.62189065077592">
        <ele>9.624354934856868</ele>
        <time>2019-10-02T09:42:47Z</time>
      </trkpt>
      <trkpt lat="31.198119044834034" lon="121.62181991712575">
        <ele>9.619112930485784</ele>
        <time>2019-10-02T09:42:55Z</time>
      </trkpt>
      <trkpt lat="31.198160052091314" lon="121.62176084005225">
        <ele>9.540606349303381</ele>
        <time>2019-10-02T09:43:01Z</time>
      </trkpt>
      <trkpt lat="31.19820318779607" lon="121.62173807411207">
        <ele>9.554649344197815</ele>
        <time>2019-10-02T09:43:04Z</time>
      </trkpt>
      <trkpt lat="31.19839513239228" lon="121.62151070443467">
        <ele>9.464703613511142</ele>
        <time>2019-10-02T09:43:15Z</time>
      </trkpt>
      <trkpt lat="31.198603413687902" lon="121.62121937883153">
        <ele>9.463566653589776</ele>
        <time>2019-10-02T09:43:29Z</time>
      </trkpt>
      <trkpt lat="31.198815341657166" lon="121.62106218893246">
        <ele>9.446041853271499</ele>
        <time>2019-10-02T09:43:40Z</time>
      </trkpt>
      <trkpt lat="31.199023289020587" lon="121.62082478548002">
        <ele>9.467571475516607</ele>
        <time>2019-10-02T09:43:51Z</time>
      </trkpt>
      <trkpt lat="31.199201365351726" lon="121.62062857318368">
        <ele>9.407453614456017</ele>
        <time>2019-10-02T09:43:59Z</time>
      </trkpt>
      <trkpt lat="31.199469732843145" lon="121.62067976843744">
        <ele>9.110423319672291</ele>
        <time>2019-10-02T09:44:10Z</time>
      </trkpt>
      <trkpt lat="31.19963755817198" lon="121.62068598735573">
        <ele>9.08825406592457</ele>
        <time>2019-10-02T09:44:17Z</time>
      </trkpt>
      <trkpt lat="31.199728949734357" lon="121.62066809434624">
        <ele>8.951280818058553</ele>
        <time>2019-10-02T09:44:21Z</time>
      </trkpt>
      <trkpt lat="31.199820818244756" lon="121.62071063240796">
        <ele>8.817475959839769</ele>
        <time>2019-10-02T09:44:25Z</time>
      </trkpt>
      <trkpt lat="31.199979426222516" lon="121.62071576811653">
        <ele>8.508744557399908</ele>
        <time>2019-10-02T09:44:32Z</time>
      </trkpt>
      <trkpt lat="31.200227702763172" lon="121.6207918959915">
        <ele>8.444778835526991</ele>
        <time>2019-10-02T09:44:43Z</time>
      </trkpt>
      <trkpt lat="31.20024200845647" lon="121.62085124164356">
        <ele>8.680849969482246</ele>
        <time>2019-10-02T09:44:47Z</time>
      </trkpt>
      <trkpt lat="31.20033844679145" lon="121.62092982059025">
        <ele>8.782059282104164</ele>
        <time>2019-10-02T09:44:54Z</time>
      </trkpt>
      <trkpt lat="31.200574588020615" lon="121.62094524741654">
        <ele>8.551007699958578</ele>
        <time>2019-10-02T09:45:06Z</time>
      </trkpt>
      <trkpt lat="31.200782765781952" lon="121.62099427912227">
        <ele>8.364961172732112</ele>
        <time>2019-10-02T09:45:20Z</time>
      </trkpt>
      <trkpt lat="31.200933493478686" lon="121.6210154037297">
        <ele>8.172681220720404</ele>
        <time>2019-10-02T09:45:30Z</time>
      </trkpt>
      <trkpt lat="31.20098477339696" lon="121.62098288089223">
        <ele>8.300622363086493</ele>
        <time>2019-10-02T09:45:37Z</time>
      </trkpt>
      <trkpt lat="31.2013127422751" lon="121.62107797052278">
        <ele>8.39935743739123</ele>
        <time>2019-10-02T09:45:59Z</time>
      </trkpt>
      <trkpt lat="31.201384878307284" lon="121.62106495715122">
        <ele>8.808885235728384</ele>
        <time>2019-10-02T09:46:06Z</time>
      </trkpt>
      <trkpt lat="31.201505348816756" lon="121.62098554769445">
        <ele>8.699883371766504</ele>
        <time>2019-10-02T09:46:13Z</time>
      </trkpt>
      <trkpt lat="31.201619266146885" lon="121.62094814183837">
        <ele>8.691769194594833</ele>
        <time>2019-10-02T09:46:20Z</time>
      </trkpt>
      <trkpt lat="31.20171821227957" lon="121.62096466396147">
        <ele>8.43521593342722</ele>
        <time>2019-10-02T09:46:28Z</time>
      </trkpt>
      <trkpt lat="31.20181495620633" lon="121.62101153694657">
        <ele>8.007842647821407</ele>
        <time>2019-10-02T09:46:35Z</time>
      </trkpt>
      <trkpt lat="31.201879144337195" lon="121.62107629772207">
        <ele>7.719008871155912</ele>
        <time>2019-10-02T09:46:42Z</time>
      </trkpt>
      <trkpt lat="31.202186491152332" lon="121.62118575099959">
        <ele>7.9723885541637305</ele>
        <time>2019-10-02T09:47:05Z</time>
      </trkpt>
      <trkpt lat="31.202348341369024" lon="121.62120145480796">
        <ele>7.648263761106103</ele>
        <time>2019-10-02T09:47:13Z</time>
      </trkpt>
      <trkpt lat="31.20244894221157" lon="121.62119250393596">
        <ele>7.361516861115362</ele>
        <time>2019-10-02T09:47:20Z</time>
      </trkpt>
      <trkpt lat="31.202487530735766" lon="121.62111283065471">
        <ele>7.324062890381208</ele>
        <time>2019-10-02T09:47:23Z</time>
      </trkpt>
      <trkpt lat="31.20243390169809" lon="121.62081312164827">
        <ele>7.601665910926506</ele>
        <time>2019-10-02T09:47:34Z</time>
      </trkpt>
      <trkpt lat="31.202446709386905" lon="121.62075377366794">
        <ele>7.83141556600437</ele>
        <time>2019-10-02T09:47:38Z</time>
      </trkpt>
      <trkpt lat="31.20248357844107" lon="121.6207586484508">
        <ele>7.960652510617134</ele>
        <time>2019-10-02T09:47:45Z</time>
      </trkpt>
      <trkpt lat="31.202489550453823" lon="121.6207521441775">
        <ele>7.972105567117099</ele>
        <time>2019-10-02T09:47:46Z</time>
      </trkpt>
      <trkpt lat="31.20247512448651" lon="121.62080363357806">
        <ele>7.940809526450826</ele>
        <time>2019-10-02T09:47:54Z</time>
      </trkpt>
      <trkpt lat="31.20247512448651" lon="121.62080363357806">
        <ele>7.940809526450826</ele>
        <time>2019-10-02T09:47:55Z</time>
      </trkpt>
      <trkpt lat="31.202454790255246" lon="121.62080282229003">
        <ele>8.018529782413873</ele>
        <time>2019-10-02T09:47:57Z</time>
      </trkpt>
      <trkpt lat="31.202486014543847" lon="121.62076244211958">
        <ele>8.038914138048911</ele>
        <time>2019-10-02T09:48:05Z</time>
      </trkpt>
      <trkpt lat="31.202474910346222" lon="121.62075106142578">
        <ele>7.956234107454579</ele>
        <time>2019-10-02T09:48:12Z</time>
      </trkpt>
      <trkpt lat="31.202466808282747" lon="121.62072152407814">
        <ele>8.011704226380168</ele>
        <time>2019-10-02T09:48:26Z</time>
      </trkpt>
      <trkpt lat="31.20241284746376" lon="121.62072613539296">
        <ele>8.115601978518225</ele>
        <time>2019-10-02T09:48:33Z</time>
      </trkpt>
      <trkpt lat="31.202428849405067" lon="121.62072152721959">
        <ele>8.09683625786996</ele>
        <time>2019-10-02T09:48:48Z</time>
      </trkpt>
      <trkpt lat="31.202419670976422" lon="121.62068440216585">
        <ele>7.998741794539368</ele>
        <time>2019-10-02T09:49:07Z</time>
      </trkpt>
      <trkpt lat="31.20241885903658" lon="121.62068304727536">
        <ele>8.02306466043373</ele>
        <time>2019-10-02T09:49:10Z</time>
      </trkpt>
      <trkpt lat="31.202455191104892" lon="121.62068304426857">
        <ele>8.15619929968125</ele>
        <time>2019-10-02T09:49:20Z</time>
      </trkpt>
      <trkpt lat="31.202419165012067" lon="121.62065079923632">
        <ele>8.143591558314883</ele>
        <time>2019-10-02T09:49:40Z</time>
      </trkpt>
      <trkpt lat="31.202404320712148" lon="121.62058765928056">
        <ele>8.220562621894038</ele>
        <time>2019-10-02T09:49:44Z</time>
      </trkpt>
      <trkpt lat="31.202419311018012" lon="121.62051530293277">
        <ele>8.2748147138805</ele>
        <time>2019-10-02T09:49:47Z</time>
      </trkpt>
      <trkpt lat="31.202405048807456" lon="121.62041476540945">
        <ele>8.371470046221246</ele>
        <time>2019-10-02T09:49:51Z</time>
      </trkpt>
      <trkpt lat="31.2024197556713" lon="121.62035351940081">
        <ele>8.308504871515204</ele>
        <time>2019-10-02T09:49:55Z</time>
      </trkpt>
      <trkpt lat="31.2024197556713" lon="121.62035351940081">
        <ele>8.308504871515204</ele>
        <time>2019-10-02T09:50:08Z</time>
      </trkpt>
      <trkpt lat="31.202440067873493" lon="121.62037492631387">
        <ele>8.114104855620647</ele>
        <time>2019-10-02T09:50:46Z</time>
      </trkpt>
      <trkpt lat="31.20273019436814" lon="121.62036352052242">
        <ele>8.226192968812368</ele>
        <time>2019-10-02T09:51:05Z</time>
      </trkpt>
      <trkpt lat="31.202802092356926" lon="121.62031934237166">
        <ele>8.23434959743949</ele>
        <time>2019-10-02T09:51:08Z</time>
      </trkpt>
      <trkpt lat="31.20285775629479" lon="121.62024318796657">
        <ele>8.187521679192816</ele>
        <time>2019-10-02T09:51:12Z</time>
      </trkpt>
      <trkpt lat="31.20277545215886" lon="121.61987328242732">
        <ele>7.901407602595018</ele>
        <time>2019-10-02T09:51:26Z</time>
      </trkpt>
      <trkpt lat="31.20267258220154" lon="121.61946001262098">
        <ele>8.658383352371105</ele>
        <time>2019-10-02T09:51:41Z</time>
      </trkpt>
      <trkpt lat="31.202585950021845" lon="121.6190705835598">
        <ele>8.506744490572139</ele>
        <time>2019-10-02T09:51:55Z</time>
      </trkpt>
      <trkpt lat="31.202555125876497" lon="121.61898738636725">
        <ele>8.540145706246838</ele>
        <time>2019-10-02T09:51:58Z</time>
      </trkpt>
      <trkpt lat="31.202531549657028" lon="121.61870878914854">
        <ele>8.917501710691718</ele>
        <time>2019-10-02T09:52:13Z</time>
      </trkpt>
      <trkpt lat="31.202580418396092" lon="121.61864509712191">
        <ele>9.030604829223474</ele>
        <time>2019-10-02T09:52:20Z</time>
      </trkpt>
      <trkpt lat="31.202761295220295" lon="121.61861554171868">
        <ele>9.010599602828954</ele>
        <time>2019-10-02T09:52:32Z</time>
      </trkpt>
      <trkpt lat="31.20282235035399" lon="121.61856621218897">
        <ele>9.112653314244108</ele>
        <time>2019-10-02T09:52:38Z</time>
      </trkpt>
      <trkpt lat="31.202876762299084" lon="121.61838218859079">
        <ele>9.441439765472106</ele>
        <time>2019-10-02T09:52:46Z</time>
      </trkpt>
      <trkpt lat="31.202751444848015" lon="121.61816375922824">
        <ele>9.235883800369235</ele>
        <time>2019-10-02T09:53:03Z</time>
      </trkpt>
      <trkpt lat="31.20275159373252" lon="121.61801361467646">
        <ele>9.204999825773951</ele>
        <time>2019-10-02T09:53:10Z</time>
      </trkpt>
      <trkpt lat="31.20266947441245" lon="121.61797865988687">
        <ele>9.147012490097921</ele>
        <time>2019-10-02T09:53:17Z</time>
      </trkpt>
      <trkpt lat="31.202526931627773" lon="121.61762688496415">
        <ele>9.061434284117347</ele>
        <time>2019-10-02T09:53:35Z</time>
      </trkpt>
      <trkpt lat="31.202453949492924" lon="121.61739597745311">
        <ele>8.870160678860831</ele>
        <time>2019-10-02T09:53:54Z</time>
      </trkpt>
      <trkpt lat="31.2024830603411" lon="121.61729298474187">
        <ele>8.474203301482914</ele>
        <time>2019-10-02T09:54:05Z</time>
      </trkpt>
      <trkpt lat="31.2025321858397" lon="121.61724094330965">
        <ele>8.825068465273391</ele>
        <time>2019-10-02T09:54:12Z</time>
      </trkpt>
      <trkpt lat="31.202583286073583" lon="121.61710867694536">
        <ele>8.990419557896875</ele>
        <time>2019-10-02T09:54:19Z</time>
      </trkpt>
      <trkpt lat="31.202629390671127" lon="121.61709647679236">
        <ele>9.027235110707704</ele>
        <time>2019-10-02T09:54:23Z</time>
      </trkpt>
      <trkpt lat="31.20268333121379" lon="121.61711246308509">
        <ele>9.068487275257189</ele>
        <time>2019-10-02T09:54:26Z</time>
      </trkpt>
      <trkpt lat="31.202731067033607" lon="121.61709565529223">
        <ele>8.932593283366957</ele>
        <time>2019-10-02T09:54:30Z</time>
      </trkpt>
      <trkpt lat="31.202803318727025" lon="121.61695959196283">
        <ele>8.921972316255655</ele>
        <time>2019-10-02T09:54:40Z</time>
      </trkpt>
      <trkpt lat="31.203057278381596" lon="121.61677255862841">
        <ele>9.030588707664021</ele>
        <time>2019-10-02T09:55:05Z</time>
      </trkpt>
      <trkpt lat="31.20327432863034" lon="121.61662157461429">
        <ele>9.00722236184015</ele>
        <time>2019-10-02T09:55:31Z</time>
      </trkpt>
      <trkpt lat="31.203292549619945" lon="121.61656302946596">
        <ele>8.999420980774488</ele>
        <time>2019-10-02T09:55:35Z</time>
      </trkpt>
      <trkpt lat="31.203453490736532" lon="121.61639388929386">
        <ele>9.304661059419125</ele>
        <time>2019-10-02T09:55:52Z</time>
      </trkpt>
      <trkpt lat="31.2035163993742" lon="121.61638819230075">
        <ele>9.512047008632063</ele>
        <time>2019-10-02T09:55:58Z</time>
      </trkpt>
      <trkpt lat="31.203698713707173" lon="121.61626810725448">
        <ele>10.031147951795514</ele>
        <time>2019-10-02T09:56:16Z</time>
      </trkpt>
      <trkpt lat="31.203761086590738" lon="121.61625536326072">
        <ele>10.035506746628212</ele>
        <time>2019-10-02T09:56:20Z</time>
      </trkpt>
      <trkpt lat="31.203869076339036" lon="121.61617106102115">
        <ele>10.045950916357636</ele>
        <time>2019-10-02T09:56:27Z</time>
      </trkpt>
      <trkpt lat="31.203968680347494" lon="121.61606534693729">
        <ele>10.010343991523218</ele>
        <time>2019-10-02T09:56:33Z</time>
      </trkpt>
      <trkpt lat="31.2040177772404" lon="121.61604203332054">
        <ele>10.023362220527677</ele>
        <time>2019-10-02T09:56:36Z</time>
      </trkpt>
      <trkpt lat="31.204091252639106" lon="121.61604446661632">
        <ele>10.0155355336003</ele>
        <time>2019-10-02T09:56:40Z</time>
      </trkpt>
      <trkpt lat="31.20417968277944" lon="121.61600082158962">
        <ele>10.06673455618643</ele>
        <time>2019-10-02T09:56:44Z</time>
      </trkpt>
      <trkpt lat="31.20428837119046" lon="121.61604092677284">
        <ele>9.972905278776242</ele>
        <time>2019-10-02T09:56:50Z</time>
      </trkpt>
      <trkpt lat="31.204422972541945" lon="121.61620679246477">
        <ele>9.858763115414392</ele>
        <time>2019-10-02T09:56:58Z</time>
      </trkpt>
      <trkpt lat="31.20457415400521" lon="121.61632766334061">
        <ele>9.723444487375252</ele>
        <time>2019-10-02T09:57:05Z</time>
      </trkpt>
      <trkpt lat="31.20445339876477" lon="121.6161428245086">
        <ele>9.781303479828086</ele>
        <time>2019-10-02T09:57:15Z</time>
      </trkpt>
      <trkpt lat="31.204258643216736" lon="121.61593522282199">
        <ele>9.994393549684382</ele>
        <time>2019-10-02T09:57:26Z</time>
      </trkpt>
      <trkpt lat="31.204172209766057" lon="121.61587099277449">
        <ele>9.914155209513416</ele>
        <time>2019-10-02T09:57:30Z</time>
      </trkpt>
      <trkpt lat="31.20404521491547" lon="121.61568669307836">
        <ele>10.056663754390389</ele>
        <time>2019-10-02T09:57:38Z</time>
      </trkpt>
      <trkpt lat="31.203828222920343" lon="121.6154790893259">
        <ele>9.555874430689572</ele>
        <time>2019-10-02T09:57:49Z</time>
      </trkpt>
      <trkpt lat="31.203751553915374" lon="121.61540970733833">
        <ele>9.615955040166156</ele>
        <time>2019-10-02T09:57:53Z</time>
      </trkpt>
      <trkpt lat="31.203694685349415" lon="121.61533164993345">
        <ele>9.432402162208566</ele>
        <time>2019-10-02T09:57:57Z</time>
      </trkpt>
      <trkpt lat="31.203584914318192" lon="121.6152882910649">
        <ele>9.28153002674621</ele>
        <time>2019-10-02T09:58:04Z</time>
      </trkpt>
      <trkpt lat="31.20368212179459" lon="121.61512944725214">
        <ele>9.88608138213936</ele>
        <time>2019-10-02T09:58:14Z</time>
      </trkpt>
      <trkpt lat="31.20374399764998" lon="121.61506493174309">
        <ele>10.132135973255824</ele>
        <time>2019-10-02T09:58:18Z</time>
      </trkpt>
      <trkpt lat="31.20380022864011" lon="121.6149445795122">
        <ele>10.285119733153193</ele>
        <time>2019-10-02T09:58:26Z</time>
      </trkpt>
      <trkpt lat="31.20372361401745" lon="121.61481149806848">
        <ele>10.167827966987138</ele>
        <time>2019-10-02T09:58:36Z</time>
      </trkpt>
      <trkpt lat="31.20366889582075" lon="121.61475295457842">
        <ele>10.054064422805517</ele>
        <time>2019-10-02T09:58:40Z</time>
      </trkpt>
      <trkpt lat="31.20367200409153" lon="121.61460821000166">
        <ele>10.036079640512991</ele>
        <time>2019-10-02T09:58:47Z</time>
      </trkpt>
      <trkpt lat="31.203794693616228" lon="121.6144501727517">
        <ele>10.61207581915281</ele>
        <time>2019-10-02T09:58:58Z</time>
      </trkpt>
      <trkpt lat="31.204025604053033" lon="121.61424658718013">
        <ele>11.174260267349295</ele>
        <time>2019-10-02T09:59:13Z</time>
      </trkpt>
      <trkpt lat="31.20406033847003" lon="121.61421243050725">
        <ele>11.14303058099891</ele>
        <time>2019-10-02T09:59:17Z</time>
      </trkpt>
      <trkpt lat="31.204187019702392" lon="121.61414058846526">
        <ele>11.147145555047485</ele>
        <time>2019-10-02T09:59:25Z</time>
      </trkpt>
      <trkpt lat="31.20421850863856" lon="121.61409667362709">
        <ele>11.153985135292256</ele>
        <time>2019-10-02T09:59:32Z</time>
      </trkpt>
      <trkpt lat="31.204405403123623" lon="121.61399934620266">
        <ele>11.132581372695347</ele>
        <time>2019-10-02T09:59:55Z</time>
      </trkpt>
      <trkpt lat="31.204472148096784" lon="121.61394512771368">
        <ele>11.188391218840126</ele>
        <time>2019-10-02T09:59:58Z</time>
      </trkpt>
      <trkpt lat="31.204511809004085" lon="121.61385567276282">
        <ele>11.150602170453466</ele>
        <time>2019-10-02T10:00:02Z</time>
      </trkpt>
      <trkpt lat="31.204642881343666" lon="121.61371931524081">
        <ele>11.077208231755147</ele>
        <time>2019-10-02T10:00:17Z</time>
      </trkpt>
      <trkpt lat="31.20472912247877" lon="121.61369518306745">
        <ele>10.993067499617744</ele>
        <time>2019-10-02T10:00:25Z</time>
      </trkpt>
      <trkpt lat="31.20479450577644" lon="121.61364746964028">
        <ele>11.14370435346099</ele>
        <time>2019-10-02T10:00:33Z</time>
      </trkpt>
      <trkpt lat="31.204886276999503" lon="121.6134934945997">
        <ele>11.217759607976188</ele>
        <time>2019-10-02T10:00:46Z</time>
      </trkpt>
      <trkpt lat="31.204976004022388" lon="121.61351625707778">
        <ele>11.285760001657083</ele>
        <time>2019-10-02T10:00:50Z</time>
      </trkpt>
      <trkpt lat="31.20504135862407" lon="121.61350296923574">
        <ele>11.301812878721563</ele>
        <time>2019-10-02T10:00:53Z</time>
      </trkpt>
      <trkpt lat="31.20511137120326" lon="121.61343058758253">
        <ele>11.34018209310707</ele>
        <time>2019-10-02T10:00:57Z</time>
      </trkpt>
      <trkpt lat="31.205092702062483" lon="121.61338288057004">
        <ele>11.282920105543608</ele>
        <time>2019-10-02T10:01:01Z</time>
      </trkpt>
      <trkpt lat="31.20519786074707" lon="121.61310176892393">
        <ele>11.088057471172045</ele>
        <time>2019-10-02T10:01:22Z</time>
      </trkpt>
      <trkpt lat="31.205376672071704" lon="121.61293694003977">
        <ele>11.08632907924818</ele>
        <time>2019-10-02T10:01:41Z</time>
      </trkpt>
      <trkpt lat="31.205363994190318" lon="121.61285534683643">
        <ele>11.146810040731506</ele>
        <time>2019-10-02T10:01:47Z</time>
      </trkpt>
      <trkpt lat="31.205245030083706" lon="121.61277484645106">
        <ele>11.135663915443201</ele>
        <time>2019-10-02T10:01:59Z</time>
      </trkpt>
      <trkpt lat="31.205129621509716" lon="121.61265530999945">
        <ele>11.087652175336377</ele>
        <time>2019-10-02T10:02:13Z</time>
      </trkpt>
      <trkpt lat="31.20507053655497" lon="121.61262685146252">
        <ele>11.047883148256036</ele>
        <time>2019-10-02T10:02:16Z</time>
      </trkpt>
      <trkpt lat="31.2049708324526" lon="121.61253360786925">
        <ele>11.046788411632265</ele>
        <time>2019-10-02T10:02:23Z</time>
      </trkpt>
      <trkpt lat="31.204941048781496" lon="121.61248129155013">
        <ele>11.086024506632324</ele>
        <time>2019-10-02T10:02:27Z</time>
      </trkpt>
      <trkpt lat="31.204855962110212" lon="121.61241786529301">
        <ele>10.912061546374396</ele>
        <time>2019-10-02T10:02:35Z</time>
      </trkpt>
      <trkpt lat="31.204730309179098" lon="121.61222079763793">
        <ele>11.275565761862381</ele>
        <time>2019-10-02T10:02:52Z</time>
      </trkpt>
      <trkpt lat="31.2046736772416" lon="121.61217525997543">
        <ele>11.180358463871737</ele>
        <time>2019-10-02T10:02:59Z</time>
      </trkpt>
      <trkpt lat="31.204616208736446" lon="121.61215954175374">
        <ele>11.012637865437434</ele>
        <time>2019-10-02T10:03:07Z</time>
      </trkpt>
      <trkpt lat="31.20452820672484" lon="121.61200801155056">
        <ele>11.00399692224738</ele>
        <time>2019-10-02T10:03:22Z</time>
      </trkpt>
      <trkpt lat="31.204481830074997" lon="121.61202428063598">
        <ele>10.95560218504557</ele>
        <time>2019-10-02T10:03:26Z</time>
      </trkpt>
      <trkpt lat="31.204308396890028" lon="121.61190257640169">
        <ele>11.026987786660849</ele>
        <time>2019-10-02T10:03:40Z</time>
      </trkpt>
      <trkpt lat="31.204172422228822" lon="121.61172502376239">
        <ele>10.965137682010951</ele>
        <time>2019-10-02T10:03:59Z</time>
      </trkpt>
      <trkpt lat="31.20416280475757" lon="121.61153498902453">
        <ele>10.873460006307413</ele>
        <time>2019-10-02T10:04:10Z</time>
      </trkpt>
      <trkpt lat="31.204215836076948" lon="121.61132082003064">
        <ele>10.781955001962148</ele>
        <time>2019-10-02T10:04:25Z</time>
      </trkpt>
      <trkpt lat="31.204146207181875" lon="121.61124952750492">
        <ele>10.80935216437079</ele>
        <time>2019-10-02T10:04:32Z</time>
      </trkpt>
      <trkpt lat="31.204182036498437" lon="121.61119611845999">
        <ele>10.992322639487158</ele>
        <time>2019-10-02T10:04:42Z</time>
      </trkpt>
      <trkpt lat="31.20440665423399" lon="121.61103588089426">
        <ele>11.100756641190388</ele>
        <time>2019-10-02T10:05:07Z</time>
      </trkpt>
      <trkpt lat="31.20445632387363" lon="121.6109648487181">
        <ele>11.198368037127645</ele>
        <time>2019-10-02T10:05:11Z</time>
      </trkpt>
      <trkpt lat="31.20450486657617" lon="121.61095183190494">
        <ele>11.478672202752199</ele>
        <time>2019-10-02T10:05:18Z</time>
      </trkpt>
      <trkpt lat="31.204574887461828" lon="121.6108582963972">
        <ele>11.759972028099641</ele>
        <time>2019-10-02T10:05:29Z</time>
      </trkpt>
      <trkpt lat="31.204538138654986" lon="121.61068425180605">
        <ele>11.923147445273894</ele>
        <time>2019-10-02T10:05:36Z</time>
      </trkpt>
      <trkpt lat="31.204474495261135" lon="121.61058177980344">
        <ele>12.016337644655417</ele>
        <time>2019-10-02T10:05:46Z</time>
      </trkpt>
      <trkpt lat="31.204421371901553" lon="121.61055494483527">
        <ele>12.121052758705137</ele>
        <time>2019-10-02T10:05:58Z</time>
      </trkpt>
      <trkpt lat="31.204424403414002" lon="121.61048608386014">
        <ele>12.070939824588875</ele>
        <time>2019-10-02T10:06:23Z</time>
      </trkpt>
      <trkpt lat="31.204312383640836" lon="121.61054356744037">
        <ele>10.173789024353027</ele>
        <time>2019-10-02T10:06:41Z</time>
      </trkpt>
      <trkpt lat="31.204310987900868" lon="121.61059968620901">
        <ele>10.042969703674316</ele>
        <time>2019-10-02T10:06:53Z</time>
      </trkpt>
      <trkpt lat="31.204291577918575" lon="121.61044271789878">
        <ele>11.636672489967129</ele>
        <time>2019-10-02T10:07:00Z</time>
      </trkpt>
    </trkseg>
  </trk>
</gpx>