<?xml version="1.0" encoding="UTF-8"?>
<gpx xmlns="http://www.topografix.com/GPX/1/1" xmlns:gpxtpx="http://www.garmin.com/xmlschemas/TrackPointExtension/v1" xmlns:xsi="http://www.w3.org/2001/XMLSchema-instance" xsi:schemaLocation="http://www.topografix.com/GPX/1/1 http://www.topografix.com/GPX/1/1/gpx.xsd" version="1.1" creator="gpx.py -- https://github.com/tkrajina/gpxpy">
  <trk>
    <name>gpx from keep</name>
    <type>Run</type>
    <trkseg>
      <trkpt lat="31.20400191763958" lon="121.61131107826812">
        <ele>8.45931339263916</ele>
        <time>2018-09-02T22:11:02Z</time>
      </trkpt>
      <trkpt lat="31.204053572849112" lon="121.61148755669988">
        <ele>8.457732200622559</ele>
        <time>2018-09-02T22:11:08Z</time>
      </trkpt>
      <trkpt lat="31.20416338606306" lon="121.61148293902725">
        <ele>8.412919044494629</ele>
        <time>2018-09-02T22:11:14Z</time>
      </trkpt>
      <trkpt lat="31.204269076532743" lon="121.61155260128847">
        <ele>8.479751586914062</ele>
        <time>2018-09-02T22:11:21Z</time>
      </trkpt>
      <trkpt lat="31.204476347995037" lon="121.61174722808134">
        <ele>8.475274085998535</ele>
        <time>2018-09-02T22:11:27Z</time>
      </trkpt>
      <trkpt lat="31.204513704461586" lon="121.61182638333456">
        <ele>8.465500831604004</ele>
        <time>2018-09-02T22:11:34Z</time>
      </trkpt>
      <trkpt lat="31.204801482144454" lon="121.61204567010385">
        <ele>8.524724960327148</ele>
        <time>2018-09-02T22:11:47Z</time>
      </trkpt>
      <trkpt lat="31.204881379747892" lon="121.61215870657176">
        <ele>8.558587074279785</ele>
        <time>2018-09-02T22:11:53Z</time>
      </trkpt>
      <trkpt lat="31.204948927285795" lon="121.61211370069273">
        <ele>8.586368560791016</ele>
        <time>2018-09-02T22:12:00Z</time>
      </trkpt>
      <trkpt lat="31.205150739390465" lon="121.61235007011707">
        <ele>8.596917152404785</ele>
        <time>2018-09-02T22:12:06Z</time>
      </trkpt>
      <trkpt lat="31.20527126313709" lon="121.61251758921631">
        <ele>8.608222007751465</ele>
        <time>2018-09-02T22:12:13Z</time>
      </trkpt>
      <trkpt lat="31.20546445876754" lon="121.61267425790862">
        <ele>8.610387802124023</ele>
        <time>2018-09-02T22:12:19Z</time>
      </trkpt>
      <trkpt lat="31.205458954475628" lon="121.61277672631276">
        <ele>8.613250732421875</ele>
        <time>2018-09-02T22:12:26Z</time>
      </trkpt>
      <trkpt lat="31.205363326944642" lon="121.61267209763216">
        <ele>8.605727195739746</ele>
        <time>2018-09-02T22:12:32Z</time>
      </trkpt>
      <trkpt lat="31.205420494935854" lon="121.61272441125772">
        <ele>8.60490608215332</ele>
        <time>2018-09-02T22:12:39Z</time>
      </trkpt>
      <trkpt lat="31.205293721475442" lon="121.61325085169881">
        <ele>8.602359771728516</ele>
        <time>2018-09-02T22:12:54Z</time>
      </trkpt>
      <trkpt lat="31.20501072009765" lon="121.61350324283954">
        <ele>8.58537769317627</ele>
        <time>2018-09-02T22:13:07Z</time>
      </trkpt>
      <trkpt lat="31.20494099192629" lon="121.61355936007647">
        <ele>8.578512191772461</ele>
        <time>2018-09-02T22:13:14Z</time>
      </trkpt>
      <trkpt lat="31.20478747066325" lon="121.61363012182704">
        <ele>8.56796932220459</ele>
        <time>2018-09-02T22:13:20Z</time>
      </trkpt>
      <trkpt lat="31.20468840495166" lon="121.61375183958351">
        <ele>8.559855461120605</ele>
        <time>2018-09-02T22:13:27Z</time>
      </trkpt>
      <trkpt lat="31.20462158718862" lon="121.61389334185411">
        <ele>8.551904678344727</ele>
        <time>2018-09-02T22:13:33Z</time>
      </trkpt>
      <trkpt lat="31.204457223329456" lon="121.61395976646187">
        <ele>8.542551040649414</ele>
        <time>2018-09-02T22:13:40Z</time>
      </trkpt>
      <trkpt lat="31.204432236365307" lon="121.61401018656268">
        <ele>8.535964965820312</ele>
        <time>2018-09-02T22:13:46Z</time>
      </trkpt>
      <trkpt lat="31.204157708768477" lon="121.61417393160528">
        <ele>7.841762542724609</ele>
        <time>2018-09-02T22:13:51Z</time>
      </trkpt>
      <trkpt lat="31.203683887327728" lon="121.6152785250805">
        <ele>7.195461273193359</ele>
        <time>2018-09-02T22:14:43Z</time>
      </trkpt>
      <trkpt lat="31.203327716298535" lon="121.61546937299929">
        <ele>7.238041877746582</ele>
        <time>2018-09-02T22:14:49Z</time>
      </trkpt>
      <trkpt lat="31.20325553613815" lon="121.61553415932548">
        <ele>7.288677215576172</ele>
        <time>2018-09-02T22:14:57Z</time>
      </trkpt>
      <trkpt lat="31.202914554639726" lon="121.61571660157371">
        <ele>7.343896865844727</ele>
        <time>2018-09-02T22:15:03Z</time>
      </trkpt>
      <trkpt lat="31.20292954764087" lon="121.61592584625734">
        <ele>7.402293682098389</ele>
        <time>2018-09-02T22:15:10Z</time>
      </trkpt>
      <trkpt lat="31.202876248762546" lon="121.61609633597348">
        <ele>7.462474346160889</ele>
        <time>2018-09-02T22:15:16Z</time>
      </trkpt>
      <trkpt lat="31.20252739371309" lon="121.61628636374155">
        <ele>7.5821919441223145</ele>
        <time>2018-09-02T22:15:28Z</time>
      </trkpt>
      <trkpt lat="31.20225616518688" lon="121.61638721238819">
        <ele>7.640162944793701</ele>
        <time>2018-09-02T22:15:34Z</time>
      </trkpt>
      <trkpt lat="31.20220442443353" lon="121.61662789691701">
        <ele>7.696090221405029</ele>
        <time>2018-09-02T22:15:40Z</time>
      </trkpt>
      <trkpt lat="31.202228350307763" lon="121.61684526403559">
        <ele>7.792198181152344</ele>
        <time>2018-09-02T22:15:47Z</time>
      </trkpt>
      <trkpt lat="31.20234566472446" lon="121.6169368631767">
        <ele>7.838186740875244</ele>
        <time>2018-09-02T22:15:53Z</time>
      </trkpt>
      <trkpt lat="31.202141454569794" lon="121.61698485261175">
        <ele>7.882287502288818</ele>
        <time>2018-09-02T22:16:00Z</time>
      </trkpt>
      <trkpt lat="31.20197531471323" lon="121.61691575333829">
        <ele>7.924225330352783</ele>
        <time>2018-09-02T22:16:06Z</time>
      </trkpt>
      <trkpt lat="31.202218826153214" lon="121.61688158316365">
        <ele>7.964500427246094</ele>
        <time>2018-09-02T22:16:14Z</time>
      </trkpt>
      <trkpt lat="31.202218826153214" lon="121.61688158316365">
        <ele>7.964500427246094</ele>
        <time>2018-09-02T22:16:17Z</time>
      </trkpt>
      <trkpt lat="31.20217997841643" lon="121.61696099868078">
        <ele>8.002939224243164</ele>
        <time>2018-09-02T22:16:22Z</time>
      </trkpt>
      <trkpt lat="31.202226940644614" lon="121.61690218093028">
        <ele>8.038552284240723</ele>
        <time>2018-09-02T22:16:28Z</time>
      </trkpt>
      <trkpt lat="31.202245190531457" lon="121.61709867681158">
        <ele>8.071465492248535</ele>
        <time>2018-09-02T22:16:35Z</time>
      </trkpt>
      <trkpt lat="31.202122271670042" lon="121.61719761266039">
        <ele>8.101821899414062</ele>
        <time>2018-09-02T22:16:41Z</time>
      </trkpt>
      <trkpt lat="31.201935034322545" lon="121.61679053965314">
        <ele>8.1305570602417</ele>
        <time>2018-09-02T22:16:50Z</time>
      </trkpt>
      <trkpt lat="31.20200272094228" lon="121.61689298438836">
        <ele>8.157275199890137</ele>
        <time>2018-09-02T22:16:58Z</time>
      </trkpt>
      <trkpt lat="31.201984453860696" lon="121.6169992302401">
        <ele>8.181533813476562</ele>
        <time>2018-09-02T22:17:04Z</time>
      </trkpt>
      <trkpt lat="31.20190385908108" lon="121.61707024689977">
        <ele>8.203577995300293</ele>
        <time>2018-09-02T22:17:11Z</time>
      </trkpt>
      <trkpt lat="31.200874160112352" lon="121.61891977300941">
        <ele>8.172873497009277</ele>
        <time>2018-09-02T22:17:32Z</time>
      </trkpt>
      <trkpt lat="31.200460441522242" lon="121.61807884889255">
        <ele>8.199627876281738</ele>
        <time>2018-09-02T22:17:47Z</time>
      </trkpt>
      <trkpt lat="31.200249189419537" lon="121.61838945238149">
        <ele>8.197538375854492</ele>
        <time>2018-09-02T22:17:53Z</time>
      </trkpt>
      <trkpt lat="31.200192169579" lon="121.61873933605872">
        <ele>8.190425872802734</ele>
        <time>2018-09-02T22:18:01Z</time>
      </trkpt>
      <trkpt lat="31.20011330300832" lon="121.61870627909326">
        <ele>8.192550659179688</ele>
        <time>2018-09-02T22:18:07Z</time>
      </trkpt>
      <trkpt lat="31.20020627739623" lon="121.61899679501927">
        <ele>8.199769020080566</ele>
        <time>2018-09-02T22:18:14Z</time>
      </trkpt>
      <trkpt lat="31.20024999720467" lon="121.61919544043418">
        <ele>8.199771881103516</ele>
        <time>2018-09-02T22:18:20Z</time>
      </trkpt>
      <trkpt lat="31.200124740745764" lon="121.61892362915215">
        <ele>8.202303886413574</ele>
        <time>2018-09-02T22:18:26Z</time>
      </trkpt>
      <trkpt lat="31.200000906964778" lon="121.61885046657336">
        <ele>8.191298484802246</ele>
        <time>2018-09-02T22:18:32Z</time>
      </trkpt>
      <trkpt lat="31.199660907716556" lon="121.61911256084176">
        <ele>8.12948989868164</ele>
        <time>2018-09-02T22:18:38Z</time>
      </trkpt>
      <trkpt lat="31.199558061984607" lon="121.61919603969514">
        <ele>8.087679862976074</ele>
        <time>2018-09-02T22:18:45Z</time>
      </trkpt>
      <trkpt lat="31.199427416663962" lon="121.61941827541582">
        <ele>8.054320335388184</ele>
        <time>2018-09-02T22:18:53Z</time>
      </trkpt>
      <trkpt lat="31.199196336218467" lon="121.619749189276">
        <ele>7.9897332191467285</ele>
        <time>2018-09-02T22:18:59Z</time>
      </trkpt>
      <trkpt lat="31.199123150534454" lon="121.61998713339078">
        <ele>7.978132724761963</ele>
        <time>2018-09-02T22:19:06Z</time>
      </trkpt>
      <trkpt lat="31.198977443029605" lon="121.61983294665835">
        <ele>7.962358474731445</ele>
        <time>2018-09-02T22:19:12Z</time>
      </trkpt>
      <trkpt lat="31.199108782356912" lon="121.61972778740693">
        <ele>16.74563217163086</ele>
        <time>2018-09-02T22:19:18Z</time>
      </trkpt>
      <trkpt lat="31.19890251695178" lon="121.61992129884916">
        <ele>8.88985824584961</ele>
        <time>2018-09-02T22:19:30Z</time>
      </trkpt>
      <trkpt lat="31.198855449677797" lon="121.62007360401904">
        <ele>9.30587387084961</ele>
        <time>2018-09-02T22:19:37Z</time>
      </trkpt>
      <trkpt lat="31.198297522190426" lon="121.62051943791872">
        <ele>10.76821517944336</ele>
        <time>2018-09-02T22:20:08Z</time>
      </trkpt>
      <trkpt lat="31.198231899332296" lon="121.62052730215201">
        <ele>10.34859848022461</ele>
        <time>2018-09-02T22:20:12Z</time>
      </trkpt>
      <trkpt lat="31.197942660693958" lon="121.62072189846242">
        <ele>3.0509300231933594</ele>
        <time>2018-09-02T22:20:26Z</time>
      </trkpt>
      <trkpt lat="31.19770168295646" lon="121.62091621834314">
        <ele>2.549590004240031</ele>
        <time>2018-09-02T22:20:39Z</time>
      </trkpt>
      <trkpt lat="31.19747262557144" lon="121.621118123438">
        <ele>2.1929565106197657</ele>
        <time>2018-09-02T22:20:52Z</time>
      </trkpt>
      <trkpt lat="31.197299446383546" lon="121.62129644665612">
        <ele>1.9959546777393626</ele>
        <time>2018-09-02T22:21:02Z</time>
      </trkpt>
      <trkpt lat="31.19702997047479" lon="121.62151379822122">
        <ele>1.9179004992056718</ele>
        <time>2018-09-02T22:21:17Z</time>
      </trkpt>
      <trkpt lat="31.196783822334943" lon="121.62172057782134">
        <ele>1.4836673334004757</ele>
        <time>2018-09-02T22:21:32Z</time>
      </trkpt>
      <trkpt lat="31.196615845572154" lon="121.62185039125639">
        <ele>1.3509278955981756</ele>
        <time>2018-09-02T22:21:43Z</time>
      </trkpt>
      <trkpt lat="31.196530187096126" lon="121.62183278466665">
        <ele>0.9023143421702002</ele>
        <time>2018-09-02T22:21:47Z</time>
      </trkpt>
      <trkpt lat="31.19649719787774" lon="121.62175311922874">
        <ele>0.5663771730026639</ele>
        <time>2018-09-02T22:21:50Z</time>
      </trkpt>
      <trkpt lat="31.19649720561353" lon="121.62150246101952">
        <ele>-0.20567033834113602</ele>
        <time>2018-09-02T22:21:58Z</time>
      </trkpt>
      <trkpt lat="31.196407838411506" lon="121.62115967253575">
        <ele>-0.6606729046252013</ele>
        <time>2018-09-02T22:22:13Z</time>
      </trkpt>
      <trkpt lat="31.196396342790063" lon="121.6210106304102">
        <ele>-1.055168617622229</ele>
        <time>2018-09-02T22:22:20Z</time>
      </trkpt>
      <trkpt lat="31.19631159912357" lon="121.62064940768872">
        <ele>-0.9725836463652655</ele>
        <time>2018-09-02T22:22:33Z</time>
      </trkpt>
      <trkpt lat="31.196294705352308" lon="121.62047516070102">
        <ele>-1.0479262949172323</ele>
        <time>2018-09-02T22:22:40Z</time>
      </trkpt>
      <trkpt lat="31.196303299126985" lon="121.62029901346943">
        <ele>-1.0442039345799543</ele>
        <time>2018-09-02T22:22:47Z</time>
      </trkpt>
      <trkpt lat="31.196218830851457" lon="121.62018140811591">
        <ele>-0.9670996852386082</ele>
        <time>2018-09-02T22:22:55Z</time>
      </trkpt>
      <trkpt lat="31.196181768501226" lon="121.62010336398778">
        <ele>-1.130067984638842</ele>
        <time>2018-09-02T22:22:59Z</time>
      </trkpt>
      <trkpt lat="31.19622338624338" lon="121.61997653335152">
        <ele>-1.2409138881385928</ele>
        <time>2018-09-02T22:23:14Z</time>
      </trkpt>
      <trkpt lat="31.19622501189838" lon="121.61997761721277">
        <ele>-1.0601980332653937</ele>
        <time>2018-09-02T22:23:17Z</time>
      </trkpt>
      <trkpt lat="31.196260609058626" lon="121.61990308945462">
        <ele>-1.2455303256292467</ele>
        <time>2018-09-02T22:24:18Z</time>
      </trkpt>
      <trkpt lat="31.19626257977833" lon="121.61983398427249">
        <ele>-0.8308841346742355</ele>
        <time>2018-09-02T22:24:21Z</time>
      </trkpt>
      <trkpt lat="31.196338582003627" lon="121.61975321972768">
        <ele>-1.0861662367109517</ele>
        <time>2018-09-02T22:24:28Z</time>
      </trkpt>
      <trkpt lat="31.19632011233763" lon="121.61952503715838">
        <ele>-1.1284604513674878</ele>
        <time>2018-09-02T22:24:35Z</time>
      </trkpt>
      <trkpt lat="31.196295006808718" lon="121.61941934757613">
        <ele>-1.0240980381213376</ele>
        <time>2018-09-02T22:24:39Z</time>
      </trkpt>
      <trkpt lat="31.196132217469813" lon="121.61926299078735">
        <ele>-1.020650680764092</ele>
        <time>2018-09-02T22:24:47Z</time>
      </trkpt>
      <trkpt lat="31.195999873475465" lon="121.6190293930866">
        <ele>-0.9836746904735634</ele>
        <time>2018-09-02T22:24:58Z</time>
      </trkpt>
      <trkpt lat="31.19592572371135" lon="121.61862450861133">
        <ele>-0.896416204097477</ele>
        <time>2018-09-02T22:25:13Z</time>
      </trkpt>
      <trkpt lat="31.195901499415516" lon="121.61844808035183">
        <ele>-0.6360145603340044</ele>
        <time>2018-09-02T22:25:20Z</time>
      </trkpt>
      <trkpt lat="31.195824563234204" lon="121.61811067055888">
        <ele>-0.5061290851436411</ele>
        <time>2018-09-02T22:25:34Z</time>
      </trkpt>
      <trkpt lat="31.195739543750733" lon="121.61771742620458">
        <ele>-0.38349297337552457</ele>
        <time>2018-09-02T22:25:51Z</time>
      </trkpt>
      <trkpt lat="31.195700455738272" lon="121.61748516157976">
        <ele>-0.2029441136469643</ele>
        <time>2018-09-02T22:26:01Z</time>
      </trkpt>
      <trkpt lat="31.195704429042827" lon="121.61730167624007">
        <ele>-0.0019478077203274318</ele>
        <time>2018-09-02T22:26:08Z</time>
      </trkpt>
      <trkpt lat="31.195638031492663" lon="121.6169872877105">
        <ele>0.10679729581525521</ele>
        <time>2018-09-02T22:26:23Z</time>
      </trkpt>
      <trkpt lat="31.195641902894376" lon="121.61690787516417">
        <ele>0.23721006816946044</ele>
        <time>2018-09-02T22:26:30Z</time>
      </trkpt>
      <trkpt lat="31.19553545040866" lon="121.61651109002838">
        <ele>0.07575318005790163</ele>
        <time>2018-09-02T22:26:59Z</time>
      </trkpt>
      <trkpt lat="31.19553713950628" lon="121.61644441486779">
        <ele>0.2262953562268848</ele>
        <time>2018-09-02T22:27:03Z</time>
      </trkpt>
      <trkpt lat="31.195480493870722" lon="121.61612920144286">
        <ele>-0.029035612227431794</ele>
        <time>2018-09-02T22:27:23Z</time>
      </trkpt>
      <trkpt lat="31.195440604276772" lon="121.61586954652223">
        <ele>-0.1827313257461327</ele>
        <time>2018-09-02T22:27:40Z</time>
      </trkpt>
      <trkpt lat="31.195447988344007" lon="121.61579988765037">
        <ele>-0.16012723188865152</ele>
        <time>2018-09-02T22:27:46Z</time>
      </trkpt>
      <trkpt lat="31.19534387486678" lon="121.61549822217816">
        <ele>-0.08578744302431571</ele>
        <time>2018-09-02T22:28:08Z</time>
      </trkpt>
      <trkpt lat="31.195344658721265" lon="121.61522798615876">
        <ele>-0.4966271711657555</ele>
        <time>2018-09-02T22:28:27Z</time>
      </trkpt>
      <trkpt lat="31.195311138691824" lon="121.61511468950371">
        <ele>-0.13173904120662883</ele>
        <time>2018-09-02T22:28:34Z</time>
      </trkpt>
      <trkpt lat="31.195316671168435" lon="121.61499027590301">
        <ele>-0.3630679258438789</ele>
        <time>2018-09-02T22:28:40Z</time>
      </trkpt>
      <trkpt lat="31.195229710840948" lon="121.61459562623396">
        <ele>0.22024877853036173</ele>
        <time>2018-09-02T22:28:54Z</time>
      </trkpt>
      <trkpt lat="31.195207467711228" lon="121.6142923124972">
        <ele>1.1952291230245748</ele>
        <time>2018-09-02T22:29:05Z</time>
      </trkpt>
      <trkpt lat="31.195184842756735" lon="121.61411585285666">
        <ele>1.2860699991886264</ele>
        <time>2018-09-02T22:29:12Z</time>
      </trkpt>
      <trkpt lat="31.19512210033528" lon="121.61392584195329">
        <ele>1.0884499014076425</ele>
        <time>2018-09-02T22:29:19Z</time>
      </trkpt>
      <trkpt lat="31.19511731544985" lon="121.61381199460266">
        <ele>1.2002171162968267</ele>
        <time>2018-09-02T22:29:23Z</time>
      </trkpt>
      <trkpt lat="31.19505358818507" lon="121.61349891573812">
        <ele>1.611941075071087</ele>
        <time>2018-09-02T22:29:36Z</time>
      </trkpt>
      <trkpt lat="31.194973644972556" lon="121.6131172522455">
        <ele>1.7999246247033227</ele>
        <time>2018-09-02T22:29:51Z</time>
      </trkpt>
      <trkpt lat="31.194922002134213" lon="121.61293943082266">
        <ele>1.7400940665857831</ele>
        <time>2018-09-02T22:29:58Z</time>
      </trkpt>
      <trkpt lat="31.194919637196673" lon="121.6128456382641">
        <ele>1.9666472554851566</ele>
        <time>2018-09-02T22:30:02Z</time>
      </trkpt>
      <trkpt lat="31.194853747704716" lon="121.61250950473062">
        <ele>2.47175337051317</ele>
        <time>2018-09-02T22:30:19Z</time>
      </trkpt>
      <trkpt lat="31.19482276484203" lon="121.61225739986874">
        <ele>2.8682528991305816</ele>
        <time>2018-09-02T22:30:30Z</time>
      </trkpt>
      <trkpt lat="31.19483582811468" lon="121.61219450704799">
        <ele>3.5238318868838974</ele>
        <time>2018-09-02T22:30:38Z</time>
      </trkpt>
      <trkpt lat="31.194881953745774" lon="121.61215194277956">
        <ele>3.701457327993225</ele>
        <time>2018-09-02T22:30:48Z</time>
      </trkpt>
      <trkpt lat="31.19510759230261" lon="121.6120798151535">
        <ele>3.1535039269555654</ele>
        <time>2018-09-02T22:31:06Z</time>
      </trkpt>
      <trkpt lat="31.195202746460666" lon="121.61209742792421">
        <ele>3.172103388867143</ele>
        <time>2018-09-02T22:31:12Z</time>
      </trkpt>
      <trkpt lat="31.19524995125738" lon="121.61206164056455">
        <ele>3.468646391380048</ele>
        <time>2018-09-02T22:31:16Z</time>
      </trkpt>
      <trkpt lat="31.195414543980043" lon="121.61204237977472">
        <ele>3.920394157543271</ele>
        <time>2018-09-02T22:31:27Z</time>
      </trkpt>
      <trkpt lat="31.195667563471247" lon="121.61197458695317">
        <ele>4.809806743862154</ele>
        <time>2018-09-02T22:31:46Z</time>
      </trkpt>
      <trkpt lat="31.19595959677585" lon="121.61194501420144">
        <ele>5.841609975651494</ele>
        <time>2018-09-02T22:32:09Z</time>
      </trkpt>
      <trkpt lat="31.196131540805712" lon="121.61188563155845">
        <ele>6.417760368557651</ele>
        <time>2018-09-02T22:32:23Z</time>
      </trkpt>
      <trkpt lat="31.196358729084213" lon="121.61191380602726">
        <ele>6.205960518954967</ele>
        <time>2018-09-02T22:32:41Z</time>
      </trkpt>
      <trkpt lat="31.196462035926135" lon="121.61190729135778">
        <ele>6.235640928420665</ele>
        <time>2018-09-02T22:32:45Z</time>
      </trkpt>
      <trkpt lat="31.19672374622811" lon="121.611820250051">
        <ele>6.503893644851189</ele>
        <time>2018-09-02T22:32:56Z</time>
      </trkpt>
      <trkpt lat="31.196876711554044" lon="121.61175978429371">
        <ele>6.1972993118867805</ele>
        <time>2018-09-02T22:33:07Z</time>
      </trkpt>
      <trkpt lat="31.196979448115567" lon="121.61179013792403">
        <ele>5.989878366363314</ele>
        <time>2018-09-02T22:33:13Z</time>
      </trkpt>
      <trkpt lat="31.197270394517798" lon="121.61176381811194">
        <ele>5.085066396505539</ele>
        <time>2018-09-02T22:33:32Z</time>
      </trkpt>
      <trkpt lat="31.197433351846293" lon="121.61175594301668">
        <ele>4.51774498102067</ele>
        <time>2018-09-02T22:33:43Z</time>
      </trkpt>
      <trkpt lat="31.197537734216912" lon="121.61176135620016">
        <ele>4.42615879370787</ele>
        <time>2018-09-02T22:33:51Z</time>
      </trkpt>
      <trkpt lat="31.197689593814044" lon="121.6117288127612">
        <ele>4.1472040746787115</ele>
        <time>2018-09-02T22:34:02Z</time>
      </trkpt>
      <trkpt lat="31.197978356874167" lon="121.61172146943719">
        <ele>4.2471180991323365</ele>
        <time>2018-09-02T22:34:24Z</time>
      </trkpt>
      <trkpt lat="31.19828010625849" lon="121.61175126448605">
        <ele>3.5144912143209126</ele>
        <time>2018-09-02T22:34:42Z</time>
      </trkpt>
      <trkpt lat="31.198583798898902" lon="121.61172141939265">
        <ele>3.3315243506687438</ele>
        <time>2018-09-02T22:34:53Z</time>
      </trkpt>
      <trkpt lat="31.198663798624562" lon="121.61170135203731">
        <ele>3.224809573064391</ele>
        <time>2018-09-02T22:34:56Z</time>
      </trkpt>
      <trkpt lat="31.198941166475947" lon="121.61170431111368">
        <ele>3.0008039544495233</ele>
        <time>2018-09-02T22:35:07Z</time>
      </trkpt>
      <trkpt lat="31.199248359143454" lon="121.6117072677241">
        <ele>2.9352142246570025</ele>
        <time>2018-09-02T22:35:21Z</time>
      </trkpt>
      <trkpt lat="31.199425977451376" lon="121.61167363771322">
        <ele>2.854122682665846</ele>
        <time>2018-09-02T22:35:28Z</time>
      </trkpt>
      <trkpt lat="31.19959189146783" lon="121.61170019095601">
        <ele>3.231024577349487</ele>
        <time>2018-09-02T22:35:35Z</time>
      </trkpt>
      <trkpt lat="31.19965914978062" lon="121.61167768481194">
        <ele>3.2599449694248506</ele>
        <time>2018-09-02T22:35:38Z</time>
      </trkpt>
      <trkpt lat="31.19992566531022" lon="121.61169013298733">
        <ele>3.5856127466348653</ele>
        <time>2018-09-02T22:35:50Z</time>
      </trkpt>
      <trkpt lat="31.200139378114013" lon="121.61161204087635">
        <ele>3.346790296828246</ele>
        <time>2018-09-02T22:36:01Z</time>
      </trkpt>
      <trkpt lat="31.200219161338566" lon="121.61151932053382">
        <ele>3.3019264276166638</ele>
        <time>2018-09-02T22:36:07Z</time>
      </trkpt>
      <trkpt lat="31.20035938613365" lon="121.61145478862863">
        <ele>3.638476915539357</ele>
        <time>2018-09-02T22:36:22Z</time>
      </trkpt>
      <trkpt lat="31.200391156018306" lon="121.61139162098175">
        <ele>3.5185019850709125</ele>
        <time>2018-09-02T22:36:26Z</time>
      </trkpt>
      <trkpt lat="31.20040369594224" lon="121.61130053188376">
        <ele>3.662621036556743</ele>
        <time>2018-09-02T22:36:33Z</time>
      </trkpt>
      <trkpt lat="31.200366791454236" lon="121.61097304867278">
        <ele>3.71113359669188</ele>
        <time>2018-09-02T22:36:58Z</time>
      </trkpt>
      <trkpt lat="31.20038638354025" lon="121.61087626420522">
        <ele>3.713719946776834</ele>
        <time>2018-09-02T22:37:04Z</time>
      </trkpt>
      <trkpt lat="31.200366500937346" lon="121.61062468274127">
        <ele>3.655628311690762</ele>
        <time>2018-09-02T22:37:20Z</time>
      </trkpt>
      <trkpt lat="31.20031023208888" lon="121.61044630027041">
        <ele>3.710771743844745</ele>
        <time>2018-09-02T22:37:32Z</time>
      </trkpt>
      <trkpt lat="31.200303343631784" lon="121.61021775723512">
        <ele>3.229230197361076</ele>
        <time>2018-09-02T22:37:47Z</time>
      </trkpt>
      <trkpt lat="31.200264266440207" lon="121.60987561851297">
        <ele>3.208120752196237</ele>
        <time>2018-09-02T22:38:08Z</time>
      </trkpt>
      <trkpt lat="31.200217309191647" lon="121.6095521823224">
        <ele>3.2659629816696736</ele>
        <time>2018-09-02T22:38:29Z</time>
      </trkpt>
      <trkpt lat="31.200225290485715" lon="121.60937568390345">
        <ele>3.225896544731242</ele>
        <time>2018-09-02T22:38:40Z</time>
      </trkpt>
      <trkpt lat="31.200223110136506" lon="121.60898174474885">
        <ele>3.420237663565757</ele>
        <time>2018-09-02T22:39:06Z</time>
      </trkpt>
      <trkpt lat="31.200220902273326" lon="121.60862141856377">
        <ele>3.052358392137563</ele>
        <time>2018-09-02T22:39:31Z</time>
      </trkpt>
      <trkpt lat="31.20023975100829" lon="121.60839963309277">
        <ele>3.023141488940695</ele>
        <time>2018-09-02T22:39:46Z</time>
      </trkpt>
      <trkpt lat="31.200278813095657" lon="121.60836980545324">
        <ele>3.006422922810458</ele>
        <time>2018-09-02T22:39:49Z</time>
      </trkpt>
      <trkpt lat="31.200398118173556" lon="121.60836030600001">
        <ele>3.0096313258208056</ele>
        <time>2018-09-02T22:39:56Z</time>
      </trkpt>
      <trkpt lat="31.2005108800975" lon="121.60840801574072">
        <ele>2.9428191346291754</ele>
        <time>2018-09-02T22:40:04Z</time>
      </trkpt>
      <trkpt lat="31.200741360050365" lon="121.60838305265264">
        <ele>2.891036728242156</ele>
        <time>2018-09-02T22:40:20Z</time>
      </trkpt>
      <trkpt lat="31.200878532777335" lon="121.60841693266961">
        <ele>3.0652017570108683</ele>
        <time>2018-09-02T22:40:31Z</time>
      </trkpt>
      <trkpt lat="31.20092730775139" lon="121.60846329192607">
        <ele>2.9588784123489518</ele>
        <time>2018-09-02T22:40:37Z</time>
      </trkpt>
      <trkpt lat="31.201044950466873" lon="121.60851018765331">
        <ele>2.822064377726079</ele>
        <time>2018-09-02T22:40:47Z</time>
      </trkpt>
      <trkpt lat="31.20113763407938" lon="121.60858013128943">
        <ele>2.8181567188237295</ele>
        <time>2018-09-02T22:40:54Z</time>
      </trkpt>
      <trkpt lat="31.20129673698609" lon="121.60866335447334">
        <ele>2.8895438701347302</ele>
        <time>2018-09-02T22:41:05Z</time>
      </trkpt>
      <trkpt lat="31.201462865067707" lon="121.60878399220462">
        <ele>2.757147487481731</ele>
        <time>2018-09-02T22:41:20Z</time>
      </trkpt>
      <trkpt lat="31.201615686573827" lon="121.608936080823">
        <ele>2.8030548324572493</ele>
        <time>2018-09-02T22:41:35Z</time>
      </trkpt>
      <trkpt lat="31.20192194093513" lon="121.60913153527399">
        <ele>3.0344132288198296</ele>
        <time>2018-09-02T22:42:01Z</time>
      </trkpt>
      <trkpt lat="31.202035975189332" lon="121.60930314536975">
        <ele>3.0986915379130267</ele>
        <time>2018-09-02T22:42:14Z</time>
      </trkpt>
      <trkpt lat="31.202054613365373" lon="121.60940833808333">
        <ele>3.0473052217816416</ele>
        <time>2018-09-02T22:42:28Z</time>
      </trkpt>
      <trkpt lat="31.20205407435851" lon="121.60940345799298">
        <ele>2.8594980259454843</ele>
        <time>2018-09-02T22:42:39Z</time>
      </trkpt>
      <trkpt lat="31.20230205909606" lon="121.6095577034695">
        <ele>4.046743309506908</ele>
        <time>2018-09-02T22:43:26Z</time>
      </trkpt>
      <trkpt lat="31.202370089954606" lon="121.6095932141156">
        <ele>4.129169098191994</ele>
        <time>2018-09-02T22:43:30Z</time>
      </trkpt>
      <trkpt lat="31.202432730526528" lon="121.60958073758282">
        <ele>4.087119243665029</ele>
        <time>2018-09-02T22:43:34Z</time>
      </trkpt>
      <trkpt lat="31.202494250086644" lon="121.60962221328327">
        <ele>4.028110952951707</ele>
        <time>2018-09-02T22:43:41Z</time>
      </trkpt>
      <trkpt lat="31.20268985018051" lon="121.60985589788946">
        <ele>3.9028136722049425</ele>
        <time>2018-09-02T22:44:05Z</time>
      </trkpt>
      <trkpt lat="31.202792275950426" lon="121.60994779660415">
        <ele>3.562573292972246</ele>
        <time>2018-09-02T22:44:15Z</time>
      </trkpt>
      <trkpt lat="31.203013072191105" lon="121.61020506224841">
        <ele>3.2381908387322795</ele>
        <time>2018-09-02T22:44:36Z</time>
      </trkpt>
      <trkpt lat="31.20318755691943" lon="121.61038452126559">
        <ele>3.4821265357459055</ele>
        <time>2018-09-02T22:44:56Z</time>
      </trkpt>
      <trkpt lat="31.203244150360106" lon="121.6104886213761">
        <ele>3.453617518397124</ele>
        <time>2018-09-02T22:45:03Z</time>
      </trkpt>
      <trkpt lat="31.20344544474973" lon="121.61071091023993">
        <ele>3.0506407762215275</ele>
        <time>2018-09-02T22:45:22Z</time>
      </trkpt>
      <trkpt lat="31.203512350216286" lon="121.61080091070993">
        <ele>3.022374685704733</ele>
        <time>2018-09-02T22:45:29Z</time>
      </trkpt>
      <trkpt lat="31.203551059884106" lon="121.61088738884446">
        <ele>3.016160701743388</ele>
        <time>2018-09-02T22:45:36Z</time>
      </trkpt>
      <trkpt lat="31.20368358438548" lon="121.61097060569753">
        <ele>3.004766720964156</ele>
        <time>2018-09-02T22:46:03Z</time>
      </trkpt>
      <trkpt lat="31.203890543134722" lon="121.61122731871292">
        <ele>3.805042000372225</ele>
        <time>2018-09-02T22:46:27Z</time>
      </trkpt>
      <trkpt lat="31.20397833310397" lon="121.61130538720488">
        <ele>4.185738599820084</ele>
        <time>2018-09-02T22:46:38Z</time>
      </trkpt>
      <trkpt lat="31.204048005389275" lon="121.61131812294829">
        <ele>4.386354433774045</ele>
        <time>2018-09-02T22:46:44Z</time>
      </trkpt>
      <trkpt lat="31.204103835264007" lon="121.61135037870311">
        <ele>4.2316984856972795</ele>
        <time>2018-09-02T22:47:01Z</time>
      </trkpt>
      <trkpt lat="31.20418174293877" lon="121.6112264813487">
        <ele>4.620971323511384</ele>
        <time>2018-09-02T22:47:19Z</time>
      </trkpt>
      <trkpt lat="31.20418174293877" lon="121.6112264813487">
        <ele>4.620971323511384</ele>
        <time>2018-09-02T22:47:25Z</time>
      </trkpt>
    </trkseg>
  </trk>
</gpx>