<?xml version="1.0" encoding="UTF-8"?>
<gpx xmlns="http://www.topografix.com/GPX/1/1" xmlns:gpxtpx="http://www.garmin.com/xmlschemas/TrackPointExtension/v1" xmlns:xsi="http://www.w3.org/2001/XMLSchema-instance" xsi:schemaLocation="http://www.topografix.com/GPX/1/1 http://www.topografix.com/GPX/1/1/gpx.xsd" version="1.1" creator="gpx.py -- https://github.com/tkrajina/gpxpy">
  <trk>
    <name>gpx from keep</name>
    <type>Run</type>
    <trkseg>
      <trkpt lat="31.204194152505035" lon="121.6113110623757">
        <ele>6.420314788818359</ele>
        <time>2019-03-11T23:15:23Z</time>
      </trkpt>
      <trkpt lat="31.204217871041518" lon="121.61150055561255">
        <ele>7.249538421630859</ele>
        <time>2019-03-11T23:15:30Z</time>
      </trkpt>
      <trkpt lat="31.204284706300456" lon="121.6116800133394">
        <ele>6.596889495849609</ele>
        <time>2019-03-11T23:15:37Z</time>
      </trkpt>
      <trkpt lat="31.204549110179972" lon="121.61197412384583">
        <ele>3.1329002380371094</ele>
        <time>2019-03-11T23:15:48Z</time>
      </trkpt>
      <trkpt lat="31.20477067291869" lon="121.61226633655595">
        <ele>7.139804095832311</ele>
        <time>2019-03-11T23:16:00Z</time>
      </trkpt>
      <trkpt lat="31.20494408621652" lon="121.61241135201816">
        <ele>6.9898711171775965</ele>
        <time>2019-03-11T23:16:07Z</time>
      </trkpt>
      <trkpt lat="31.205054655160623" lon="121.61248046891046">
        <ele>7.472876936548996</ele>
        <time>2019-03-11T23:16:11Z</time>
      </trkpt>
      <trkpt lat="31.205166778248127" lon="121.61264121076039">
        <ele>7.998285684121512</ele>
        <time>2019-03-11T23:16:17Z</time>
      </trkpt>
      <trkpt lat="31.20510213585681" lon="121.61278217738914">
        <ele>7.599728835504781</ele>
        <time>2019-03-11T23:16:24Z</time>
      </trkpt>
      <trkpt lat="31.204932586391624" lon="121.61289441766783">
        <ele>7.794139129378493</ele>
        <time>2019-03-11T23:16:34Z</time>
      </trkpt>
      <trkpt lat="31.204834067819544" lon="121.6130142416601">
        <ele>7.65162836886925</ele>
        <time>2019-03-11T23:16:40Z</time>
      </trkpt>
      <trkpt lat="31.20467078121335" lon="121.61309232488527">
        <ele>7.5377910552650285</ele>
        <time>2019-03-11T23:16:47Z</time>
      </trkpt>
      <trkpt lat="31.204595321517164" lon="121.6131958815371">
        <ele>7.386767961186443</ele>
        <time>2019-03-11T23:16:50Z</time>
      </trkpt>
      <trkpt lat="31.204451911025266" lon="121.61350220476747">
        <ele>7.6396888052024075</ele>
        <time>2019-03-11T23:16:57Z</time>
      </trkpt>
      <trkpt lat="31.204276263906543" lon="121.613770306239">
        <ele>7.610152075483949</ele>
        <time>2019-03-11T23:17:05Z</time>
      </trkpt>
      <trkpt lat="31.20411291486421" lon="121.6139202194125">
        <ele>7.424922415323653</ele>
        <time>2019-03-11T23:17:12Z</time>
      </trkpt>
      <trkpt lat="31.20403147901572" lon="121.61403326016718">
        <ele>7.435603341037243</ele>
        <time>2019-03-11T23:17:16Z</time>
      </trkpt>
      <trkpt lat="31.20382441458568" lon="121.61425500672934">
        <ele>7.421979675826606</ele>
        <time>2019-03-11T23:17:26Z</time>
      </trkpt>
      <trkpt lat="31.203572580702257" lon="121.6145119925819">
        <ele>7.3969129131927005</ele>
        <time>2019-03-11T23:17:36Z</time>
      </trkpt>
      <trkpt lat="31.203487101929465" lon="121.61459440135114">
        <ele>7.323955907956961</ele>
        <time>2019-03-11T23:17:40Z</time>
      </trkpt>
      <trkpt lat="31.203436312886243" lon="121.6146944256542">
        <ele>7.862656474625979</ele>
        <time>2019-03-11T23:17:44Z</time>
      </trkpt>
      <trkpt lat="31.203437596314203" lon="121.61477736873059">
        <ele>7.70452040440486</ele>
        <time>2019-03-11T23:17:47Z</time>
      </trkpt>
      <trkpt lat="31.20331900002624" lon="121.61490341909892">
        <ele>7.68886661329358</ele>
        <time>2019-03-11T23:17:54Z</time>
      </trkpt>
      <trkpt lat="31.20327744658448" lon="121.61498284130086">
        <ele>7.895215511696666</ele>
        <time>2019-03-11T23:17:58Z</time>
      </trkpt>
      <trkpt lat="31.20328824422024" lon="121.6150370510183">
        <ele>7.780648904307473</ele>
        <time>2019-03-11T23:18:02Z</time>
      </trkpt>
      <trkpt lat="31.203330561360143" lon="121.61501427907716">
        <ele>7.449505625656755</ele>
        <time>2019-03-11T23:18:20Z</time>
      </trkpt>
      <trkpt lat="31.203391440728016" lon="121.61515684749874">
        <ele>7.7414824997968275</ele>
        <time>2019-03-11T23:18:28Z</time>
      </trkpt>
      <trkpt lat="31.203450761078848" lon="121.61522243694078">
        <ele>7.798074922958097</ele>
        <time>2019-03-11T23:18:31Z</time>
      </trkpt>
      <trkpt lat="31.20348864903856" lon="121.61530212256811">
        <ele>7.719461508198631</ele>
        <time>2019-03-11T23:18:35Z</time>
      </trkpt>
      <trkpt lat="31.203235999527074" lon="121.61555069481199">
        <ele>7.876628408558446</ele>
        <time>2019-03-11T23:18:46Z</time>
      </trkpt>
      <trkpt lat="31.20301156114445" lon="121.6157824574232">
        <ele>8.179552755819927</ele>
        <time>2019-03-11T23:18:57Z</time>
      </trkpt>
      <trkpt lat="31.20279932740014" lon="121.61600825389164">
        <ele>8.118449659702854</ele>
        <time>2019-03-11T23:19:08Z</time>
      </trkpt>
      <trkpt lat="31.20265385917204" lon="121.6161603199302">
        <ele>8.541719386005706</ele>
        <time>2019-03-11T23:19:15Z</time>
      </trkpt>
      <trkpt lat="31.20258598597815" lon="121.61625708669109">
        <ele>8.881445015154874</ele>
        <time>2019-03-11T23:19:19Z</time>
      </trkpt>
      <trkpt lat="31.202334959694983" lon="121.61650049934573">
        <ele>8.856778234752397</ele>
        <time>2019-03-11T23:19:30Z</time>
      </trkpt>
      <trkpt lat="31.202105881738778" lon="121.61675610428195">
        <ele>8.283458876251117</ele>
        <time>2019-03-11T23:19:41Z</time>
      </trkpt>
      <trkpt lat="31.201959038130422" lon="121.61692469873289">
        <ele>8.227085720850976</ele>
        <time>2019-03-11T23:19:48Z</time>
      </trkpt>
      <trkpt lat="31.201830438747475" lon="121.61701035524402">
        <ele>8.350964666591125</ele>
        <time>2019-03-11T23:19:55Z</time>
      </trkpt>
      <trkpt lat="31.201808427691375" lon="121.61706185285847">
        <ele>8.259142261669474</ele>
        <time>2019-03-11T23:19:59Z</time>
      </trkpt>
      <trkpt lat="31.201632303386305" lon="121.61722665324615">
        <ele>8.112297919725837</ele>
        <time>2019-03-11T23:20:06Z</time>
      </trkpt>
      <trkpt lat="31.201405371718593" lon="121.61749905406907">
        <ele>8.217942206599979</ele>
        <time>2019-03-11T23:20:17Z</time>
      </trkpt>
      <trkpt lat="31.201196654189268" lon="121.61771968505684">
        <ele>8.07699308272256</ele>
        <time>2019-03-11T23:20:27Z</time>
      </trkpt>
      <trkpt lat="31.200924430897558" lon="121.61799967279623">
        <ele>8.147905778132195</ele>
        <time>2019-03-11T23:20:42Z</time>
      </trkpt>
      <trkpt lat="31.20073628741947" lon="121.61824875449791">
        <ele>7.101788864587082</ele>
        <time>2019-03-11T23:20:53Z</time>
      </trkpt>
      <trkpt lat="31.200531077229222" lon="121.61848103223228">
        <ele>6.671712603176005</ele>
        <time>2019-03-11T23:21:04Z</time>
      </trkpt>
      <trkpt lat="31.20035675802673" lon="121.61872956600712">
        <ele>6.260214159181395</ele>
        <time>2019-03-11T23:21:15Z</time>
      </trkpt>
      <trkpt lat="31.20010891215042" lon="121.6190241749978">
        <ele>6.969102785973558</ele>
        <time>2019-03-11T23:21:29Z</time>
      </trkpt>
      <trkpt lat="31.19985129323733" lon="121.61932772457901">
        <ele>6.956684590061723</ele>
        <time>2019-03-11T23:21:43Z</time>
      </trkpt>
      <trkpt lat="31.199597506148557" lon="121.61959387185969">
        <ele>7.404501196200162</ele>
        <time>2019-03-11T23:21:57Z</time>
      </trkpt>
      <trkpt lat="31.199383622449034" lon="121.61981340101256">
        <ele>7.9219051124876785</ele>
        <time>2019-03-11T23:22:08Z</time>
      </trkpt>
      <trkpt lat="31.199284564895486" lon="121.61990229726598">
        <ele>7.99776927773031</ele>
        <time>2019-03-11T23:22:15Z</time>
      </trkpt>
      <trkpt lat="31.199205652861373" lon="121.61991368578042">
        <ele>7.932492919944121</ele>
        <time>2019-03-11T23:22:22Z</time>
      </trkpt>
      <trkpt lat="31.199161125637062" lon="121.61997168331145">
        <ele>7.926465192566258</ele>
        <time>2019-03-11T23:22:26Z</time>
      </trkpt>
      <trkpt lat="31.199128488580627" lon="121.62006707747675">
        <ele>7.818627454297118</ele>
        <time>2019-03-11T23:22:29Z</time>
      </trkpt>
      <trkpt lat="31.198945025666397" lon="121.6202329428894">
        <ele>7.927324551244805</ele>
        <time>2019-03-11T23:22:36Z</time>
      </trkpt>
      <trkpt lat="31.19871032013053" lon="121.6203963725313">
        <ele>7.616111062975435</ele>
        <time>2019-03-11T23:22:46Z</time>
      </trkpt>
      <trkpt lat="31.19845849200529" lon="121.62059719954895">
        <ele>7.587766583075716</ele>
        <time>2019-03-11T23:22:56Z</time>
      </trkpt>
      <trkpt lat="31.198253015001384" lon="121.62080858980887">
        <ele>7.439040560442159</ele>
        <time>2019-03-11T23:23:06Z</time>
      </trkpt>
      <trkpt lat="31.19799409177143" lon="121.62104870750626">
        <ele>7.075465811279269</ele>
        <time>2019-03-11T23:23:19Z</time>
      </trkpt>
      <trkpt lat="31.197748207637417" lon="121.6212647042291">
        <ele>7.573055970784342</ele>
        <time>2019-03-11T23:23:32Z</time>
      </trkpt>
      <trkpt lat="31.197455372311143" lon="121.62151999562633">
        <ele>8.172142598312181</ele>
        <time>2019-03-11T23:23:46Z</time>
      </trkpt>
      <trkpt lat="31.19721491754824" lon="121.62172704568682">
        <ele>8.553103871844396</ele>
        <time>2019-03-11T23:23:58Z</time>
      </trkpt>
      <trkpt lat="31.196956534636456" lon="121.62196254837126">
        <ele>9.241499324901724</ele>
        <time>2019-03-11T23:24:11Z</time>
      </trkpt>
      <trkpt lat="31.19669517637031" lon="121.62219019091964">
        <ele>10.649683431527663</ele>
        <time>2019-03-11T23:24:26Z</time>
      </trkpt>
      <trkpt lat="31.196630572030443" lon="121.62225604338569">
        <ele>11.130462297075582</ele>
        <time>2019-03-11T23:24:30Z</time>
      </trkpt>
      <trkpt lat="31.19660987795216" lon="121.62233354397023">
        <ele>11.696769966957298</ele>
        <time>2019-03-11T23:24:33Z</time>
      </trkpt>
      <trkpt lat="31.19668271542092" lon="121.62265653782954">
        <ele>11.708048266339787</ele>
        <time>2019-03-11T23:24:44Z</time>
      </trkpt>
      <trkpt lat="31.1967568534021" lon="121.62302423743813">
        <ele>9.988145763586527</ele>
        <time>2019-03-11T23:24:57Z</time>
      </trkpt>
      <trkpt lat="31.196765985603616" lon="121.6233315123933">
        <ele>9.181177162609092</ele>
        <time>2019-03-11T23:25:09Z</time>
      </trkpt>
      <trkpt lat="31.19679845510024" lon="121.6233884122358">
        <ele>8.972918884294927</ele>
        <time>2019-03-11T23:25:13Z</time>
      </trkpt>
      <trkpt lat="31.19685138566874" lon="121.6237986445087">
        <ele>8.539880582113653</ele>
        <time>2019-03-11T23:25:39Z</time>
      </trkpt>
      <trkpt lat="31.196887710800926" lon="121.62403275003959">
        <ele>8.067019195260851</ele>
        <time>2019-03-11T23:25:52Z</time>
      </trkpt>
      <trkpt lat="31.19692954242527" lon="121.62396798758441">
        <ele>8.138100562592236</ele>
        <time>2019-03-11T23:25:59Z</time>
      </trkpt>
      <trkpt lat="31.196905517569824" lon="121.62364934060629">
        <ele>8.73152065995395</ele>
        <time>2019-03-11T23:26:16Z</time>
      </trkpt>
      <trkpt lat="31.196901623621603" lon="121.62350220840152">
        <ele>8.819705428172789</ele>
        <time>2019-03-11T23:26:24Z</time>
      </trkpt>
      <trkpt lat="31.19682230670769" lon="121.62316296716158">
        <ele>8.643661325329937</ele>
        <time>2019-03-11T23:26:45Z</time>
      </trkpt>
      <trkpt lat="31.196805369673704" lon="121.62303859471004">
        <ele>8.367556822291519</ele>
        <time>2019-03-11T23:26:52Z</time>
      </trkpt>
      <trkpt lat="31.196805369673704" lon="121.62303859471004">
        <ele>8.367556822291519</ele>
        <time>2019-03-11T23:27:05Z</time>
      </trkpt>
      <trkpt lat="31.196813605609787" lon="121.62295052940937">
        <ele>8.589278941321666</ele>
        <time>2019-03-11T23:27:33Z</time>
      </trkpt>
      <trkpt lat="31.196813979045263" lon="121.62286192253528">
        <ele>8.31326050088235</ele>
        <time>2019-03-11T23:27:39Z</time>
      </trkpt>
      <trkpt lat="31.196865595539858" lon="121.6227741240413">
        <ele>8.289669137440402</ele>
        <time>2019-03-11T23:27:46Z</time>
      </trkpt>
      <trkpt lat="31.197018116376256" lon="121.62264892286844">
        <ele>7.588145797315455</ele>
        <time>2019-03-11T23:27:59Z</time>
      </trkpt>
      <trkpt lat="31.19720106677457" lon="121.62246844009603">
        <ele>6.740216731120928</ele>
        <time>2019-03-11T23:28:14Z</time>
      </trkpt>
      <trkpt lat="31.197480063505026" lon="121.62222968844742">
        <ele>5.428561518507699</ele>
        <time>2019-03-11T23:28:37Z</time>
      </trkpt>
      <trkpt lat="31.197735413979853" lon="121.62204052558724">
        <ele>5.264076572377956</ele>
        <time>2019-03-11T23:28:56Z</time>
      </trkpt>
      <trkpt lat="31.19787900972699" lon="121.62189283047957">
        <ele>5.879580191145944</ele>
        <time>2019-03-11T23:29:06Z</time>
      </trkpt>
      <trkpt lat="31.198163076007997" lon="121.6217237154499">
        <ele>4.991266709942355</ele>
        <time>2019-03-11T23:29:21Z</time>
      </trkpt>
      <trkpt lat="31.198434492150692" lon="121.62146978270749">
        <ele>4.289269658693502</ele>
        <time>2019-03-11T23:29:36Z</time>
      </trkpt>
      <trkpt lat="31.198504039016044" lon="121.62134620820862">
        <ele>5.297425679998884</ele>
        <time>2019-03-11T23:29:42Z</time>
      </trkpt>
      <trkpt lat="31.19879442489755" lon="121.62109823199467">
        <ele>4.827309034109671</ele>
        <time>2019-03-11T23:29:56Z</time>
      </trkpt>
      <trkpt lat="31.19887311513186" lon="121.62104213105864">
        <ele>4.741552454496734</ele>
        <time>2019-03-11T23:30:00Z</time>
      </trkpt>
      <trkpt lat="31.199066399339454" lon="121.62082478191265">
        <ele>4.37242522969979</ele>
        <time>2019-03-11T23:30:11Z</time>
      </trkpt>
      <trkpt lat="31.19913123567573" lon="121.62079225771646">
        <ele>4.245628064730656</ele>
        <time>2019-03-11T23:30:15Z</time>
      </trkpt>
      <trkpt lat="31.199208778267256" lon="121.6207938772423">
        <ele>4.427551130546554</ele>
        <time>2019-03-11T23:30:19Z</time>
      </trkpt>
      <trkpt lat="31.199379128603812" lon="121.62072177959774">
        <ele>4.891795462648702</ele>
        <time>2019-03-11T23:30:26Z</time>
      </trkpt>
      <trkpt lat="31.199721028234794" lon="121.62072229328767">
        <ele>5.430446212507327</ele>
        <time>2019-03-11T23:30:40Z</time>
      </trkpt>
      <trkpt lat="31.199889942232865" lon="121.62072471823004">
        <ele>5.562179111643218</ele>
        <time>2019-03-11T23:30:47Z</time>
      </trkpt>
      <trkpt lat="31.20018459651784" lon="121.62078810569244">
        <ele>5.7161470837004735</ele>
        <time>2019-03-11T23:30:59Z</time>
      </trkpt>
      <trkpt lat="31.200510185375343" lon="121.6208281853067">
        <ele>6.0923695111114355</ele>
        <time>2019-03-11T23:31:12Z</time>
      </trkpt>
      <trkpt lat="31.20086043601209" lon="121.62087883141155">
        <ele>6.564845504019601</ele>
        <time>2019-03-11T23:31:26Z</time>
      </trkpt>
      <trkpt lat="31.2009927425743" lon="121.62088532421008">
        <ele>6.750727926153594</ele>
        <time>2019-03-11T23:31:32Z</time>
      </trkpt>
      <trkpt lat="31.20129524137088" lon="121.6209655119321">
        <ele>6.469647448781284</ele>
        <time>2019-03-11T23:31:45Z</time>
      </trkpt>
      <trkpt lat="31.201655794525823" lon="121.62101669889319">
        <ele>6.563932937376368</ele>
        <time>2019-03-11T23:32:11Z</time>
      </trkpt>
      <trkpt lat="31.20195372209688" lon="121.62106192920947">
        <ele>6.54219166524204</ele>
        <time>2019-03-11T23:32:32Z</time>
      </trkpt>
      <trkpt lat="31.202009024394222" lon="121.62107032524771">
        <ele>6.518292229935838</ele>
        <time>2019-03-11T23:32:36Z</time>
      </trkpt>
      <trkpt lat="31.20228037214999" lon="121.62112341629478">
        <ele>6.376917379324929</ele>
        <time>2019-03-11T23:32:54Z</time>
      </trkpt>
      <trkpt lat="31.202430827915435" lon="121.62114535377985">
        <ele>6.3701935697404615</ele>
        <time>2019-03-11T23:33:04Z</time>
      </trkpt>
      <trkpt lat="31.202469073375553" lon="121.62113125929882">
        <ele>6.949761856262086</ele>
        <time>2019-03-11T23:33:23Z</time>
      </trkpt>
      <trkpt lat="31.202469073375553" lon="121.62113125929882">
        <ele>6.8571489417159235</ele>
        <time>2019-03-11T23:33:30Z</time>
      </trkpt>
      <trkpt lat="31.202436091946485" lon="121.62079361016556">
        <ele>6.890898425039616</ele>
        <time>2019-03-11T23:34:02Z</time>
      </trkpt>
      <trkpt lat="31.20243210705658" lon="121.62046625204269">
        <ele>6.161088636160361</ele>
        <time>2019-03-11T23:34:12Z</time>
      </trkpt>
      <trkpt lat="31.202430607152255" lon="121.62034782760777">
        <ele>6.202324416134122</ele>
        <time>2019-03-11T23:34:16Z</time>
      </trkpt>
      <trkpt lat="31.202464498137736" lon="121.62034863778821">
        <ele>5.426483395170877</ele>
        <time>2019-03-11T23:35:00Z</time>
      </trkpt>
      <trkpt lat="31.2027687369698" lon="121.62032476503798">
        <ele>4.951886905706658</ele>
        <time>2019-03-11T23:35:21Z</time>
      </trkpt>
      <trkpt lat="31.202921973648785" lon="121.6202822060645">
        <ele>4.962845270767758</ele>
        <time>2019-03-11T23:35:31Z</time>
      </trkpt>
      <trkpt lat="31.202916891145374" lon="121.62021743842851">
        <ele>4.988446909253046</ele>
        <time>2019-03-11T23:35:35Z</time>
      </trkpt>
      <trkpt lat="31.202782184250548" lon="121.61991718383271">
        <ele>4.77695654951069</ele>
        <time>2019-03-11T23:35:52Z</time>
      </trkpt>
      <trkpt lat="31.202676323402898" lon="121.61951258710292">
        <ele>5.0050153999626765</ele>
        <time>2019-03-11T23:36:16Z</time>
      </trkpt>
      <trkpt lat="31.20258662745516" lon="121.61920283530435">
        <ele>5.152853402825663</ele>
        <time>2019-03-11T23:36:34Z</time>
      </trkpt>
      <trkpt lat="31.202473983264976" lon="121.61879334962484">
        <ele>5.432889820702108</ele>
        <time>2019-03-11T23:36:58Z</time>
      </trkpt>
      <trkpt lat="31.202457243875067" lon="121.61872342995926">
        <ele>5.325615646463724</ele>
        <time>2019-03-11T23:37:02Z</time>
      </trkpt>
      <trkpt lat="31.202462721470916" lon="121.61866922700844">
        <ele>5.500886796153129</ele>
        <time>2019-03-11T23:37:05Z</time>
      </trkpt>
      <trkpt lat="31.202700052108458" lon="121.61858248313504">
        <ele>5.305151661060773</ele>
        <time>2019-03-11T23:37:20Z</time>
      </trkpt>
      <trkpt lat="31.202797441990302" lon="121.61853044039208">
        <ele>5.280661815658377</ele>
        <time>2019-03-11T23:37:27Z</time>
      </trkpt>
      <trkpt lat="31.20286603448659" lon="121.61853504195913">
        <ele>5.240724947401137</ele>
        <time>2019-03-11T23:37:31Z</time>
      </trkpt>
      <trkpt lat="31.202862866999343" lon="121.61844940158369">
        <ele>5.269314036359823</ele>
        <time>2019-03-11T23:37:38Z</time>
      </trkpt>
      <trkpt lat="31.20279432451639" lon="121.61839493315333">
        <ele>5.370513966555055</ele>
        <time>2019-03-11T23:37:42Z</time>
      </trkpt>
      <trkpt lat="31.20278524900237" lon="121.6182518371964">
        <ele>5.535684492895161</ele>
        <time>2019-03-11T23:37:49Z</time>
      </trkpt>
      <trkpt lat="31.20273331516264" lon="121.61812717324266">
        <ele>5.5441283784154685</ele>
        <time>2019-03-11T23:37:56Z</time>
      </trkpt>
      <trkpt lat="31.202682397989477" lon="121.61807053450194">
        <ele>5.265154669974766</ele>
        <time>2019-03-11T23:37:59Z</time>
      </trkpt>
      <trkpt lat="31.20253954884691" lon="121.61775589102638">
        <ele>5.4644935659350935</ele>
        <time>2019-03-11T23:38:15Z</time>
      </trkpt>
      <trkpt lat="31.202513681681975" lon="121.61759029778884">
        <ele>6.025894862519671</ele>
        <time>2019-03-11T23:38:26Z</time>
      </trkpt>
      <trkpt lat="31.202406207733958" lon="121.61741874762228">
        <ele>6.5293511337715024</ele>
        <time>2019-03-11T23:38:37Z</time>
      </trkpt>
      <trkpt lat="31.20239432786173" lon="121.61736698252723">
        <ele>6.54148811208043</ele>
        <time>2019-03-11T23:38:40Z</time>
      </trkpt>
      <trkpt lat="31.202408486767588" lon="121.61730491612559">
        <ele>6.254850455737934</ele>
        <time>2019-03-11T23:38:44Z</time>
      </trkpt>
      <trkpt lat="31.202646659171602" lon="121.61718428887224">
        <ele>6.307758421598859</ele>
        <time>2019-03-11T23:38:58Z</time>
      </trkpt>
      <trkpt lat="31.202813059974545" lon="121.61698018952954">
        <ele>5.544557249335387</ele>
        <time>2019-03-11T23:39:12Z</time>
      </trkpt>
      <trkpt lat="31.202910183004036" lon="121.61692055458072">
        <ele>5.490914351047159</ele>
        <time>2019-03-11T23:39:18Z</time>
      </trkpt>
      <trkpt lat="31.203041282442463" lon="121.61677147581797">
        <ele>5.107542656788208</ele>
        <time>2019-03-11T23:39:25Z</time>
      </trkpt>
      <trkpt lat="31.2032178910035" lon="121.61666575795643">
        <ele>5.349582996007211</ele>
        <time>2019-03-11T23:39:32Z</time>
      </trkpt>
      <trkpt lat="31.203507686428907" lon="121.61642749344666">
        <ele>4.878975094120683</ele>
        <time>2019-03-11T23:39:44Z</time>
      </trkpt>
      <trkpt lat="31.20381966634" lon="121.61623963814215">
        <ele>4.577116393451597</ele>
        <time>2019-03-11T23:39:58Z</time>
      </trkpt>
      <trkpt lat="31.203898617054712" lon="121.61618515265579">
        <ele>4.585418820608407</ele>
        <time>2019-03-11T23:40:02Z</time>
      </trkpt>
      <trkpt lat="31.203982276949233" lon="121.61602197917937">
        <ele>4.681086901532595</ele>
        <time>2019-03-11T23:40:10Z</time>
      </trkpt>
      <trkpt lat="31.20407909608743" lon="121.61599595115413">
        <ele>4.984343045538871</ele>
        <time>2019-03-11T23:40:14Z</time>
      </trkpt>
      <trkpt lat="31.2041783335659" lon="121.6159937746099">
        <ele>5.00616316679416</ele>
        <time>2019-03-11T23:40:18Z</time>
      </trkpt>
      <trkpt lat="31.20425265442547" lon="121.6159612433993">
        <ele>4.5705954908554745</ele>
        <time>2019-03-11T23:40:21Z</time>
      </trkpt>
      <trkpt lat="31.204350496246597" lon="121.61600270475451">
        <ele>5.1537744071924365</ele>
        <time>2019-03-11T23:40:25Z</time>
      </trkpt>
      <trkpt lat="31.20448347827775" lon="121.6161607106773">
        <ele>4.832286860383604</ele>
        <time>2019-03-11T23:40:32Z</time>
      </trkpt>
      <trkpt lat="31.204578310504903" lon="121.61623117317139">
        <ele>4.832639679643936</ele>
        <time>2019-03-11T23:40:36Z</time>
      </trkpt>
      <trkpt lat="31.20462024373695" lon="121.61633118302582">
        <ele>4.936809021206479</ele>
        <time>2019-03-11T23:40:40Z</time>
      </trkpt>
      <trkpt lat="31.204626531920674" lon="121.61627507752125">
        <ele>5.756743050877546</ele>
        <time>2019-03-11T23:40:44Z</time>
      </trkpt>
      <trkpt lat="31.20438487392227" lon="121.61606422834744">
        <ele>6.606047773568566</ele>
        <time>2019-03-11T23:40:55Z</time>
      </trkpt>
      <trkpt lat="31.20424727610738" lon="121.61591272721057">
        <ele>7.14756048502899</ele>
        <time>2019-03-11T23:41:02Z</time>
      </trkpt>
      <trkpt lat="31.203980967165553" lon="121.61567423029872">
        <ele>7.660291494330352</ele>
        <time>2019-03-11T23:41:16Z</time>
      </trkpt>
      <trkpt lat="31.203751800272613" lon="121.61543735425406">
        <ele>6.825259847569107</ele>
        <time>2019-03-11T23:41:30Z</time>
      </trkpt>
      <trkpt lat="31.203646978391983" lon="121.61531728825521">
        <ele>5.828341533150493</ele>
        <time>2019-03-11T23:41:40Z</time>
      </trkpt>
      <trkpt lat="31.20349814891613" lon="121.61529073768989">
        <ele>4.913993849656958</ele>
        <time>2019-03-11T23:41:48Z</time>
      </trkpt>
      <trkpt lat="31.203292590986425" lon="121.61502729275799">
        <ele>4.931471996937052</ele>
        <time>2019-03-11T23:42:02Z</time>
      </trkpt>
      <trkpt lat="31.20335454936632" lon="121.6148684501345">
        <ele>4.878281764536869</ele>
        <time>2019-03-11T23:42:13Z</time>
      </trkpt>
      <trkpt lat="31.203407737608337" lon="121.61481613213104">
        <ele>4.899626809739992</ele>
        <time>2019-03-11T23:42:16Z</time>
      </trkpt>
      <trkpt lat="31.203466659498467" lon="121.61471800505907">
        <ele>4.810386307165622</ele>
        <time>2019-03-11T23:42:20Z</time>
      </trkpt>
      <trkpt lat="31.203469730500824" lon="121.61461608739843">
        <ele>4.973035836962993</ele>
        <time>2019-03-11T23:42:23Z</time>
      </trkpt>
      <trkpt lat="31.203347147768252" lon="121.61433582242229">
        <ele>5.086563692150044</ele>
        <time>2019-03-11T23:42:42Z</time>
      </trkpt>
      <trkpt lat="31.20323157975875" lon="121.61409323141535">
        <ele>5.418300747391157</ele>
        <time>2019-03-11T23:42:59Z</time>
      </trkpt>
      <trkpt lat="31.20319581770781" lon="121.61406043567034">
        <ele>5.507597558086946</ele>
        <time>2019-03-11T23:43:03Z</time>
      </trkpt>
      <trkpt lat="31.203113254322787" lon="121.61390295388155">
        <ele>5.6789091597437</ele>
        <time>2019-03-11T23:43:14Z</time>
      </trkpt>
      <trkpt lat="31.20307451956335" lon="121.61385823121074">
        <ele>5.306871563513326</ele>
        <time>2019-03-11T23:43:18Z</time>
      </trkpt>
      <trkpt lat="31.20297115240103" lon="121.613610755059">
        <ele>5.422084741893258</ele>
        <time>2019-03-11T23:43:36Z</time>
      </trkpt>
      <trkpt lat="31.202906139940712" lon="121.6135383849005">
        <ele>5.675335043439588</ele>
        <time>2019-03-11T23:43:43Z</time>
      </trkpt>
      <trkpt lat="31.202895077109062" lon="121.61347332896541">
        <ele>5.408185231854624</ele>
        <time>2019-03-11T23:43:47Z</time>
      </trkpt>
      <trkpt lat="31.202737510547916" lon="121.61318763186308">
        <ele>5.7318997640058384</ele>
        <time>2019-03-11T23:44:09Z</time>
      </trkpt>
      <trkpt lat="31.202610321541876" lon="121.61288512197463">
        <ele>5.780236079483089</ele>
        <time>2019-03-11T23:44:30Z</time>
      </trkpt>
      <trkpt lat="31.202558328323953" lon="121.61280434507297">
        <ele>5.738316958508378</ele>
        <time>2019-03-11T23:44:37Z</time>
      </trkpt>
      <trkpt lat="31.202390699329186" lon="121.61254818850915">
        <ele>5.729860637907972</ele>
        <time>2019-03-11T23:44:57Z</time>
      </trkpt>
      <trkpt lat="31.202306110835178" lon="121.61219470279214">
        <ele>7.906326892902289</ele>
        <time>2019-03-11T23:45:18Z</time>
      </trkpt>
      <trkpt lat="31.202319980101723" lon="121.61214129775371">
        <ele>8.084795715114701</ele>
        <time>2019-03-11T23:45:21Z</time>
      </trkpt>
      <trkpt lat="31.202448052384923" lon="121.61201604506797">
        <ele>8.62627090390031</ele>
        <time>2019-03-11T23:45:32Z</time>
      </trkpt>
      <trkpt lat="31.202475725646835" lon="121.61199327141681">
        <ele>8.858635082204945</ele>
        <time>2019-03-11T23:45:34Z</time>
      </trkpt>
      <trkpt lat="31.202722091342388" lon="121.61176390963794">
        <ele>8.866438858311984</ele>
        <time>2019-03-11T23:45:54Z</time>
      </trkpt>
      <trkpt lat="31.202787474755922" lon="121.61171131261827">
        <ele>8.805861762466392</ele>
        <time>2019-03-11T23:45:58Z</time>
      </trkpt>
      <trkpt lat="31.203054237593808" lon="121.61139573835456">
        <ele>8.286734985186769</ele>
        <time>2019-03-11T23:46:20Z</time>
      </trkpt>
      <trkpt lat="31.20308762232489" lon="121.6113485650465">
        <ele>8.205509236505208</ele>
        <time>2019-03-11T23:46:24Z</time>
      </trkpt>
      <trkpt lat="31.20325088365683" lon="121.61129731446518">
        <ele>7.803751789831534</ele>
        <time>2019-03-11T23:46:34Z</time>
      </trkpt>
      <trkpt lat="31.203349137737092" lon="121.61115769148302">
        <ele>8.307156897320109</ele>
        <time>2019-03-11T23:46:44Z</time>
      </trkpt>
      <trkpt lat="31.20341072268057" lon="121.61110699107682">
        <ele>8.226930665280545</ele>
        <time>2019-03-11T23:46:48Z</time>
      </trkpt>
      <trkpt lat="31.203414839202892" lon="121.61103948717462">
        <ele>8.26848245396597</ele>
        <time>2019-03-11T23:47:02Z</time>
      </trkpt>
      <trkpt lat="31.203508417462707" lon="121.61098932606083">
        <ele>8.431064178046014</ele>
        <time>2019-03-11T23:47:10Z</time>
      </trkpt>
      <trkpt lat="31.203613358612266" lon="121.61097305140156">
        <ele>7.991033335628632</ele>
        <time>2019-03-11T23:47:17Z</time>
      </trkpt>
      <trkpt lat="31.2037639351557" lon="121.61084019965037">
        <ele>8.61542153877986</ele>
        <time>2019-03-11T23:47:27Z</time>
      </trkpt>
      <trkpt lat="31.20386284794345" lon="121.61091121993184">
        <ele>8.370421382205226</ele>
        <time>2019-03-11T23:47:35Z</time>
      </trkpt>
      <trkpt lat="31.204082582989024" lon="121.61112401471742">
        <ele>8.389290891793337</ele>
        <time>2019-03-11T23:47:53Z</time>
      </trkpt>
      <trkpt lat="31.20420566880995" lon="121.61113701724396">
        <ele>8.067454008308445</ele>
        <time>2019-03-11T23:48:07Z</time>
      </trkpt>
      <trkpt lat="31.2043093170685" lon="121.61103534674301">
        <ele>7.942382563093389</ele>
        <time>2019-03-11T23:48:26Z</time>
      </trkpt>
      <trkpt lat="31.204446532134888" lon="121.61100714107675">
        <ele>7.853829181562318</ele>
        <time>2019-03-11T23:48:36Z</time>
      </trkpt>
      <trkpt lat="31.204569747285404" lon="121.61084257294765">
        <ele>7.6418486114638355</ele>
        <time>2019-03-11T23:48:48Z</time>
      </trkpt>
      <trkpt lat="31.204576838372102" lon="121.6107850987969">
        <ele>7.81689168568473</ele>
        <time>2019-03-11T23:48:54Z</time>
      </trkpt>
      <trkpt lat="31.204549201351295" lon="121.61075907526887">
        <ele>7.9850679928549475</ele>
        <time>2019-03-11T23:48:57Z</time>
      </trkpt>
    </trkseg>
  </trk>
</gpx>