<?xml version="1.0" encoding="UTF-8"?>
<gpx xmlns="http://www.topografix.com/GPX/1/1" xmlns:gpxtpx="http://www.garmin.com/xmlschemas/TrackPointExtension/v1" xmlns:xsi="http://www.w3.org/2001/XMLSchema-instance" xsi:schemaLocation="http://www.topografix.com/GPX/1/1 http://www.topografix.com/GPX/1/1/gpx.xsd" version="1.1" creator="gpx.py -- https://github.com/tkrajina/gpxpy">
  <trk>
    <name>gpx from keep</name>
    <type>Run</type>
    <trkseg>
      <trkpt lat="31.204468292906437" lon="121.61091116988031">
        <ele>8.62844467163086</ele>
        <time>2019-04-03T23:10:55Z</time>
      </trkpt>
      <trkpt lat="31.20440179659544" lon="121.61100470488012">
        <ele>7.767910003662109</ele>
        <time>2019-04-03T23:10:59Z</time>
      </trkpt>
      <trkpt lat="31.20433235979595" lon="121.61104049572016">
        <ele>8.08498764038086</ele>
        <time>2019-04-03T23:11:02Z</time>
      </trkpt>
      <trkpt lat="31.20413156327168" lon="121.61125305297045">
        <ele>7.923061370849609</ele>
        <time>2019-04-03T23:11:17Z</time>
      </trkpt>
      <trkpt lat="31.204027376951082" lon="121.61134794516572">
        <ele>7.669155120849609</ele>
        <time>2019-04-03T23:11:25Z</time>
      </trkpt>
      <trkpt lat="31.204056052411655" lon="121.61143496424941">
        <ele>7.757106781005859</ele>
        <time>2019-04-03T23:11:28Z</time>
      </trkpt>
      <trkpt lat="31.20425950711934" lon="121.61165832809502">
        <ele>6.664585818682639</ele>
        <time>2019-04-03T23:11:39Z</time>
      </trkpt>
      <trkpt lat="31.204475422856248" lon="121.61189388774757">
        <ele>6.201300841478684</ele>
        <time>2019-04-03T23:11:51Z</time>
      </trkpt>
      <trkpt lat="31.204710283875972" lon="121.61217091957793">
        <ele>6.03849003142998</ele>
        <time>2019-04-03T23:12:05Z</time>
      </trkpt>
      <trkpt lat="31.20493136367496" lon="121.6123847869315">
        <ele>6.23779138286276</ele>
        <time>2019-04-03T23:12:16Z</time>
      </trkpt>
      <trkpt lat="31.205086276796564" lon="121.61260868776856">
        <ele>6.627497772830203</ele>
        <time>2019-04-03T23:12:27Z</time>
      </trkpt>
      <trkpt lat="31.2052046872664" lon="121.61270409815005">
        <ele>6.876505975236796</ele>
        <time>2019-04-03T23:12:35Z</time>
      </trkpt>
      <trkpt lat="31.205241791810348" lon="121.61275560012623">
        <ele>6.860539581003479</ele>
        <time>2019-04-03T23:12:38Z</time>
      </trkpt>
      <trkpt lat="31.205309807650387" lon="121.61280465972801">
        <ele>6.846094369367037</ele>
        <time>2019-04-03T23:12:42Z</time>
      </trkpt>
      <trkpt lat="31.205343374858668" lon="121.61287161319902">
        <ele>7.236725513236493</ele>
        <time>2019-04-03T23:12:49Z</time>
      </trkpt>
      <trkpt lat="31.205115956300915" lon="121.61312834101832">
        <ele>7.607794902827422</ele>
        <time>2019-04-03T23:13:08Z</time>
      </trkpt>
      <trkpt lat="31.204872838591278" lon="121.61334955691818">
        <ele>6.405569164652107</ele>
        <time>2019-04-03T23:13:25Z</time>
      </trkpt>
      <trkpt lat="31.20467335819651" lon="121.6135873023585">
        <ele>6.664911913107332</ele>
        <time>2019-04-03T23:13:39Z</time>
      </trkpt>
      <trkpt lat="31.20443209999931" lon="121.61384998696376">
        <ele>6.753951694328485</ele>
        <time>2019-04-03T23:13:55Z</time>
      </trkpt>
      <trkpt lat="31.204342799217123" lon="121.61396573935319">
        <ele>6.7519571085913554</ele>
        <time>2019-04-03T23:14:02Z</time>
      </trkpt>
      <trkpt lat="31.204212839591413" lon="121.61406739922795">
        <ele>6.70140439021602</ele>
        <time>2019-04-03T23:14:10Z</time>
      </trkpt>
      <trkpt lat="31.20401174885593" lon="121.6142785735866">
        <ele>6.6322638516718015</ele>
        <time>2019-04-03T23:14:21Z</time>
      </trkpt>
      <trkpt lat="31.203811180075995" lon="121.61451143073289">
        <ele>6.601945963077561</ele>
        <time>2019-04-03T23:14:32Z</time>
      </trkpt>
      <trkpt lat="31.203675213281777" lon="121.61465943956765">
        <ele>6.631698411480727</ele>
        <time>2019-04-03T23:14:39Z</time>
      </trkpt>
      <trkpt lat="31.203597616092715" lon="121.6147198916235">
        <ele>6.607593837925393</ele>
        <time>2019-04-03T23:14:43Z</time>
      </trkpt>
      <trkpt lat="31.203498880407142" lon="121.61476868987903">
        <ele>6.717527570445782</ele>
        <time>2019-04-03T23:14:47Z</time>
      </trkpt>
      <trkpt lat="31.20337186208446" lon="121.61491398584086">
        <ele>6.635893228068589</ele>
        <time>2019-04-03T23:14:54Z</time>
      </trkpt>
      <trkpt lat="31.203352002993064" lon="121.6149893404147">
        <ele>7.0574053020473</ele>
        <time>2019-04-03T23:14:58Z</time>
      </trkpt>
      <trkpt lat="31.203319974429782" lon="121.61502864575759">
        <ele>7.121218702362242</ele>
        <time>2019-04-03T23:15:05Z</time>
      </trkpt>
      <trkpt lat="31.203506560142912" lon="121.61528396074613">
        <ele>7.929786675069096</ele>
        <time>2019-04-03T23:15:36Z</time>
      </trkpt>
      <trkpt lat="31.203493480345344" lon="121.6153571452067">
        <ele>7.788489121750345</ele>
        <time>2019-04-03T23:15:40Z</time>
      </trkpt>
      <trkpt lat="31.20341018730265" lon="121.61541813807486">
        <ele>7.819307241857892</ele>
        <time>2019-04-03T23:15:44Z</time>
      </trkpt>
      <trkpt lat="31.203202549094126" lon="121.6156623686717">
        <ele>8.215561791714826</ele>
        <time>2019-04-03T23:15:55Z</time>
      </trkpt>
      <trkpt lat="31.20295696447043" lon="121.61589060840348">
        <ele>8.314144464379886</ele>
        <time>2019-04-03T23:16:08Z</time>
      </trkpt>
      <trkpt lat="31.202728457263095" lon="121.61612128394518">
        <ele>8.649691238373876</ele>
        <time>2019-04-03T23:16:20Z</time>
      </trkpt>
      <trkpt lat="31.202492348085883" lon="121.61636090218713">
        <ele>8.735350808924814</ele>
        <time>2019-04-03T23:16:33Z</time>
      </trkpt>
      <trkpt lat="31.20222446547339" lon="121.616652288396">
        <ele>8.987685755489686</ele>
        <time>2019-04-03T23:16:48Z</time>
      </trkpt>
      <trkpt lat="31.202015769090757" lon="121.6168574780829">
        <ele>8.313658530757223</ele>
        <time>2019-04-03T23:16:59Z</time>
      </trkpt>
      <trkpt lat="31.20193515508116" lon="121.61694909355087">
        <ele>7.8725996602406525</ele>
        <time>2019-04-03T23:17:03Z</time>
      </trkpt>
      <trkpt lat="31.201894124375887" lon="121.61704287364786">
        <ele>7.86355085488254</ele>
        <time>2019-04-03T23:17:07Z</time>
      </trkpt>
      <trkpt lat="31.201878591702286" lon="121.61712445495408">
        <ele>8.084720387477624</ele>
        <time>2019-04-03T23:17:11Z</time>
      </trkpt>
      <trkpt lat="31.201837583320177" lon="121.61719438386456">
        <ele>8.14331754628919</ele>
        <time>2019-04-03T23:17:15Z</time>
      </trkpt>
      <trkpt lat="31.20166913285626" lon="121.61727326704151">
        <ele>8.022942484013782</ele>
        <time>2019-04-03T23:17:21Z</time>
      </trkpt>
      <trkpt lat="31.201412722856706" lon="121.6174676144912">
        <ele>7.989911895477491</ele>
        <time>2019-04-03T23:17:32Z</time>
      </trkpt>
      <trkpt lat="31.2011654742457" lon="121.61771914559003">
        <ele>7.849131237782551</ele>
        <time>2019-04-03T23:17:46Z</time>
      </trkpt>
      <trkpt lat="31.200959951660575" lon="121.61799750169776">
        <ele>8.362567620004619</ele>
        <time>2019-04-03T23:17:59Z</time>
      </trkpt>
      <trkpt lat="31.200738420527475" lon="121.61828479959703">
        <ele>8.412004724010835</ele>
        <time>2019-04-03T23:18:14Z</time>
      </trkpt>
      <trkpt lat="31.200492740002733" lon="121.61858754399744">
        <ele>7.822732944787681</ele>
        <time>2019-04-03T23:18:29Z</time>
      </trkpt>
      <trkpt lat="31.200271219053803" lon="121.61885911655585">
        <ele>7.688916290091555</ele>
        <time>2019-04-03T23:18:43Z</time>
      </trkpt>
      <trkpt lat="31.200052141367877" lon="121.61912526584923">
        <ele>7.875260126830035</ele>
        <time>2019-04-03T23:18:57Z</time>
      </trkpt>
      <trkpt lat="31.199819261235657" lon="121.61936458398739">
        <ele>7.550183370404753</ele>
        <time>2019-04-03T23:19:11Z</time>
      </trkpt>
      <trkpt lat="31.199583662458476" lon="121.61960904916609">
        <ele>7.622773238056496</ele>
        <time>2019-04-03T23:19:25Z</time>
      </trkpt>
      <trkpt lat="31.199330987644263" lon="121.61984646742471">
        <ele>7.714531668064197</ele>
        <time>2019-04-03T23:19:39Z</time>
      </trkpt>
      <trkpt lat="31.19926856198041" lon="121.61990798958333">
        <ele>7.739873585298227</ele>
        <time>2019-04-03T23:19:42Z</time>
      </trkpt>
      <trkpt lat="31.199179309946143" lon="121.61995433786633">
        <ele>7.918552328333099</ele>
        <time>2019-04-03T23:19:46Z</time>
      </trkpt>
      <trkpt lat="31.199113081876256" lon="121.62002182204928">
        <ele>7.167497670814292</ele>
        <time>2019-04-03T23:19:54Z</time>
      </trkpt>
      <trkpt lat="31.19901986877528" lon="121.62022345182636">
        <ele>6.924541592339175</ele>
        <time>2019-04-03T23:20:04Z</time>
      </trkpt>
      <trkpt lat="31.198971555191786" lon="121.62027196412417">
        <ele>7.3634066805844895</ele>
        <time>2019-04-03T23:20:07Z</time>
      </trkpt>
      <trkpt lat="31.19887646776012" lon="121.62045001564704">
        <ele>7.325232599706709</ele>
        <time>2019-04-03T23:20:14Z</time>
      </trkpt>
      <trkpt lat="31.198514333328486" lon="121.6206085766088">
        <ele>7.010940790345934</ele>
        <time>2019-04-03T23:20:25Z</time>
      </trkpt>
      <trkpt lat="31.198280962078712" lon="121.62078988916166">
        <ele>7.102469578247224</ele>
        <time>2019-04-03T23:20:36Z</time>
      </trkpt>
      <trkpt lat="31.198025567878567" lon="121.62102621290616">
        <ele>6.660617348568302</ele>
        <time>2019-04-03T23:20:50Z</time>
      </trkpt>
      <trkpt lat="31.197818250105133" lon="121.62118286066706">
        <ele>6.931114535103653</ele>
        <time>2019-04-03T23:21:09Z</time>
      </trkpt>
      <trkpt lat="31.197615746440277" lon="121.62139885270187">
        <ele>6.929625890490769</ele>
        <time>2019-04-03T23:21:30Z</time>
      </trkpt>
      <trkpt lat="31.19736145109939" lon="121.62161809904305">
        <ele>6.4142665230803</ele>
        <time>2019-04-03T23:21:53Z</time>
      </trkpt>
      <trkpt lat="31.197103077502806" lon="121.6218460152614">
        <ele>6.555328884193848</ele>
        <time>2019-04-03T23:22:15Z</time>
      </trkpt>
      <trkpt lat="31.196850953281913" lon="121.62206065112323">
        <ele>7.2205122905717545</ele>
        <time>2019-04-03T23:22:36Z</time>
      </trkpt>
      <trkpt lat="31.19666749131096" lon="121.62221620690697">
        <ele>8.155655267193666</ele>
        <time>2019-04-03T23:22:50Z</time>
      </trkpt>
      <trkpt lat="31.19663300608991" lon="121.62226146269306">
        <ele>8.653264959728936</ele>
        <time>2019-04-03T23:22:54Z</time>
      </trkpt>
      <trkpt lat="31.19662425141554" lon="121.62233056205895">
        <ele>8.87320100016624</ele>
        <time>2019-04-03T23:22:58Z</time>
      </trkpt>
      <trkpt lat="31.196687851112337" lon="121.62267035694425">
        <ele>8.679140734993958</ele>
        <time>2019-04-03T23:23:16Z</time>
      </trkpt>
      <trkpt lat="31.19672968086695" lon="121.62284079389248">
        <ele>8.228226181705004</ele>
        <time>2019-04-03T23:23:23Z</time>
      </trkpt>
      <trkpt lat="31.196770237390457" lon="121.62293915231967">
        <ele>7.920786043121474</ele>
        <time>2019-04-03T23:23:27Z</time>
      </trkpt>
      <trkpt lat="31.1968283203608" lon="121.62335372633085">
        <ele>6.318731606491738</ele>
        <time>2019-04-03T23:23:41Z</time>
      </trkpt>
      <trkpt lat="31.19688054420825" lon="121.62367400016554">
        <ele>6.17503691835244</ele>
        <time>2019-04-03T23:23:52Z</time>
      </trkpt>
      <trkpt lat="31.1969512115286" lon="121.62398614000031">
        <ele>6.40934943802214</ele>
        <time>2019-04-03T23:24:03Z</time>
      </trkpt>
      <trkpt lat="31.196984397655136" lon="121.62389536608529">
        <ele>6.605121837984505</ele>
        <time>2019-04-03T23:24:10Z</time>
      </trkpt>
      <trkpt lat="31.196965504470988" lon="121.62359297557605">
        <ele>7.1457257488929</ele>
        <time>2019-04-03T23:24:21Z</time>
      </trkpt>
      <trkpt lat="31.196888378141207" lon="121.62323612251785">
        <ele>7.296122498911153</ele>
        <time>2019-04-03T23:24:35Z</time>
      </trkpt>
      <trkpt lat="31.196822334162384" lon="121.62290527691017">
        <ele>6.769237846272681</ele>
        <time>2019-04-03T23:24:48Z</time>
      </trkpt>
      <trkpt lat="31.19682865867364" lon="121.62282859206584">
        <ele>6.640872189946876</ele>
        <time>2019-04-03T23:24:51Z</time>
      </trkpt>
      <trkpt lat="31.196890564758537" lon="121.62275244434525">
        <ele>6.515872088292319</ele>
        <time>2019-04-03T23:24:55Z</time>
      </trkpt>
      <trkpt lat="31.197047111832514" lon="121.62266274001219">
        <ele>6.518192702842377</ele>
        <time>2019-04-03T23:25:02Z</time>
      </trkpt>
      <trkpt lat="31.19726344265837" lon="121.62245515723733">
        <ele>6.747208369636468</ele>
        <time>2019-04-03T23:25:15Z</time>
      </trkpt>
      <trkpt lat="31.197485392781296" lon="121.62231206450187">
        <ele>6.425247251854039</ele>
        <time>2019-04-03T23:25:26Z</time>
      </trkpt>
      <trkpt lat="31.197732124957263" lon="121.62207195924758">
        <ele>6.872531106121123</ele>
        <time>2019-04-03T23:25:40Z</time>
      </trkpt>
      <trkpt lat="31.197833903544822" lon="121.62198008935346">
        <ele>7.094907094383672</ele>
        <time>2019-04-03T23:25:46Z</time>
      </trkpt>
      <trkpt lat="31.197862705825433" lon="121.6219248073484">
        <ele>7.325011225598743</ele>
        <time>2019-04-03T23:25:50Z</time>
      </trkpt>
      <trkpt lat="31.197974263597544" lon="121.62181613538911">
        <ele>7.750354227379113</ele>
        <time>2019-04-03T23:26:01Z</time>
      </trkpt>
      <trkpt lat="31.198096338354013" lon="121.62175840650066">
        <ele>7.892731999410053</ele>
        <time>2019-04-03T23:26:12Z</time>
      </trkpt>
      <trkpt lat="31.19825346986954" lon="121.62162832253476">
        <ele>6.979015907081944</ele>
        <time>2019-04-03T23:26:25Z</time>
      </trkpt>
      <trkpt lat="31.19842232291585" lon="121.62144105945286">
        <ele>6.901363926514186</ele>
        <time>2019-04-03T23:26:44Z</time>
      </trkpt>
      <trkpt lat="31.19862486720583" lon="121.62118848463159">
        <ele>7.576089034480795</ele>
        <time>2019-04-03T23:27:05Z</time>
      </trkpt>
      <trkpt lat="31.198841123684684" lon="121.62103996580316">
        <ele>7.7152387252909875</ele>
        <time>2019-04-03T23:27:23Z</time>
      </trkpt>
      <trkpt lat="31.19896682746264" lon="121.62088522087262">
        <ele>7.849200722006444</ele>
        <time>2019-04-03T23:27:37Z</time>
      </trkpt>
      <trkpt lat="31.199150803445946" lon="121.62074971056575">
        <ele>7.8502582256598</ele>
        <time>2019-04-03T23:27:53Z</time>
      </trkpt>
      <trkpt lat="31.19935206881679" lon="121.62067219040844">
        <ele>9.045766379905274</ele>
        <time>2019-04-03T23:28:08Z</time>
      </trkpt>
      <trkpt lat="31.199651079710865" lon="121.62071850519962">
        <ele>9.831871255816253</ele>
        <time>2019-04-03T23:28:24Z</time>
      </trkpt>
      <trkpt lat="31.19989835619323" lon="121.62071658779882">
        <ele>10.263951704509466</ele>
        <time>2019-04-03T23:28:34Z</time>
      </trkpt>
      <trkpt lat="31.200234484060836" lon="121.62078918552592">
        <ele>10.252163527402054</ele>
        <time>2019-04-03T23:28:48Z</time>
      </trkpt>
      <trkpt lat="31.200505852815102" lon="121.62082303685382">
        <ele>9.731958715770133</ele>
        <time>2019-04-03T23:28:59Z</time>
      </trkpt>
      <trkpt lat="31.200779363267056" lon="121.62088208999491">
        <ele>10.139273382240411</ele>
        <time>2019-04-03T23:29:10Z</time>
      </trkpt>
      <trkpt lat="31.20105208328388" lon="121.62092000592659">
        <ele>9.69270344060034</ele>
        <time>2019-04-03T23:29:21Z</time>
      </trkpt>
      <trkpt lat="31.201373299753914" lon="121.62099152036727">
        <ele>9.727934722423285</ele>
        <time>2019-04-03T23:29:34Z</time>
      </trkpt>
      <trkpt lat="31.201706190633345" lon="121.6210486712983">
        <ele>9.301907682989864</ele>
        <time>2019-04-03T23:29:47Z</time>
      </trkpt>
      <trkpt lat="31.202029322424494" lon="121.62110419698874">
        <ele>8.964503843527375</ele>
        <time>2019-04-03T23:30:01Z</time>
      </trkpt>
      <trkpt lat="31.202331862218372" lon="121.62114671690443">
        <ele>8.774681914540537</ele>
        <time>2019-04-03T23:30:14Z</time>
      </trkpt>
      <trkpt lat="31.20246797546851" lon="121.62114345379791">
        <ele>8.801887747363743</ele>
        <time>2019-04-03T23:30:35Z</time>
      </trkpt>
      <trkpt lat="31.20246797546851" lon="121.62114345379791">
        <ele>8.882959819865846</ele>
        <time>2019-04-03T23:31:07Z</time>
      </trkpt>
      <trkpt lat="31.20246797546851" lon="121.62114345379791">
        <ele>9.025354034715512</ele>
        <time>2019-04-03T23:31:16Z</time>
      </trkpt>
      <trkpt lat="31.20246797546851" lon="121.62114345379791">
        <ele>8.92728735827307</ele>
        <time>2019-04-03T23:31:18Z</time>
      </trkpt>
      <trkpt lat="31.20246797546851" lon="121.62114345379791">
        <ele>8.92728735827307</ele>
        <time>2019-04-03T23:31:23Z</time>
      </trkpt>
      <trkpt lat="31.20246797546851" lon="121.62114345379791">
        <ele>8.738991070937459</ele>
        <time>2019-04-03T23:31:28Z</time>
      </trkpt>
      <trkpt lat="31.20246797546851" lon="121.62114345379791">
        <ele>8.72075182163693</ele>
        <time>2019-04-03T23:31:39Z</time>
      </trkpt>
      <trkpt lat="31.20246797546851" lon="121.62114345379791">
        <ele>8.77117144466066</ele>
        <time>2019-04-03T23:31:43Z</time>
      </trkpt>
      <trkpt lat="31.202420347015018" lon="121.62081122583862">
        <ele>8.598540843578661</ele>
        <time>2019-04-03T23:32:01Z</time>
      </trkpt>
      <trkpt lat="31.20239793737526" lon="121.62047248772703">
        <ele>8.344850800927006</ele>
        <time>2019-04-03T23:32:12Z</time>
      </trkpt>
      <trkpt lat="31.202411611187973" lon="121.62036327589199">
        <ele>8.18441494550165</ele>
        <time>2019-04-03T23:32:16Z</time>
      </trkpt>
      <trkpt lat="31.20245232922937" lon="121.62031855833028">
        <ele>8.424901333904927</ele>
        <time>2019-04-03T23:32:19Z</time>
      </trkpt>
      <trkpt lat="31.20245232922937" lon="121.62031855833028">
        <ele>8.424901333904927</ele>
        <time>2019-04-03T23:32:23Z</time>
      </trkpt>
      <trkpt lat="31.202529526414075" lon="121.6203898236176">
        <ele>7.618636755591055</ele>
        <time>2019-04-03T23:33:05Z</time>
      </trkpt>
      <trkpt lat="31.202766243128686" lon="121.62037489932108">
        <ele>7.66250531715454</ele>
        <time>2019-04-03T23:33:16Z</time>
      </trkpt>
      <trkpt lat="31.202895664301792" lon="121.62029088010314">
        <ele>7.322831830553078</ele>
        <time>2019-04-03T23:33:23Z</time>
      </trkpt>
      <trkpt lat="31.202898228122898" lon="121.62017489350464">
        <ele>7.658038889833833</ele>
        <time>2019-04-03T23:33:27Z</time>
      </trkpt>
      <trkpt lat="31.202778986046933" lon="121.61986461013346">
        <ele>7.4568486107346175</ele>
        <time>2019-04-03T23:33:38Z</time>
      </trkpt>
      <trkpt lat="31.202689596313952" lon="121.61952478117281">
        <ele>7.800821598343077</ele>
        <time>2019-04-03T23:33:50Z</time>
      </trkpt>
      <trkpt lat="31.202686161751352" lon="121.61943806013494">
        <ele>7.902149642076225</ele>
        <time>2019-04-03T23:33:53Z</time>
      </trkpt>
      <trkpt lat="31.20258920447433" lon="121.61906977026506">
        <ele>7.603079283853333</ele>
        <time>2019-04-03T23:34:07Z</time>
      </trkpt>
      <trkpt lat="31.20248766779642" lon="121.61866732785495">
        <ele>7.487964169607942</ele>
        <time>2019-04-03T23:34:22Z</time>
      </trkpt>
      <trkpt lat="31.202527576949695" lon="121.61861556105555">
        <ele>7.829838025181871</ele>
        <time>2019-04-03T23:34:25Z</time>
      </trkpt>
      <trkpt lat="31.202792288243323" lon="121.6185326089325">
        <ele>7.752258402124227</ele>
        <time>2019-04-03T23:34:36Z</time>
      </trkpt>
      <trkpt lat="31.20286585601484" lon="121.6184428969723">
        <ele>7.684010694484897</ele>
        <time>2019-04-03T23:34:40Z</time>
      </trkpt>
      <trkpt lat="31.202867699686074" lon="121.61822608372192">
        <ele>7.9741195484273675</ele>
        <time>2019-04-03T23:34:47Z</time>
      </trkpt>
      <trkpt lat="31.202696913326154" lon="121.61792364045286">
        <ele>7.944203194455248</ele>
        <time>2019-04-03T23:34:59Z</time>
      </trkpt>
      <trkpt lat="31.20253402999251" lon="121.61757674488027">
        <ele>8.118985059276781</ele>
        <time>2019-04-03T23:35:13Z</time>
      </trkpt>
      <trkpt lat="31.20243827002766" lon="121.61734800700425">
        <ele>8.973366355425114</ele>
        <time>2019-04-03T23:35:23Z</time>
      </trkpt>
      <trkpt lat="31.202451114173627" lon="121.61724338927006">
        <ele>8.608459436808914</ele>
        <time>2019-04-03T23:35:27Z</time>
      </trkpt>
      <trkpt lat="31.20268039719164" lon="121.61706178073078">
        <ele>8.414091756122232</ele>
        <time>2019-04-03T23:35:38Z</time>
      </trkpt>
      <trkpt lat="31.2028901627631" lon="121.61687448079465">
        <ele>8.166353046390775</ele>
        <time>2019-04-03T23:35:49Z</time>
      </trkpt>
      <trkpt lat="31.20309260315546" lon="121.61669070348717">
        <ele>7.958418664918952</ele>
        <time>2019-04-03T23:36:00Z</time>
      </trkpt>
      <trkpt lat="31.203219544837015" lon="121.61663702813895">
        <ele>8.325976510044214</ele>
        <time>2019-04-03T23:36:06Z</time>
      </trkpt>
      <trkpt lat="31.203303652432083" lon="121.61657766447097">
        <ele>8.154147104900218</ele>
        <time>2019-04-03T23:36:10Z</time>
      </trkpt>
      <trkpt lat="31.203373161189248" lon="121.6164727677442">
        <ele>8.057314643317959</ele>
        <time>2019-04-03T23:36:18Z</time>
      </trkpt>
      <trkpt lat="31.203511546940586" lon="121.61635810750633">
        <ele>8.58460580649107</ele>
        <time>2019-04-03T23:36:31Z</time>
      </trkpt>
      <trkpt lat="31.203745644940895" lon="121.61624127050041">
        <ele>8.22050950159592</ele>
        <time>2019-04-03T23:36:53Z</time>
      </trkpt>
      <trkpt lat="31.203826449485963" lon="121.61623448783423">
        <ele>8.569656394418459</ele>
        <time>2019-04-03T23:37:00Z</time>
      </trkpt>
      <trkpt lat="31.203914908940813" lon="121.6161594025056">
        <ele>8.612272282786456</ele>
        <time>2019-04-03T23:37:08Z</time>
      </trkpt>
      <trkpt lat="31.203995281235056" lon="121.6160330908109">
        <ele>8.60422593095538</ele>
        <time>2019-04-03T23:37:18Z</time>
      </trkpt>
      <trkpt lat="31.204228511968306" lon="121.61597371334227">
        <ele>8.332858565517192</ele>
        <time>2019-04-03T23:37:39Z</time>
      </trkpt>
      <trkpt lat="31.204338007112316" lon="121.61602113663064">
        <ele>8.511844773738538</ele>
        <time>2019-04-03T23:37:47Z</time>
      </trkpt>
      <trkpt lat="31.20444580922637" lon="121.61614038577306">
        <ele>8.618206338426035</ele>
        <time>2019-04-03T23:37:58Z</time>
      </trkpt>
      <trkpt lat="31.204530841246207" lon="121.61625340231619">
        <ele>8.392650589770945</ele>
        <time>2019-04-03T23:38:26Z</time>
      </trkpt>
      <trkpt lat="31.20427568428573" lon="121.61597940132678">
        <ele>8.959438839302642</ele>
        <time>2019-04-03T23:38:40Z</time>
      </trkpt>
      <trkpt lat="31.204021590034" lon="121.61572653867961">
        <ele>9.889586420595109</ele>
        <time>2019-04-03T23:38:54Z</time>
      </trkpt>
      <trkpt lat="31.203829285294223" lon="121.61550375457244">
        <ele>9.07180246370595</ele>
        <time>2019-04-03T23:39:05Z</time>
      </trkpt>
      <trkpt lat="31.203705234193045" lon="121.6153601092339">
        <ele>7.582394227135595</ele>
        <time>2019-04-03T23:39:12Z</time>
      </trkpt>
      <trkpt lat="31.203589533276073" lon="121.6152774486839">
        <ele>6.987813652212502</ele>
        <time>2019-04-03T23:39:18Z</time>
      </trkpt>
      <trkpt lat="31.203582230249157" lon="121.61525766262716">
        <ele>6.805436818112376</ele>
        <time>2019-04-03T23:39:25Z</time>
      </trkpt>
      <trkpt lat="31.20360530928108" lon="121.61522106890574">
        <ele>7.626245247650097</ele>
        <time>2019-04-03T23:40:21Z</time>
      </trkpt>
      <trkpt lat="31.203656632453445" lon="121.61513243092874">
        <ele>7.620545922926297</ele>
        <time>2019-04-03T23:40:24Z</time>
      </trkpt>
      <trkpt lat="31.20378607046164" lon="121.61501180192855">
        <ele>7.327716059073886</ele>
        <time>2019-04-03T23:40:31Z</time>
      </trkpt>
      <trkpt lat="31.203897091187393" lon="121.61486786315658">
        <ele>7.012733485508669</ele>
        <time>2019-04-03T23:40:38Z</time>
      </trkpt>
      <trkpt lat="31.20401158464899" lon="121.61478274237464">
        <ele>6.829739253594738</ele>
        <time>2019-04-03T23:40:44Z</time>
      </trkpt>
      <trkpt lat="31.20407342262777" lon="121.61476078174535">
        <ele>6.846659177496136</ele>
        <time>2019-04-03T23:40:48Z</time>
      </trkpt>
      <trkpt lat="31.20416826007067" lon="121.61482935093841">
        <ele>6.935895596951994</ele>
        <time>2019-04-03T23:40:55Z</time>
      </trkpt>
      <trkpt lat="31.20423602443377" lon="121.61485157184127">
        <ele>6.983853742937583</ele>
        <time>2019-04-03T23:40:59Z</time>
      </trkpt>
      <trkpt lat="31.204284493248366" lon="121.61492502358156">
        <ele>7.037714471696688</ele>
        <time>2019-04-03T23:41:02Z</time>
      </trkpt>
      <trkpt lat="31.204328323185464" lon="121.61503181499813">
        <ele>7.155175974096188</ele>
        <time>2019-04-03T23:41:06Z</time>
      </trkpt>
      <trkpt lat="31.204437020205283" lon="121.61506379021765">
        <ele>6.477812135629883</ele>
        <time>2019-04-03T23:41:12Z</time>
      </trkpt>
      <trkpt lat="31.204504863308525" lon="121.61499656350745">
        <ele>6.558849473941208</ele>
        <time>2019-04-03T23:41:16Z</time>
      </trkpt>
      <trkpt lat="31.204635554828275" lon="121.61499167374056">
        <ele>6.423165925529091</ele>
        <time>2019-04-03T23:41:23Z</time>
      </trkpt>
      <trkpt lat="31.204688768827797" lon="121.61491035322558">
        <ele>6.515975823210823</ele>
        <time>2019-04-03T23:41:27Z</time>
      </trkpt>
      <trkpt lat="31.204702671279225" lon="121.61482524091443">
        <ele>7.7747628581372865</ele>
        <time>2019-04-03T23:41:31Z</time>
      </trkpt>
      <trkpt lat="31.20476561185648" lon="121.61478268001494">
        <ele>7.253364917333336</ele>
        <time>2019-04-03T23:41:34Z</time>
      </trkpt>
      <trkpt lat="31.204893880170403" lon="121.61475827438873">
        <ele>6.602907675388209</ele>
        <time>2019-04-03T23:41:44Z</time>
      </trkpt>
      <trkpt lat="31.205039280232484" lon="121.614676132287">
        <ele>6.134782868357888</ele>
        <time>2019-04-03T23:41:54Z</time>
      </trkpt>
      <trkpt lat="31.20518069968229" lon="121.61449369865191">
        <ele>7.193368291991668</ele>
        <time>2019-04-03T23:42:07Z</time>
      </trkpt>
      <trkpt lat="31.205239301831398" lon="121.61445086646147">
        <ele>7.388911812590315</ele>
        <time>2019-04-03T23:42:11Z</time>
      </trkpt>
      <trkpt lat="31.20539226814614" lon="121.61439745505275">
        <ele>6.78076818289253</ele>
        <time>2019-04-03T23:42:18Z</time>
      </trkpt>
      <trkpt lat="31.20550134266708" lon="121.61430636970135">
        <ele>6.898153778855317</ele>
        <time>2019-04-03T23:42:24Z</time>
      </trkpt>
      <trkpt lat="31.20559470833946" lon="121.61419495563682">
        <ele>7.503770245876183</ele>
        <time>2019-04-03T23:42:31Z</time>
      </trkpt>
      <trkpt lat="31.205797358640726" lon="121.6140629311717">
        <ele>7.137115888047816</ele>
        <time>2019-04-03T23:42:45Z</time>
      </trkpt>
      <trkpt lat="31.205828311630942" lon="121.61401142643297">
        <ele>7.345303723757567</ele>
        <time>2019-04-03T23:42:49Z</time>
      </trkpt>
      <trkpt lat="31.205926536501835" lon="121.61392386434869">
        <ele>6.808486048412725</ele>
        <time>2019-04-03T23:42:56Z</time>
      </trkpt>
      <trkpt lat="31.2061143770379" lon="121.6136671484906">
        <ele>7.510605123627464</ele>
        <time>2019-04-03T23:43:09Z</time>
      </trkpt>
      <trkpt lat="31.206364722755303" lon="121.61356168196727">
        <ele>7.765737071703342</ele>
        <time>2019-04-03T23:43:22Z</time>
      </trkpt>
      <trkpt lat="31.20632222966463" lon="121.61347060593518">
        <ele>7.821287691890433</ele>
        <time>2019-04-03T23:43:26Z</time>
      </trkpt>
      <trkpt lat="31.20617239964956" lon="121.6133391487157">
        <ele>9.026428901366124</ele>
        <time>2019-04-03T23:43:36Z</time>
      </trkpt>
      <trkpt lat="31.205978636421957" lon="121.6132182662624">
        <ele>8.318103153182072</ele>
        <time>2019-04-03T23:43:52Z</time>
      </trkpt>
      <trkpt lat="31.2059128058085" lon="121.61315023215498">
        <ele>7.8338562722507135</ele>
        <time>2019-04-03T23:44:00Z</time>
      </trkpt>
      <trkpt lat="31.205728513113275" lon="121.61305211829138">
        <ele>8.227995823326694</ele>
        <time>2019-04-03T23:44:14Z</time>
      </trkpt>
      <trkpt lat="31.205564457459776" lon="121.61307517325818">
        <ele>8.391061457344016</ele>
        <time>2019-04-03T23:44:24Z</time>
      </trkpt>
      <trkpt lat="31.205337441142532" lon="121.61283257849232">
        <ele>7.876602851616397</ele>
        <time>2019-04-03T23:44:36Z</time>
      </trkpt>
      <trkpt lat="31.20549969410921" lon="121.61268970654008">
        <ele>7.545435163662354</ele>
        <time>2019-04-03T23:44:47Z</time>
      </trkpt>
      <trkpt lat="31.205534191117728" lon="121.61261054829644">
        <ele>7.579595178287569</ele>
        <time>2019-04-03T23:44:51Z</time>
      </trkpt>
      <trkpt lat="31.205397359935496" lon="121.61249372359244">
        <ele>7.208669492781809</ele>
        <time>2019-04-03T23:45:03Z</time>
      </trkpt>
      <trkpt lat="31.20526942917315" lon="121.61243626473023">
        <ele>6.7556830084707045</ele>
        <time>2019-04-03T23:45:14Z</time>
      </trkpt>
      <trkpt lat="31.205034274685016" lon="121.61219149529431">
        <ele>7.037320797841502</ele>
        <time>2019-04-03T23:45:35Z</time>
      </trkpt>
      <trkpt lat="31.20480016464071" lon="121.61199606120732">
        <ele>7.134286307122402</ele>
        <time>2019-04-03T23:45:53Z</time>
      </trkpt>
      <trkpt lat="31.20471052265736" lon="121.61186052434479">
        <ele>7.060246148356299</ele>
        <time>2019-04-03T23:46:03Z</time>
      </trkpt>
      <trkpt lat="31.204501653642332" lon="121.61162821687445">
        <ele>6.894063612304713</ele>
        <time>2019-04-03T23:46:25Z</time>
      </trkpt>
      <trkpt lat="31.204398986346394" lon="121.61150460704243">
        <ele>6.911894221770311</ele>
        <time>2019-04-03T23:46:36Z</time>
      </trkpt>
      <trkpt lat="31.204266206092345" lon="121.61140295771874">
        <ele>6.856832482345055</ele>
        <time>2019-04-03T23:46:50Z</time>
      </trkpt>
      <trkpt lat="31.204211766631897" lon="121.61132407351533">
        <ele>7.004884262697743</ele>
        <time>2019-04-03T23:46:57Z</time>
      </trkpt>
      <trkpt lat="31.204187701299922" lon="121.61123542704954">
        <ele>7.106490518135118</ele>
        <time>2019-04-03T23:47:04Z</time>
      </trkpt>
      <trkpt lat="31.2042281458841" lon="121.61117388466822">
        <ele>7.1291504225941225</ele>
        <time>2019-04-03T23:47:11Z</time>
      </trkpt>
      <trkpt lat="31.204281844444644" lon="121.61115517449744">
        <ele>6.74852602755842</ele>
        <time>2019-04-03T23:47:15Z</time>
      </trkpt>
      <trkpt lat="31.204319035617353" lon="121.61109308997254">
        <ele>6.904081226468811</ele>
        <time>2019-04-03T23:47:21Z</time>
      </trkpt>
      <trkpt lat="31.20444164813352" lon="121.6110120212696">
        <ele>6.958149069193539</ele>
        <time>2019-04-03T23:47:31Z</time>
      </trkpt>
      <trkpt lat="31.204588443638265" lon="121.61085910858007">
        <ele>6.976193567430165</ele>
        <time>2019-04-03T23:47:46Z</time>
      </trkpt>
      <trkpt lat="31.20459716020191" lon="121.61080353204963">
        <ele>7.123050778065</ele>
        <time>2019-04-03T23:47:52Z</time>
      </trkpt>
      <trkpt lat="31.20434272235192" lon="121.61058341732358">
        <ele>7.481925189692795</ele>
        <time>2019-04-03T23:48:19Z</time>
      </trkpt>
      <trkpt lat="31.204303983857688" lon="121.61053597719517">
        <ele>8.064922114045501</ele>
        <time>2019-04-03T23:48:39Z</time>
      </trkpt>
      <trkpt lat="31.204252452696867" lon="121.61055766984717">
        <ele>9.990560313273036</ele>
        <time>2019-04-03T23:48:47Z</time>
      </trkpt>
      <trkpt lat="31.20427906643024" lon="121.61049802451903">
        <ele>10.212680650528739</ele>
        <time>2019-04-03T23:48:50Z</time>
      </trkpt>
      <trkpt lat="31.204230213029632" lon="121.61056688924602">
        <ele>11.24961026134416</ele>
        <time>2019-04-03T23:48:57Z</time>
      </trkpt>
      <trkpt lat="31.204175632161025" lon="121.61068238405076">
        <ele>14.118264103214614</ele>
        <time>2019-04-03T23:49:11Z</time>
      </trkpt>
      <trkpt lat="31.204273529494767" lon="121.6106579766491">
        <ele>15.603284818465966</ele>
        <time>2019-04-03T23:49:18Z</time>
      </trkpt>
      <trkpt lat="31.204308260255857" lon="121.61062245918183">
        <ele>15.731673307502831</ele>
        <time>2019-04-03T23:49:21Z</time>
      </trkpt>
      <trkpt lat="31.204311283437196" lon="121.61056552702085">
        <ele>17.282675188904406</ele>
        <time>2019-04-03T23:49:28Z</time>
      </trkpt>
      <trkpt lat="31.204311283437196" lon="121.61056552702085">
        <ele>17.282675188904406</ele>
        <time>2019-04-03T23:49:32Z</time>
      </trkpt>
    </trkseg>
  </trk>
</gpx>