<?xml version="1.0" encoding="UTF-8"?>
<gpx xmlns="http://www.topografix.com/GPX/1/1" xmlns:gpxtpx="http://www.garmin.com/xmlschemas/TrackPointExtension/v1" xmlns:xsi="http://www.w3.org/2001/XMLSchema-instance" xsi:schemaLocation="http://www.topografix.com/GPX/1/1 http://www.topografix.com/GPX/1/1/gpx.xsd" version="1.1" creator="gpx.py -- https://github.com/tkrajina/gpxpy">
  <trk>
    <name>gpx from keep</name>
    <type>Run</type>
    <trkseg>
      <trkpt lat="31.20454169569901" lon="121.610639248326">
        <ele>8.86086114679118</ele>
        <time>2020-09-20T23:10:38Z</time>
      </trkpt>
      <trkpt lat="31.204643589639304" lon="121.61071298001619">
        <ele>8.813496843374462</ele>
        <time>2020-09-20T23:10:42Z</time>
      </trkpt>
      <trkpt lat="31.20470404150452" lon="121.61072869898258">
        <ele>8.85713998787105</ele>
        <time>2020-09-20T23:10:50Z</time>
      </trkpt>
      <trkpt lat="31.204750167850484" lon="121.61068233655496">
        <ele>8.775026774965227</ele>
        <time>2020-09-20T23:10:54Z</time>
      </trkpt>
      <trkpt lat="31.204835325173462" lon="121.6106533214452">
        <ele>8.652772613801062</ele>
        <time>2020-09-20T23:10:58Z</time>
      </trkpt>
      <trkpt lat="31.20490450158187" lon="121.6106018059785">
        <ele>8.445711045525968</ele>
        <time>2020-09-20T23:11:02Z</time>
      </trkpt>
      <trkpt lat="31.20506920676349" lon="121.61042476060206">
        <ele>7.778003212995827</ele>
        <time>2020-09-20T23:11:10Z</time>
      </trkpt>
      <trkpt lat="31.205160351592838" lon="121.61036348294813">
        <ele>8.053616293706</ele>
        <time>2020-09-20T23:11:18Z</time>
      </trkpt>
      <trkpt lat="31.20523552253766" lon="121.61026913127097">
        <ele>7.443586873821914</ele>
        <time>2020-09-20T23:11:22Z</time>
      </trkpt>
      <trkpt lat="31.205379254008676" lon="121.61022682646782">
        <ele>6.417043785564601</ele>
        <time>2020-09-20T23:11:30Z</time>
      </trkpt>
      <trkpt lat="31.20543454702575" lon="121.61025339053609">
        <ele>7.361903608776629</ele>
        <time>2020-09-20T23:11:34Z</time>
      </trkpt>
      <trkpt lat="31.20555862761341" lon="121.61039462731688">
        <ele>7.207711856812239</ele>
        <time>2020-09-20T23:11:42Z</time>
      </trkpt>
      <trkpt lat="31.20585049548005" lon="121.61059874562609">
        <ele>6.831009958870709</ele>
        <time>2020-09-20T23:11:54Z</time>
      </trkpt>
      <trkpt lat="31.205980530612948" lon="121.61075190827665">
        <ele>6.840377970598638</ele>
        <time>2020-09-20T23:12:02Z</time>
      </trkpt>
      <trkpt lat="31.206110775567417" lon="121.6109880265215">
        <ele>7.700625157915056</ele>
        <time>2020-09-20T23:12:13Z</time>
      </trkpt>
      <trkpt lat="31.206196141288512" lon="121.61104549251624">
        <ele>7.780407744459808</ele>
        <time>2020-09-20T23:12:16Z</time>
      </trkpt>
      <trkpt lat="31.20629255619818" lon="121.61119431739108">
        <ele>6.767838089726865</ele>
        <time>2020-09-20T23:12:23Z</time>
      </trkpt>
      <trkpt lat="31.206312538991988" lon="121.61130410984111">
        <ele>6.806098241358995</ele>
        <time>2020-09-20T23:12:27Z</time>
      </trkpt>
      <trkpt lat="31.206413839364764" lon="121.61144425761711">
        <ele>6.056475788354874</ele>
        <time>2020-09-20T23:12:35Z</time>
      </trkpt>
      <trkpt lat="31.206536894005353" lon="121.61149900841457">
        <ele>6.0786717515438795</ele>
        <time>2020-09-20T23:12:39Z</time>
      </trkpt>
      <trkpt lat="31.20658971255203" lon="121.61156948827421">
        <ele>6.750397535972297</ele>
        <time>2020-09-20T23:12:42Z</time>
      </trkpt>
      <trkpt lat="31.206437457623196" lon="121.61176495791571">
        <ele>7.289785082451999</ele>
        <time>2020-09-20T23:12:55Z</time>
      </trkpt>
      <trkpt lat="31.20637533062837" lon="121.6118134881942">
        <ele>7.879859944805503</ele>
        <time>2020-09-20T23:12:58Z</time>
      </trkpt>
      <trkpt lat="31.20621169683977" lon="121.61199513123664">
        <ele>7.2198548670858145</ele>
        <time>2020-09-20T23:13:07Z</time>
      </trkpt>
      <trkpt lat="31.205988658710986" lon="121.61220822367538">
        <ele>7.241701032966375</ele>
        <time>2020-09-20T23:13:19Z</time>
      </trkpt>
      <trkpt lat="31.205855941905014" lon="121.61237684906935">
        <ele>8.156574869528413</ele>
        <time>2020-09-20T23:13:28Z</time>
      </trkpt>
      <trkpt lat="31.205863464998405" lon="121.61246440818547">
        <ele>6.330865416675806</ele>
        <time>2020-09-20T23:13:31Z</time>
      </trkpt>
      <trkpt lat="31.205899448049294" lon="121.61256335002804">
        <ele>6.480112073943019</ele>
        <time>2020-09-20T23:13:34Z</time>
      </trkpt>
      <trkpt lat="31.20603512062359" lon="121.61277288356928">
        <ele>7.206686440855265</ele>
        <time>2020-09-20T23:13:46Z</time>
      </trkpt>
      <trkpt lat="31.20593528854458" lon="121.61284066139525">
        <ele>7.416485809721053</ele>
        <time>2020-09-20T23:14:08Z</time>
      </trkpt>
      <trkpt lat="31.205828363836673" lon="121.61296184173952">
        <ele>7.3145748395472765</ele>
        <time>2020-09-20T23:14:14Z</time>
      </trkpt>
      <trkpt lat="31.205644458236776" lon="121.61305564922236">
        <ele>6.931696839630604</ele>
        <time>2020-09-20T23:14:23Z</time>
      </trkpt>
      <trkpt lat="31.205546449384475" lon="121.6132145069714">
        <ele>6.89046689029783</ele>
        <time>2020-09-20T23:14:29Z</time>
      </trkpt>
      <trkpt lat="31.205417845266364" lon="121.6133196939116">
        <ele>7.836084036156535</ele>
        <time>2020-09-20T23:14:35Z</time>
      </trkpt>
      <trkpt lat="31.205323123987355" lon="121.61343544935086">
        <ele>6.762472775764763</ele>
        <time>2020-09-20T23:14:41Z</time>
      </trkpt>
      <trkpt lat="31.205226575428938" lon="121.61346500405637">
        <ele>6.204841773957014</ele>
        <time>2020-09-20T23:14:44Z</time>
      </trkpt>
      <trkpt lat="31.20503495890982" lon="121.61370030806853">
        <ele>5.970568587072194</ele>
        <time>2020-09-20T23:14:54Z</time>
      </trkpt>
      <trkpt lat="31.204826289143547" lon="121.6138995594377">
        <ele>5.473562872968614</ele>
        <time>2020-09-20T23:15:03Z</time>
      </trkpt>
      <trkpt lat="31.204715005085426" lon="121.61404025130959">
        <ele>5.349392065778375</ele>
        <time>2020-09-20T23:15:09Z</time>
      </trkpt>
      <trkpt lat="31.20449114558644" lon="121.61424383806401">
        <ele>5.861816117540002</ele>
        <time>2020-09-20T23:15:18Z</time>
      </trkpt>
      <trkpt lat="31.204278087748925" lon="121.61449648388724">
        <ele>6.772105243057013</ele>
        <time>2020-09-20T23:15:30Z</time>
      </trkpt>
      <trkpt lat="31.20415539578734" lon="121.61465696034344">
        <ele>6.56091586034745</ele>
        <time>2020-09-20T23:15:36Z</time>
      </trkpt>
      <trkpt lat="31.203943465270903" lon="121.61485647502312">
        <ele>5.420244880020618</ele>
        <time>2020-09-20T23:15:45Z</time>
      </trkpt>
      <trkpt lat="31.20387101705396" lon="121.61491936564227">
        <ele>4.038431040942669</ele>
        <time>2020-09-20T23:15:48Z</time>
      </trkpt>
      <trkpt lat="31.203797433522258" lon="121.6150397194346">
        <ele>6.472747480496764</ele>
        <time>2020-09-20T23:16:06Z</time>
      </trkpt>
      <trkpt lat="31.20377357888985" lon="121.615033758247">
        <ele>5.398059383966029</ele>
        <time>2020-09-20T23:16:07Z</time>
      </trkpt>
      <trkpt lat="31.203803400886542" lon="121.61503700841378">
        <ele>6.380257320590317</ele>
        <time>2020-09-20T23:16:19Z</time>
      </trkpt>
      <trkpt lat="31.2038139787434" lon="121.61503294174744">
        <ele>6.742475528270006</ele>
        <time>2020-09-20T23:16:30Z</time>
      </trkpt>
      <trkpt lat="31.203802335226143" lon="121.61501559532553">
        <ele>6.562571960501373</ele>
        <time>2020-09-20T23:16:36Z</time>
      </trkpt>
      <trkpt lat="31.203794455817594" lon="121.61503429862597">
        <ele>6.511578526347876</ele>
        <time>2020-09-20T23:16:38Z</time>
      </trkpt>
      <trkpt lat="31.203794455817594" lon="121.61503429862597">
        <ele>6.511578526347876</ele>
        <time>2020-09-20T23:16:42Z</time>
      </trkpt>
      <trkpt lat="31.203751320452817" lon="121.61506249166548">
        <ele>6.476250856183469</ele>
        <time>2020-09-20T23:16:45Z</time>
      </trkpt>
      <trkpt lat="31.203586290277308" lon="121.61526552274759">
        <ele>5.895179179497063</ele>
        <time>2020-09-20T23:16:57Z</time>
      </trkpt>
      <trkpt lat="31.203434912747635" lon="121.61535986054179">
        <ele>5.7964312471449375</ele>
        <time>2020-09-20T23:17:04Z</time>
      </trkpt>
      <trkpt lat="31.20323434339686" lon="121.61558322056327">
        <ele>4.796825742349029</ele>
        <time>2020-09-20T23:17:15Z</time>
      </trkpt>
      <trkpt lat="31.20306555271193" lon="121.61574315149147">
        <ele>5.433958403766155</ele>
        <time>2020-09-20T23:17:22Z</time>
      </trkpt>
      <trkpt lat="31.202952899673644" lon="121.61588816935104">
        <ele>5.393330218270421</ele>
        <time>2020-09-20T23:17:28Z</time>
      </trkpt>
      <trkpt lat="31.202704599389925" lon="121.61611911759358">
        <ele>5.723259716294706</ele>
        <time>2020-09-20T23:17:40Z</time>
      </trkpt>
      <trkpt lat="31.202450578944937" lon="121.61637635479958">
        <ele>5.489275235682726</ele>
        <time>2020-09-20T23:17:52Z</time>
      </trkpt>
      <trkpt lat="31.202367823213685" lon="121.61644032647415">
        <ele>5.60065705049783</ele>
        <time>2020-09-20T23:17:55Z</time>
      </trkpt>
      <trkpt lat="31.2022657446677" lon="121.61658127378307">
        <ele>6.348507337272167</ele>
        <time>2020-09-20T23:18:01Z</time>
      </trkpt>
      <trkpt lat="31.202232057247542" lon="121.61665228776806">
        <ele>4.774311128072441</ele>
        <time>2020-09-20T23:18:04Z</time>
      </trkpt>
      <trkpt lat="31.202090949354584" lon="121.61677724612663">
        <ele>5.1009016847237945</ele>
        <time>2020-09-20T23:18:10Z</time>
      </trkpt>
      <trkpt lat="31.201967986349313" lon="121.61692388489757">
        <ele>4.1245234636589885</ele>
        <time>2020-09-20T23:18:16Z</time>
      </trkpt>
      <trkpt lat="31.20188740234801" lon="121.61698378950186">
        <ele>4.914022085256875</ele>
        <time>2020-09-20T23:18:19Z</time>
      </trkpt>
      <trkpt lat="31.201837706614036" lon="121.61706564485927">
        <ele>4.606594868004322</ele>
        <time>2020-09-20T23:18:25Z</time>
      </trkpt>
      <trkpt lat="31.20178779840134" lon="121.61708597624185">
        <ele>2.8515748474746943</ele>
        <time>2020-09-20T23:18:28Z</time>
      </trkpt>
      <trkpt lat="31.201737017835043" lon="121.6171678313506">
        <ele>3.3674208307638764</ele>
        <time>2020-09-20T23:18:31Z</time>
      </trkpt>
      <trkpt lat="31.201502552906124" lon="121.6173803366083">
        <ele>4.4481885973364115</ele>
        <time>2020-09-20T23:18:40Z</time>
      </trkpt>
      <trkpt lat="31.201269394266628" lon="121.61764189530895">
        <ele>4.508046052418649</ele>
        <time>2020-09-20T23:18:52Z</time>
      </trkpt>
      <trkpt lat="31.201120134770186" lon="121.61778040047137">
        <ele>3.5221887975931168</ele>
        <time>2020-09-20T23:18:58Z</time>
      </trkpt>
      <trkpt lat="31.20098925266498" lon="121.6179787988857">
        <ele>4.582256098277867</ele>
        <time>2020-09-20T23:19:05Z</time>
      </trkpt>
      <trkpt lat="31.200762305785457" lon="121.61825932201813">
        <ele>3.4398502679541707</ele>
        <time>2020-09-20T23:19:16Z</time>
      </trkpt>
      <trkpt lat="31.200519352711996" lon="121.61854634768565">
        <ele>4.15703540854156</ele>
        <time>2020-09-20T23:19:28Z</time>
      </trkpt>
      <trkpt lat="31.200485120058772" lon="121.61861545901954">
        <ele>4.2993256989866495</ele>
        <time>2020-09-20T23:19:31Z</time>
      </trkpt>
      <trkpt lat="31.20039991754211" lon="121.61868105121694">
        <ele>4.369575636461377</ele>
        <time>2020-09-20T23:19:34Z</time>
      </trkpt>
      <trkpt lat="31.20016889965745" lon="121.61895885678312">
        <ele>3.435848972760141</ele>
        <time>2020-09-20T23:19:46Z</time>
      </trkpt>
      <trkpt lat="31.199946035250882" lon="121.61921524909837">
        <ele>5.381991947069764</ele>
        <time>2020-09-20T23:19:58Z</time>
      </trkpt>
      <trkpt lat="31.199717775222407" lon="121.61944345482792">
        <ele>5.282116601243615</ele>
        <time>2020-09-20T23:20:10Z</time>
      </trkpt>
      <trkpt lat="31.199477827723115" lon="121.61969740468197">
        <ele>6.016655841842294</ele>
        <time>2020-09-20T23:20:22Z</time>
      </trkpt>
      <trkpt lat="31.199339997761363" lon="121.6197868465454">
        <ele>5.388315845280886</ele>
        <time>2020-09-20T23:20:28Z</time>
      </trkpt>
      <trkpt lat="31.19928052359068" lon="121.6198779076151">
        <ele>5.7201996352523565</ele>
        <time>2020-09-20T23:20:32Z</time>
      </trkpt>
      <trkpt lat="31.199210511829424" lon="121.61993401033952">
        <ele>5.824987289495766</ele>
        <time>2020-09-20T23:20:35Z</time>
      </trkpt>
      <trkpt lat="31.199131591488484" lon="121.6199532578179">
        <ele>4.666433929465711</ele>
        <time>2020-09-20T23:20:38Z</time>
      </trkpt>
      <trkpt lat="31.19905371383573" lon="121.62001207101525">
        <ele>5.8210909478366375</ele>
        <time>2020-09-20T23:20:41Z</time>
      </trkpt>
      <trkpt lat="31.19899289998616" lon="121.62008741353608">
        <ele>6.292432143352926</ele>
        <time>2020-09-20T23:20:44Z</time>
      </trkpt>
      <trkpt lat="31.198814712269087" lon="121.62013702082353">
        <ele>5.316646979190409</ele>
        <time>2020-09-20T23:20:50Z</time>
      </trkpt>
      <trkpt lat="31.19876286255742" lon="121.62019637344314">
        <ele>6.203466295264661</ele>
        <time>2020-09-20T23:20:53Z</time>
      </trkpt>
      <trkpt lat="31.198705078400902" lon="121.6202270008252">
        <ele>7.369163799099624</ele>
        <time>2020-09-20T23:20:56Z</time>
      </trkpt>
      <trkpt lat="31.19863095326267" lon="121.6203259204224">
        <ele>5.801217639818788</ele>
        <time>2020-09-20T23:21:05Z</time>
      </trkpt>
      <trkpt lat="31.198556196210607" lon="121.62050803479538">
        <ele>6.510670769959688</ele>
        <time>2020-09-20T23:21:19Z</time>
      </trkpt>
      <trkpt lat="31.198330379208972" lon="121.62072457629158">
        <ele>7.979137308895588</ele>
        <time>2020-09-20T23:21:39Z</time>
      </trkpt>
      <trkpt lat="31.198238361417577" lon="121.6208199726099">
        <ele>6.958840679377317</ele>
        <time>2020-09-20T23:21:47Z</time>
      </trkpt>
      <trkpt lat="31.198007123966836" lon="121.62103244715595">
        <ele>5.558729819022119</ele>
        <time>2020-09-20T23:22:06Z</time>
      </trkpt>
      <trkpt lat="31.19787360807555" lon="121.62114031118693">
        <ele>5.70328042563051</ele>
        <time>2020-09-20T23:22:15Z</time>
      </trkpt>
      <trkpt lat="31.19784128576874" lon="121.62119261426946">
        <ele>5.6198033494874835</ele>
        <time>2020-09-20T23:22:18Z</time>
      </trkpt>
      <trkpt lat="31.19756311893412" lon="121.6214237875901">
        <ele>6.166901702992618</ele>
        <time>2020-09-20T23:22:30Z</time>
      </trkpt>
      <trkpt lat="31.19733973839462" lon="121.62163788251428">
        <ele>6.266608904115856</ele>
        <time>2020-09-20T23:22:39Z</time>
      </trkpt>
      <trkpt lat="31.19717933094172" lon="121.62178801924902">
        <ele>4.882447582669556</ele>
        <time>2020-09-20T23:22:45Z</time>
      </trkpt>
      <trkpt lat="31.197086548059" lon="121.62183734528006">
        <ele>4.97275032941252</ele>
        <time>2020-09-20T23:22:48Z</time>
      </trkpt>
      <trkpt lat="31.196862648042043" lon="121.62202867479803">
        <ele>4.766927073709667</ele>
        <time>2020-09-20T23:22:57Z</time>
      </trkpt>
      <trkpt lat="31.196728292348123" lon="121.62215685809394">
        <ele>5.601348443888128</ele>
        <time>2020-09-20T23:23:03Z</time>
      </trkpt>
      <trkpt lat="31.196688071686303" lon="121.62223896716712">
        <ele>5.421786854043603</ele>
        <time>2020-09-20T23:23:06Z</time>
      </trkpt>
      <trkpt lat="31.19671115735876" lon="121.62244300913818">
        <ele>5.940574091859162</ele>
        <time>2020-09-20T23:23:12Z</time>
      </trkpt>
      <trkpt lat="31.196726221967243" lon="121.62278361953432">
        <ele>5.189469903707504</ele>
        <time>2020-09-20T23:23:28Z</time>
      </trkpt>
      <trkpt lat="31.196754618909623" lon="121.62284621121972">
        <ele>3.2501415545120835</ele>
        <time>2020-09-20T23:23:32Z</time>
      </trkpt>
      <trkpt lat="31.196786650150422" lon="121.62304835109204">
        <ele>3.078049708157778</ele>
        <time>2020-09-20T23:23:41Z</time>
      </trkpt>
      <trkpt lat="31.19677761092429" lon="121.6231274742419">
        <ele>2.822752246633172</ele>
        <time>2020-09-20T23:23:44Z</time>
      </trkpt>
      <trkpt lat="31.196837065951634" lon="121.62329438431912">
        <ele>3.192047185264528</ele>
        <time>2020-09-20T23:23:50Z</time>
      </trkpt>
      <trkpt lat="31.196896792407507" lon="121.6236907984178">
        <ele>5.126769443973899</ele>
        <time>2020-09-20T23:24:02Z</time>
      </trkpt>
      <trkpt lat="31.196898020006884" lon="121.62379918256849">
        <ele>3.6705964794382453</ele>
        <time>2020-09-20T23:24:05Z</time>
      </trkpt>
      <trkpt lat="31.19693902565931" lon="121.62397340596767">
        <ele>5.417922582477331</ele>
        <time>2020-09-20T23:24:11Z</time>
      </trkpt>
      <trkpt lat="31.19692880593948" lon="121.62390322850166">
        <ele>4.392356011085212</ele>
        <time>2020-09-20T23:24:17Z</time>
      </trkpt>
      <trkpt lat="31.196953862302497" lon="121.62357888650556">
        <ele>5.574264381080866</ele>
        <time>2020-09-20T23:24:35Z</time>
      </trkpt>
      <trkpt lat="31.196941518730952" lon="121.62346941855384">
        <ele>7.299314224161208</ele>
        <time>2020-09-20T23:24:41Z</time>
      </trkpt>
      <trkpt lat="31.19691149085047" lon="121.62341143482205">
        <ele>5.344307486899197</ele>
        <time>2020-09-20T23:24:44Z</time>
      </trkpt>
      <trkpt lat="31.19691061299137" lon="121.62323449488342">
        <ele>5.678892646916211</ele>
        <time>2020-09-20T23:24:53Z</time>
      </trkpt>
      <trkpt lat="31.196863490329854" lon="121.62318762168238">
        <ele>5.623989084735513</ele>
        <time>2020-09-20T23:24:56Z</time>
      </trkpt>
      <trkpt lat="31.1968535950115" lon="121.6230700229441">
        <ele>4.134713784791529</ele>
        <time>2020-09-20T23:25:02Z</time>
      </trkpt>
      <trkpt lat="31.196745507204298" lon="121.62298847060903">
        <ele>5.813769838772714</ele>
        <time>2020-09-20T23:25:08Z</time>
      </trkpt>
      <trkpt lat="31.19667160922807" lon="121.62288334089175">
        <ele>4.424523328430951</ele>
        <time>2020-09-20T23:25:14Z</time>
      </trkpt>
      <trkpt lat="31.196763924807726" lon="121.62277033887243">
        <ele>4.880058824084699</ele>
        <time>2020-09-20T23:25:20Z</time>
      </trkpt>
      <trkpt lat="31.196907398708916" lon="121.62273184918794">
        <ele>5.057745324447751</ele>
        <time>2020-09-20T23:25:27Z</time>
      </trkpt>
      <trkpt lat="31.19703439277918" lon="121.62264160528946">
        <ele>4.727691403590143</ele>
        <time>2020-09-20T23:25:35Z</time>
      </trkpt>
      <trkpt lat="31.19714080304188" lon="121.62253158179442">
        <ele>5.954450463876128</ele>
        <time>2020-09-20T23:25:43Z</time>
      </trkpt>
      <trkpt lat="31.19729138610379" lon="121.6224405223539">
        <ele>4.687561610713601</ele>
        <time>2020-09-20T23:25:54Z</time>
      </trkpt>
      <trkpt lat="31.197435267477044" lon="121.62228171944463">
        <ele>5.042750251479447</ele>
        <time>2020-09-20T23:26:06Z</time>
      </trkpt>
      <trkpt lat="31.19749060210812" lon="121.62226112074148">
        <ele>4.233306234702468</ele>
        <time>2020-09-20T23:26:09Z</time>
      </trkpt>
      <trkpt lat="31.19753568916593" lon="121.62219147623856">
        <ele>5.721247187815607</ele>
        <time>2020-09-20T23:26:12Z</time>
      </trkpt>
      <trkpt lat="31.197820906177906" lon="121.6219649156425">
        <ele>5.9613204170018435</ele>
        <time>2020-09-20T23:26:24Z</time>
      </trkpt>
      <trkpt lat="31.197884145769645" lon="121.62190664998715">
        <ele>5.167784289456904</ele>
        <time>2020-09-20T23:26:27Z</time>
      </trkpt>
      <trkpt lat="31.198023608442217" lon="121.62181748620495">
        <ele>6.193826693110168</ele>
        <time>2020-09-20T23:26:33Z</time>
      </trkpt>
      <trkpt lat="31.1980887699029" lon="121.6217375416197">
        <ele>5.842941932380199</ele>
        <time>2020-09-20T23:26:36Z</time>
      </trkpt>
      <trkpt lat="31.198338163009055" lon="121.62153889136995">
        <ele>5.476841892115772</ele>
        <time>2020-09-20T23:26:45Z</time>
      </trkpt>
      <trkpt lat="31.198550475793986" lon="121.62128008401137">
        <ele>5.126313528046012</ele>
        <time>2020-09-20T23:26:54Z</time>
      </trkpt>
      <trkpt lat="31.19862378147978" lon="121.62118956866678">
        <ele>6.045932469889522</ele>
        <time>2020-09-20T23:26:57Z</time>
      </trkpt>
      <trkpt lat="31.198817488494445" lon="121.62108251281987">
        <ele>5.452604670077562</ele>
        <time>2020-09-20T23:27:03Z</time>
      </trkpt>
      <trkpt lat="31.198872066416904" lon="121.62100934159567">
        <ele>6.083223704248667</ele>
        <time>2020-09-20T23:27:06Z</time>
      </trkpt>
      <trkpt lat="31.19910839362827" lon="121.62085377436114">
        <ele>5.864766917191446</ele>
        <time>2020-09-20T23:27:15Z</time>
      </trkpt>
      <trkpt lat="31.199174899433764" lon="121.62078195646507">
        <ele>6.411874484270811</ele>
        <time>2020-09-20T23:27:18Z</time>
      </trkpt>
      <trkpt lat="31.19926144142584" lon="121.62073560988162">
        <ele>6.216184962540865</ele>
        <time>2020-09-20T23:27:21Z</time>
      </trkpt>
      <trkpt lat="31.199427673347632" lon="121.62071093593221">
        <ele>5.16031536180526</ele>
        <time>2020-09-20T23:27:27Z</time>
      </trkpt>
      <trkpt lat="31.199700681727762" lon="121.62073286362403">
        <ele>4.9032241171225905</ele>
        <time>2020-09-20T23:27:38Z</time>
      </trkpt>
      <trkpt lat="31.199954274890278" lon="121.6206564230543">
        <ele>5.890657909214497</ele>
        <time>2020-09-20T23:27:52Z</time>
      </trkpt>
      <trkpt lat="31.200123429313003" lon="121.62068730210694">
        <ele>5.732630845159292</ele>
        <time>2020-09-20T23:28:04Z</time>
      </trkpt>
      <trkpt lat="31.20023453251941" lon="121.62074447205889">
        <ele>6.977048120461404</ele>
        <time>2020-09-20T23:28:14Z</time>
      </trkpt>
      <trkpt lat="31.200296347042723" lon="121.62074826081611">
        <ele>6.031719028018415</ele>
        <time>2020-09-20T23:28:17Z</time>
      </trkpt>
      <trkpt lat="31.200461911974323" lon="121.62083875791133">
        <ele>5.905409283936024</ele>
        <time>2020-09-20T23:28:29Z</time>
      </trkpt>
      <trkpt lat="31.20054542755189" lon="121.62083306021069">
        <ele>5.537599651142955</ele>
        <time>2020-09-20T23:28:35Z</time>
      </trkpt>
      <trkpt lat="31.200829208656735" lon="121.62092192129465">
        <ele>5.830714320763946</ele>
        <time>2020-09-20T23:28:54Z</time>
      </trkpt>
      <trkpt lat="31.201160760398462" lon="121.6209638971297">
        <ele>5.025012911297381</ele>
        <time>2020-09-20T23:29:17Z</time>
      </trkpt>
      <trkpt lat="31.20145327499871" lon="121.62100018537457">
        <ele>4.412791036069393</ele>
        <time>2020-09-20T23:29:36Z</time>
      </trkpt>
      <trkpt lat="31.201535711164414" lon="121.62098988099602">
        <ele>4.479666183702648</ele>
        <time>2020-09-20T23:29:42Z</time>
      </trkpt>
      <trkpt lat="31.20184932604164" lon="121.62107033846462">
        <ele>4.60418408177793</ele>
        <time>2020-09-20T23:29:56Z</time>
      </trkpt>
      <trkpt lat="31.202010890603106" lon="121.62109932074426">
        <ele>3.375023774802685</ele>
        <time>2020-09-20T23:30:02Z</time>
      </trkpt>
      <trkpt lat="31.202057273926183" lon="121.62108170272877">
        <ele>3.620580538176</ele>
        <time>2020-09-20T23:30:05Z</time>
      </trkpt>
      <trkpt lat="31.202368448774987" lon="121.62116188913022">
        <ele>3.1900347638875246</ele>
        <time>2020-09-20T23:30:26Z</time>
      </trkpt>
      <trkpt lat="31.202458753021116" lon="121.6211469773892">
        <ele>3.381655601784587</ele>
        <time>2020-09-20T23:30:32Z</time>
      </trkpt>
      <trkpt lat="31.2024484032929" lon="121.62094156948649">
        <ele>1.9984269477427006</ele>
        <time>2020-09-20T23:30:41Z</time>
      </trkpt>
      <trkpt lat="31.202430319840943" lon="121.62086569399013">
        <ele>2.829783882945776</ele>
        <time>2020-09-20T23:30:44Z</time>
      </trkpt>
      <trkpt lat="31.202445838688984" lon="121.62080661689482">
        <ele>3.5613449923694134</ele>
        <time>2020-09-20T23:30:47Z</time>
      </trkpt>
      <trkpt lat="31.202425249198328" lon="121.62079117214921">
        <ele>4.939674419350922</ele>
        <time>2020-09-20T23:30:50Z</time>
      </trkpt>
      <trkpt lat="31.20239549102123" lon="121.62072965971339">
        <ele>5.04845195543021</ele>
        <time>2020-09-20T23:32:17Z</time>
      </trkpt>
      <trkpt lat="31.202378364704725" lon="121.62051991320682">
        <ele>4.032110080122948</ele>
        <time>2020-09-20T23:32:23Z</time>
      </trkpt>
      <trkpt lat="31.202396695872174" lon="121.62036598707486">
        <ele>4.133637852966785</ele>
        <time>2020-09-20T23:32:29Z</time>
      </trkpt>
      <trkpt lat="31.202435772334667" lon="121.62033509041073">
        <ele>4.983684328384697</ele>
        <time>2020-09-20T23:32:44Z</time>
      </trkpt>
      <trkpt lat="31.202435772334667" lon="121.62033509041073">
        <ele>4.983684328384697</ele>
        <time>2020-09-20T23:32:53Z</time>
      </trkpt>
      <trkpt lat="31.202457966254073" lon="121.62037167289549">
        <ele>4.875416192226112</ele>
        <time>2020-09-20T23:32:58Z</time>
      </trkpt>
      <trkpt lat="31.20246448161145" lon="121.62036408450129">
        <ele>4.4934284733608365</ele>
        <time>2020-09-20T23:33:10Z</time>
      </trkpt>
      <trkpt lat="31.202488616672674" lon="121.62036028857565">
        <ele>4.095912200398743</ele>
        <time>2020-09-20T23:33:56Z</time>
      </trkpt>
      <trkpt lat="31.202480214102" lon="121.62035785031678">
        <ele>1.1493471413850784</ele>
        <time>2020-09-20T23:34:05Z</time>
      </trkpt>
      <trkpt lat="31.202481571515886" lon="121.62035622423484">
        <ele>1.8741270191967487</ele>
        <time>2020-09-20T23:34:06Z</time>
      </trkpt>
      <trkpt lat="31.202492696161876" lon="121.62034863545469">
        <ele>4.355504989624023</ele>
        <time>2020-09-20T23:34:12Z</time>
      </trkpt>
      <trkpt lat="31.202492159399142" lon="121.62034348659316">
        <ele>4.362230313010514</ele>
        <time>2020-09-20T23:34:15Z</time>
      </trkpt>
      <trkpt lat="31.202478868284572" lon="121.62034863659902">
        <ele>4.443747336044908</ele>
        <time>2020-09-20T23:34:24Z</time>
      </trkpt>
      <trkpt lat="31.202483483953394" lon="121.62034267432585">
        <ele>3.910635679960251</ele>
        <time>2020-09-20T23:34:27Z</time>
      </trkpt>
      <trkpt lat="31.2027234281734" lon="121.62035213929548">
        <ele>5.19559115730226</ele>
        <time>2020-09-20T23:34:36Z</time>
      </trkpt>
      <trkpt lat="31.20288941720168" lon="121.62030117845178">
        <ele>3.59811151959002</ele>
        <time>2020-09-20T23:34:42Z</time>
      </trkpt>
      <trkpt lat="31.202917411758865" lon="121.6202377631068">
        <ele>4.58800823520869</ele>
        <time>2020-09-20T23:34:45Z</time>
      </trkpt>
      <trkpt lat="31.202878185462296" lon="121.62015484138962">
        <ele>3.2478162460029125</ele>
        <time>2020-09-20T23:34:48Z</time>
      </trkpt>
      <trkpt lat="31.20285802560762" lon="121.61998953433188">
        <ele>3.3915696246549487</ele>
        <time>2020-09-20T23:34:54Z</time>
      </trkpt>
      <trkpt lat="31.20279937449226" lon="121.61981393137962">
        <ele>5.753886255435646</ele>
        <time>2020-09-20T23:35:00Z</time>
      </trkpt>
      <trkpt lat="31.202789176051088" lon="121.61971420380104">
        <ele>6.486140012741089</ele>
        <time>2020-09-20T23:35:03Z</time>
      </trkpt>
      <trkpt lat="31.202676497842845" lon="121.61934456418012">
        <ele>5.217033845372498</ele>
        <time>2020-09-20T23:35:15Z</time>
      </trkpt>
      <trkpt lat="31.202587341260777" lon="121.61903589433415">
        <ele>3.3714415272697806</ele>
        <time>2020-09-20T23:35:24Z</time>
      </trkpt>
      <trkpt lat="31.202560595112715" lon="121.61894185629845">
        <ele>5.799893673509359</ele>
        <time>2020-09-20T23:35:27Z</time>
      </trkpt>
      <trkpt lat="31.202552558068113" lon="121.61884673232314">
        <ele>4.627144200727344</ele>
        <time>2020-09-20T23:35:30Z</time>
      </trkpt>
      <trkpt lat="31.20260636117818" lon="121.61873019292582">
        <ele>2.847673294134438</ele>
        <time>2020-09-20T23:35:36Z</time>
      </trkpt>
      <trkpt lat="31.202649513092073" lon="121.61868926649164">
        <ele>5.5682556591928005</ele>
        <time>2020-09-20T23:35:39Z</time>
      </trkpt>
      <trkpt lat="31.202712255639586" lon="121.6185800430019">
        <ele>6.177890943363309</ele>
        <time>2020-09-20T23:35:45Z</time>
      </trkpt>
      <trkpt lat="31.202808858027886" lon="121.61850225394822">
        <ele>5.898602636530995</ele>
        <time>2020-09-20T23:35:51Z</time>
      </trkpt>
      <trkpt lat="31.202829534272244" lon="121.61843260139743">
        <ele>6.869694271124899</ele>
        <time>2020-09-20T23:35:55Z</time>
      </trkpt>
      <trkpt lat="31.20282831671633" lon="121.61829465432434">
        <ele>5.1995885437354445</ele>
        <time>2020-09-20T23:36:04Z</time>
      </trkpt>
      <trkpt lat="31.20277253402806" lon="121.61822338141961">
        <ele>7.285796011798084</ele>
        <time>2020-09-20T23:36:10Z</time>
      </trkpt>
      <trkpt lat="31.20276017231568" lon="121.61811226499287">
        <ele>6.385215988382697</ele>
        <time>2020-09-20T23:36:16Z</time>
      </trkpt>
      <trkpt lat="31.202724451547905" lon="121.6180426160276">
        <ele>4.723049531690776</ele>
        <time>2020-09-20T23:36:22Z</time>
      </trkpt>
      <trkpt lat="31.20273399943134" lon="121.61798380393232">
        <ele>5.705053661949933</ele>
        <time>2020-09-20T23:36:25Z</time>
      </trkpt>
      <trkpt lat="31.202677491622232" lon="121.61782200904909">
        <ele>6.5984252989292145</ele>
        <time>2020-09-20T23:36:37Z</time>
      </trkpt>
      <trkpt lat="31.202643376501204" lon="121.61777322787941">
        <ele>5.725892178714275</ele>
        <time>2020-09-20T23:36:40Z</time>
      </trkpt>
      <trkpt lat="31.202594456894673" lon="121.61761387022113">
        <ele>4.93123815022409</ele>
        <time>2020-09-20T23:36:46Z</time>
      </trkpt>
      <trkpt lat="31.202550599545734" lon="121.61754557566341">
        <ele>4.306953405961394</ele>
        <time>2020-09-20T23:36:49Z</time>
      </trkpt>
      <trkpt lat="31.20252465559372" lon="121.6174580366067">
        <ele>5.779277916997671</ele>
        <time>2020-09-20T23:36:52Z</time>
      </trkpt>
      <trkpt lat="31.202448310650244" lon="121.6173390622786">
        <ele>3.837016625329852</ele>
        <time>2020-09-20T23:36:58Z</time>
      </trkpt>
      <trkpt lat="31.20248064205369" lon="121.61727021860663">
        <ele>4.8081939946860075</ele>
        <time>2020-09-20T23:37:04Z</time>
      </trkpt>
      <trkpt lat="31.20273626029986" lon="121.61705201902039">
        <ele>4.919823289848864</ele>
        <time>2020-09-20T23:37:25Z</time>
      </trkpt>
      <trkpt lat="31.20287058828712" lon="121.61693004396568">
        <ele>5.272965918295085</ele>
        <time>2020-09-20T23:37:37Z</time>
      </trkpt>
      <trkpt lat="31.202915339203376" lon="121.61691567558206">
        <ele>6.0320731261745095</ele>
        <time>2020-09-20T23:37:40Z</time>
      </trkpt>
      <trkpt lat="31.203044517615982" lon="121.6167909899474">
        <ele>4.705424333922565</ele>
        <time>2020-09-20T23:37:52Z</time>
      </trkpt>
      <trkpt lat="31.20308688530915" lon="121.61671618117018">
        <ele>4.249550104141235</ele>
        <time>2020-09-20T23:37:59Z</time>
      </trkpt>
      <trkpt lat="31.203218461570923" lon="121.6166356730541">
        <ele>5.356340032070875</ele>
        <time>2020-09-20T23:38:11Z</time>
      </trkpt>
      <trkpt lat="31.20337096930996" lon="121.61649716121609">
        <ele>5.339753650128841</ele>
        <time>2020-09-20T23:38:26Z</time>
      </trkpt>
      <trkpt lat="31.20345072935207" lon="121.61644755490232">
        <ele>3.20795282907784</ele>
        <time>2020-09-20T23:38:32Z</time>
      </trkpt>
      <trkpt lat="31.203525358186297" lon="121.61637599486319">
        <ele>4.025973309762776</ele>
        <time>2020-09-20T23:38:38Z</time>
      </trkpt>
      <trkpt lat="31.203609961666967" lon="121.61636595946574">
        <ele>6.844349960796535</ele>
        <time>2020-09-20T23:38:44Z</time>
      </trkpt>
      <trkpt lat="31.203783075137046" lon="121.61622663127989">
        <ele>6.62720584962517</ele>
        <time>2020-09-20T23:39:02Z</time>
      </trkpt>
      <trkpt lat="31.20386065938388" lon="121.61618380059598">
        <ele>6.486443198285997</ele>
        <time>2020-09-20T23:39:08Z</time>
      </trkpt>
      <trkpt lat="31.203945098065844" lon="121.6160583018152">
        <ele>6.684565622359514</ele>
        <time>2020-09-20T23:39:17Z</time>
      </trkpt>
      <trkpt lat="31.204009386984627" lon="121.61602577152053">
        <ele>6.497338210232556</ele>
        <time>2020-09-20T23:39:23Z</time>
      </trkpt>
      <trkpt lat="31.204164219866268" lon="121.6160097672508">
        <ele>6.970831332728267</ele>
        <time>2020-09-20T23:39:35Z</time>
      </trkpt>
      <trkpt lat="31.204216300201807" lon="121.61598536916571">
        <ele>6.800119485706091</ele>
        <time>2020-09-20T23:39:38Z</time>
      </trkpt>
      <trkpt lat="31.20433578697135" lon="121.61607670030092">
        <ele>6.500842661596835</ele>
        <time>2020-09-20T23:39:47Z</time>
      </trkpt>
      <trkpt lat="31.204539207493834" lon="121.61629541265228">
        <ele>5.9289772510528564</ele>
        <time>2020-09-20T23:40:06Z</time>
      </trkpt>
      <trkpt lat="31.204578761543058" lon="121.61632956022753">
        <ele>5.922565046697855</ele>
        <time>2020-09-20T23:40:09Z</time>
      </trkpt>
      <trkpt lat="31.20454659720317" lon="121.61622087629632">
        <ele>6.950640699826181</ele>
        <time>2020-09-20T23:40:21Z</time>
      </trkpt>
      <trkpt lat="31.20435157357672" lon="121.61601056487962">
        <ele>6.576079609803855</ele>
        <time>2020-09-20T23:40:30Z</time>
      </trkpt>
      <trkpt lat="31.20429525341749" lon="121.61592763059805">
        <ele>6.375592190772295</ele>
        <time>2020-09-20T23:40:33Z</time>
      </trkpt>
      <trkpt lat="31.204080163842566" lon="121.61571704725823">
        <ele>7.020733440294862</ele>
        <time>2020-09-20T23:40:42Z</time>
      </trkpt>
      <trkpt lat="31.203872119286604" lon="121.61550971407385">
        <ele>6.110295232385397</ele>
        <time>2020-09-20T23:40:51Z</time>
      </trkpt>
      <trkpt lat="31.203737753441143" lon="121.6153790799743">
        <ele>3.78228014241904</ele>
        <time>2020-09-20T23:40:57Z</time>
      </trkpt>
      <trkpt lat="31.203581643779568" lon="121.61530726482188">
        <ele>5.672089311294258</ele>
        <time>2020-09-20T23:41:03Z</time>
      </trkpt>
      <trkpt lat="31.203405566165774" lon="121.61512703065866">
        <ele>5.491340910084546</ele>
        <time>2020-09-20T23:41:12Z</time>
      </trkpt>
      <trkpt lat="31.203369562005594" lon="121.61506279429025">
        <ele>5.154716424643993</ele>
        <time>2020-09-20T23:41:15Z</time>
      </trkpt>
      <trkpt lat="31.203370244073668" lon="121.61490395696953">
        <ele>6.388417254202068</ele>
        <time>2020-09-20T23:41:24Z</time>
      </trkpt>
      <trkpt lat="31.203416950513887" lon="121.61482263669409">
        <ele>5.637975472025573</ele>
        <time>2020-09-20T23:41:27Z</time>
      </trkpt>
      <trkpt lat="31.203489409348965" lon="121.61474727724605">
        <ele>7.082649419084191</ele>
        <time>2020-09-20T23:41:30Z</time>
      </trkpt>
      <trkpt lat="31.203393377951354" lon="121.61449167799076">
        <ele>6.567841535434127</ele>
        <time>2020-09-20T23:41:42Z</time>
      </trkpt>
      <trkpt lat="31.20330048280982" lon="121.6143705220254">
        <ele>6.682877103798091</ele>
        <time>2020-09-20T23:41:48Z</time>
      </trkpt>
      <trkpt lat="31.203268014367495" lon="121.61429137497007">
        <ele>6.608776950277388</ele>
        <time>2020-09-20T23:41:51Z</time>
      </trkpt>
      <trkpt lat="31.20322278779863" lon="121.61422930561291">
        <ele>6.843731991015375</ele>
        <time>2020-09-20T23:41:54Z</time>
      </trkpt>
      <trkpt lat="31.203101542147348" lon="121.61396638412606">
        <ele>7.760144842788577</ele>
        <time>2020-09-20T23:42:09Z</time>
      </trkpt>
      <trkpt lat="31.203006884348234" lon="121.61368041673451">
        <ele>8.431390017271042</ele>
        <time>2020-09-20T23:42:25Z</time>
      </trkpt>
      <trkpt lat="31.20296112467861" lon="121.61360560557661">
        <ele>8.146466995589435</ele>
        <time>2020-09-20T23:42:29Z</time>
      </trkpt>
      <trkpt lat="31.20283532618389" lon="121.6132662350688">
        <ele>4.700869583524764</ele>
        <time>2020-09-20T23:42:44Z</time>
      </trkpt>
      <trkpt lat="31.20277870959693" lon="121.61320416395748">
        <ele>6.304351466707885</ele>
        <time>2020-09-20T23:42:47Z</time>
      </trkpt>
      <trkpt lat="31.20272837336807" lon="121.61308733506829">
        <ele>8.92459680698812</ele>
        <time>2020-09-20T23:42:53Z</time>
      </trkpt>
      <trkpt lat="31.202600541757736" lon="121.6129087065038">
        <ele>10.704300644807518</ele>
        <time>2020-09-20T23:43:05Z</time>
      </trkpt>
      <trkpt lat="31.202552090922257" lon="121.61280597205855">
        <ele>9.880066512152553</ele>
        <time>2020-09-20T23:43:11Z</time>
      </trkpt>
      <trkpt lat="31.202361194141645" lon="121.6124866554111">
        <ele>8.285386012867093</ele>
        <time>2020-09-20T23:43:29Z</time>
      </trkpt>
      <trkpt lat="31.202302224649184" lon="121.61231072738812">
        <ele>8.384507008828223</ele>
        <time>2020-09-20T23:43:35Z</time>
      </trkpt>
      <trkpt lat="31.202289831382064" lon="121.61220934274675">
        <ele>8.48110507428646</ele>
        <time>2020-09-20T23:43:38Z</time>
      </trkpt>
      <trkpt lat="31.20232433755157" lon="121.61211635746271">
        <ele>8.201928300783038</ele>
        <time>2020-09-20T23:43:41Z</time>
      </trkpt>
      <trkpt lat="31.20237237257296" lon="121.61205915420098">
        <ele>5.855538782663643</ele>
        <time>2020-09-20T23:43:44Z</time>
      </trkpt>
      <trkpt lat="31.202444248361818" lon="121.61202661779355">
        <ele>4.626549716107547</ele>
        <time>2020-09-20T23:43:47Z</time>
      </trkpt>
      <trkpt lat="31.202557673229947" lon="121.61190868509595">
        <ele>7.374518535099924</ele>
        <time>2020-09-20T23:43:53Z</time>
      </trkpt>
      <trkpt lat="31.202698747976203" lon="121.61179779785364">
        <ele>7.265914189629257</ele>
        <time>2020-09-20T23:43:59Z</time>
      </trkpt>
      <trkpt lat="31.2027511430884" lon="121.61171077343963">
        <ele>9.666951827704906</ele>
        <time>2020-09-20T23:44:02Z</time>
      </trkpt>
      <trkpt lat="31.202829802377206" lon="121.61167091650894">
        <ele>8.507844649255276</ele>
        <time>2020-09-20T23:44:05Z</time>
      </trkpt>
      <trkpt lat="31.203095987326787" lon="121.61140251227278">
        <ele>6.488528538495302</ele>
        <time>2020-09-20T23:44:18Z</time>
      </trkpt>
      <trkpt lat="31.203189360924707" lon="121.61126370362393">
        <ele>5.374920479953289</ele>
        <time>2020-09-20T23:44:25Z</time>
      </trkpt>
      <trkpt lat="31.203350254186734" lon="121.61111431572701">
        <ele>6.259851012378931</ele>
        <time>2020-09-20T23:44:33Z</time>
      </trkpt>
      <trkpt lat="31.203424883299032" lon="121.61102294929672">
        <ele>4.987627621740103</ele>
        <time>2020-09-20T23:44:37Z</time>
      </trkpt>
      <trkpt lat="31.203520616957984" lon="121.61099149384933">
        <ele>5.339253842830658</ele>
        <time>2020-09-20T23:44:41Z</time>
      </trkpt>
      <trkpt lat="31.20356429264779" lon="121.61096004266216">
        <ele>5.981292831711471</ele>
        <time>2020-09-20T23:44:44Z</time>
      </trkpt>
      <trkpt lat="31.203637237273856" lon="121.61094729492916">
        <ele>6.068484506569803</ele>
        <time>2020-09-20T23:44:50Z</time>
      </trkpt>
      <trkpt lat="31.20366792501711" lon="121.61087924615667">
        <ele>7.328528957441449</ele>
        <time>2020-09-20T23:45:17Z</time>
      </trkpt>
      <trkpt lat="31.20367470791972" lon="121.61087301027337">
        <ele>6.62122930213809</ele>
        <time>2020-09-20T23:45:31Z</time>
      </trkpt>
      <trkpt lat="31.203665223697" lon="121.61086542022761">
        <ele>7.673395563848317</ele>
        <time>2020-09-20T23:45:37Z</time>
      </trkpt>
      <trkpt lat="31.20366578463287" lon="121.61083966556136">
        <ele>8.215805635787547</ele>
        <time>2020-09-20T23:45:48Z</time>
      </trkpt>
      <trkpt lat="31.20374797367602" lon="121.61079113156212">
        <ele>8.02203008159995</ele>
        <time>2020-09-20T23:45:57Z</time>
      </trkpt>
      <trkpt lat="31.203781104350856" lon="121.61071874447644">
        <ele>6.6017515659332275</ele>
        <time>2020-09-20T23:46:00Z</time>
      </trkpt>
      <trkpt lat="31.20390641378092" lon="121.61065610927228">
        <ele>9.022612954489887</ele>
        <time>2020-09-20T23:46:06Z</time>
      </trkpt>
      <trkpt lat="31.204131081416122" lon="121.61042077155801">
        <ele>7.864015814848244</ele>
        <time>2020-09-20T23:46:18Z</time>
      </trkpt>
      <trkpt lat="31.204164211448592" lon="121.61034784107878">
        <ele>7.042730817571282</ele>
        <time>2020-09-20T23:46:21Z</time>
      </trkpt>
      <trkpt lat="31.204334315700613" lon="121.61020197083228">
        <ele>7.137598036788404</ele>
        <time>2020-09-20T23:46:28Z</time>
      </trkpt>
      <trkpt lat="31.20438671158244" lon="121.61010626481352">
        <ele>7.477428700774908</ele>
        <time>2020-09-20T23:46:32Z</time>
      </trkpt>
      <trkpt lat="31.204462112446674" lon="121.6100699297887">
        <ele>8.691801083274186</ele>
        <time>2020-09-20T23:46:36Z</time>
      </trkpt>
      <trkpt lat="31.20469621859794" lon="121.60990155012357">
        <ele>9.887181132100523</ele>
        <time>2020-09-20T23:46:52Z</time>
      </trkpt>
      <trkpt lat="31.204852222097166" lon="121.6097545937059">
        <ele>9.761534582823515</ele>
        <time>2020-09-20T23:47:04Z</time>
      </trkpt>
      <trkpt lat="31.204904090792528" lon="121.60963421430618">
        <ele>9.19279403053224</ele>
        <time>2020-09-20T23:47:10Z</time>
      </trkpt>
      <trkpt lat="31.20489491710447" lon="121.60956779158504">
        <ele>8.138244776055217</ele>
        <time>2020-09-20T23:47:13Z</time>
      </trkpt>
      <trkpt lat="31.20481853152343" lon="121.60945691091848">
        <ele>8.373705612495542</ele>
        <time>2020-09-20T23:47:22Z</time>
      </trkpt>
      <trkpt lat="31.204756814738538" lon="121.60930400495752">
        <ele>8.651008640415967</ele>
        <time>2020-09-20T23:47:34Z</time>
      </trkpt>
      <trkpt lat="31.20478455777323" lon="121.6091722380399">
        <ele>8.578652393072844</ele>
        <time>2020-09-20T23:47:46Z</time>
      </trkpt>
      <trkpt lat="31.204962343204134" lon="121.60887886804011">
        <ele>7.93483866378665</ele>
        <time>2020-09-20T23:48:16Z</time>
      </trkpt>
      <trkpt lat="31.205043698048033" lon="121.60885690018122">
        <ele>7.8196981912478805</ele>
        <time>2020-09-20T23:48:25Z</time>
      </trkpt>
      <trkpt lat="31.205157106432797" lon="121.60874247565896">
        <ele>7.587587997317314</ele>
        <time>2020-09-20T23:48:36Z</time>
      </trkpt>
      <trkpt lat="31.205204379203252" lon="121.60859362272922">
        <ele>6.657136878930032</ele>
        <time>2020-09-20T23:48:44Z</time>
      </trkpt>
    </trkseg>
  </trk>
</gpx>