<?xml version="1.0" encoding="UTF-8"?>
<gpx xmlns="http://www.topografix.com/GPX/1/1" xmlns:gpxtpx="http://www.garmin.com/xmlschemas/TrackPointExtension/v1" xmlns:xsi="http://www.w3.org/2001/XMLSchema-instance" xsi:schemaLocation="http://www.topografix.com/GPX/1/1 http://www.topografix.com/GPX/1/1/gpx.xsd" version="1.1" creator="gpx.py -- https://github.com/tkrajina/gpxpy">
  <trk>
    <name>gpx from keep</name>
    <type>Run</type>
    <trkseg>
      <trkpt lat="31.204654652057872" lon="121.61078807448656">
        <ele>8.854049964369064</ele>
        <time>2020-05-02T23:19:58Z</time>
      </trkpt>
      <trkpt lat="31.20467692914098" lon="121.6107270746075">
        <ele>8.879318768441752</ele>
        <time>2020-05-02T23:20:01Z</time>
      </trkpt>
      <trkpt lat="31.204867289761893" lon="121.61069425541396">
        <ele>9.000492917174544</ele>
        <time>2020-05-02T23:20:05Z</time>
      </trkpt>
      <trkpt lat="31.204991322555806" lon="121.61052100959301">
        <ele>8.819265653379261</ele>
        <time>2020-05-02T23:20:12Z</time>
      </trkpt>
      <trkpt lat="31.205066181578346" lon="121.6104849463834">
        <ele>8.558967050164938</ele>
        <time>2020-05-02T23:20:16Z</time>
      </trkpt>
      <trkpt lat="31.205151100414618" lon="121.61040957187105">
        <ele>8.391620581038296</ele>
        <time>2020-05-02T23:20:19Z</time>
      </trkpt>
      <trkpt lat="31.20521625286796" lon="121.61029624366937">
        <ele>8.174697753041983</ele>
        <time>2020-05-02T23:20:23Z</time>
      </trkpt>
      <trkpt lat="31.205329407928314" lon="121.61016555993426">
        <ele>7.654442961327732</ele>
        <time>2020-05-02T23:20:26Z</time>
      </trkpt>
      <trkpt lat="31.205393650562883" lon="121.61018914113392">
        <ele>7.900795286521316</ele>
        <time>2020-05-02T23:20:29Z</time>
      </trkpt>
      <trkpt lat="31.20543562814361" lon="121.61025827039745">
        <ele>7.184460756368935</ele>
        <time>2020-05-02T23:20:32Z</time>
      </trkpt>
      <trkpt lat="31.205626645779617" lon="121.61044667412332">
        <ele>6.168050212785602</ele>
        <time>2020-05-02T23:20:42Z</time>
      </trkpt>
      <trkpt lat="31.205723390907345" lon="121.61051742470526">
        <ele>6.426288737915456</ele>
        <time>2020-05-02T23:20:46Z</time>
      </trkpt>
      <trkpt lat="31.205803915282416" lon="121.6105214846266">
        <ele>6.527444299310446</ele>
        <time>2020-05-02T23:20:49Z</time>
      </trkpt>
      <trkpt lat="31.205987846584033" lon="121.61075841412973">
        <ele>6.175366068258882</ele>
        <time>2020-05-02T23:20:59Z</time>
      </trkpt>
      <trkpt lat="31.206090458389323" lon="121.6109633581202">
        <ele>7.155896230600774</ele>
        <time>2020-05-02T23:21:07Z</time>
      </trkpt>
      <trkpt lat="31.20617228035572" lon="121.61104684998374">
        <ele>6.674209613353014</ele>
        <time>2020-05-02T23:21:11Z</time>
      </trkpt>
      <trkpt lat="31.206270033718827" lon="121.61121898908496">
        <ele>6.856666763313115</ele>
        <time>2020-05-02T23:21:18Z</time>
      </trkpt>
      <trkpt lat="31.206491393709072" lon="121.61143150977202">
        <ele>6.087077631615102</ele>
        <time>2020-05-02T23:21:29Z</time>
      </trkpt>
      <trkpt lat="31.206449035450106" lon="121.6115131125414">
        <ele>6.311039054766297</ele>
        <time>2020-05-02T23:21:32Z</time>
      </trkpt>
      <trkpt lat="31.206360352900827" lon="121.61154131357308">
        <ele>7.079368311911821</ele>
        <time>2020-05-02T23:21:36Z</time>
      </trkpt>
      <trkpt lat="31.206295779568446" lon="121.61159851948435">
        <ele>6.672634741291404</ele>
        <time>2020-05-02T23:21:40Z</time>
      </trkpt>
      <trkpt lat="31.20624391565746" lon="121.61170045429768">
        <ele>6.509873116388917</ele>
        <time>2020-05-02T23:21:44Z</time>
      </trkpt>
      <trkpt lat="31.206012987692144" lon="121.61195177358434">
        <ele>7.333307561464608</ele>
        <time>2020-05-02T23:21:56Z</time>
      </trkpt>
      <trkpt lat="31.205939979274532" lon="121.61204666031998">
        <ele>7.650473822839558</ele>
        <time>2020-05-02T23:22:00Z</time>
      </trkpt>
      <trkpt lat="31.20564558477906" lon="121.61232048106946">
        <ele>6.419598950073123</ele>
        <time>2020-05-02T23:22:12Z</time>
      </trkpt>
      <trkpt lat="31.205536476987078" lon="121.61246253764675">
        <ele>7.74498672131449</ele>
        <time>2020-05-02T23:22:18Z</time>
      </trkpt>
      <trkpt lat="31.205562427805905" lon="121.61256175140836">
        <ele>6.829758204519749</ele>
        <time>2020-05-02T23:22:22Z</time>
      </trkpt>
      <trkpt lat="31.205637214038138" lon="121.61262138299799">
        <ele>8.182494029402733</ele>
        <time>2020-05-02T23:22:30Z</time>
      </trkpt>
      <trkpt lat="31.205512653366558" lon="121.61275910175462">
        <ele>8.265145900659263</ele>
        <time>2020-05-02T23:22:46Z</time>
      </trkpt>
      <trkpt lat="31.205365321615048" lon="121.61289058680387">
        <ele>7.367452954873443</ele>
        <time>2020-05-02T23:22:54Z</time>
      </trkpt>
      <trkpt lat="31.205299331406028" lon="121.61302016685673">
        <ele>7.609497983008623</ele>
        <time>2020-05-02T23:23:01Z</time>
      </trkpt>
      <trkpt lat="31.205254549792418" lon="121.61307492780928">
        <ele>7.168287794105709</ele>
        <time>2020-05-02T23:23:04Z</time>
      </trkpt>
      <trkpt lat="31.205131896017665" lon="121.61319881897941">
        <ele>9.058790795505047</ele>
        <time>2020-05-02T23:23:11Z</time>
      </trkpt>
      <trkpt lat="31.20506403210454" lon="121.61329695308083">
        <ele>7.358021647669375</ele>
        <time>2020-05-02T23:23:15Z</time>
      </trkpt>
      <trkpt lat="31.20495661342921" lon="121.61335686893368">
        <ele>8.101948102004826</ele>
        <time>2020-05-02T23:23:19Z</time>
      </trkpt>
      <trkpt lat="31.20467437591698" lon="121.61366780970832">
        <ele>6.871449155732989</ele>
        <time>2020-05-02T23:23:33Z</time>
      </trkpt>
      <trkpt lat="31.2045286409731" lon="121.61382992006955">
        <ele>7.470700312405825</ele>
        <time>2020-05-02T23:23:40Z</time>
      </trkpt>
      <trkpt lat="31.20426380888731" lon="121.6140722741602">
        <ele>8.061927380040288</ele>
        <time>2020-05-02T23:23:52Z</time>
      </trkpt>
      <trkpt lat="31.20409095688339" lon="121.61423573930469">
        <ele>7.686363153159618</ele>
        <time>2020-05-02T23:23:59Z</time>
      </trkpt>
      <trkpt lat="31.203838346141893" lon="121.61445044020114">
        <ele>7.495790648274124</ele>
        <time>2020-05-02T23:24:10Z</time>
      </trkpt>
      <trkpt lat="31.20369723820071" lon="121.61458679435489">
        <ele>6.96752839628607</ele>
        <time>2020-05-02T23:24:17Z</time>
      </trkpt>
      <trkpt lat="31.203631821541734" lon="121.61467109860503">
        <ele>7.36852839961648</ele>
        <time>2020-05-02T23:24:20Z</time>
      </trkpt>
      <trkpt lat="31.203389543112145" lon="121.6148486602428">
        <ele>7.249229326844215</ele>
        <time>2020-05-02T23:24:31Z</time>
      </trkpt>
      <trkpt lat="31.20333927133534" lon="121.61497605985298">
        <ele>7.014394820667803</ele>
        <time>2020-05-02T23:24:39Z</time>
      </trkpt>
      <trkpt lat="31.20329585798652" lon="121.61501211352305">
        <ele>7.0709782633930445</ele>
        <time>2020-05-02T23:24:50Z</time>
      </trkpt>
      <trkpt lat="31.203271145013048" lon="121.61505711032727">
        <ele>6.437726102769375</ele>
        <time>2020-05-02T23:25:23Z</time>
      </trkpt>
      <trkpt lat="31.203318894908307" lon="121.61502295373653">
        <ele>6.60474847164005</ele>
        <time>2020-05-02T23:25:31Z</time>
      </trkpt>
      <trkpt lat="31.20334349351175" lon="121.61510752005967">
        <ele>6.928360456600785</ele>
        <time>2020-05-02T23:25:38Z</time>
      </trkpt>
      <trkpt lat="31.203426356031763" lon="121.6152256915668">
        <ele>6.753036773763597</ele>
        <time>2020-05-02T23:25:44Z</time>
      </trkpt>
      <trkpt lat="31.20344012915178" lon="121.61528721883958">
        <ele>6.542087087407708</ele>
        <time>2020-05-02T23:25:47Z</time>
      </trkpt>
      <trkpt lat="31.203247658577062" lon="121.61555042280075">
        <ele>7.375560828484595</ele>
        <time>2020-05-02T23:25:58Z</time>
      </trkpt>
      <trkpt lat="31.20318769227701" lon="121.61560084244444">
        <ele>6.869623350910842</ele>
        <time>2020-05-02T23:26:01Z</time>
      </trkpt>
      <trkpt lat="31.20293634657789" lon="121.61590334913429">
        <ele>6.584552122280002</ele>
        <time>2020-05-02T23:26:13Z</time>
      </trkpt>
      <trkpt lat="31.202860612843818" lon="121.61599849131399">
        <ele>5.94788271933794</ele>
        <time>2020-05-02T23:26:17Z</time>
      </trkpt>
      <trkpt lat="31.202710270484346" lon="121.61614378180873">
        <ele>6.967037749476731</ele>
        <time>2020-05-02T23:26:24Z</time>
      </trkpt>
      <trkpt lat="31.202668715740458" lon="121.61622076058332">
        <ele>6.2965816697105765</ele>
        <time>2020-05-02T23:26:27Z</time>
      </trkpt>
      <trkpt lat="31.202507824696234" lon="121.61633732059495">
        <ele>6.712828032672405</ele>
        <time>2020-05-02T23:26:34Z</time>
      </trkpt>
      <trkpt lat="31.202276860686016" lon="121.61658181493462">
        <ele>5.608325159177184</ele>
        <time>2020-05-02T23:26:45Z</time>
      </trkpt>
      <trkpt lat="31.2020873930755" lon="121.61681058349896">
        <ele>6.017099556513131</ele>
        <time>2020-05-02T23:26:55Z</time>
      </trkpt>
      <trkpt lat="31.201845882052947" lon="121.61702227931788">
        <ele>6.161463129334152</ele>
        <time>2020-05-02T23:27:07Z</time>
      </trkpt>
      <trkpt lat="31.20177659492" lon="121.61717677203386">
        <ele>4.660802164115012</ele>
        <time>2020-05-02T23:27:14Z</time>
      </trkpt>
      <trkpt lat="31.201696517457826" lon="121.6172732647763">
        <ele>4.552716851234436</ele>
        <time>2020-05-02T23:27:17Z</time>
      </trkpt>
      <trkpt lat="31.201422452409588" lon="121.61749986573243">
        <ele>5.49759403988719</ele>
        <time>2020-05-02T23:27:29Z</time>
      </trkpt>
      <trkpt lat="31.20138063445628" lon="121.61756491520768">
        <ele>3.9253952596336603</ele>
        <time>2020-05-02T23:27:32Z</time>
      </trkpt>
      <trkpt lat="31.201132301248077" lon="121.61781563234817">
        <ele>6.089769907295704</ele>
        <time>2020-05-02T23:27:43Z</time>
      </trkpt>
      <trkpt lat="31.200992517787757" lon="121.61796714474346">
        <ele>5.923613427206874</ele>
        <time>2020-05-02T23:27:50Z</time>
      </trkpt>
      <trkpt lat="31.20094363318407" lon="121.6180484547591">
        <ele>5.465132055804133</ele>
        <time>2020-05-02T23:27:53Z</time>
      </trkpt>
      <trkpt lat="31.200733271408122" lon="121.61828236087064">
        <ele>5.006037740036845</ele>
        <time>2020-05-02T23:28:03Z</time>
      </trkpt>
      <trkpt lat="31.200532368802122" lon="121.61854472052418">
        <ele>4.555325595661998</ele>
        <time>2020-05-02T23:28:15Z</time>
      </trkpt>
      <trkpt lat="31.200476467289345" lon="121.61859215257549">
        <ele>4.453445598483086</ele>
        <time>2020-05-02T23:28:18Z</time>
      </trkpt>
      <trkpt lat="31.200288066072567" lon="121.61882307070599">
        <ele>5.168670653365552</ele>
        <time>2020-05-02T23:28:29Z</time>
      </trkpt>
      <trkpt lat="31.200209352079494" lon="121.61890654851214">
        <ele>4.679722578264773</ele>
        <time>2020-05-02T23:28:33Z</time>
      </trkpt>
      <trkpt lat="31.19996827356956" lon="121.61921009812568">
        <ele>6.696891853585839</ele>
        <time>2020-05-02T23:28:47Z</time>
      </trkpt>
      <trkpt lat="31.19992265926102" lon="121.6192718914249">
        <ele>4.685742162168026</ele>
        <time>2020-05-02T23:28:50Z</time>
      </trkpt>
      <trkpt lat="31.199859983831406" lon="121.61931390256198">
        <ele>4.080656491219997</ele>
        <time>2020-05-02T23:28:53Z</time>
      </trkpt>
      <trkpt lat="31.1997206976842" lon="121.61950117848912">
        <ele>6.068922653794289</ele>
        <time>2020-05-02T23:29:03Z</time>
      </trkpt>
      <trkpt lat="31.19964253394059" lon="121.61957516892348">
        <ele>6.935364837758243</ele>
        <time>2020-05-02T23:29:10Z</time>
      </trkpt>
      <trkpt lat="31.19950932297127" lon="121.61965566775525">
        <ele>5.304806562140584</ele>
        <time>2020-05-02T23:29:18Z</time>
      </trkpt>
      <trkpt lat="31.19937958420141" lon="121.61978603026728">
        <ele>7.298948545008898</ele>
        <time>2020-05-02T23:29:25Z</time>
      </trkpt>
      <trkpt lat="31.1991408166303" lon="121.61994702407287">
        <ele>4.303473905660212</ele>
        <time>2020-05-02T23:29:37Z</time>
      </trkpt>
      <trkpt lat="31.19906025773881" lon="121.61997738263527">
        <ele>5.52564846072346</ele>
        <time>2020-05-02T23:29:41Z</time>
      </trkpt>
      <trkpt lat="31.19897939641959" lon="121.62003728001784">
        <ele>4.778511413373053</ele>
        <time>2020-05-02T23:29:48Z</time>
      </trkpt>
      <trkpt lat="31.198965210086303" lon="121.6201196645414">
        <ele>6.274367813020945</ele>
        <time>2020-05-02T23:29:51Z</time>
      </trkpt>
      <trkpt lat="31.198677072100253" lon="121.62030152702016">
        <ele>6.285283855162561</ele>
        <time>2020-05-02T23:30:05Z</time>
      </trkpt>
      <trkpt lat="31.19859311962936" lon="121.62046223381897">
        <ele>6.324314582161605</ele>
        <time>2020-05-02T23:30:09Z</time>
      </trkpt>
      <trkpt lat="31.198434817063415" lon="121.62067714415883">
        <ele>6.8160771718248725</ele>
        <time>2020-05-02T23:30:17Z</time>
      </trkpt>
      <trkpt lat="31.19835368645948" lon="121.62073405905082">
        <ele>6.643406535498798</ele>
        <time>2020-05-02T23:30:21Z</time>
      </trkpt>
      <trkpt lat="31.1981422594977" lon="121.62093081529625">
        <ele>6.346893034875393</ele>
        <time>2020-05-02T23:30:32Z</time>
      </trkpt>
      <trkpt lat="31.197919759303478" lon="121.62108692290667">
        <ele>5.640359708108008</ele>
        <time>2020-05-02T23:30:43Z</time>
      </trkpt>
      <trkpt lat="31.19782121412937" lon="121.62119966157327">
        <ele>6.249921942129731</ele>
        <time>2020-05-02T23:30:49Z</time>
      </trkpt>
      <trkpt lat="31.197549254537975" lon="121.62145684875604">
        <ele>5.798728046938777</ele>
        <time>2020-05-02T23:31:04Z</time>
      </trkpt>
      <trkpt lat="31.19731533002798" lon="121.62164357515013">
        <ele>4.812372952699661</ele>
        <time>2020-05-02T23:31:15Z</time>
      </trkpt>
      <trkpt lat="31.197211692960728" lon="121.62170103178116">
        <ele>5.44407310988754</ele>
        <time>2020-05-02T23:31:22Z</time>
      </trkpt>
      <trkpt lat="31.19695495408805" lon="121.62192135974782">
        <ele>6.774446406401694</ele>
        <time>2020-05-02T23:31:44Z</time>
      </trkpt>
      <trkpt lat="31.196868112791044" lon="121.62199127938779">
        <ele>4.944895672611892</ele>
        <time>2020-05-02T23:31:51Z</time>
      </trkpt>
      <trkpt lat="31.19685070565374" lon="121.6220397858725">
        <ele>6.592805264517665</ele>
        <time>2020-05-02T23:31:54Z</time>
      </trkpt>
      <trkpt lat="31.196664245989524" lon="121.62220889082606">
        <ele>6.111007869243622</ele>
        <time>2020-05-02T23:32:11Z</time>
      </trkpt>
      <trkpt lat="31.19664817605188" lon="121.62227338435308">
        <ele>5.771894189529121</ele>
        <time>2020-05-02T23:32:15Z</time>
      </trkpt>
      <trkpt lat="31.19664138763107" lon="121.62252051324569">
        <ele>5.406314863823354</ele>
        <time>2020-05-02T23:32:29Z</time>
      </trkpt>
      <trkpt lat="31.196662667998755" lon="121.62264217799876">
        <ele>5.60213418956846</ele>
        <time>2020-05-02T23:32:36Z</time>
      </trkpt>
      <trkpt lat="31.196734019940877" lon="121.62283998062456">
        <ele>4.355877690948546</ele>
        <time>2020-05-02T23:32:47Z</time>
      </trkpt>
      <trkpt lat="31.19673519252476" lon="121.62299849728133">
        <ele>4.948716625571251</ele>
        <time>2020-05-02T23:32:57Z</time>
      </trkpt>
      <trkpt lat="31.196828826183815" lon="121.62338488718768">
        <ele>7.404188239015639</ele>
        <time>2020-05-02T23:33:21Z</time>
      </trkpt>
      <trkpt lat="31.19686148009131" lon="121.62374580640225">
        <ele>5.279320306144655</ele>
        <time>2020-05-02T23:33:44Z</time>
      </trkpt>
      <trkpt lat="31.196884554533916" lon="121.62395092092144">
        <ele>5.77942381054163</ele>
        <time>2020-05-02T23:33:56Z</time>
      </trkpt>
      <trkpt lat="31.196934405433524" lon="121.6239826189339">
        <ele>5.7877817545086145</ele>
        <time>2020-05-02T23:34:03Z</time>
      </trkpt>
      <trkpt lat="31.196928731470063" lon="121.62373713009389">
        <ele>5.48308452218771</ele>
        <time>2020-05-02T23:34:16Z</time>
      </trkpt>
      <trkpt lat="31.19693558841524" lon="121.6234398840241">
        <ele>5.6954722087830305</ele>
        <time>2020-05-02T23:34:30Z</time>
      </trkpt>
      <trkpt lat="31.196894304226234" lon="121.62326945078269">
        <ele>5.4372840309515595</ele>
        <time>2020-05-02T23:34:37Z</time>
      </trkpt>
      <trkpt lat="31.19684347780911" lon="121.62314345582267">
        <ele>4.770912074483931</ele>
        <time>2020-05-02T23:34:41Z</time>
      </trkpt>
      <trkpt lat="31.19682899752891" lon="121.62300472178082">
        <ele>4.430820035748184</ele>
        <time>2020-05-02T23:34:45Z</time>
      </trkpt>
      <trkpt lat="31.196815111045986" lon="121.62282073506431">
        <ele>5.492456835694611</ele>
        <time>2020-05-02T23:34:51Z</time>
      </trkpt>
      <trkpt lat="31.19698795184631" lon="121.62270881000302">
        <ele>6.2453527338802814</ele>
        <time>2020-05-02T23:34:59Z</time>
      </trkpt>
      <trkpt lat="31.1970442085142" lon="121.62259364246377">
        <ele>6.517983918078244</ele>
        <time>2020-05-02T23:35:03Z</time>
      </trkpt>
      <trkpt lat="31.19710311051072" lon="121.62253592047674">
        <ele>4.462459255941212</ele>
        <time>2020-05-02T23:35:06Z</time>
      </trkpt>
      <trkpt lat="31.197172291984145" lon="121.62249879147282">
        <ele>4.302364965900779</ele>
        <time>2020-05-02T23:35:09Z</time>
      </trkpt>
      <trkpt lat="31.197469758275034" lon="121.62223158613035">
        <ele>5.313781898468733</ele>
        <time>2020-05-02T23:35:23Z</time>
      </trkpt>
      <trkpt lat="31.197519998336904" lon="121.62216058624213">
        <ele>5.8725176034495234</ele>
        <time>2020-05-02T23:35:26Z</time>
      </trkpt>
      <trkpt lat="31.197583499026226" lon="121.62211153420826">
        <ele>5.423532386310399</ele>
        <time>2020-05-02T23:35:29Z</time>
      </trkpt>
      <trkpt lat="31.197697972789783" lon="121.62206247786601">
        <ele>5.2380921971052885</ele>
        <time>2020-05-02T23:35:33Z</time>
      </trkpt>
      <trkpt lat="31.19774524705596" lon="121.62197630299485">
        <ele>6.086608589626849</ele>
        <time>2020-05-02T23:35:36Z</time>
      </trkpt>
      <trkpt lat="31.197888289303744" lon="121.62183836284852">
        <ele>7.008313841186464</ele>
        <time>2020-05-02T23:35:43Z</time>
      </trkpt>
      <trkpt lat="31.198078657104187" lon="121.6218098942107">
        <ele>2.594827433116734</ele>
        <time>2020-05-02T23:35:54Z</time>
      </trkpt>
      <trkpt lat="31.19833806334951" lon="121.62162858651585">
        <ele>6.813863360323012</ele>
        <time>2020-05-02T23:36:12Z</time>
      </trkpt>
      <trkpt lat="31.198468710198025" lon="121.62141991887327">
        <ele>6.771361095830798</ele>
        <time>2020-05-02T23:36:34Z</time>
      </trkpt>
      <trkpt lat="31.198546217817263" lon="121.62120718919088">
        <ele>5.884566091932356</ele>
        <time>2020-05-02T23:36:49Z</time>
      </trkpt>
      <trkpt lat="31.19861814326098" lon="121.62113889464123">
        <ele>5.991399122402072</ele>
        <time>2020-05-02T23:36:56Z</time>
      </trkpt>
      <trkpt lat="31.198643429651387" lon="121.62107412661197">
        <ele>5.745490040630102</ele>
        <time>2020-05-02T23:37:00Z</time>
      </trkpt>
      <trkpt lat="31.198925689288288" lon="121.62081693484261">
        <ele>5.737458021380007</ele>
        <time>2020-05-02T23:37:25Z</time>
      </trkpt>
      <trkpt lat="31.1989918862739" lon="121.62077980368502">
        <ele>5.580661539919674</ele>
        <time>2020-05-02T23:37:33Z</time>
      </trkpt>
      <trkpt lat="31.19904212326308" lon="121.62070852891472">
        <ele>8.053639913909137</ele>
        <time>2020-05-02T23:37:40Z</time>
      </trkpt>
      <trkpt lat="31.199100191659767" lon="121.62066624943358">
        <ele>4.574892420321703</ele>
        <time>2020-05-02T23:37:44Z</time>
      </trkpt>
      <trkpt lat="31.199277546144216" lon="121.62063588366613">
        <ele>6.70760406833142</ele>
        <time>2020-05-02T23:37:54Z</time>
      </trkpt>
      <trkpt lat="31.19956517266235" lon="121.62067921855662">
        <ele>6.488258371129632</ele>
        <time>2020-05-02T23:38:11Z</time>
      </trkpt>
      <trkpt lat="31.19976689242054" lon="121.62068299574631">
        <ele>5.420577548444271</ele>
        <time>2020-05-02T23:38:25Z</time>
      </trkpt>
      <trkpt lat="31.19997370365481" lon="121.62074232571567">
        <ele>5.518568840809166</ele>
        <time>2020-05-02T23:38:40Z</time>
      </trkpt>
      <trkpt lat="31.200257274331356" lon="121.62077536312319">
        <ele>5.665267093107104</ele>
        <time>2020-05-02T23:38:58Z</time>
      </trkpt>
      <trkpt lat="31.200317466158666" lon="121.62077535814211">
        <ele>5.591473324224353</ele>
        <time>2020-05-02T23:39:02Z</time>
      </trkpt>
      <trkpt lat="31.200474115376885" lon="121.62083658898185">
        <ele>3.6493852734565735</ele>
        <time>2020-05-02T23:39:13Z</time>
      </trkpt>
      <trkpt lat="31.200584462372735" lon="121.62084091568912">
        <ele>3.8029155246913433</ele>
        <time>2020-05-02T23:39:20Z</time>
      </trkpt>
      <trkpt lat="31.20062948981631" lon="121.62082329761238">
        <ele>4.099694360978901</ele>
        <time>2020-05-02T23:39:23Z</time>
      </trkpt>
      <trkpt lat="31.200820830921717" lon="121.62089671999158">
        <ele>7.053031182847917</ele>
        <time>2020-05-02T23:39:37Z</time>
      </trkpt>
      <trkpt lat="31.200997327681737" lon="121.62090754495658">
        <ele>5.850274393334985</ele>
        <time>2020-05-02T23:39:49Z</time>
      </trkpt>
      <trkpt lat="31.201108980790988" lon="121.62095739768662">
        <ele>5.214760545641184</ele>
        <time>2020-05-02T23:39:57Z</time>
      </trkpt>
      <trkpt lat="31.20144213214229" lon="121.62102430424149">
        <ele>6.554606973193586</ele>
        <time>2020-05-02T23:40:21Z</time>
      </trkpt>
      <trkpt lat="31.20169508892138" lon="121.62103512282526">
        <ele>5.516097791492939</ele>
        <time>2020-05-02T23:40:40Z</time>
      </trkpt>
      <trkpt lat="31.201936046436376" lon="121.62110935346463">
        <ele>5.766037886962295</ele>
        <time>2020-05-02T23:40:59Z</time>
      </trkpt>
      <trkpt lat="31.2022247912982" lon="121.62112179497282">
        <ele>6.286874263547361</ele>
        <time>2020-05-02T23:41:19Z</time>
      </trkpt>
      <trkpt lat="31.20233378927038" lon="121.62112016002968">
        <ele>4.555494859814644</ele>
        <time>2020-05-02T23:41:27Z</time>
      </trkpt>
      <trkpt lat="31.20242947372688" lon="121.62114399895805">
        <ele>4.060756292194128</ele>
        <time>2020-05-02T23:41:34Z</time>
      </trkpt>
      <trkpt lat="31.202474549789933" lon="121.6210822101687">
        <ele>5.885366203263402</ele>
        <time>2020-05-02T23:41:40Z</time>
      </trkpt>
      <trkpt lat="31.202436840920104" lon="121.62085295693365">
        <ele>7.2188414530828595</ele>
        <time>2020-05-02T23:41:50Z</time>
      </trkpt>
      <trkpt lat="31.20241440468668" lon="121.6207903600754">
        <ele>3.994416570290923</ele>
        <time>2020-05-02T23:41:54Z</time>
      </trkpt>
      <trkpt lat="31.202435074946735" lon="121.62073128238377">
        <ele>3.648766635917127</ele>
        <time>2020-05-02T23:41:57Z</time>
      </trkpt>
      <trkpt lat="31.202435074946735" lon="121.62073128238377">
        <ele>3.648766635917127</ele>
        <time>2020-05-02T23:42:07Z</time>
      </trkpt>
      <trkpt lat="31.202428286893383" lon="121.62074022564849">
        <ele>4.483382265083492</ele>
        <time>2020-05-02T23:42:10Z</time>
      </trkpt>
      <trkpt lat="31.202428286893383" lon="121.62074022564849">
        <ele>4.483382265083492</ele>
        <time>2020-05-02T23:42:14Z</time>
      </trkpt>
      <trkpt lat="31.202406621627276" lon="121.62071665121805">
        <ele>4.065191746689379</ele>
        <time>2020-05-02T23:42:17Z</time>
      </trkpt>
      <trkpt lat="31.202385523802846" lon="121.62066977144507">
        <ele>3.861020247451961</ele>
        <time>2020-05-02T23:42:56Z</time>
      </trkpt>
      <trkpt lat="31.20236796059675" lon="121.62061367756003">
        <ele>3.8610562132671475</ele>
        <time>2020-05-02T23:42:59Z</time>
      </trkpt>
      <trkpt lat="31.202394407384084" lon="121.62047736590588">
        <ele>5.113393163308501</ele>
        <time>2020-05-02T23:43:12Z</time>
      </trkpt>
      <trkpt lat="31.202380366822855" lon="121.62042289728076">
        <ele>5.582012570463121</ele>
        <time>2020-05-02T23:43:15Z</time>
      </trkpt>
      <trkpt lat="31.20242869645231" lon="121.62035975154454">
        <ele>6.874269871041179</ele>
        <time>2020-05-02T23:43:23Z</time>
      </trkpt>
      <trkpt lat="31.20242869645231" lon="121.62035975154454">
        <ele>6.874269871041179</ele>
        <time>2020-05-02T23:43:34Z</time>
      </trkpt>
      <trkpt lat="31.20245287729031" lon="121.62031313837763">
        <ele>5.671674473211169</ele>
        <time>2020-05-02T23:43:41Z</time>
      </trkpt>
      <trkpt lat="31.20245287729031" lon="121.62031313837763">
        <ele>5.671674473211169</ele>
        <time>2020-05-02T23:43:47Z</time>
      </trkpt>
      <trkpt lat="31.20244015276752" lon="121.62029552472409">
        <ele>4.036340936087072</ele>
        <time>2020-05-02T23:43:51Z</time>
      </trkpt>
      <trkpt lat="31.20243521818358" lon="121.62034620125594">
        <ele>4.572736785747111</ele>
        <time>2020-05-02T23:44:08Z</time>
      </trkpt>
      <trkpt lat="31.202423804424637" lon="121.6203705917434">
        <ele>5.820633324794471</ele>
        <time>2020-05-02T23:44:22Z</time>
      </trkpt>
      <trkpt lat="31.202446830575177" lon="121.62038955946655">
        <ele>5.348479337058961</ele>
        <time>2020-05-02T23:44:36Z</time>
      </trkpt>
      <trkpt lat="31.20248505884679" lon="121.62039118227047">
        <ele>5.846350875683129</ele>
        <time>2020-05-02T23:44:38Z</time>
      </trkpt>
      <trkpt lat="31.202810189315983" lon="121.6203540290803">
        <ele>7.0564385848119855</ele>
        <time>2020-05-02T23:44:52Z</time>
      </trkpt>
      <trkpt lat="31.202840948529033" lon="121.62024075039228">
        <ele>6.381017847917974</ele>
        <time>2020-05-02T23:44:56Z</time>
      </trkpt>
      <trkpt lat="31.202846762893557" lon="121.62012747327385">
        <ele>5.115292003378272</ele>
        <time>2020-05-02T23:45:00Z</time>
      </trkpt>
      <trkpt lat="31.20274273577626" lon="121.61978683598986">
        <ele>4.71077215205878</ele>
        <time>2020-05-02T23:45:11Z</time>
      </trkpt>
      <trkpt lat="31.202734694686157" lon="121.61969821920557">
        <ele>4.9714620085433125</ele>
        <time>2020-05-02T23:45:14Z</time>
      </trkpt>
      <trkpt lat="31.20264121802494" lon="121.61937573272212">
        <ele>5.4064985755831</ele>
        <time>2020-05-02T23:45:25Z</time>
      </trkpt>
      <trkpt lat="31.202610231264945" lon="121.61918819896452">
        <ele>5.087102007120848</ele>
        <time>2020-05-02T23:45:32Z</time>
      </trkpt>
      <trkpt lat="31.20250077379328" lon="121.61884429750964">
        <ele>4.562283405102789</ele>
        <time>2020-05-02T23:45:50Z</time>
      </trkpt>
      <trkpt lat="31.202470194536886" lon="121.61878630363962">
        <ele>4.301238864660263</ele>
        <time>2020-05-02T23:45:54Z</time>
      </trkpt>
      <trkpt lat="31.202454869253867" lon="121.61865865815753">
        <ele>5.528592276386917</ele>
        <time>2020-05-02T23:46:01Z</time>
      </trkpt>
      <trkpt lat="31.20272528706066" lon="121.61856323906667">
        <ele>3.97452028747648</ele>
        <time>2020-05-02T23:46:19Z</time>
      </trkpt>
      <trkpt lat="31.202832136341172" lon="121.61854127808991">
        <ele>5.116425009444356</ele>
        <time>2020-05-02T23:46:26Z</time>
      </trkpt>
      <trkpt lat="31.202867188279154" lon="121.61846620415898">
        <ele>6.544512173160911</ele>
        <time>2020-05-02T23:46:30Z</time>
      </trkpt>
      <trkpt lat="31.20281091395778" lon="121.6183447938224">
        <ele>5.8524224096909165</ele>
        <time>2020-05-02T23:46:36Z</time>
      </trkpt>
      <trkpt lat="31.20278854340644" lon="121.61821091328383">
        <ele>6.607593009248376</ele>
        <time>2020-05-02T23:46:43Z</time>
      </trkpt>
      <trkpt lat="31.20278541716494" lon="121.61808272184109">
        <ele>5.669884528964758</ele>
        <time>2020-05-02T23:46:50Z</time>
      </trkpt>
      <trkpt lat="31.20267045488989" lon="121.61780900057603">
        <ele>6.153143567964435</ele>
        <time>2020-05-02T23:47:14Z</time>
      </trkpt>
      <trkpt lat="31.202580312662658" lon="121.61766021648201">
        <ele>6.878125872462988</ele>
        <time>2020-05-02T23:47:25Z</time>
      </trkpt>
      <trkpt lat="31.202509488325514" lon="121.61744123425154">
        <ele>4.997516442090273</ele>
        <time>2020-05-02T23:47:41Z</time>
      </trkpt>
      <trkpt lat="31.202454551198056" lon="121.61733445429999">
        <ele>5.342617135494947</ele>
        <time>2020-05-02T23:47:49Z</time>
      </trkpt>
      <trkpt lat="31.202471434685915" lon="121.61725856516475">
        <ele>5.14060512650758</ele>
        <time>2020-05-02T23:47:56Z</time>
      </trkpt>
      <trkpt lat="31.20254004614417" lon="121.61724365294175">
        <ele>6.220047380775213</ele>
        <time>2020-05-02T23:48:00Z</time>
      </trkpt>
      <trkpt lat="31.202684173136408" lon="121.61708264973569">
        <ele>4.579384543932974</ele>
        <time>2020-05-02T23:48:14Z</time>
      </trkpt>
      <trkpt lat="31.20280787896819" lon="121.61701108748461">
        <ele>6.176943937316537</ele>
        <time>2020-05-02T23:48:25Z</time>
      </trkpt>
      <trkpt lat="31.20287357180194" lon="121.61692895959226">
        <ele>7.0017791939899325</ele>
        <time>2020-05-02T23:48:32Z</time>
      </trkpt>
      <trkpt lat="31.203071945524467" lon="121.6167451830278">
        <ele>5.146949962712824</ele>
        <time>2020-05-02T23:48:54Z</time>
      </trkpt>
      <trkpt lat="31.203156315027183" lon="121.61669584786807">
        <ele>3.5225337324663997</ele>
        <time>2020-05-02T23:49:01Z</time>
      </trkpt>
      <trkpt lat="31.20324771279425" lon="121.6166690079042">
        <ele>2.551097637973726</ele>
        <time>2020-05-02T23:49:07Z</time>
      </trkpt>
      <trkpt lat="31.20344965720354" lon="121.61643427417557">
        <ele>5.259178850799799</ele>
        <time>2020-05-02T23:49:28Z</time>
      </trkpt>
      <trkpt lat="31.203550837063016" lon="121.61638439492506">
        <ele>4.938811010681093</ele>
        <time>2020-05-02T23:49:36Z</time>
      </trkpt>
      <trkpt lat="31.20370656808311" lon="121.61627732192784">
        <ele>7.436282949522138</ele>
        <time>2020-05-02T23:49:50Z</time>
      </trkpt>
      <trkpt lat="31.20377924008746" lon="121.61626891371064">
        <ele>4.756180407479405</ele>
        <time>2020-05-02T23:49:57Z</time>
      </trkpt>
      <trkpt lat="31.203868546078212" lon="121.61615805113955">
        <ele>6.7597908694297075</ele>
        <time>2020-05-02T23:50:05Z</time>
      </trkpt>
      <trkpt lat="31.203897418107015" lon="121.61601493911307">
        <ele>5.427666121162474</ele>
        <time>2020-05-02T23:50:12Z</time>
      </trkpt>
      <trkpt lat="31.20400588635219" lon="121.61599948075512">
        <ele>5.982603508979082</ele>
        <time>2020-05-02T23:50:20Z</time>
      </trkpt>
      <trkpt lat="31.204156072127844" lon="121.61602467522108">
        <ele>6.736564752645791</ele>
        <time>2020-05-02T23:50:30Z</time>
      </trkpt>
      <trkpt lat="31.204201913133826" lon="121.61600380121196">
        <ele>7.048144801519811</ele>
        <time>2020-05-02T23:50:34Z</time>
      </trkpt>
      <trkpt lat="31.204283205174786" lon="121.61605664760133">
        <ele>6.9427922405302525</ele>
        <time>2020-05-02T23:50:40Z</time>
      </trkpt>
      <trkpt lat="31.204379343307505" lon="121.61618131833391">
        <ele>7.203822448849678</ele>
        <time>2020-05-02T23:50:50Z</time>
      </trkpt>
      <trkpt lat="31.204573002141725" lon="121.61640003055496">
        <ele>5.373134025372565</ele>
        <time>2020-05-02T23:51:09Z</time>
      </trkpt>
      <trkpt lat="31.204533554105655" lon="121.616251775857">
        <ele>7.381287144497037</ele>
        <time>2020-05-02T23:51:16Z</time>
      </trkpt>
      <trkpt lat="31.204468597335634" lon="121.61612656082484">
        <ele>7.920537645928562</ele>
        <time>2020-05-02T23:51:24Z</time>
      </trkpt>
      <trkpt lat="31.204302801536766" lon="121.6159753334509">
        <ele>8.31439193803817</ele>
        <time>2020-05-02T23:51:41Z</time>
      </trkpt>
      <trkpt lat="31.20421586056002" lon="121.615873157511">
        <ele>7.340587025508285</ele>
        <time>2020-05-02T23:51:45Z</time>
      </trkpt>
      <trkpt lat="31.204080652462654" lon="121.61577613497815">
        <ele>5.963573537766933</ele>
        <time>2020-05-02T23:51:52Z</time>
      </trkpt>
      <trkpt lat="31.203942246552742" lon="121.61561704281594">
        <ele>5.3785278256982565</ele>
        <time>2020-05-02T23:51:59Z</time>
      </trkpt>
      <trkpt lat="31.203666467200843" lon="121.61535414935908">
        <ele>6.4278890723362565</ele>
        <time>2020-05-02T23:52:13Z</time>
      </trkpt>
      <trkpt lat="31.20360820994143" lon="121.61531295466777">
        <ele>5.275537394918501</ele>
        <time>2020-05-02T23:52:16Z</time>
      </trkpt>
      <trkpt lat="31.203627812049103" lon="121.61522269334866">
        <ele>6.6375357350334525</ele>
        <time>2020-05-02T23:52:20Z</time>
      </trkpt>
      <trkpt lat="31.203799932958308" lon="121.61497249806065">
        <ele>6.430389397777617</ele>
        <time>2020-05-02T23:52:30Z</time>
      </trkpt>
      <trkpt lat="31.20386292388294" lon="121.61487274496557">
        <ele>8.32797592971474</ele>
        <time>2020-05-02T23:52:34Z</time>
      </trkpt>
      <trkpt lat="31.203931846050345" lon="121.61481120979221">
        <ele>4.943242507055402</ele>
        <time>2020-05-02T23:52:38Z</time>
      </trkpt>
      <trkpt lat="31.20409615137184" lon="121.61481417781202">
        <ele>6.37623309250921</ele>
        <time>2020-05-02T23:52:45Z</time>
      </trkpt>
      <trkpt lat="31.204172048614534" lon="121.61483775333143">
        <ele>5.140538566745818</ele>
        <time>2020-05-02T23:52:49Z</time>
      </trkpt>
      <trkpt lat="31.204301504924437" lon="121.61500444086755">
        <ele>7.8475737096741796</ele>
        <time>2020-05-02T23:52:56Z</time>
      </trkpt>
      <trkpt lat="31.204426997054206" lon="121.61505376210424">
        <ele>4.461456412449479</ele>
        <time>2020-05-02T23:53:03Z</time>
      </trkpt>
      <trkpt lat="31.204474757501384" lon="121.61500767917592">
        <ele>5.8626512149348855</ele>
        <time>2020-05-02T23:53:07Z</time>
      </trkpt>
      <trkpt lat="31.20457644470173" lon="121.61499466021486">
        <ele>7.29821886215359</ele>
        <time>2020-05-02T23:53:13Z</time>
      </trkpt>
      <trkpt lat="31.204636747437878" lon="121.614868615149">
        <ele>6.718898426741362</ele>
        <time>2020-05-02T23:53:21Z</time>
      </trkpt>
      <trkpt lat="31.204895780244982" lon="121.61475583472843">
        <ele>6.107375269755721</ele>
        <time>2020-05-02T23:53:36Z</time>
      </trkpt>
      <trkpt lat="31.20494161134094" lon="121.61474525975478">
        <ele>5.537117476575077</ele>
        <time>2020-05-02T23:53:39Z</time>
      </trkpt>
      <trkpt lat="31.20501784427757" lon="121.61469483697337">
        <ele>6.520054210908711</ele>
        <time>2020-05-02T23:53:46Z</time>
      </trkpt>
      <trkpt lat="31.205119677841196" lon="121.61451267781366">
        <ele>5.991937697865069</ele>
        <time>2020-05-02T23:53:59Z</time>
      </trkpt>
      <trkpt lat="31.20519917098314" lon="121.61445412249272">
        <ele>6.8239448657259345</ele>
        <time>2020-05-02T23:54:07Z</time>
      </trkpt>
      <trkpt lat="31.2054386015749" lon="121.61443323111266">
        <ele>6.763053281232715</ele>
        <time>2020-05-02T23:54:26Z</time>
      </trkpt>
      <trkpt lat="31.20552976943049" lon="121.61435597146662">
        <ele>8.766197205521166</ele>
        <time>2020-05-02T23:54:33Z</time>
      </trkpt>
      <trkpt lat="31.20557510057217" lon="121.6142957922191">
        <ele>8.743384981527925</ele>
        <time>2020-05-02T23:54:37Z</time>
      </trkpt>
      <trkpt lat="31.205781043426292" lon="121.61411850053592">
        <ele>6.536000424064696</ele>
        <time>2020-05-02T23:54:58Z</time>
      </trkpt>
      <trkpt lat="31.205846751140577" lon="121.61400871426392">
        <ele>6.496417921967804</ele>
        <time>2020-05-02T23:55:06Z</time>
      </trkpt>
      <trkpt lat="31.206046751676045" lon="121.613802145731">
        <ele>6.727336211130023</ele>
        <time>2020-05-02T23:55:24Z</time>
      </trkpt>
      <trkpt lat="31.206125206680877" lon="121.61368612237128">
        <ele>7.493952271528542</ele>
        <time>2020-05-02T23:55:34Z</time>
      </trkpt>
      <trkpt lat="31.206212835991632" lon="121.61362295616732">
        <ele>8.119423283264041</ele>
        <time>2020-05-02T23:55:45Z</time>
      </trkpt>
      <trkpt lat="31.2062979917119" lon="121.61359990826176">
        <ele>6.372661013156176</ele>
        <time>2020-05-02T23:55:52Z</time>
      </trkpt>
      <trkpt lat="31.20633001648557" lon="121.61356276911556">
        <ele>7.708200376480818</ele>
        <time>2020-05-02T23:55:55Z</time>
      </trkpt>
      <trkpt lat="31.206201104910985" lon="121.61338197569762">
        <ele>7.793465027585626</ele>
        <time>2020-05-02T23:56:10Z</time>
      </trkpt>
      <trkpt lat="31.206114671496323" lon="121.61331014875488">
        <ele>7.30590396001935</ele>
        <time>2020-05-02T23:56:17Z</time>
      </trkpt>
      <trkpt lat="31.20607435260551" lon="121.61321175258206">
        <ele>6.2821503933519125</ele>
        <time>2020-05-02T23:56:23Z</time>
      </trkpt>
      <trkpt lat="31.20589004428045" lon="121.61313315634992">
        <ele>7.213275165297091</ele>
        <time>2020-05-02T23:56:38Z</time>
      </trkpt>
      <trkpt lat="31.205748041886803" lon="121.61304344226087">
        <ele>7.287484221160412</ele>
        <time>2020-05-02T23:56:51Z</time>
      </trkpt>
      <trkpt lat="31.205588105823928" lon="121.61300143873974">
        <ele>7.662227063439786</ele>
        <time>2020-05-02T23:57:03Z</time>
      </trkpt>
      <trkpt lat="31.20544746348924" lon="121.61290576033625">
        <ele>6.713913732208312</ele>
        <time>2020-05-02T23:57:09Z</time>
      </trkpt>
      <trkpt lat="31.2053884256754" lon="121.61281874929516">
        <ele>6.67325733602047</ele>
        <time>2020-05-02T23:57:16Z</time>
      </trkpt>
      <trkpt lat="31.205539524941937" lon="121.61272250386068">
        <ele>9.334667776711285</ele>
        <time>2020-05-02T23:57:36Z</time>
      </trkpt>
      <trkpt lat="31.205600851349654" lon="121.61265987939552">
        <ele>10.279913716949522</ele>
        <time>2020-05-02T23:57:42Z</time>
      </trkpt>
      <trkpt lat="31.20555507391965" lon="121.61260376955454">
        <ele>7.068579924292862</ele>
        <time>2020-05-02T23:57:46Z</time>
      </trkpt>
      <trkpt lat="31.205529906310865" lon="121.61254304949155">
        <ele>4.490952167659998</ele>
        <time>2020-05-02T23:57:50Z</time>
      </trkpt>
      <trkpt lat="31.205569265834416" lon="121.61248611908309">
        <ele>5.992853535339236</ele>
        <time>2020-05-02T23:57:54Z</time>
      </trkpt>
      <trkpt lat="31.20569402804446" lon="121.61243541637451">
        <ele>8.62348392046988</ele>
        <time>2020-05-02T23:58:07Z</time>
      </trkpt>
      <trkpt lat="31.205743962903206" lon="121.61237685832836">
        <ele>8.686711474321783</ele>
        <time>2020-05-02T23:58:13Z</time>
      </trkpt>
      <trkpt lat="31.205743962903206" lon="121.61237685832836">
        <ele>8.686711474321783</ele>
        <time>2020-05-02T23:58:17Z</time>
      </trkpt>
      <trkpt lat="31.205730648367076" lon="121.61241372672774">
        <ele>8.713849729858339</ele>
        <time>2020-05-02T23:58:23Z</time>
      </trkpt>
      <trkpt lat="31.20580981421747" lon="121.61242103941798">
        <ele>8.714126116596162</ele>
        <time>2020-05-02T23:58:27Z</time>
      </trkpt>
      <trkpt lat="31.20596604601808" lon="121.61269129445631">
        <ele>7.625930204987526</ele>
        <time>2020-05-02T23:58:34Z</time>
      </trkpt>
      <trkpt lat="31.206014248369254" lon="121.61276637940603">
        <ele>7.572870667092502</ele>
        <time>2020-05-02T23:58:37Z</time>
      </trkpt>
      <trkpt lat="31.205911489477366" lon="121.61276449035171">
        <ele>7.914300825446844</ele>
        <time>2020-05-02T23:58:41Z</time>
      </trkpt>
      <trkpt lat="31.20586244093685" lon="121.61273060953593">
        <ele>8.248727349564433</ele>
        <time>2020-05-02T23:58:46Z</time>
      </trkpt>
      <trkpt lat="31.205860895311915" lon="121.6126284125928">
        <ele>8.061550544574857</ele>
        <time>2020-05-02T23:58:49Z</time>
      </trkpt>
      <trkpt lat="31.205811378588024" lon="121.61250046640623">
        <ele>7.853490622714162</ele>
        <time>2020-05-02T23:58:53Z</time>
      </trkpt>
      <trkpt lat="31.205765725641896" lon="121.6126297758639">
        <ele>7.7425510147586465</ele>
        <time>2020-05-02T23:58:59Z</time>
      </trkpt>
      <trkpt lat="31.205798361089688" lon="121.61250426262818">
        <ele>8.592010106891394</ele>
        <time>2020-05-02T23:59:03Z</time>
      </trkpt>
      <trkpt lat="31.205834725902747" lon="121.61246278406811">
        <ele>5.7581806015223265</ele>
        <time>2020-05-02T23:59:07Z</time>
      </trkpt>
      <trkpt lat="31.205859223949705" lon="121.61234052360844">
        <ele>6.793552272953093</ele>
        <time>2020-05-02T23:59:11Z</time>
      </trkpt>
      <trkpt lat="31.205965578462102" lon="121.61225159918521">
        <ele>8.635368433780968</ele>
        <time>2020-05-02T23:59:25Z</time>
      </trkpt>
      <trkpt lat="31.206124514928298" lon="121.61218598343997">
        <ele>8.182819992303848</ele>
        <time>2020-05-02T23:59:39Z</time>
      </trkpt>
      <trkpt lat="31.206256725768547" lon="121.61196856089785">
        <ele>8.778230035677552</ele>
        <time>2020-05-02T23:59:54Z</time>
      </trkpt>
      <trkpt lat="31.206402453902026" lon="121.61180074472315">
        <ele>7.5981710674241185</ele>
        <time>2020-05-03T00:00:05Z</time>
      </trkpt>
      <trkpt lat="31.20650607369866" lon="121.6117402829971">
        <ele>7.816373623907566</ele>
        <time>2020-05-03T00:00:13Z</time>
      </trkpt>
      <trkpt lat="31.20658425819256" lon="121.61161150806524">
        <ele>8.020166201516986</ele>
        <time>2020-05-03T00:00:25Z</time>
      </trkpt>
      <trkpt lat="31.206566691684962" lon="121.61153533246396">
        <ele>5.198520879261196</ele>
        <time>2020-05-03T00:00:28Z</time>
      </trkpt>
      <trkpt lat="31.206606341092296" lon="121.61145047686777">
        <ele>5.678615540266037</ele>
        <time>2020-05-03T00:00:34Z</time>
      </trkpt>
      <trkpt lat="31.20664997468429" lon="121.61147622719167">
        <ele>7.237529210746288</ele>
        <time>2020-05-03T00:00:38Z</time>
      </trkpt>
      <trkpt lat="31.206731323946663" lon="121.61146483452055">
        <ele>6.899843277409673</ele>
        <time>2020-05-03T00:00:45Z</time>
      </trkpt>
      <trkpt lat="31.206766867262868" lon="121.61143202918457">
        <ele>7.08478148560971</ele>
        <time>2020-05-03T00:00:49Z</time>
      </trkpt>
      <trkpt lat="31.206794024320207" lon="121.61137374157228">
        <ele>6.692995175719261</ele>
        <time>2020-05-03T00:00:53Z</time>
      </trkpt>
      <trkpt lat="31.206865662212714" lon="121.61129566013499">
        <ele>7.354671620763838</ele>
        <time>2020-05-03T00:01:00Z</time>
      </trkpt>
      <trkpt lat="31.207016637606706" lon="121.61099147592294">
        <ele>6.288675840944052</ele>
        <time>2020-05-03T00:01:23Z</time>
      </trkpt>
      <trkpt lat="31.20701195114339" lon="121.61072389943482">
        <ele>7.518978816457093</ele>
        <time>2020-05-03T00:01:41Z</time>
      </trkpt>
      <trkpt lat="31.2070994367667" lon="121.61047230742862">
        <ele>4.456300804391503</ele>
        <time>2020-05-03T00:02:02Z</time>
      </trkpt>
      <trkpt lat="31.207062053467148" lon="121.61042513806414">
        <ele>7.45824689976871</ele>
        <time>2020-05-03T00:02:09Z</time>
      </trkpt>
      <trkpt lat="31.207011619697216" lon="121.61042866661593">
        <ele>6.1498949136585</ele>
        <time>2020-05-03T00:02:27Z</time>
      </trkpt>
      <trkpt lat="31.20700153860499" lon="121.61049779945152">
        <ele>5.14205046184361</ele>
        <time>2020-05-03T00:02:34Z</time>
      </trkpt>
      <trkpt lat="31.206940495583968" lon="121.61055039890007">
        <ele>6.804207067936659</ele>
        <time>2020-05-03T00:02:41Z</time>
      </trkpt>
      <trkpt lat="31.206905205322887" lon="121.61061004480656">
        <ele>6.909534314647317</ele>
        <time>2020-05-03T00:02:48Z</time>
      </trkpt>
      <trkpt lat="31.206906464454427" lon="121.61074451195819">
        <ele>5.275471870787442</ele>
        <time>2020-05-03T00:02:59Z</time>
      </trkpt>
      <trkpt lat="31.207062400858447" lon="121.61107171748034">
        <ele>7.00559207983315</ele>
        <time>2020-05-03T00:03:24Z</time>
      </trkpt>
      <trkpt lat="31.207059091062753" lon="121.61114816744524">
        <ele>5.255027966573834</ele>
        <time>2020-05-03T00:03:34Z</time>
      </trkpt>
      <trkpt lat="31.20685961615556" lon="121.61140464096675">
        <ele>6.460012383759022</ele>
        <time>2020-05-03T00:03:59Z</time>
      </trkpt>
      <trkpt lat="31.206732359317233" lon="121.61153043908885">
        <ele>8.065070821903646</ele>
        <time>2020-05-03T00:04:13Z</time>
      </trkpt>
      <trkpt lat="31.206656995771418" lon="121.6115141797208">
        <ele>7.032223781570792</ele>
        <time>2020-05-03T00:04:21Z</time>
      </trkpt>
      <trkpt lat="31.206556512794293" lon="121.61136915259299">
        <ele>8.725331814028323</ele>
        <time>2020-05-03T00:04:34Z</time>
      </trkpt>
      <trkpt lat="31.20648822609286" lon="121.611316023532">
        <ele>8.435006435029209</ele>
        <time>2020-05-03T00:04:41Z</time>
      </trkpt>
    </trkseg>
  </trk>
</gpx>