<?xml version="1.0" encoding="UTF-8"?>
<gpx xmlns="http://www.topografix.com/GPX/1/1" xmlns:gpxtpx="http://www.garmin.com/xmlschemas/TrackPointExtension/v1" xmlns:xsi="http://www.w3.org/2001/XMLSchema-instance" xsi:schemaLocation="http://www.topografix.com/GPX/1/1 http://www.topografix.com/GPX/1/1/gpx.xsd" version="1.1" creator="gpx.py -- https://github.com/tkrajina/gpxpy">
  <trk>
    <name>gpx from keep</name>
    <type>Run</type>
    <trkseg>
      <trkpt lat="31.204523008131353" lon="121.61061024174593">
        <ele>8.591224131028007</ele>
        <time>2020-08-02T23:14:16Z</time>
      </trkpt>
      <trkpt lat="31.20455197239638" lon="121.61067611756312">
        <ele>8.598586994281362</ele>
        <time>2020-08-02T23:14:19Z</time>
      </trkpt>
      <trkpt lat="31.204561990381787" lon="121.61069563616843">
        <ele>8.572901652620612</ele>
        <time>2020-08-02T23:14:20Z</time>
      </trkpt>
      <trkpt lat="31.204595844053397" lon="121.61074876952053">
        <ele>8.527658886276186</ele>
        <time>2020-08-02T23:14:23Z</time>
      </trkpt>
      <trkpt lat="31.20468204338318" lon="121.6107788547514">
        <ele>8.410784147679806</ele>
        <time>2020-08-02T23:14:29Z</time>
      </trkpt>
      <trkpt lat="31.20490375893864" lon="121.61050258167019">
        <ele>8.238520194776356</ele>
        <time>2020-08-02T23:14:41Z</time>
      </trkpt>
      <trkpt lat="31.205011219063444" lon="121.61037488177142">
        <ele>9.085871062241495</ele>
        <time>2020-08-02T23:14:47Z</time>
      </trkpt>
      <trkpt lat="31.20508932883291" lon="121.61034261356401">
        <ele>8.531268611550331</ele>
        <time>2020-08-02T23:14:50Z</time>
      </trkpt>
      <trkpt lat="31.205143353413423" lon="121.6102450102462">
        <ele>8.63888737000525</ele>
        <time>2020-08-02T23:14:53Z</time>
      </trkpt>
      <trkpt lat="31.205202762840088" lon="121.61020108571456">
        <ele>7.768836378119886</ele>
        <time>2020-08-02T23:14:56Z</time>
      </trkpt>
      <trkpt lat="31.205244829926027" lon="121.61014225150079">
        <ele>6.624800059944391</ele>
        <time>2020-08-02T23:14:59Z</time>
      </trkpt>
      <trkpt lat="31.20534818479954" lon="121.61006714543531">
        <ele>7.031430433504283</ele>
        <time>2020-08-02T23:15:05Z</time>
      </trkpt>
      <trkpt lat="31.20547633381041" lon="121.61020784082395">
        <ele>7.912242702208459</ele>
        <time>2020-08-02T23:15:11Z</time>
      </trkpt>
      <trkpt lat="31.205518305628967" lon="121.61028510327299">
        <ele>6.2243616580963135</ele>
        <time>2020-08-02T23:15:14Z</time>
      </trkpt>
      <trkpt lat="31.205777083856027" lon="121.6105060338432">
        <ele>9.624871525913477</ele>
        <time>2020-08-02T23:15:26Z</time>
      </trkpt>
      <trkpt lat="31.205811210826905" lon="121.610556727672">
        <ele>7.440425923094153</ele>
        <time>2020-08-02T23:15:29Z</time>
      </trkpt>
      <trkpt lat="31.20593045584815" lon="121.61063316923274">
        <ele>8.682005055248737</ele>
        <time>2020-08-02T23:15:35Z</time>
      </trkpt>
      <trkpt lat="31.20601356845022" lon="121.61080829478554">
        <ele>7.700884005986154</ele>
        <time>2020-08-02T23:15:41Z</time>
      </trkpt>
      <trkpt lat="31.206127099796166" lon="121.61091103274289">
        <ele>7.8334673484787345</ele>
        <time>2020-08-02T23:15:47Z</time>
      </trkpt>
      <trkpt lat="31.206261122049227" lon="121.61117046342407">
        <ele>5.530476864427328</ele>
        <time>2020-08-02T23:15:59Z</time>
      </trkpt>
      <trkpt lat="31.20635571020072" lon="121.61122223516408">
        <ele>9.213322759605944</ele>
        <time>2020-08-02T23:16:02Z</time>
      </trkpt>
      <trkpt lat="31.20643803797029" lon="121.61135370996082">
        <ele>7.44273226428777</ele>
        <time>2020-08-02T23:16:08Z</time>
      </trkpt>
      <trkpt lat="31.206477274385133" lon="121.61145862036265">
        <ele>5.892405358143151</ele>
        <time>2020-08-02T23:16:12Z</time>
      </trkpt>
      <trkpt lat="31.206529832684755" lon="121.61151473242157">
        <ele>3.908939603716135</ele>
        <time>2020-08-02T23:16:15Z</time>
      </trkpt>
      <trkpt lat="31.206646109610762" lon="121.61156839924016">
        <ele>6.4829576862975955</ele>
        <time>2020-08-02T23:16:18Z</time>
      </trkpt>
      <trkpt lat="31.206727077311864" lon="121.61170339635218">
        <ele>6.239581424742937</ele>
        <time>2020-08-02T23:16:25Z</time>
      </trkpt>
      <trkpt lat="31.206775851957183" lon="121.61174270050775">
        <ele>6.061734610237181</ele>
        <time>2020-08-02T23:16:28Z</time>
      </trkpt>
      <trkpt lat="31.206809153239885" lon="121.61180640398617">
        <ele>6.90726516302675</ele>
        <time>2020-08-02T23:16:31Z</time>
      </trkpt>
      <trkpt lat="31.206777393360458" lon="121.61185493166643">
        <ele>5.8288453901186585</ele>
        <time>2020-08-02T23:16:34Z</time>
      </trkpt>
      <trkpt lat="31.20666183105323" lon="121.61193138830673">
        <ele>6.270409258082509</ele>
        <time>2020-08-02T23:16:40Z</time>
      </trkpt>
      <trkpt lat="31.20653022517699" lon="121.61206802739137">
        <ele>6.899517737329006</ele>
        <time>2020-08-02T23:16:46Z</time>
      </trkpt>
      <trkpt lat="31.20645210312373" lon="121.61211330531941">
        <ele>7.672705438919365</ele>
        <time>2020-08-02T23:16:49Z</time>
      </trkpt>
      <trkpt lat="31.20638833522228" lon="121.61217918448692">
        <ele>5.740502507425845</ele>
        <time>2020-08-02T23:16:52Z</time>
      </trkpt>
      <trkpt lat="31.20628434346135" lon="121.61236759681276">
        <ele>6.510955226607621</ele>
        <time>2020-08-02T23:16:58Z</time>
      </trkpt>
      <trkpt lat="31.206148958891063" lon="121.61247956518105">
        <ele>7.217959377914667</ele>
        <time>2020-08-02T23:17:04Z</time>
      </trkpt>
      <trkpt lat="31.206122320264864" lon="121.61256495808593">
        <ele>4.056653898209333</ele>
        <time>2020-08-02T23:17:07Z</time>
      </trkpt>
      <trkpt lat="31.205892723723338" lon="121.61283632766828">
        <ele>4.284926586784422</ele>
        <time>2020-08-02T23:17:19Z</time>
      </trkpt>
      <trkpt lat="31.205786860656122" lon="121.6129859709661">
        <ele>6.028734881430864</ele>
        <time>2020-08-02T23:17:25Z</time>
      </trkpt>
      <trkpt lat="31.205546178690536" lon="121.61321396484665">
        <ele>4.7907197922468185</ele>
        <time>2020-08-02T23:17:37Z</time>
      </trkpt>
      <trkpt lat="31.205373066814712" lon="121.61336984594486">
        <ele>7.690287904813886</ele>
        <time>2020-08-02T23:17:46Z</time>
      </trkpt>
      <trkpt lat="31.205304165011686" lon="121.61341051237243">
        <ele>6.437383183278143</ele>
        <time>2020-08-02T23:17:49Z</time>
      </trkpt>
      <trkpt lat="31.205149460944316" lon="121.6136005453783">
        <ele>8.873770324513316</ele>
        <time>2020-08-02T23:17:58Z</time>
      </trkpt>
      <trkpt lat="31.205066462462913" lon="121.61363795974931">
        <ele>7.977252913638949</ele>
        <time>2020-08-02T23:18:01Z</time>
      </trkpt>
      <trkpt lat="31.204984201429223" lon="121.61376645275645">
        <ele>7.041019235737622</ele>
        <time>2020-08-02T23:18:07Z</time>
      </trkpt>
      <trkpt lat="31.2049104059053" lon="121.61382229863709">
        <ele>5.350753806531429</ele>
        <time>2020-08-02T23:18:10Z</time>
      </trkpt>
      <trkpt lat="31.204805640450246" lon="121.61394997930775">
        <ele>6.446679055690765</ele>
        <time>2020-08-02T23:18:16Z</time>
      </trkpt>
      <trkpt lat="31.20472778964885" lon="121.61399145866984">
        <ele>7.560851871967316</ele>
        <time>2020-08-02T23:18:19Z</time>
      </trkpt>
      <trkpt lat="31.204536478283742" lon="121.61418149003232">
        <ele>6.589940253645182</ele>
        <time>2020-08-02T23:18:29Z</time>
      </trkpt>
      <trkpt lat="31.2044878841009" lon="121.61425305443122">
        <ele>5.444928934797645</ele>
        <time>2020-08-02T23:18:32Z</time>
      </trkpt>
      <trkpt lat="31.20442032603008" lon="121.61430618803988">
        <ele>7.841433461755514</ele>
        <time>2020-08-02T23:18:35Z</time>
      </trkpt>
      <trkpt lat="31.204374445665042" lon="121.6143744991163">
        <ele>7.540989025495946</ele>
        <time>2020-08-02T23:18:38Z</time>
      </trkpt>
      <trkpt lat="31.204304740871148" lon="121.61440133983086">
        <ele>6.139932765625417</ele>
        <time>2020-08-02T23:18:41Z</time>
      </trkpt>
      <trkpt lat="31.204071902136203" lon="121.61463853536223">
        <ele>6.122736115008593</ele>
        <time>2020-08-02T23:18:53Z</time>
      </trkpt>
      <trkpt lat="31.204066119695945" lon="121.61474045315059">
        <ele>5.785115785896778</ele>
        <time>2020-08-02T23:18:56Z</time>
      </trkpt>
      <trkpt lat="31.20410511493563" lon="121.61479574530576">
        <ele>5.752499065361917</ele>
        <time>2020-08-02T23:18:59Z</time>
      </trkpt>
      <trkpt lat="31.2041579789645" lon="121.61480414365195">
        <ele>5.404346814379096</ele>
        <time>2020-08-02T23:19:02Z</time>
      </trkpt>
      <trkpt lat="31.204208440876478" lon="121.61476890225381">
        <ele>6.102886953391135</ele>
        <time>2020-08-02T23:19:05Z</time>
      </trkpt>
      <trkpt lat="31.20428842270023" lon="121.614772419364">
        <ele>6.960590532980859</ele>
        <time>2020-08-02T23:19:08Z</time>
      </trkpt>
      <trkpt lat="31.20435427093667" lon="121.61481551174128">
        <ele>5.756963077001274</ele>
        <time>2020-08-02T23:19:11Z</time>
      </trkpt>
      <trkpt lat="31.20440464326484" lon="121.61488272918223">
        <ele>7.30410847812891</ele>
        <time>2020-08-02T23:19:14Z</time>
      </trkpt>
      <trkpt lat="31.20440667936691" lon="121.61503397694004">
        <ele>7.135162900201976</ele>
        <time>2020-08-02T23:19:20Z</time>
      </trkpt>
      <trkpt lat="31.204486962171604" lon="121.61500361237009">
        <ele>7.7820750353857875</ele>
        <time>2020-08-02T23:19:26Z</time>
      </trkpt>
      <trkpt lat="31.204550931233257" lon="121.61502502026643">
        <ele>6.494627967476845</ele>
        <time>2020-08-02T23:19:29Z</time>
      </trkpt>
      <trkpt lat="31.20460819448788" lon="121.61496402855559">
        <ele>6.358919335529208</ele>
        <time>2020-08-02T23:19:32Z</time>
      </trkpt>
      <trkpt lat="31.204628667677397" lon="121.61480654422311">
        <ele>5.952010467648506</ele>
        <time>2020-08-02T23:19:38Z</time>
      </trkpt>
      <trkpt lat="31.204695383777437" lon="121.61478729376807">
        <ele>5.384513849392533</ele>
        <time>2020-08-02T23:19:41Z</time>
      </trkpt>
      <trkpt lat="31.20477860836689" lon="121.61480327915814">
        <ele>5.774294564500451</ele>
        <time>2020-08-02T23:19:44Z</time>
      </trkpt>
      <trkpt lat="31.204865951570994" lon="121.6147601740897">
        <ele>5.459716733545065</ele>
        <time>2020-08-02T23:19:47Z</time>
      </trkpt>
      <trkpt lat="31.205119399220276" lon="121.61452135171288">
        <ele>5.665456152521074</ele>
        <time>2020-08-02T23:19:59Z</time>
      </trkpt>
      <trkpt lat="31.20517827418017" lon="121.61447662213598">
        <ele>4.827616178430617</ele>
        <time>2020-08-02T23:20:02Z</time>
      </trkpt>
      <trkpt lat="31.205208686836123" lon="121.61442376303971">
        <ele>4.369328886270523</ele>
        <time>2020-08-02T23:20:05Z</time>
      </trkpt>
      <trkpt lat="31.205290032835943" lon="121.61441752193856">
        <ele>3.9018112663179636</ele>
        <time>2020-08-02T23:20:08Z</time>
      </trkpt>
      <trkpt lat="31.205523670365817" lon="121.61419550363627">
        <ele>6.683179305866361</ele>
        <time>2020-08-02T23:20:20Z</time>
      </trkpt>
      <trkpt lat="31.20558363855765" lon="121.61413993084211">
        <ele>6.885146334767342</ele>
        <time>2020-08-02T23:20:23Z</time>
      </trkpt>
      <trkpt lat="31.205656320600035" lon="121.61411905297685">
        <ele>6.400208096019924</ele>
        <time>2020-08-02T23:20:26Z</time>
      </trkpt>
      <trkpt lat="31.205893230768634" lon="121.61387155142367">
        <ele>5.112641089595854</ele>
        <time>2020-08-02T23:20:36Z</time>
      </trkpt>
      <trkpt lat="31.206026774959454" lon="121.61369751536975">
        <ele>8.095845515839756</ele>
        <time>2020-08-02T23:20:44Z</time>
      </trkpt>
      <trkpt lat="31.206117916446015" lon="121.61364952874914">
        <ele>8.035499358549714</ele>
        <time>2020-08-02T23:20:48Z</time>
      </trkpt>
      <trkpt lat="31.20626219618004" lon="121.61360668794883">
        <ele>7.38103015627712</ele>
        <time>2020-08-02T23:20:55Z</time>
      </trkpt>
      <trkpt lat="31.206262245340522" lon="121.6135473237511">
        <ele>7.360203894786537</ele>
        <time>2020-08-02T23:20:58Z</time>
      </trkpt>
      <trkpt lat="31.206030899224654" lon="121.61329958385427">
        <ele>8.559833716601133</ele>
        <time>2020-08-02T23:21:13Z</time>
      </trkpt>
      <trkpt lat="31.205813606022637" lon="121.61310605520505">
        <ele>7.240642783232033</ele>
        <time>2020-08-02T23:21:25Z</time>
      </trkpt>
      <trkpt lat="31.205786283830534" lon="121.61302880101493">
        <ele>8.482716863043606</ele>
        <time>2020-08-02T23:21:28Z</time>
      </trkpt>
      <trkpt lat="31.20579204889824" lon="121.61294042969031">
        <ele>7.410585327073932</ele>
        <time>2020-08-02T23:21:31Z</time>
      </trkpt>
      <trkpt lat="31.205932049016212" lon="121.61282304159361">
        <ele>6.288541770540178</ele>
        <time>2020-08-02T23:21:37Z</time>
      </trkpt>
      <trkpt lat="31.20595892739772" lon="121.61277804036393">
        <ele>5.969158127903938</ele>
        <time>2020-08-02T23:21:40Z</time>
      </trkpt>
      <trkpt lat="31.20594949230138" lon="121.61270945815299">
        <ele>6.551194413565099</ele>
        <time>2020-08-02T23:21:43Z</time>
      </trkpt>
      <trkpt lat="31.206056993695785" lon="121.61254327698978">
        <ele>8.376227307133377</ele>
        <time>2020-08-02T23:21:52Z</time>
      </trkpt>
      <trkpt lat="31.2061180475044" lon="121.61248200747573">
        <ele>7.630535465665162</ele>
        <time>2020-08-02T23:21:55Z</time>
      </trkpt>
      <trkpt lat="31.206193182565734" lon="121.6124432364956">
        <ele>7.3759456584230065</ele>
        <time>2020-08-02T23:21:58Z</time>
      </trkpt>
      <trkpt lat="31.20631911298976" lon="121.61228545552265">
        <ele>7.40551326982677</ele>
        <time>2020-08-02T23:22:04Z</time>
      </trkpt>
      <trkpt lat="31.206568448000642" lon="121.61207751227057">
        <ele>7.825251178815961</ele>
        <time>2020-08-02T23:22:16Z</time>
      </trkpt>
      <trkpt lat="31.206761679891223" lon="121.61183866759575">
        <ele>7.8230937430635095</ele>
        <time>2020-08-02T23:22:28Z</time>
      </trkpt>
      <trkpt lat="31.206828970695643" lon="121.61177414261815">
        <ele>7.290232247672975</ele>
        <time>2020-08-02T23:22:31Z</time>
      </trkpt>
      <trkpt lat="31.206893529228413" lon="121.61173699787193">
        <ele>5.692751626484096</ele>
        <time>2020-08-02T23:22:34Z</time>
      </trkpt>
      <trkpt lat="31.207021069244085" lon="121.61159656186919">
        <ele>5.945273822173476</ele>
        <time>2020-08-02T23:22:41Z</time>
      </trkpt>
      <trkpt lat="31.20710271561814" lon="121.61155074044987">
        <ele>5.548797611147165</ele>
        <time>2020-08-02T23:22:44Z</time>
      </trkpt>
      <trkpt lat="31.20722049639378" lon="121.6114067798863">
        <ele>5.5484087988734245</ele>
        <time>2020-08-02T23:22:50Z</time>
      </trkpt>
      <trkpt lat="31.207456841083992" lon="121.61115680968538">
        <ele>7.5159316677600145</ele>
        <time>2020-08-02T23:23:02Z</time>
      </trkpt>
      <trkpt lat="31.20759281532827" lon="121.61097245130533">
        <ele>5.170901328325272</ele>
        <time>2020-08-02T23:23:14Z</time>
      </trkpt>
      <trkpt lat="31.20764190912609" lon="121.61094750604872">
        <ele>5.323443540371954</ele>
        <time>2020-08-02T23:23:23Z</time>
      </trkpt>
      <trkpt lat="31.207684257987065" lon="121.61087647420499">
        <ele>5.882220127619803</ele>
        <time>2020-08-02T23:23:29Z</time>
      </trkpt>
      <trkpt lat="31.207679419574983" lon="121.61081845892464">
        <ele>6.2897065514698625</ele>
        <time>2020-08-02T23:23:32Z</time>
      </trkpt>
      <trkpt lat="31.207562377763068" lon="121.61069511701434">
        <ele>6.972113441675901</ele>
        <time>2020-08-02T23:23:38Z</time>
      </trkpt>
      <trkpt lat="31.20753177752973" lon="121.61064198327003">
        <ele>6.027867648750544</ele>
        <time>2020-08-02T23:23:41Z</time>
      </trkpt>
      <trkpt lat="31.20744251576907" lon="121.61072277942604">
        <ele>6.552864274941385</ele>
        <time>2020-08-02T23:23:47Z</time>
      </trkpt>
      <trkpt lat="31.20740586569669" lon="121.61078757593191">
        <ele>6.050873833708465</ele>
        <time>2020-08-02T23:23:50Z</time>
      </trkpt>
      <trkpt lat="31.20733967774701" lon="121.61083014438209">
        <ele>5.822181563824415</ele>
        <time>2020-08-02T23:23:53Z</time>
      </trkpt>
      <trkpt lat="31.20725092058335" lon="121.61096190667719">
        <ele>5.9868136597797275</ele>
        <time>2020-08-02T23:23:59Z</time>
      </trkpt>
      <trkpt lat="31.207185540415633" lon="121.61101179441937">
        <ele>5.415663348510861</ele>
        <time>2020-08-02T23:24:02Z</time>
      </trkpt>
      <trkpt lat="31.20709680507004" lon="121.61111265049519">
        <ele>5.766389955766499</ele>
        <time>2020-08-02T23:24:05Z</time>
      </trkpt>
      <trkpt lat="31.207021932869015" lon="121.61116524966887">
        <ele>4.4033073335886</ele>
        <time>2020-08-02T23:24:08Z</time>
      </trkpt>
      <trkpt lat="31.206968193733122" lon="121.61123872142758">
        <ele>6.251773748546839</ele>
        <time>2020-08-02T23:24:11Z</time>
      </trkpt>
      <trkpt lat="31.206717771821136" lon="121.61145860047824">
        <ele>5.893871420063078</ele>
        <time>2020-08-02T23:24:23Z</time>
      </trkpt>
      <trkpt lat="31.206655643752555" lon="121.61150930015057">
        <ele>7.769499040208757</ele>
        <time>2020-08-02T23:24:26Z</time>
      </trkpt>
      <trkpt lat="31.206618999498392" lon="121.611563792904">
        <ele>7.359378748573363</ele>
        <time>2020-08-02T23:24:29Z</time>
      </trkpt>
      <trkpt lat="31.206537342709158" lon="121.61162344000101">
        <ele>7.20914070494473</ele>
        <time>2020-08-02T23:24:32Z</time>
      </trkpt>
      <trkpt lat="31.20630642039344" lon="121.61186825398502">
        <ele>8.070845181122422</ele>
        <time>2020-08-02T23:24:44Z</time>
      </trkpt>
      <trkpt lat="31.20614003157789" lon="121.6121060117897">
        <ele>5.588624845258892</ele>
        <time>2020-08-02T23:25:00Z</time>
      </trkpt>
      <trkpt lat="31.206029612399174" lon="121.61219249733858">
        <ele>7.156839593313634</ele>
        <time>2020-08-02T23:25:06Z</time>
      </trkpt>
      <trkpt lat="31.20592348584551" lon="121.61233699420634">
        <ele>7.285398483276367</ele>
        <time>2020-08-02T23:25:15Z</time>
      </trkpt>
      <trkpt lat="31.2058705772838" lon="121.61238443819013">
        <ele>6.863386986777186</ele>
        <time>2020-08-02T23:25:21Z</time>
      </trkpt>
      <trkpt lat="31.205836895840118" lon="121.61246169955952">
        <ele>8.095839401707053</ele>
        <time>2020-08-02T23:25:27Z</time>
      </trkpt>
      <trkpt lat="31.205758494330773" lon="121.61251673568431">
        <ele>6.92305257357657</ele>
        <time>2020-08-02T23:25:33Z</time>
      </trkpt>
      <trkpt lat="31.20560247493535" lon="121.61266394546081">
        <ele>8.574909909628332</ele>
        <time>2020-08-02T23:25:45Z</time>
      </trkpt>
      <trkpt lat="31.20553981290096" lon="121.61270135964465">
        <ele>4.8607689226046205</ele>
        <time>2020-08-02T23:25:51Z</time>
      </trkpt>
      <trkpt lat="31.205428873138484" lon="121.61275829544567">
        <ele>2.501446509733796</ele>
        <time>2020-08-02T23:26:09Z</time>
      </trkpt>
      <trkpt lat="31.20539548018365" lon="121.61281251391362">
        <ele>5.677969168871641</ele>
        <time>2020-08-02T23:26:12Z</time>
      </trkpt>
      <trkpt lat="31.205335016100516" lon="121.6128136032261">
        <ele>6.2539214519783854</ele>
        <time>2020-08-02T23:26:15Z</time>
      </trkpt>
      <trkpt lat="31.2052851434175" lon="121.61279327647561">
        <ele>7.213174884207547</ele>
        <time>2020-08-02T23:26:18Z</time>
      </trkpt>
      <trkpt lat="31.205127219750395" lon="121.61260678681896">
        <ele>8.569116665050387</ele>
        <time>2020-08-02T23:26:27Z</time>
      </trkpt>
      <trkpt lat="31.20500610612681" lon="121.61250053299034">
        <ele>7.421390587463975</ele>
        <time>2020-08-02T23:26:33Z</time>
      </trkpt>
      <trkpt lat="31.204936219249774" lon="121.61241650324301">
        <ele>8.446771016344428</ele>
        <time>2020-08-02T23:26:36Z</time>
      </trkpt>
      <trkpt lat="31.204705947391403" lon="121.61216875125075">
        <ele>11.12852020189166</ele>
        <time>2020-08-02T23:26:46Z</time>
      </trkpt>
      <trkpt lat="31.204554223201985" lon="121.61202427465061">
        <ele>8.400632131844759</ele>
        <time>2020-08-02T23:26:53Z</time>
      </trkpt>
      <trkpt lat="31.204511165589842" lon="121.6119554219027">
        <ele>7.26263234205544</ele>
        <time>2020-08-02T23:26:56Z</time>
      </trkpt>
      <trkpt lat="31.204445043261057" lon="121.61191015559072">
        <ele>8.044910179451108</ele>
        <time>2020-08-02T23:26:59Z</time>
      </trkpt>
      <trkpt lat="31.2043989995576" lon="121.61184564018195">
        <ele>7.354340545833111</ele>
        <time>2020-08-02T23:27:02Z</time>
      </trkpt>
      <trkpt lat="31.20432312834445" lon="121.6117843801418">
        <ele>7.741103217937052</ele>
        <time>2020-08-02T23:27:05Z</time>
      </trkpt>
      <trkpt lat="31.204281966620446" lon="121.61171742415821">
        <ele>8.22129774466157</ele>
        <time>2020-08-02T23:27:08Z</time>
      </trkpt>
      <trkpt lat="31.20421829251357" lon="121.61166104241953">
        <ele>7.4513600543141365</ele>
        <time>2020-08-02T23:27:11Z</time>
      </trkpt>
      <trkpt lat="31.2039921136398" lon="121.6113690935115">
        <ele>9.653524477034807</ele>
        <time>2020-08-02T23:27:23Z</time>
      </trkpt>
      <trkpt lat="31.20375861208961" lon="121.61107551489962">
        <ele>9.022216187790036</ele>
        <time>2020-08-02T23:27:35Z</time>
      </trkpt>
      <trkpt lat="31.203573015526047" lon="121.61089606225494">
        <ele>7.9363189823925495</ele>
        <time>2020-08-02T23:27:44Z</time>
      </trkpt>
      <trkpt lat="31.2035104120433" lon="121.61085648668707">
        <ele>6.331891801208258</ele>
        <time>2020-08-02T23:27:47Z</time>
      </trkpt>
      <trkpt lat="31.203472778204187" lon="121.61078193684195">
        <ele>6.863664288073778</ele>
        <time>2020-08-02T23:27:50Z</time>
      </trkpt>
      <trkpt lat="31.20325549499413" lon="121.6105490769064">
        <ele>7.938160751014948</ele>
        <time>2020-08-02T23:28:05Z</time>
      </trkpt>
      <trkpt lat="31.20312218192684" lon="121.61042898814824">
        <ele>8.196604015305638</ele>
        <time>2020-08-02T23:28:17Z</time>
      </trkpt>
      <trkpt lat="31.20310269568783" lon="121.61037883503599">
        <ele>7.85014125239104</ele>
        <time>2020-08-02T23:28:20Z</time>
      </trkpt>
      <trkpt lat="31.203066662858003" lon="121.61033898526362">
        <ele>7.584158482961357</ele>
        <time>2020-08-02T23:28:23Z</time>
      </trkpt>
      <trkpt lat="31.202996455706415" lon="121.61031513360442">
        <ele>4.1338851749897</ele>
        <time>2020-08-02T23:28:29Z</time>
      </trkpt>
      <trkpt lat="31.202922430518516" lon="121.61032273073698">
        <ele>5.804853620007634</ele>
        <time>2020-08-02T23:28:35Z</time>
      </trkpt>
      <trkpt lat="31.2028510289" lon="121.61045449454127">
        <ele>6.081895840354264</ele>
        <time>2020-08-02T23:28:44Z</time>
      </trkpt>
      <trkpt lat="31.20278188718652" lon="121.61045775352851">
        <ele>6.650293185375631</ele>
        <time>2020-08-02T23:28:50Z</time>
      </trkpt>
      <trkpt lat="31.202749655941478" lon="121.61041004149212">
        <ele>5.327139514498413</ele>
        <time>2020-08-02T23:28:53Z</time>
      </trkpt>
      <trkpt lat="31.202662121889656" lon="121.61034986299627">
        <ele>5.648375500924885</ele>
        <time>2020-08-02T23:29:00Z</time>
      </trkpt>
      <trkpt lat="31.2025482767539" lon="121.61030513966496">
        <ele>5.563376056030393</ele>
        <time>2020-08-02T23:29:09Z</time>
      </trkpt>
      <trkpt lat="31.202496176253714" lon="121.61036560092893">
        <ele>6.754163239151239</ele>
        <time>2020-08-02T23:29:15Z</time>
      </trkpt>
      <trkpt lat="31.202440640985817" lon="121.61029837086622">
        <ele>5.5220917304977775</ele>
        <time>2020-08-02T23:29:21Z</time>
      </trkpt>
      <trkpt lat="31.2025027900283" lon="121.61021405102309">
        <ele>7.13804686255753</ele>
        <time>2020-08-02T23:29:27Z</time>
      </trkpt>
      <trkpt lat="31.20255566682853" lon="121.61020618449334">
        <ele>6.201541882008314</ele>
        <time>2020-08-02T23:29:30Z</time>
      </trkpt>
      <trkpt lat="31.20262988300843" lon="121.61031272393633">
        <ele>5.854923313483596</ele>
        <time>2020-08-02T23:29:36Z</time>
      </trkpt>
      <trkpt lat="31.20272747553016" lon="121.61033548890488">
        <ele>5.785329100675881</ele>
        <time>2020-08-02T23:29:42Z</time>
      </trkpt>
      <trkpt lat="31.202810683915832" lon="121.61037804585335">
        <ele>5.071619886904955</ele>
        <time>2020-08-02T23:29:48Z</time>
      </trkpt>
      <trkpt lat="31.202902584669882" lon="121.61039782905333">
        <ele>5.399714234285057</ele>
        <time>2020-08-02T23:29:54Z</time>
      </trkpt>
      <trkpt lat="31.20298667937929" lon="121.61033709412338">
        <ele>6.9836340472102165</ele>
        <time>2020-08-02T23:30:00Z</time>
      </trkpt>
      <trkpt lat="31.20298863680366" lon="121.6102525082918">
        <ele>4.498490835539997</ele>
        <time>2020-08-02T23:30:03Z</time>
      </trkpt>
      <trkpt lat="31.20278164433647" lon="121.6100307576258">
        <ele>4.5332358200103045</ele>
        <time>2020-08-02T23:30:15Z</time>
      </trkpt>
      <trkpt lat="31.202724475195044" lon="121.60997247339385">
        <ele>6.20951366238296</ele>
        <time>2020-08-02T23:30:18Z</time>
      </trkpt>
      <trkpt lat="31.202696315491348" lon="121.60991689773819">
        <ele>5.5828219605609775</ele>
        <time>2020-08-02T23:30:21Z</time>
      </trkpt>
      <trkpt lat="31.202593627579674" lon="121.60981171435115">
        <ele>7.142952635884285</ele>
        <time>2020-08-02T23:30:27Z</time>
      </trkpt>
      <trkpt lat="31.202501264666598" lon="121.60967372468336">
        <ele>6.884224591776729</ele>
        <time>2020-08-02T23:30:33Z</time>
      </trkpt>
      <trkpt lat="31.202442738136448" lon="121.60961679522045">
        <ele>6.458782767876983</ele>
        <time>2020-08-02T23:30:36Z</time>
      </trkpt>
      <trkpt lat="31.202347334769" lon="121.60956339317879">
        <ele>5.442513402551413</ele>
        <time>2020-08-02T23:30:42Z</time>
      </trkpt>
      <trkpt lat="31.202384934845597" lon="121.6092892894112">
        <ele>6.322842670604587</ele>
        <time>2020-08-02T23:30:51Z</time>
      </trkpt>
      <trkpt lat="31.2024272733874" lon="121.60922665710109">
        <ele>7.148164983838797</ele>
        <time>2020-08-02T23:30:54Z</time>
      </trkpt>
      <trkpt lat="31.20242764575401" lon="121.60907293106503">
        <ele>5.540976796299219</ele>
        <time>2020-08-02T23:31:04Z</time>
      </trkpt>
      <trkpt lat="31.2024021952749" lon="121.60901762408281">
        <ele>5.7044655391946435</ele>
        <time>2020-08-02T23:31:08Z</time>
      </trkpt>
      <trkpt lat="31.20242886803823" lon="121.60886145430902">
        <ele>7.036322307772934</ele>
        <time>2020-08-02T23:31:16Z</time>
      </trkpt>
      <trkpt lat="31.202490816704277" lon="121.6086594599999">
        <ele>7.3633452309295535</ele>
        <time>2020-08-02T23:31:23Z</time>
      </trkpt>
      <trkpt lat="31.20265993893616" lon="121.60833517498091">
        <ele>5.580310082063079</ele>
        <time>2020-08-02T23:31:35Z</time>
      </trkpt>
      <trkpt lat="31.202709617407855" lon="121.60823783441305">
        <ele>5.55909067671746</ele>
        <time>2020-08-02T23:31:38Z</time>
      </trkpt>
      <trkpt lat="31.20277879723707" lon="121.60817275672778">
        <ele>6.558832266367972</ele>
        <time>2020-08-02T23:31:41Z</time>
      </trkpt>
      <trkpt lat="31.20295929615725" lon="121.60785632664087">
        <ele>6.366287814453244</ele>
        <time>2020-08-02T23:31:53Z</time>
      </trkpt>
      <trkpt lat="31.203082484673036" lon="121.60770203869767">
        <ele>6.745086370036006</ele>
        <time>2020-08-02T23:31:59Z</time>
      </trkpt>
      <trkpt lat="31.203163824192576" lon="121.60770365881159">
        <ele>6.036970316432416</ele>
        <time>2020-08-02T23:32:02Z</time>
      </trkpt>
      <trkpt lat="31.203302813648595" lon="121.60787365104238">
        <ele>7.222975048236549</ele>
        <time>2020-08-02T23:32:11Z</time>
      </trkpt>
      <trkpt lat="31.203366767655535" lon="121.60792922882553">
        <ele>7.367364643141627</ele>
        <time>2020-08-02T23:32:14Z</time>
      </trkpt>
      <trkpt lat="31.2034174239599" lon="121.60800432934387">
        <ele>6.440303268842399</ele>
        <time>2020-08-02T23:32:17Z</time>
      </trkpt>
      <trkpt lat="31.203616857379487" lon="121.6082019698734">
        <ele>7.688029694370925</ele>
        <time>2020-08-02T23:32:26Z</time>
      </trkpt>
      <trkpt lat="31.203696818124733" lon="121.60824073528379">
        <ele>8.262546252459288</ele>
        <time>2020-08-02T23:32:29Z</time>
      </trkpt>
      <trkpt lat="31.203947172596745" lon="121.60851835280455">
        <ele>8.91455238033086</ele>
        <time>2020-08-02T23:32:41Z</time>
      </trkpt>
      <trkpt lat="31.20401328688501" lon="121.60858558732279">
        <ele>8.883479273878038</ele>
        <time>2020-08-02T23:32:44Z</time>
      </trkpt>
      <trkpt lat="31.204088367153947" lon="121.60862353908222">
        <ele>6.485795626416802</ele>
        <time>2020-08-02T23:32:47Z</time>
      </trkpt>
      <trkpt lat="31.204168116126002" lon="121.60856822229165">
        <ele>8.783948355354369</ele>
        <time>2020-08-02T23:32:50Z</time>
      </trkpt>
      <trkpt lat="31.20425739756263" lon="121.60844512211284">
        <ele>8.78385287988931</ele>
        <time>2020-08-02T23:32:56Z</time>
      </trkpt>
      <trkpt lat="31.20426937613703" lon="121.60836784886287">
        <ele>9.303007108159363</ele>
        <time>2020-08-02T23:32:59Z</time>
      </trkpt>
      <trkpt lat="31.204316059788525" lon="121.60829057247554">
        <ele>7.535119343549013</ele>
        <time>2020-08-02T23:33:02Z</time>
      </trkpt>
      <trkpt lat="31.20456074350327" lon="121.6080977764539">
        <ele>7.12246844638139</ele>
        <time>2020-08-02T23:33:16Z</time>
      </trkpt>
      <trkpt lat="31.204620139188247" lon="121.60807011580746">
        <ele>8.053884438239038</ele>
        <time>2020-08-02T23:33:20Z</time>
      </trkpt>
      <trkpt lat="31.204667365043885" lon="121.60799148265833">
        <ele>6.523733066394925</ele>
        <time>2020-08-02T23:33:24Z</time>
      </trkpt>
      <trkpt lat="31.204752259275264" lon="121.60794429796009">
        <ele>6.503424299880862</ele>
        <time>2020-08-02T23:33:28Z</time>
      </trkpt>
      <trkpt lat="31.20481297320096" lon="121.60797764269296">
        <ele>6.119273184798658</ele>
        <time>2020-08-02T23:33:31Z</time>
      </trkpt>
      <trkpt lat="31.204974173435673" lon="121.60818098042135">
        <ele>7.8450743509456515</ele>
        <time>2020-08-02T23:33:40Z</time>
      </trkpt>
      <trkpt lat="31.205107544274" lon="121.60822570637866">
        <ele>8.866247185505927</ele>
        <time>2020-08-02T23:33:46Z</time>
      </trkpt>
      <trkpt lat="31.205174783503516" lon="121.60822949668199">
        <ele>7.672864517197013</ele>
        <time>2020-08-02T23:33:49Z</time>
      </trkpt>
      <trkpt lat="31.205233039424822" lon="121.6082907678169">
        <ele>8.188072570599616</ele>
        <time>2020-08-02T23:33:52Z</time>
      </trkpt>
      <trkpt lat="31.205249539316664" lon="121.60835366902212">
        <ele>6.105037576518953</ele>
        <time>2020-08-02T23:33:55Z</time>
      </trkpt>
      <trkpt lat="31.205249539316664" lon="121.60835366902212">
        <ele>6.105037576518953</ele>
        <time>2020-08-02T23:34:01Z</time>
      </trkpt>
    </trkseg>
  </trk>
</gpx>