<?xml version="1.0" encoding="UTF-8"?>
<gpx xmlns="http://www.topografix.com/GPX/1/1" xmlns:gpxtpx="http://www.garmin.com/xmlschemas/TrackPointExtension/v1" xmlns:xsi="http://www.w3.org/2001/XMLSchema-instance" xsi:schemaLocation="http://www.topografix.com/GPX/1/1 http://www.topografix.com/GPX/1/1/gpx.xsd" version="1.1" creator="gpx.py -- https://github.com/tkrajina/gpxpy">
  <trk>
    <name>gpx from keep</name>
    <type>Run</type>
    <trkseg>
      <trkpt lat="31.20445541880553" lon="121.61071706211544">
        <ele>8.694293843907918</ele>
        <time>2020-07-08T22:45:00Z</time>
      </trkpt>
      <trkpt lat="31.204485482207883" lon="121.61076233376468">
        <ele>8.641993373632431</ele>
        <time>2020-07-08T22:45:04Z</time>
      </trkpt>
      <trkpt lat="31.20457845989701" lon="121.61079241841733">
        <ele>8.567639527842402</ele>
        <time>2020-07-08T22:45:11Z</time>
      </trkpt>
      <trkpt lat="31.204665802829876" lon="121.61074063066084">
        <ele>8.516227051615715</ele>
        <time>2020-07-08T22:45:14Z</time>
      </trkpt>
      <trkpt lat="31.204733367384478" lon="121.61066851167215">
        <ele>8.445296393707395</ele>
        <time>2020-07-08T22:45:18Z</time>
      </trkpt>
      <trkpt lat="31.2048396914977" lon="121.61061401102397">
        <ele>8.434849509969354</ele>
        <time>2020-07-08T22:45:22Z</time>
      </trkpt>
      <trkpt lat="31.205087684614387" lon="121.61036728445426">
        <ele>7.818180180154741</ele>
        <time>2020-07-08T22:45:32Z</time>
      </trkpt>
      <trkpt lat="31.205242882921034" lon="121.6102124689744">
        <ele>5.4880192913115025</ele>
        <time>2020-07-08T22:45:40Z</time>
      </trkpt>
      <trkpt lat="31.205281157731143" lon="121.61014848402075">
        <ele>7.4726236164569855</ele>
        <time>2020-07-08T22:45:43Z</time>
      </trkpt>
      <trkpt lat="31.205369319241683" lon="121.61008747697676">
        <ele>9.049856942147017</ele>
        <time>2020-07-08T22:45:47Z</time>
      </trkpt>
      <trkpt lat="31.205576616146125" lon="121.61026178315046">
        <ele>9.65797390975058</ele>
        <time>2020-07-08T22:45:58Z</time>
      </trkpt>
      <trkpt lat="31.205691178927474" lon="121.61044260219663">
        <ele>8.700411676429212</ele>
        <time>2020-07-08T22:46:05Z</time>
      </trkpt>
      <trkpt lat="31.20585325230779" lon="121.61053503580376">
        <ele>6.302912065759301</ele>
        <time>2020-07-08T22:46:12Z</time>
      </trkpt>
      <trkpt lat="31.205882217959076" lon="121.61059928521209">
        <ele>6.713843517936766</ele>
        <time>2020-07-08T22:46:15Z</time>
      </trkpt>
      <trkpt lat="31.205919845974428" lon="121.61068278206336">
        <ele>7.615800838917494</ele>
        <time>2020-07-08T22:46:18Z</time>
      </trkpt>
      <trkpt lat="31.205992481671235" lon="121.61072262820497">
        <ele>5.6713085966184735</ele>
        <time>2020-07-08T22:46:21Z</time>
      </trkpt>
      <trkpt lat="31.206043374540616" lon="121.61083431807748">
        <ele>5.984593378379941</ele>
        <time>2020-07-08T22:46:25Z</time>
      </trkpt>
      <trkpt lat="31.206143933838796" lon="121.61087849926083">
        <ele>8.981962504796684</ele>
        <time>2020-07-08T22:46:29Z</time>
      </trkpt>
      <trkpt lat="31.206195117945878" lon="121.61096172286776">
        <ele>7.78562069311738</ele>
        <time>2020-07-08T22:46:32Z</time>
      </trkpt>
      <trkpt lat="31.20642836154929" lon="121.61123985044702">
        <ele>6.3498890940099955</ele>
        <time>2020-07-08T22:46:45Z</time>
      </trkpt>
      <trkpt lat="31.20649037745283" lon="121.61133987976837">
        <ele>6.5453614024445415</ele>
        <time>2020-07-08T22:46:49Z</time>
      </trkpt>
      <trkpt lat="31.20659824851413" lon="121.61139490316509">
        <ele>7.157892532646656</ele>
        <time>2020-07-08T22:46:52Z</time>
      </trkpt>
      <trkpt lat="31.20663586465872" lon="121.6114908674223">
        <ele>7.362155279144645</ele>
        <time>2020-07-08T22:46:56Z</time>
      </trkpt>
      <trkpt lat="31.206678664858973" lon="121.6115431849064">
        <ele>6.0994315491989255</ele>
        <time>2020-07-08T22:46:59Z</time>
      </trkpt>
      <trkpt lat="31.206677524610733" lon="121.61161719329074">
        <ele>8.239771210588515</ele>
        <time>2020-07-08T22:47:02Z</time>
      </trkpt>
      <trkpt lat="31.206522334642923" lon="121.611749769827">
        <ele>7.455093042925</ele>
        <time>2020-07-08T22:47:09Z</time>
      </trkpt>
      <trkpt lat="31.206270751624388" lon="121.61206371145498">
        <ele>7.066338522359729</ele>
        <time>2020-07-08T22:47:24Z</time>
      </trkpt>
      <trkpt lat="31.20610472980352" lon="121.61217595490938">
        <ele>7.901940515264869</ele>
        <time>2020-07-08T22:47:31Z</time>
      </trkpt>
      <trkpt lat="31.205975019400864" lon="121.6123142188985">
        <ele>7.526161306537688</ele>
        <time>2020-07-08T22:47:38Z</time>
      </trkpt>
      <trkpt lat="31.205837472175926" lon="121.61241832630313">
        <ele>7.543416542001069</ele>
        <time>2020-07-08T22:47:45Z</time>
      </trkpt>
      <trkpt lat="31.20572648151637" lon="121.61254059350517">
        <ele>6.987683502025902</ele>
        <time>2020-07-08T22:47:52Z</time>
      </trkpt>
      <trkpt lat="31.205651362408904" lon="121.61255903324317">
        <ele>4.551848511211574</ele>
        <time>2020-07-08T22:47:56Z</time>
      </trkpt>
      <trkpt lat="31.205426667050716" lon="121.61280465006519">
        <ele>7.229574334807694</ele>
        <time>2020-07-08T22:48:11Z</time>
      </trkpt>
      <trkpt lat="31.20526518976746" lon="121.61299360423538">
        <ele>6.400412952527404</ele>
        <time>2020-07-08T22:48:21Z</time>
      </trkpt>
      <trkpt lat="31.205220370041953" lon="121.61309553233991">
        <ele>7.865053282119334</ele>
        <time>2020-07-08T22:48:25Z</time>
      </trkpt>
      <trkpt lat="31.205166107119393" lon="121.61313972200004">
        <ele>6.868426630273461</ele>
        <time>2020-07-08T22:48:28Z</time>
      </trkpt>
      <trkpt lat="31.2051259244173" lon="121.61320695168408">
        <ele>7.1171524822711945</ele>
        <time>2020-07-08T22:48:31Z</time>
      </trkpt>
      <trkpt lat="31.205000009535297" lon="121.61333924566392">
        <ele>7.621785221621394</ele>
        <time>2020-07-08T22:48:38Z</time>
      </trkpt>
      <trkpt lat="31.204828548182196" lon="121.61346557911148">
        <ele>7.502918068319559</ele>
        <time>2020-07-08T22:48:46Z</time>
      </trkpt>
      <trkpt lat="31.204595996155273" lon="121.61369383873594">
        <ele>8.237968178465962</ele>
        <time>2020-07-08T22:48:58Z</time>
      </trkpt>
      <trkpt lat="31.204507260065633" lon="121.61378356942444">
        <ele>7.421862002462149</ele>
        <time>2020-07-08T22:49:02Z</time>
      </trkpt>
      <trkpt lat="31.204404888052963" lon="121.61396708954335">
        <ele>7.663952434435487</ele>
        <time>2020-07-08T22:49:10Z</time>
      </trkpt>
      <trkpt lat="31.20431239320106" lon="121.61401182285954">
        <ele>5.518510741181672</ele>
        <time>2020-07-08T22:49:14Z</time>
      </trkpt>
      <trkpt lat="31.20416176196282" lon="121.61419019501707">
        <ele>9.136593416333199</ele>
        <time>2020-07-08T22:49:22Z</time>
      </trkpt>
      <trkpt lat="31.204029893833063" lon="121.61430323865602">
        <ele>6.67600813228637</ele>
        <time>2020-07-08T22:49:29Z</time>
      </trkpt>
      <trkpt lat="31.203980210390128" lon="121.61437995292319">
        <ele>7.015984077937901</ele>
        <time>2020-07-08T22:49:32Z</time>
      </trkpt>
      <trkpt lat="31.203750385142953" lon="121.61458163986016">
        <ele>8.14181050285697</ele>
        <time>2020-07-08T22:49:43Z</time>
      </trkpt>
      <trkpt lat="31.2036942148502" lon="121.61463395862296">
        <ele>4.734981115907431</ele>
        <time>2020-07-08T22:49:47Z</time>
      </trkpt>
      <trkpt lat="31.203804665414538" lon="121.61483209155898">
        <ele>4.932773185893893</ele>
        <time>2020-07-08T22:49:54Z</time>
      </trkpt>
      <trkpt lat="31.20383249824769" lon="121.6149394268209">
        <ele>5.9410373363643885</ele>
        <time>2020-07-08T22:49:58Z</time>
      </trkpt>
      <trkpt lat="31.2037885142603" lon="121.61500773593066">
        <ele>4.251291204243898</ele>
        <time>2020-07-08T22:50:02Z</time>
      </trkpt>
      <trkpt lat="31.20383104160333" lon="121.61505408244466">
        <ele>6.1648161225020885</ele>
        <time>2020-07-08T22:50:09Z</time>
      </trkpt>
      <trkpt lat="31.203788456151173" lon="121.61507360174242">
        <ele>7.066677681170404</ele>
        <time>2020-07-08T22:50:19Z</time>
      </trkpt>
      <trkpt lat="31.203767283411217" lon="121.6151009797634">
        <ele>8.534818540327251</ele>
        <time>2020-07-08T22:50:33Z</time>
      </trkpt>
      <trkpt lat="31.203597671675173" lon="121.61527256910969">
        <ele>5.754046121612191</ele>
        <time>2020-07-08T22:50:43Z</time>
      </trkpt>
      <trkpt lat="31.203405066316577" lon="121.61538398636893">
        <ele>6.013473555445671</ele>
        <time>2020-07-08T22:50:53Z</time>
      </trkpt>
      <trkpt lat="31.20334804947952" lon="121.61547153970056">
        <ele>6.7154923137277365</ele>
        <time>2020-07-08T22:50:57Z</time>
      </trkpt>
      <trkpt lat="31.20310545282119" lon="121.6156954442572">
        <ele>5.71542293112725</ele>
        <time>2020-07-08T22:51:08Z</time>
      </trkpt>
      <trkpt lat="31.20298547518606" lon="121.61584507075055">
        <ele>6.28884319588542</ele>
        <time>2020-07-08T22:51:15Z</time>
      </trkpt>
      <trkpt lat="31.20275643131838" lon="121.61607005490443">
        <ele>5.437713195569813</ele>
        <time>2020-07-08T22:51:26Z</time>
      </trkpt>
      <trkpt lat="31.202710008347502" lon="121.61613402437591">
        <ele>4.932736934162676</ele>
        <time>2020-07-08T22:51:29Z</time>
      </trkpt>
      <trkpt lat="31.20264788644846" lon="121.61616872266787">
        <ele>4.364548521116376</ele>
        <time>2020-07-08T22:51:32Z</time>
      </trkpt>
      <trkpt lat="31.202452196923165" lon="121.6163858409858">
        <ele>4.197278259322047</ele>
        <time>2020-07-08T22:51:43Z</time>
      </trkpt>
      <trkpt lat="31.202372645914004" lon="121.61650212244692">
        <ele>5.031098222360015</ele>
        <time>2020-07-08T22:51:47Z</time>
      </trkpt>
      <trkpt lat="31.20229612727037" lon="121.61656473809889">
        <ele>4.498369376175106</ele>
        <time>2020-07-08T22:51:51Z</time>
      </trkpt>
      <trkpt lat="31.202108831694048" lon="121.61679052527754">
        <ele>6.113122443668544</ele>
        <time>2020-07-08T22:52:01Z</time>
      </trkpt>
      <trkpt lat="31.202023089214986" lon="121.61685801954232">
        <ele>4.901465582661331</ele>
        <time>2020-07-08T22:52:05Z</time>
      </trkpt>
      <trkpt lat="31.20179865389362" lon="121.61707540517375">
        <ele>5.757002426311374</ele>
        <time>2020-07-08T22:52:16Z</time>
      </trkpt>
      <trkpt lat="31.201767667488802" lon="121.61715590353428">
        <ele>4.944838771596551</ele>
        <time>2020-07-08T22:52:20Z</time>
      </trkpt>
      <trkpt lat="31.201698214626063" lon="121.61720008699615">
        <ele>5.444265672937036</ele>
        <time>2020-07-08T22:52:23Z</time>
      </trkpt>
      <trkpt lat="31.2014450088922" lon="121.61744592974921">
        <ele>4.615273954346776</ele>
        <time>2020-07-08T22:52:36Z</time>
      </trkpt>
      <trkpt lat="31.20118744224409" lon="121.6177129102422">
        <ele>4.989785774610937</ele>
        <time>2020-07-08T22:52:49Z</time>
      </trkpt>
      <trkpt lat="31.200993860077773" lon="121.61798069564601">
        <ele>4.6523546455428</ele>
        <time>2020-07-08T22:53:01Z</time>
      </trkpt>
      <trkpt lat="31.200927067399157" lon="121.61807528704227">
        <ele>5.630711110308766</ele>
        <time>2020-07-08T22:53:05Z</time>
      </trkpt>
      <trkpt lat="31.20084917783351" lon="121.61814982364837">
        <ele>5.378320161253214</ele>
        <time>2020-07-08T22:53:09Z</time>
      </trkpt>
      <trkpt lat="31.200656969572584" lon="121.6183953809938">
        <ele>5.392491078935564</ele>
        <time>2020-07-08T22:53:20Z</time>
      </trkpt>
      <trkpt lat="31.200439265753776" lon="121.61864771338259">
        <ele>4.327195578254759</ele>
        <time>2020-07-08T22:53:33Z</time>
      </trkpt>
      <trkpt lat="31.200207431736704" lon="121.61892850049172">
        <ele>5.1025552451610565</ele>
        <time>2020-07-08T22:53:47Z</time>
      </trkpt>
      <trkpt lat="31.199971530811858" lon="121.6192065747647">
        <ele>4.900738547556102</ele>
        <time>2020-07-08T22:54:01Z</time>
      </trkpt>
      <trkpt lat="31.1998339325118" lon="121.61933558518149">
        <ele>5.755457876250148</ele>
        <time>2020-07-08T22:54:08Z</time>
      </trkpt>
      <trkpt lat="31.199629821151255" lon="121.61954590161814">
        <ele>6.917122770100832</ele>
        <time>2020-07-08T22:54:19Z</time>
      </trkpt>
      <trkpt lat="31.199360037481505" lon="121.61980987995538">
        <ele>5.314849266782403</ele>
        <time>2020-07-08T22:54:33Z</time>
      </trkpt>
      <trkpt lat="31.199178494253896" lon="121.61995650592704">
        <ele>2.4364949660375714</ele>
        <time>2020-07-08T22:54:43Z</time>
      </trkpt>
      <trkpt lat="31.199120087445102" lon="121.62006328419989">
        <ele>4.90019491314888</ele>
        <time>2020-07-08T22:54:47Z</time>
      </trkpt>
      <trkpt lat="31.199065248198945" lon="121.62012941216967">
        <ele>5.052264493890107</ele>
        <time>2020-07-08T22:54:50Z</time>
      </trkpt>
      <trkpt lat="31.1989421127195" lon="121.62016763295316">
        <ele>5.4341849675402045</ele>
        <time>2020-07-08T22:54:53Z</time>
      </trkpt>
      <trkpt lat="31.19887514001512" lon="121.62017007746685">
        <ele>6.069354033097625</ele>
        <time>2020-07-08T22:54:56Z</time>
      </trkpt>
      <trkpt lat="31.19872886014232" lon="121.62030016775738">
        <ele>7.168800408020616</ele>
        <time>2020-07-08T22:55:03Z</time>
      </trkpt>
      <trkpt lat="31.198687840094387" lon="121.62037388183481">
        <ele>6.6436035595834255</ele>
        <time>2020-07-08T22:55:06Z</time>
      </trkpt>
      <trkpt lat="31.198537973087866" lon="121.62056115095127">
        <ele>7.127664219588041</ele>
        <time>2020-07-08T22:55:14Z</time>
      </trkpt>
      <trkpt lat="31.198474228873984" lon="121.6205869005316">
        <ele>7.161278987303376</ele>
        <time>2020-07-08T22:55:17Z</time>
      </trkpt>
      <trkpt lat="31.198333913334338" lon="121.62071590428152">
        <ele>7.216673035174608</ele>
        <time>2020-07-08T22:55:24Z</time>
      </trkpt>
      <trkpt lat="31.19826819908831" lon="121.6208080465719">
        <ele>7.770831182599068</ele>
        <time>2020-07-08T22:55:28Z</time>
      </trkpt>
      <trkpt lat="31.198050275975998" lon="121.62099423425659">
        <ele>7.273842249065638</ele>
        <time>2020-07-08T22:55:39Z</time>
      </trkpt>
      <trkpt lat="31.197981594424274" lon="121.62107174249174">
        <ele>6.984140546061099</ele>
        <time>2020-07-08T22:55:43Z</time>
      </trkpt>
      <trkpt lat="31.197914859313727" lon="121.62110480847365">
        <ele>6.396563374437392</ele>
        <time>2020-07-08T22:55:46Z</time>
      </trkpt>
      <trkpt lat="31.197715899749053" lon="121.62130372879436">
        <ele>3.9723061826080084</ele>
        <time>2020-07-08T22:55:57Z</time>
      </trkpt>
      <trkpt lat="31.19748468779576" lon="121.62149018505976">
        <ele>5.885412531904876</ele>
        <time>2020-07-08T22:56:08Z</time>
      </trkpt>
      <trkpt lat="31.197259694799715" lon="121.62169100150629">
        <ele>7.517914293333888</ele>
        <time>2020-07-08T22:56:19Z</time>
      </trkpt>
      <trkpt lat="31.19703389865221" lon="121.62188151929311">
        <ele>5.8246938567608595</ele>
        <time>2020-07-08T22:56:30Z</time>
      </trkpt>
      <trkpt lat="31.196779303106464" lon="121.62212352374586">
        <ele>5.24523829203099</ele>
        <time>2020-07-08T22:56:43Z</time>
      </trkpt>
      <trkpt lat="31.196723392341113" lon="121.62217420098791">
        <ele>5.4282555701211095</ele>
        <time>2020-07-08T22:56:46Z</time>
      </trkpt>
      <trkpt lat="31.196672310317826" lon="121.62227040162733">
        <ele>6.36418610624969</ele>
        <time>2020-07-08T22:56:50Z</time>
      </trkpt>
      <trkpt lat="31.196679773734513" lon="121.62238339748141">
        <ele>6.753796707838774</ele>
        <time>2020-07-08T22:56:56Z</time>
      </trkpt>
      <trkpt lat="31.19673852013394" lon="121.62269907569302">
        <ele>7.485611984506249</ele>
        <time>2020-07-08T22:57:14Z</time>
      </trkpt>
      <trkpt lat="31.196743019464016" lon="121.6227947279185">
        <ele>5.911215629428625</ele>
        <time>2020-07-08T22:57:20Z</time>
      </trkpt>
      <trkpt lat="31.19678489499915" lon="121.6231589057622">
        <ele>5.293389210477471</ele>
        <time>2020-07-08T22:57:40Z</time>
      </trkpt>
      <trkpt lat="31.19686138980252" lon="121.62359244227021">
        <ele>6.434498277492821</ele>
        <time>2020-07-08T22:57:56Z</time>
      </trkpt>
      <trkpt lat="31.196895701908364" lon="121.62392490795979">
        <ele>5.374342447146773</ele>
        <time>2020-07-08T22:58:07Z</time>
      </trkpt>
      <trkpt lat="31.19695771583505" lon="121.62398857808613">
        <ele>5.185886754654348</ele>
        <time>2020-07-08T22:58:11Z</time>
      </trkpt>
      <trkpt lat="31.196933109337255" lon="121.62393249171029">
        <ele>5.847473161295056</ele>
        <time>2020-07-08T22:58:15Z</time>
      </trkpt>
      <trkpt lat="31.19692164741126" lon="121.62376639442122">
        <ele>7.4892619187012315</ele>
        <time>2020-07-08T22:58:23Z</time>
      </trkpt>
      <trkpt lat="31.196938822327773" lon="121.62345668349683">
        <ele>6.676516146399081</ele>
        <time>2020-07-08T22:58:34Z</time>
      </trkpt>
      <trkpt lat="31.19692674660957" lon="121.62334965371596">
        <ele>5.108735927380621</ele>
        <time>2020-07-08T22:58:38Z</time>
      </trkpt>
      <trkpt lat="31.196891330604604" lon="121.62326186399866">
        <ele>5.607266833074391</ele>
        <time>2020-07-08T22:58:41Z</time>
      </trkpt>
      <trkpt lat="31.196874030481958" lon="121.62298331157639">
        <ele>5.754418718628585</ele>
        <time>2020-07-08T22:58:51Z</time>
      </trkpt>
      <trkpt lat="31.196834569259543" lon="121.62287574026601">
        <ele>4.680524670518935</ele>
        <time>2020-07-08T22:58:55Z</time>
      </trkpt>
      <trkpt lat="31.197069719566397" lon="121.62257223355056">
        <ele>5.312198957428336</ele>
        <time>2020-07-08T22:59:09Z</time>
      </trkpt>
      <trkpt lat="31.19730742279898" lon="121.6224055654089">
        <ele>4.975849434733391</ele>
        <time>2020-07-08T22:59:20Z</time>
      </trkpt>
      <trkpt lat="31.197399961349728" lon="121.62233347858097">
        <ele>4.850129240192473</ele>
        <time>2020-07-08T22:59:24Z</time>
      </trkpt>
      <trkpt lat="31.19746376816049" lon="121.62225380662521">
        <ele>5.2807988384738564</ele>
        <time>2020-07-08T22:59:27Z</time>
      </trkpt>
      <trkpt lat="31.19763095446777" lon="121.62210529781079">
        <ele>6.1495600854977965</ele>
        <time>2020-07-08T22:59:35Z</time>
      </trkpt>
      <trkpt lat="31.19770610436021" lon="121.6220646450123">
        <ele>6.686388189904392</ele>
        <time>2020-07-08T22:59:38Z</time>
      </trkpt>
      <trkpt lat="31.19787332442384" lon="121.62188524353303">
        <ele>6.5577824003994465</ele>
        <time>2020-07-08T22:59:46Z</time>
      </trkpt>
      <trkpt lat="31.198027678784932" lon="121.62181450508895">
        <ele>6.380287356674671</ele>
        <time>2020-07-08T22:59:53Z</time>
      </trkpt>
      <trkpt lat="31.198199455991144" lon="121.6216806264473">
        <ele>6.413256200030446</ele>
        <time>2020-07-08T23:00:01Z</time>
      </trkpt>
      <trkpt lat="31.198401679842334" lon="121.62147439214122">
        <ele>7.114518619142473</ele>
        <time>2020-07-08T23:00:11Z</time>
      </trkpt>
      <trkpt lat="31.198462524716376" lon="121.62137412305553">
        <ele>7.159826471470296</ele>
        <time>2020-07-08T23:00:15Z</time>
      </trkpt>
      <trkpt lat="31.19854367147921" lon="121.62130366029358">
        <ele>7.279063447378576</ele>
        <time>2020-07-08T23:00:19Z</time>
      </trkpt>
      <trkpt lat="31.19862241212094" lon="121.62120203414823">
        <ele>6.927975598722696</ele>
        <time>2020-07-08T23:00:23Z</time>
      </trkpt>
      <trkpt lat="31.1988668840838" lon="121.6210375247805">
        <ele>6.589515041559935</ele>
        <time>2020-07-08T23:00:33Z</time>
      </trkpt>
      <trkpt lat="31.19910600227102" lon="121.6208087902153">
        <ele>5.667432315647602</ele>
        <time>2020-07-08T23:00:45Z</time>
      </trkpt>
      <trkpt lat="31.199287232307075" lon="121.62070498574509">
        <ele>6.6180986650288105</ele>
        <time>2020-07-08T23:00:53Z</time>
      </trkpt>
      <trkpt lat="31.199386493775485" lon="121.6206805883002">
        <ele>6.5346815986558795</ele>
        <time>2020-07-08T23:00:57Z</time>
      </trkpt>
      <trkpt lat="31.19966870812664" lon="121.62071416788147">
        <ele>6.548228581435978</ele>
        <time>2020-07-08T23:01:07Z</time>
      </trkpt>
      <trkpt lat="31.19974838139716" lon="121.62075128706098">
        <ele>6.19415679294616</ele>
        <time>2020-07-08T23:01:10Z</time>
      </trkpt>
      <trkpt lat="31.199962841258255" lon="121.62075804408437">
        <ele>4.992574678733945</ele>
        <time>2020-07-08T23:01:18Z</time>
      </trkpt>
      <trkpt lat="31.200247189148286" lon="121.62082441320979">
        <ele>6.018046939745545</ele>
        <time>2020-07-08T23:01:28Z</time>
      </trkpt>
      <trkpt lat="31.200314442235076" lon="121.62081356803854">
        <ele>4.83226730953902</ele>
        <time>2020-07-08T23:01:31Z</time>
      </trkpt>
      <trkpt lat="31.20044969237798" lon="121.62085583128318">
        <ele>4.9965528175234795</ele>
        <time>2020-07-08T23:01:35Z</time>
      </trkpt>
      <trkpt lat="31.200666317879474" lon="121.62086583997561">
        <ele>6.006171856075525</ele>
        <time>2020-07-08T23:01:43Z</time>
      </trkpt>
      <trkpt lat="31.20074083357207" lon="121.62090837915083">
        <ele>5.050736173056066</ele>
        <time>2020-07-08T23:01:46Z</time>
      </trkpt>
      <trkpt lat="31.200854175744485" lon="121.62090105306115">
        <ele>5.26740184891969</ele>
        <time>2020-07-08T23:01:50Z</time>
      </trkpt>
      <trkpt lat="31.20095282679826" lon="121.62093952534855">
        <ele>6.267432547174394</ele>
        <time>2020-07-08T23:01:54Z</time>
      </trkpt>
      <trkpt lat="31.20113689937615" lon="121.62096498305894">
        <ele>4.635879631154239</ele>
        <time>2020-07-08T23:02:02Z</time>
      </trkpt>
      <trkpt lat="31.20134099567855" lon="121.62102729347954">
        <ele>4.2096005426719785</ele>
        <time>2020-07-08T23:02:10Z</time>
      </trkpt>
      <trkpt lat="31.2015017790947" lon="121.62102673819719">
        <ele>5.348434736952186</ele>
        <time>2020-07-08T23:02:16Z</time>
      </trkpt>
      <trkpt lat="31.201871266305595" lon="121.62109011873197">
        <ele>5.560682826675475</ele>
        <time>2020-07-08T23:02:30Z</time>
      </trkpt>
      <trkpt lat="31.20207216023141" lon="121.6211055483793">
        <ele>5.673620566725731</ele>
        <time>2020-07-08T23:02:37Z</time>
      </trkpt>
      <trkpt lat="31.20216865778621" lon="121.62112965824073">
        <ele>5.396299704909325</ele>
        <time>2020-07-08T23:02:41Z</time>
      </trkpt>
      <trkpt lat="31.202395317273997" lon="121.6211380400751">
        <ele>5.142206537537277</ele>
        <time>2020-07-08T23:02:52Z</time>
      </trkpt>
      <trkpt lat="31.202463929831715" lon="121.62112394307685">
        <ele>4.846454883925617</ele>
        <time>2020-07-08T23:02:56Z</time>
      </trkpt>
      <trkpt lat="31.202408296295925" lon="121.62092233258907">
        <ele>4.951338903978467</ele>
        <time>2020-07-08T23:03:04Z</time>
      </trkpt>
      <trkpt lat="31.202449153710226" lon="121.62074997959401">
        <ele>2.89773285202682</ele>
        <time>2020-07-08T23:03:11Z</time>
      </trkpt>
      <trkpt lat="31.202397644548768" lon="121.62074402205747">
        <ele>4.497801909223199</ele>
        <time>2020-07-08T23:03:22Z</time>
      </trkpt>
      <trkpt lat="31.20245431202291" lon="121.6207437463768">
        <ele>4.286905729211867</ele>
        <time>2020-07-08T23:03:33Z</time>
      </trkpt>
      <trkpt lat="31.202474158824984" lon="121.62069388235837">
        <ele>4.621940879151225</ele>
        <time>2020-07-08T23:04:18Z</time>
      </trkpt>
      <trkpt lat="31.20241352913576" lon="121.62034457708047">
        <ele>3.1654981886968017</ele>
        <time>2020-07-08T23:04:36Z</time>
      </trkpt>
      <trkpt lat="31.202462608019246" lon="121.62034132107797">
        <ele>2.548518044874072</ele>
        <time>2020-07-08T23:04:53Z</time>
      </trkpt>
      <trkpt lat="31.202426548244713" lon="121.62034024008167">
        <ele>4.872513516806066</ele>
        <time>2020-07-08T23:04:59Z</time>
      </trkpt>
      <trkpt lat="31.202424381484246" lon="121.62033807230002">
        <ele>4.8769511776044965</ele>
        <time>2020-07-08T23:05:00Z</time>
      </trkpt>
      <trkpt lat="31.202430357749652" lon="121.62032750299309">
        <ele>4.82189881708473</ele>
        <time>2020-07-08T23:05:14Z</time>
      </trkpt>
      <trkpt lat="31.202434151030243" lon="121.62032994163626">
        <ele>4.817789394408464</ele>
        <time>2020-07-08T23:05:15Z</time>
      </trkpt>
      <trkpt lat="31.202480522040243" lon="121.62032343391282">
        <ele>5.0515644531697035</ele>
        <time>2020-07-08T23:05:34Z</time>
      </trkpt>
      <trkpt lat="31.202480522040243" lon="121.62032343391282">
        <ele>5.0515644531697035</ele>
        <time>2020-07-08T23:05:35Z</time>
      </trkpt>
      <trkpt lat="31.202476438504437" lon="121.62033888097743">
        <ele>4.440394865348935</ele>
        <time>2020-07-08T23:05:44Z</time>
      </trkpt>
      <trkpt lat="31.20248430373314" lon="121.62033671236546">
        <ele>4.507040054537356</ele>
        <time>2020-07-08T23:05:54Z</time>
      </trkpt>
      <trkpt lat="31.202469115545316" lon="121.62034104954435">
        <ele>4.692379646003246</ele>
        <time>2020-07-08T23:05:57Z</time>
      </trkpt>
      <trkpt lat="31.202590878562194" lon="121.62031908885535">
        <ele>5.554172409698367</ele>
        <time>2020-07-08T23:06:08Z</time>
      </trkpt>
      <trkpt lat="31.202750566875515" lon="121.62032856047517">
        <ele>4.2931597819551826</ele>
        <time>2020-07-08T23:06:15Z</time>
      </trkpt>
      <trkpt lat="31.20285933482412" lon="121.62028844414887">
        <ele>3.5864390963688493</ele>
        <time>2020-07-08T23:06:23Z</time>
      </trkpt>
      <trkpt lat="31.202905237538204" lon="121.62021256145741">
        <ele>4.4354091957211494</ele>
        <time>2020-07-08T23:06:27Z</time>
      </trkpt>
      <trkpt lat="31.202763844703984" lon="121.61982450334185">
        <ele>5.330372903496027</ele>
        <time>2020-07-08T23:06:41Z</time>
      </trkpt>
      <trkpt lat="31.202766680940194" lon="121.61970553360744">
        <ele>4.566782046109438</ele>
        <time>2020-07-08T23:06:45Z</time>
      </trkpt>
      <trkpt lat="31.202725826900135" lon="121.61962206830891">
        <ele>5.4538218677043915</ele>
        <time>2020-07-08T23:06:48Z</time>
      </trkpt>
      <trkpt lat="31.20270886382213" lon="121.61950851935296">
        <ele>6.895231041125953</ele>
        <time>2020-07-08T23:06:52Z</time>
      </trkpt>
      <trkpt lat="31.202608616734135" lon="121.61917627477675">
        <ele>5.124294706620276</ele>
        <time>2020-07-08T23:07:03Z</time>
      </trkpt>
      <trkpt lat="31.202507831850745" lon="121.61883589558622">
        <ele>4.286770404316485</ele>
        <time>2020-07-08T23:07:14Z</time>
      </trkpt>
      <trkpt lat="31.20250521852847" lon="121.61873941570461">
        <ele>5.032248010858893</ele>
        <time>2020-07-08T23:07:17Z</time>
      </trkpt>
      <trkpt lat="31.20267318103056" lon="121.61861094178148">
        <ele>5.788836426101625</ele>
        <time>2020-07-08T23:07:25Z</time>
      </trkpt>
      <trkpt lat="31.20274043534605" lon="121.61859819858404">
        <ele>5.118203189224005</ele>
        <time>2020-07-08T23:07:28Z</time>
      </trkpt>
      <trkpt lat="31.202810444455064" lon="121.61854236394116">
        <ele>5.826308066956699</ele>
        <time>2020-07-08T23:07:31Z</time>
      </trkpt>
      <trkpt lat="31.202871742784257" lon="121.61852067772932">
        <ele>4.990564347244799</ele>
        <time>2020-07-08T23:07:34Z</time>
      </trkpt>
      <trkpt lat="31.20287998440372" lon="121.61841362614419">
        <ele>6.274331842549145</ele>
        <time>2020-07-08T23:07:38Z</time>
      </trkpt>
      <trkpt lat="31.202820808462004" lon="121.61821091061448">
        <ele>5.072646101936698</ele>
        <time>2020-07-08T23:07:46Z</time>
      </trkpt>
      <trkpt lat="31.202810618199514" lon="121.6180973547827">
        <ele>5.442424777895212</ele>
        <time>2020-07-08T23:07:50Z</time>
      </trkpt>
      <trkpt lat="31.202757268528938" lon="121.61803285660794">
        <ele>5.18868961930275</ele>
        <time>2020-07-08T23:07:53Z</time>
      </trkpt>
      <trkpt lat="31.202699119250706" lon="121.61788623937055">
        <ele>3.343978650867939</ele>
        <time>2020-07-08T23:08:00Z</time>
      </trkpt>
      <trkpt lat="31.20260812976395" lon="121.61777241772792">
        <ele>5.539513897150755</ele>
        <time>2020-07-08T23:08:04Z</time>
      </trkpt>
      <trkpt lat="31.202577300521085" lon="121.61769057136381">
        <ele>6.50140939373523</ele>
        <time>2020-07-08T23:08:07Z</time>
      </trkpt>
      <trkpt lat="31.202506329872115" lon="121.61762227925944">
        <ele>9.42179761081934</ele>
        <time>2020-07-08T23:08:10Z</time>
      </trkpt>
      <trkpt lat="31.202468030411918" lon="121.61741467711329">
        <ele>5.967547035776079</ele>
        <time>2020-07-08T23:08:17Z</time>
      </trkpt>
      <trkpt lat="31.202486560535842" lon="121.61731846104082">
        <ele>4.647259441204369</ele>
        <time>2020-07-08T23:08:21Z</time>
      </trkpt>
      <trkpt lat="31.202547071919597" lon="121.61726831591594">
        <ele>3.690421000123024</ele>
        <time>2020-07-08T23:08:24Z</time>
      </trkpt>
      <trkpt lat="31.202747678487864" lon="121.61702003647795">
        <ele>5.898586539551616</ele>
        <time>2020-07-08T23:08:35Z</time>
      </trkpt>
      <trkpt lat="31.202831812900136" lon="121.61693329955277">
        <ele>6.269269331358373</ele>
        <time>2020-07-08T23:08:39Z</time>
      </trkpt>
      <trkpt lat="31.202898823393266" lon="121.61689101304094">
        <ele>5.458870256319642</ele>
        <time>2020-07-08T23:08:42Z</time>
      </trkpt>
      <trkpt lat="31.203102352522947" lon="121.61670289922074">
        <ele>5.326754927635193</ele>
        <time>2020-07-08T23:08:53Z</time>
      </trkpt>
      <trkpt lat="31.203169345335084" lon="121.61667904266206">
        <ele>4.22831217572093</ele>
        <time>2020-07-08T23:08:56Z</time>
      </trkpt>
      <trkpt lat="31.20348113111023" lon="121.61641042029378">
        <ele>5.157669673673809</ele>
        <time>2020-07-08T23:09:10Z</time>
      </trkpt>
      <trkpt lat="31.20379095034238" lon="121.61621334969308">
        <ele>6.896407509222627</ele>
        <time>2020-07-08T23:09:24Z</time>
      </trkpt>
      <trkpt lat="31.20385416265397" lon="121.61617241745489">
        <ele>5.011494441889226</ele>
        <time>2020-07-08T23:09:27Z</time>
      </trkpt>
      <trkpt lat="31.20387401551022" lon="121.6161073661197">
        <ele>6.013900036923587</ele>
        <time>2020-07-08T23:09:31Z</time>
      </trkpt>
      <trkpt lat="31.203925050750566" lon="121.61604014369982">
        <ele>6.913619114086032</ele>
        <time>2020-07-08T23:09:35Z</time>
      </trkpt>
      <trkpt lat="31.203996955291622" lon="121.61598159271854">
        <ele>7.491719201207161</ele>
        <time>2020-07-08T23:09:42Z</time>
      </trkpt>
      <trkpt lat="31.20423909046402" lon="121.61596910474883">
        <ele>6.495254163630307</ele>
        <time>2020-07-08T23:10:01Z</time>
      </trkpt>
      <trkpt lat="31.204464995755057" lon="121.61620977042466">
        <ele>7.793129051104188</ele>
        <time>2020-07-08T23:10:19Z</time>
      </trkpt>
      <trkpt lat="31.20449802282469" lon="121.61626533074937">
        <ele>7.085762216709554</ele>
        <time>2020-07-08T23:10:23Z</time>
      </trkpt>
      <trkpt lat="31.204600983809335" lon="121.61634121303257">
        <ele>7.266918848268688</ele>
        <time>2020-07-08T23:10:31Z</time>
      </trkpt>
      <trkpt lat="31.204401357782686" lon="121.61612439806221">
        <ele>6.662689112126827</ele>
        <time>2020-07-08T23:10:49Z</time>
      </trkpt>
      <trkpt lat="31.204209342676002" lon="121.6158848129117">
        <ele>4.93506118375808</ele>
        <time>2020-07-08T23:11:00Z</time>
      </trkpt>
      <trkpt lat="31.20396254297504" lon="121.61565986640247">
        <ele>6.933077082037926</ele>
        <time>2020-07-08T23:11:11Z</time>
      </trkpt>
      <trkpt lat="31.203838248589886" lon="121.61548613573768">
        <ele>7.980857180431485</ele>
        <time>2020-07-08T23:11:18Z</time>
      </trkpt>
      <trkpt lat="31.203707951600805" lon="121.61535333278056">
        <ele>8.491591134108603</ele>
        <time>2020-07-08T23:11:25Z</time>
      </trkpt>
      <trkpt lat="31.203578412390108" lon="121.6152823285038">
        <ele>5.754872887395322</ele>
        <time>2020-07-08T23:11:33Z</time>
      </trkpt>
      <trkpt lat="31.203595548176565" lon="121.6152213407637">
        <ele>6.503654669038951</ele>
        <time>2020-07-08T23:11:36Z</time>
      </trkpt>
      <trkpt lat="31.203650386021597" lon="121.61514408666427">
        <ele>7.3423044960945845</ele>
        <time>2020-07-08T23:11:39Z</time>
      </trkpt>
      <trkpt lat="31.20378336078208" lon="121.61500990478136">
        <ele>6.711037674918771</ele>
        <time>2020-07-08T23:11:46Z</time>
      </trkpt>
      <trkpt lat="31.204045816646982" lon="121.6147035911719">
        <ele>6.954259424470365</ele>
        <time>2020-07-08T23:12:01Z</time>
      </trkpt>
      <trkpt lat="31.20417067467577" lon="121.61454690966619">
        <ele>8.853018584661186</ele>
        <time>2020-07-08T23:12:08Z</time>
      </trkpt>
      <trkpt lat="31.204289783458048" lon="121.61445365558058">
        <ele>7.213344668969512</ele>
        <time>2020-07-08T23:12:14Z</time>
      </trkpt>
      <trkpt lat="31.20450200971578" lon="121.61422188115421">
        <ele>7.447883425280452</ele>
        <time>2020-07-08T23:12:25Z</time>
      </trkpt>
      <trkpt lat="31.20477363506152" lon="121.61396353520564">
        <ele>6.618391397409141</ele>
        <time>2020-07-08T23:12:38Z</time>
      </trkpt>
      <trkpt lat="31.204992873687022" lon="121.61377133124846">
        <ele>7.765020929276943</ele>
        <time>2020-07-08T23:12:48Z</time>
      </trkpt>
      <trkpt lat="31.20515165630069" lon="121.6135688300895">
        <ele>7.583912458270788</ele>
        <time>2020-07-08T23:12:58Z</time>
      </trkpt>
      <trkpt lat="31.20525257694214" lon="121.61349834357506">
        <ele>7.439565289765596</ele>
        <time>2020-07-08T23:13:06Z</time>
      </trkpt>
      <trkpt lat="31.205436330120015" lon="121.61326141175641">
        <ele>7.338398363441229</ele>
        <time>2020-07-08T23:13:27Z</time>
      </trkpt>
      <trkpt lat="31.20555138515931" lon="121.6131464670009">
        <ele>6.594885382801294</ele>
        <time>2020-07-08T23:13:38Z</time>
      </trkpt>
      <trkpt lat="31.205596408401373" lon="121.61312830128959">
        <ele>7.276009378954768</ele>
        <time>2020-07-08T23:13:41Z</time>
      </trkpt>
      <trkpt lat="31.205642005518428" lon="121.61307110071776">
        <ele>7.426680522039533</ele>
        <time>2020-07-08T23:13:47Z</time>
      </trkpt>
      <trkpt lat="31.205766245391082" lon="121.61299708679253">
        <ele>7.141786306165159</ele>
        <time>2020-07-08T23:13:58Z</time>
      </trkpt>
      <trkpt lat="31.20583248860607" lon="121.61289000601967">
        <ele>8.017800192348659</ele>
        <time>2020-07-08T23:14:02Z</time>
      </trkpt>
      <trkpt lat="31.205885655528846" lon="121.61285964094401">
        <ele>7.600116020999849</ele>
        <time>2020-07-08T23:14:06Z</time>
      </trkpt>
      <trkpt lat="31.205954579055557" lon="121.61279078141504">
        <ele>6.762783711776137</ele>
        <time>2020-07-08T23:14:10Z</time>
      </trkpt>
      <trkpt lat="31.205937838428746" lon="121.61270322428925">
        <ele>8.072071008384228</ele>
        <time>2020-07-08T23:14:14Z</time>
      </trkpt>
      <trkpt lat="31.205836477416984" lon="121.6126482034696">
        <ele>9.029952581971884</ele>
        <time>2020-07-08T23:14:21Z</time>
      </trkpt>
      <trkpt lat="31.20574870671676" lon="121.61255062167642">
        <ele>7.8015620643273</ele>
        <time>2020-07-08T23:14:29Z</time>
      </trkpt>
      <trkpt lat="31.205719201239624" lon="121.61248935966954">
        <ele>7.877234924584627</ele>
        <time>2020-07-08T23:14:33Z</time>
      </trkpt>
      <trkpt lat="31.20588306289362" lon="121.61236735890968">
        <ele>8.96267144754529</ele>
        <time>2020-07-08T23:14:43Z</time>
      </trkpt>
      <trkpt lat="31.206026330979125" lon="121.61222828086122">
        <ele>6.500364798121154</ele>
        <time>2020-07-08T23:14:54Z</time>
      </trkpt>
      <trkpt lat="31.20620273831644" lon="121.61200949962411">
        <ele>6.961503382772207</ele>
        <time>2020-07-08T23:15:09Z</time>
      </trkpt>
      <trkpt lat="31.206289006514016" lon="121.61194822661454">
        <ele>7.676537822000682</ele>
        <time>2020-07-08T23:15:16Z</time>
      </trkpt>
      <trkpt lat="31.20645564039152" lon="121.61174299807442">
        <ele>7.70501521602273</ele>
        <time>2020-07-08T23:15:33Z</time>
      </trkpt>
      <trkpt lat="31.20654516776675" lon="121.61167359134309">
        <ele>7.670433010905981</ele>
        <time>2020-07-08T23:15:40Z</time>
      </trkpt>
      <trkpt lat="31.206567174594937" lon="121.61161422040026">
        <ele>7.9863480208441615</ele>
        <time>2020-07-08T23:15:44Z</time>
      </trkpt>
      <trkpt lat="31.20667571735399" lon="121.61149655709407">
        <ele>6.350658134557307</ele>
        <time>2020-07-08T23:15:55Z</time>
      </trkpt>
      <trkpt lat="31.206581481085294" lon="121.61133716128109">
        <ele>6.742429615929723</ele>
        <time>2020-07-08T23:16:05Z</time>
      </trkpt>
      <trkpt lat="31.206438639620792" lon="121.61127373665454">
        <ele>6.5674282582476735</ele>
        <time>2020-07-08T23:16:12Z</time>
      </trkpt>
      <trkpt lat="31.206307784736527" lon="121.61113331918109">
        <ele>9</ele>
        <time>2020-07-08T23:16:18Z</time>
      </trkpt>
      <trkpt lat="31.2061119307758" lon="121.61089097254677">
        <ele>10.39841881215792</ele>
        <time>2020-07-08T23:16:27Z</time>
      </trkpt>
      <trkpt lat="31.206085129039316" lon="121.6108348568284">
        <ele>10.839632596775182</ele>
        <time>2020-07-08T23:16:31Z</time>
      </trkpt>
      <trkpt lat="31.20602850382593" lon="121.61077657462032">
        <ele>9.903816339559853</ele>
        <time>2020-07-08T23:16:35Z</time>
      </trkpt>
      <trkpt lat="31.205976735495717" lon="121.61075082418057">
        <ele>8.470186907798052</ele>
        <time>2020-07-08T23:16:39Z</time>
      </trkpt>
      <trkpt lat="31.20591605922389" lon="121.61067004051891">
        <ele>7.981189119629562</ele>
        <time>2020-07-08T23:16:42Z</time>
      </trkpt>
      <trkpt lat="31.205737731534292" lon="121.61055890258474">
        <ele>10.225735204294324</ele>
        <time>2020-07-08T23:16:54Z</time>
      </trkpt>
      <trkpt lat="31.205656660256732" lon="121.61056134922961">
        <ele>7.373414345085621</ele>
        <time>2020-07-08T23:16:57Z</time>
      </trkpt>
    </trkseg>
  </trk>
</gpx>