<?xml version="1.0" encoding="UTF-8"?>
<gpx xmlns="http://www.topografix.com/GPX/1/1" xmlns:gpxtpx="http://www.garmin.com/xmlschemas/TrackPointExtension/v1" xmlns:xsi="http://www.w3.org/2001/XMLSchema-instance" xsi:schemaLocation="http://www.topografix.com/GPX/1/1 http://www.topografix.com/GPX/1/1/gpx.xsd" version="1.1" creator="gpx.py -- https://github.com/tkrajina/gpxpy">
  <trk>
    <name>gpx from keep</name>
    <type>Run</type>
    <trkseg>
      <trkpt lat="31.205045081469198" lon="121.6104166294043">
        <ele>8.78544965523595</ele>
        <time>2020-05-16T23:12:45Z</time>
      </trkpt>
      <trkpt lat="31.2050907238254" lon="121.61028676526831">
        <ele>8.579727533623235</ele>
        <time>2020-05-16T23:12:48Z</time>
      </trkpt>
      <trkpt lat="31.205149032990914" lon="121.61026534290546">
        <ele>8.37063590117457</ele>
        <time>2020-05-16T23:12:51Z</time>
      </trkpt>
      <trkpt lat="31.205282253425263" lon="121.61013248845452">
        <ele>7.696336196735501</ele>
        <time>2020-05-16T23:12:59Z</time>
      </trkpt>
      <trkpt lat="31.20533835956311" lon="121.61015959478544">
        <ele>7.351562858559191</ele>
        <time>2020-05-16T23:13:03Z</time>
      </trkpt>
      <trkpt lat="31.2055786855082" lon="121.61040330107191">
        <ele>7.199455685913563</ele>
        <time>2020-05-16T23:13:14Z</time>
      </trkpt>
      <trkpt lat="31.20569440889301" lon="121.61047594796047">
        <ele>5.553385817445815</ele>
        <time>2020-05-16T23:13:18Z</time>
      </trkpt>
      <trkpt lat="31.205923619267846" lon="121.61071422970966">
        <ele>8.016234113834798</ele>
        <time>2020-05-16T23:13:30Z</time>
      </trkpt>
      <trkpt lat="31.205976964746498" lon="121.61080884001525">
        <ele>6.336520375683904</ele>
        <time>2020-05-16T23:13:34Z</time>
      </trkpt>
      <trkpt lat="31.20608049871293" lon="121.61086386504951">
        <ele>8.039547706022859</ele>
        <time>2020-05-16T23:13:38Z</time>
      </trkpt>
      <trkpt lat="31.20617715404707" lon="121.61105606694314">
        <ele>6.200394400395453</ele>
        <time>2020-05-16T23:13:46Z</time>
      </trkpt>
      <trkpt lat="31.206403370063235" lon="121.61130328904363">
        <ele>7.479380683042109</ele>
        <time>2020-05-16T23:13:58Z</time>
      </trkpt>
      <trkpt lat="31.206580260073324" lon="121.6115198790264">
        <ele>5.5420820359140635</ele>
        <time>2020-05-16T23:14:08Z</time>
      </trkpt>
      <trkpt lat="31.20656475112435" lon="121.61159199102647">
        <ele>6.066502492874861</ele>
        <time>2020-05-16T23:14:11Z</time>
      </trkpt>
      <trkpt lat="31.206506138151404" lon="121.61165516033819">
        <ele>4.683636585250497</ele>
        <time>2020-05-16T23:14:15Z</time>
      </trkpt>
      <trkpt lat="31.206477894903887" lon="121.61171480278217">
        <ele>5.5361696826294065</ele>
        <time>2020-05-16T23:14:18Z</time>
      </trkpt>
      <trkpt lat="31.206313219474755" lon="121.6118411444821">
        <ele>8.108773957006633</ele>
        <time>2020-05-16T23:14:26Z</time>
      </trkpt>
      <trkpt lat="31.20620439782762" lon="121.61196693869601">
        <ele>7.489955564029515</ele>
        <time>2020-05-16T23:14:33Z</time>
      </trkpt>
      <trkpt lat="31.206151508675656" lon="121.61198998554521">
        <ele>7.4373461892828345</ele>
        <time>2020-05-16T23:14:36Z</time>
      </trkpt>
      <trkpt lat="31.205935742990583" lon="121.61226515588595">
        <ele>5.834633189253509</ele>
        <time>2020-05-16T23:14:50Z</time>
      </trkpt>
      <trkpt lat="31.205826898950708" lon="121.61241697176332">
        <ele>6.485423018224537</ele>
        <time>2020-05-16T23:14:57Z</time>
      </trkpt>
      <trkpt lat="31.20562750761766" lon="121.61255252926671">
        <ele>6.773298473097384</ele>
        <time>2020-05-16T23:15:06Z</time>
      </trkpt>
      <trkpt lat="31.205587336689035" lon="121.61260674877377">
        <ele>7.151880073361099</ele>
        <time>2020-05-16T23:15:13Z</time>
      </trkpt>
      <trkpt lat="31.20554439674768" lon="121.6127333466259">
        <ele>6.996979917399585</ele>
        <time>2020-05-16T23:15:40Z</time>
      </trkpt>
      <trkpt lat="31.20539380540965" lon="121.6128724222616">
        <ele>5.719348406419158</ele>
        <time>2020-05-16T23:15:47Z</time>
      </trkpt>
      <trkpt lat="31.205346564474546" lon="121.61295130959398">
        <ele>7.622288562357426</ele>
        <time>2020-05-16T23:15:51Z</time>
      </trkpt>
      <trkpt lat="31.205283376813345" lon="121.61296757940973">
        <ele>7.0582132413983345</ele>
        <time>2020-05-16T23:15:54Z</time>
      </trkpt>
      <trkpt lat="31.205228803984706" lon="121.61306002079876">
        <ele>8.44643737282604</ele>
        <time>2020-05-16T23:15:58Z</time>
      </trkpt>
      <trkpt lat="31.2051284395243" lon="121.61311478625427">
        <ele>6.997924281284213</ele>
        <time>2020-05-16T23:16:04Z</time>
      </trkpt>
      <trkpt lat="31.205071163003115" lon="121.6131971975589">
        <ele>8.854227585718036</ele>
        <time>2020-05-16T23:16:07Z</time>
      </trkpt>
      <trkpt lat="31.204985961939776" lon="121.61327635800916">
        <ele>7.1814744640141726</ele>
        <time>2020-05-16T23:16:11Z</time>
      </trkpt>
      <trkpt lat="31.20490893333695" lon="121.61330835095292">
        <ele>7.973161199130118</ele>
        <time>2020-05-16T23:16:15Z</time>
      </trkpt>
      <trkpt lat="31.20476837778185" lon="121.61343929021783">
        <ele>8.888967961072922</ele>
        <time>2020-05-16T23:16:22Z</time>
      </trkpt>
      <trkpt lat="31.204603637072243" lon="121.6136347451974">
        <ele>7.518180655315518</ele>
        <time>2020-05-16T23:16:29Z</time>
      </trkpt>
      <trkpt lat="31.204532230097797" lon="121.61375293676763">
        <ele>8.187003339640796</ele>
        <time>2020-05-16T23:16:33Z</time>
      </trkpt>
      <trkpt lat="31.204336824646273" lon="121.61397712457124">
        <ele>7.273919697850943</ele>
        <time>2020-05-16T23:16:43Z</time>
      </trkpt>
      <trkpt lat="31.20419922516029" lon="121.61413543725983">
        <ele>6.951058929786086</ele>
        <time>2020-05-16T23:16:50Z</time>
      </trkpt>
      <trkpt lat="31.204010917150626" lon="121.6142999874923">
        <ele>7.655169516801834</ele>
        <time>2020-05-16T23:16:58Z</time>
      </trkpt>
      <trkpt lat="31.20391461148414" lon="121.6143615262477">
        <ele>7.009881994687021</ele>
        <time>2020-05-16T23:17:02Z</time>
      </trkpt>
      <trkpt lat="31.203866827925147" lon="121.6144358006341">
        <ele>5.755395858548582</ele>
        <time>2020-05-16T23:17:05Z</time>
      </trkpt>
      <trkpt lat="31.203697238904546" lon="121.61458598118128">
        <ele>5.992052707821131</ele>
        <time>2020-05-16T23:17:13Z</time>
      </trkpt>
      <trkpt lat="31.203673314394575" lon="121.61466052395272">
        <ele>6.680021991021931</ele>
        <time>2020-05-16T23:17:17Z</time>
      </trkpt>
      <trkpt lat="31.203682854896595" lon="121.61460197477872">
        <ele>6.56609417591244</ele>
        <time>2020-05-16T23:17:32Z</time>
      </trkpt>
      <trkpt lat="31.203727380366512" lon="121.61453339340744">
        <ele>6.971179177053273</ele>
        <time>2020-05-16T23:17:38Z</time>
      </trkpt>
      <trkpt lat="31.2038744269347" lon="121.6144273971579">
        <ele>6.5107323452830315</ele>
        <time>2020-05-16T23:17:52Z</time>
      </trkpt>
      <trkpt lat="31.203949611840912" lon="121.6143336041153">
        <ele>6.457023803144693</ele>
        <time>2020-05-16T23:17:58Z</time>
      </trkpt>
      <trkpt lat="31.204197098370692" lon="121.6140855617946">
        <ele>7.310189982876182</ele>
        <time>2020-05-16T23:18:13Z</time>
      </trkpt>
      <trkpt lat="31.20446225183247" lon="121.61378330207931">
        <ele>7.39721935428679</ele>
        <time>2020-05-16T23:18:28Z</time>
      </trkpt>
      <trkpt lat="31.204528748277216" lon="121.61370143420075">
        <ele>5.571283179335296</ele>
        <time>2020-05-16T23:18:32Z</time>
      </trkpt>
      <trkpt lat="31.204601459885744" lon="121.61364450384932">
        <ele>7.965607604011893</ele>
        <time>2020-05-16T23:18:36Z</time>
      </trkpt>
      <trkpt lat="31.204673925154363" lon="121.61355748467368">
        <ele>7.501166621223092</ele>
        <time>2020-05-16T23:18:40Z</time>
      </trkpt>
      <trkpt lat="31.204766436728306" lon="121.61349160701704">
        <ele>6.5636335760355</ele>
        <time>2020-05-16T23:18:44Z</time>
      </trkpt>
      <trkpt lat="31.204991930240034" lon="121.61327229142258">
        <ele>6.072241876274347</ele>
        <time>2020-05-16T23:18:56Z</time>
      </trkpt>
      <trkpt lat="31.20519791294766" lon="121.61303725301275">
        <ele>7.853672944940627</ele>
        <time>2020-05-16T23:19:10Z</time>
      </trkpt>
      <trkpt lat="31.205268195191064" lon="121.61296514097717">
        <ele>7.781735233031213</ele>
        <time>2020-05-16T23:19:17Z</time>
      </trkpt>
      <trkpt lat="31.205463630498638" lon="121.6126929624776">
        <ele>7.606484645046294</ele>
        <time>2020-05-16T23:19:29Z</time>
      </trkpt>
      <trkpt lat="31.20549783640282" lon="121.61263901474469">
        <ele>6.238208968192339</ele>
        <time>2020-05-16T23:19:32Z</time>
      </trkpt>
      <trkpt lat="31.20522177136812" lon="121.61235711241662">
        <ele>3.8324585016816854</ele>
        <time>2020-05-16T23:19:46Z</time>
      </trkpt>
      <trkpt lat="31.204998527663438" lon="121.61213619674972">
        <ele>7.174383824691176</ele>
        <time>2020-05-16T23:19:57Z</time>
      </trkpt>
      <trkpt lat="31.204833335798483" lon="121.61187515301076">
        <ele>7.210631714202464</ele>
        <time>2020-05-16T23:20:07Z</time>
      </trkpt>
      <trkpt lat="31.204826100640513" lon="121.61176292241873">
        <ele>7.483488866128027</ele>
        <time>2020-05-16T23:20:11Z</time>
      </trkpt>
      <trkpt lat="31.20486735517107" lon="121.61170761648133">
        <ele>7.808875314891338</ele>
        <time>2020-05-16T23:20:14Z</time>
      </trkpt>
      <trkpt lat="31.204899975585715" lon="121.61159619505537">
        <ele>7.562641576863825</ele>
        <time>2020-05-16T23:20:18Z</time>
      </trkpt>
      <trkpt lat="31.205089131351595" lon="121.61136330981854">
        <ele>5.330940319225192</ele>
        <time>2020-05-16T23:20:29Z</time>
      </trkpt>
      <trkpt lat="31.20516101791859" lon="121.61131531997425">
        <ele>6.646921141073108</ele>
        <time>2020-05-16T23:20:32Z</time>
      </trkpt>
      <trkpt lat="31.205247303868674" lon="121.61122774873962">
        <ele>7.134382420219481</ele>
        <time>2020-05-16T23:20:36Z</time>
      </trkpt>
      <trkpt lat="31.205305670951336" lon="121.61112879336622">
        <ele>7.430694406852126</ele>
        <time>2020-05-16T23:20:40Z</time>
      </trkpt>
      <trkpt lat="31.20534781744461" lon="121.61096423281708">
        <ele>7.589870383031666</ele>
        <time>2020-05-16T23:20:47Z</time>
      </trkpt>
      <trkpt lat="31.205542657185955" lon="121.61073730493959">
        <ele>8.67386095225811</ele>
        <time>2020-05-16T23:20:58Z</time>
      </trkpt>
      <trkpt lat="31.205643340331097" lon="121.61060933581625">
        <ele>5.855590040795505</ele>
        <time>2020-05-16T23:21:05Z</time>
      </trkpt>
      <trkpt lat="31.20553693101818" lon="121.6104027623105">
        <ele>7.486883229576051</ele>
        <time>2020-05-16T23:21:13Z</time>
      </trkpt>
      <trkpt lat="31.205436155184827" lon="121.61027995901117">
        <ele>7.653922677971423</ele>
        <time>2020-05-16T23:21:25Z</time>
      </trkpt>
      <trkpt lat="31.205406925774145" lon="121.61020405103613">
        <ele>8.32926943898201</ele>
        <time>2020-05-16T23:21:32Z</time>
      </trkpt>
      <trkpt lat="31.205359221091594" lon="121.61018236624976">
        <ele>7.007302266545594</ele>
        <time>2020-05-16T23:21:36Z</time>
      </trkpt>
      <trkpt lat="31.205254278768667" lon="121.61020081034685">
        <ele>7.422531298361719</ele>
        <time>2020-05-16T23:21:43Z</time>
      </trkpt>
      <trkpt lat="31.205189179677124" lon="121.61023877096142">
        <ele>7.346927856095135</ele>
        <time>2020-05-16T23:21:47Z</time>
      </trkpt>
      <trkpt lat="31.205003004712683" lon="121.61048820487353">
        <ele>8.944569297134876</ele>
        <time>2020-05-16T23:22:12Z</time>
      </trkpt>
      <trkpt lat="31.20490124175214" lon="121.61061048158213">
        <ele>8.855924316681921</ele>
        <time>2020-05-16T23:22:23Z</time>
      </trkpt>
      <trkpt lat="31.204851876090583" lon="121.61063705385335">
        <ele>8.821031373925507</ele>
        <time>2020-05-16T23:22:26Z</time>
      </trkpt>
      <trkpt lat="31.204715663579183" lon="121.61077966527843">
        <ele>9.802110551856458</ele>
        <time>2020-05-16T23:22:40Z</time>
      </trkpt>
      <trkpt lat="31.204623207993446" lon="121.61077750410458">
        <ele>9.063764667138457</ele>
        <time>2020-05-16T23:22:50Z</time>
      </trkpt>
      <trkpt lat="31.204442258790415" lon="121.61054165896934">
        <ele>8.643707446753979</ele>
        <time>2020-05-16T23:23:07Z</time>
      </trkpt>
      <trkpt lat="31.20440894330753" lon="121.61049367609442">
        <ele>8.205480323173106</ele>
        <time>2020-05-16T23:23:11Z</time>
      </trkpt>
      <trkpt lat="31.204300814570946" lon="121.61041723314338">
        <ele>9.389254643581808</ele>
        <time>2020-05-16T23:23:37Z</time>
      </trkpt>
      <trkpt lat="31.204322002406396" lon="121.61036165450192">
        <ele>8.983991594053805</ele>
        <time>2020-05-16T23:23:45Z</time>
      </trkpt>
      <trkpt lat="31.20426071990555" lon="121.61037006388679">
        <ele>9.384968547150493</ele>
        <time>2020-05-16T23:23:49Z</time>
      </trkpt>
      <trkpt lat="31.204307050106106" lon="121.61041804594726">
        <ele>8.5995150860399</ele>
        <time>2020-05-16T23:23:56Z</time>
      </trkpt>
      <trkpt lat="31.204221266534116" lon="121.61056553446225">
        <ele>9.145427141338587</ele>
        <time>2020-05-16T23:24:04Z</time>
      </trkpt>
      <trkpt lat="31.204346496343096" lon="121.61061405179544">
        <ele>9.436180138029158</ele>
        <time>2020-05-16T23:24:07Z</time>
      </trkpt>
      <trkpt lat="31.204392944205793" lon="121.6104966595777">
        <ele>9.330500797368586</ele>
        <time>2020-05-16T23:24:11Z</time>
      </trkpt>
      <trkpt lat="31.204344902275015" lon="121.6105682352883">
        <ele>9.402922795154154</ele>
        <time>2020-05-16T23:24:15Z</time>
      </trkpt>
      <trkpt lat="31.20438911260285" lon="121.61054681435647">
        <ele>9.591850287280977</ele>
        <time>2020-05-16T23:24:19Z</time>
      </trkpt>
      <trkpt lat="31.20427873772244" lon="121.61057881383663">
        <ele>9.593843740411103</ele>
        <time>2020-05-16T23:24:26Z</time>
      </trkpt>
      <trkpt lat="31.20420929200804" lon="121.61062788944258">
        <ele>9.235427401959896</ele>
        <time>2020-05-16T23:24:51Z</time>
      </trkpt>
      <trkpt lat="31.2042236264072" lon="121.61067777132689">
        <ele>8.31430924963206</ele>
        <time>2020-05-16T23:24:55Z</time>
      </trkpt>
    </trkseg>
  </trk>
</gpx>