<?xml version="1.0" encoding="UTF-8"?>
<gpx xmlns="http://www.topografix.com/GPX/1/1" xmlns:gpxtpx="http://www.garmin.com/xmlschemas/TrackPointExtension/v1" xmlns:xsi="http://www.w3.org/2001/XMLSchema-instance" xsi:schemaLocation="http://www.topografix.com/GPX/1/1 http://www.topografix.com/GPX/1/1/gpx.xsd" version="1.1" creator="gpx.py -- https://github.com/tkrajina/gpxpy">
  <trk>
    <name>gpx from keep</name>
    <type>Run</type>
    <trkseg>
      <trkpt lat="31.204601090340468" lon="121.61207523515488">
        <ele>4.549221038818359</ele>
        <time>2018-09-25T22:42:07Z</time>
      </trkpt>
      <trkpt lat="31.204852502722485" lon="121.61233437192155">
        <ele>5.630764007568359</ele>
        <time>2018-09-25T22:42:21Z</time>
      </trkpt>
      <trkpt lat="31.2050762698782" lon="121.61257697214526">
        <ele>5.554138395974817</ele>
        <time>2018-09-25T22:42:34Z</time>
      </trkpt>
      <trkpt lat="31.205155111253084" lon="121.61265151277085">
        <ele>5.509228265339928</ele>
        <time>2018-09-25T22:42:38Z</time>
      </trkpt>
      <trkpt lat="31.20530334107669" lon="121.61275369748469">
        <ele>5.592213038416354</ele>
        <time>2018-09-25T22:42:45Z</time>
      </trkpt>
      <trkpt lat="31.205392179248577" lon="121.61287160916348">
        <ele>6.17376750038261</ele>
        <time>2018-09-25T22:42:51Z</time>
      </trkpt>
      <trkpt lat="31.205378013792775" lon="121.61295428883597">
        <ele>6.302807486449574</ele>
        <time>2018-09-25T22:42:55Z</time>
      </trkpt>
      <trkpt lat="31.20513164428826" lon="121.6131749644987">
        <ele>6.374405298969325</ele>
        <time>2018-09-25T22:43:09Z</time>
      </trkpt>
      <trkpt lat="31.2048391550416" lon="121.61342600188397">
        <ele>6.120857742710385</ele>
        <time>2018-09-25T22:43:24Z</time>
      </trkpt>
      <trkpt lat="31.204587312828284" lon="121.61370224256171">
        <ele>5.928867885731503</ele>
        <time>2018-09-25T22:43:43Z</time>
      </trkpt>
      <trkpt lat="31.204392748080867" lon="121.61389444504083">
        <ele>6.197996636697354</ele>
        <time>2018-09-25T22:43:54Z</time>
      </trkpt>
      <trkpt lat="31.20429500618514" lon="121.61405248392171">
        <ele>6.070069171189399</ele>
        <time>2018-09-25T22:44:01Z</time>
      </trkpt>
      <trkpt lat="31.204014994604492" lon="121.61428778940227">
        <ele>5.7816485700450215</ele>
        <time>2018-09-25T22:44:16Z</time>
      </trkpt>
      <trkpt lat="31.20381010418652" lon="121.61450140164791">
        <ele>5.778747657689557</ele>
        <time>2018-09-25T22:44:27Z</time>
      </trkpt>
      <trkpt lat="31.203622843686798" lon="121.61470606566023">
        <ele>5.961819871235697</ele>
        <time>2018-09-25T22:44:37Z</time>
      </trkpt>
      <trkpt lat="31.203467410998858" lon="121.6147890216564">
        <ele>5.7122625801268505</ele>
        <time>2018-09-25T22:44:44Z</time>
      </trkpt>
      <trkpt lat="31.2033379566407" lon="121.61492943872564">
        <ele>6.15712613515576</ele>
        <time>2018-09-25T22:44:51Z</time>
      </trkpt>
      <trkpt lat="31.203313963758568" lon="121.61508041729147">
        <ele>6.035099510121022</ele>
        <time>2018-09-25T22:44:59Z</time>
      </trkpt>
      <trkpt lat="31.20339985288177" lon="121.6151489863113">
        <ele>6.9947526754925065</ele>
        <time>2018-09-25T22:45:46Z</time>
      </trkpt>
      <trkpt lat="31.20345968635889" lon="121.61524737285002">
        <ele>7.005672184296948</ele>
        <time>2018-09-25T22:45:49Z</time>
      </trkpt>
      <trkpt lat="31.20348348441531" lon="121.61531675967777">
        <ele>6.753916520328666</ele>
        <time>2018-09-25T22:45:52Z</time>
      </trkpt>
      <trkpt lat="31.203444652035373" lon="121.61538398309499">
        <ele>6.816312398505925</ele>
        <time>2018-09-25T22:45:55Z</time>
      </trkpt>
      <trkpt lat="31.203229443887878" lon="121.61560436259433">
        <ele>6.849289458906718</ele>
        <time>2018-09-25T22:46:06Z</time>
      </trkpt>
      <trkpt lat="31.203021838874395" lon="121.6158103741277">
        <ele>7.280550571680596</ele>
        <time>2018-09-25T22:46:17Z</time>
      </trkpt>
      <trkpt lat="31.202809353423405" lon="121.61601475806609">
        <ele>7.643600710551283</ele>
        <time>2018-09-25T22:46:29Z</time>
      </trkpt>
      <trkpt lat="31.20257703877852" lon="121.61625681639202">
        <ele>8.143494984023853</ele>
        <time>2018-09-25T22:46:42Z</time>
      </trkpt>
      <trkpt lat="31.202386218113062" lon="121.6164855880998">
        <ele>8.429830323108007</ele>
        <time>2018-09-25T22:46:53Z</time>
      </trkpt>
      <trkpt lat="31.20215959660729" lon="121.6167241178566">
        <ele>8.25708591038655</ele>
        <time>2018-09-25T22:47:06Z</time>
      </trkpt>
      <trkpt lat="31.201896883284277" lon="121.61699300377221">
        <ele>8.000314391905828</ele>
        <time>2018-09-25T22:47:20Z</time>
      </trkpt>
      <trkpt lat="31.20177206040675" lon="121.61709871594786">
        <ele>7.900032241394328</ele>
        <time>2018-09-25T22:47:27Z</time>
      </trkpt>
      <trkpt lat="31.20157987679032" lon="121.61732802199903">
        <ele>8.047358389442092</ele>
        <time>2018-09-25T22:47:38Z</time>
      </trkpt>
      <trkpt lat="31.20133099914852" lon="121.61758307796266">
        <ele>7.753205450115722</ele>
        <time>2018-09-25T22:47:52Z</time>
      </trkpt>
      <trkpt lat="31.201073694637966" lon="121.61785791659055">
        <ele>8.641771203150483</ele>
        <time>2018-09-25T22:48:06Z</time>
      </trkpt>
      <trkpt lat="31.20086140822628" lon="121.61812028161678">
        <ele>8.927676045400815</ele>
        <time>2018-09-25T22:48:19Z</time>
      </trkpt>
      <trkpt lat="31.2006222461584" lon="121.61841354191343">
        <ele>9.389457776888825</ele>
        <time>2018-09-25T22:48:33Z</time>
      </trkpt>
      <trkpt lat="31.2003857853394" lon="121.61871384489667">
        <ele>9.10732060558746</ele>
        <time>2018-09-25T22:48:47Z</time>
      </trkpt>
      <trkpt lat="31.20016833605526" lon="121.61897972456744">
        <ele>8.779165307686053</ele>
        <time>2018-09-25T22:49:00Z</time>
      </trkpt>
      <trkpt lat="31.199918305434757" lon="121.6192870681369">
        <ele>8.489555414167654</ele>
        <time>2018-09-25T22:49:15Z</time>
      </trkpt>
      <trkpt lat="31.199697093773143" lon="121.6195158146503">
        <ele>8.97783928242195</ele>
        <time>2018-09-25T22:49:29Z</time>
      </trkpt>
      <trkpt lat="31.199447402169064" lon="121.61975323352263">
        <ele>9.056814121625834</ele>
        <time>2018-09-25T22:49:42Z</time>
      </trkpt>
      <trkpt lat="31.19920071751724" lon="121.61996571805734">
        <ele>9.177100470063323</ele>
        <time>2018-09-25T22:49:56Z</time>
      </trkpt>
      <trkpt lat="31.199120143408365" lon="121.62001043952743">
        <ele>9.151900447482127</ele>
        <time>2018-09-25T22:50:00Z</time>
      </trkpt>
      <trkpt lat="31.199076708862485" lon="121.62006057780874">
        <ele>9.318401300569768</ele>
        <time>2018-09-25T22:50:03Z</time>
      </trkpt>
      <trkpt lat="31.19886480231731" lon="121.6202025979301">
        <ele>9.178918319846616</ele>
        <time>2018-09-25T22:50:15Z</time>
      </trkpt>
      <trkpt lat="31.198739684658463" lon="121.62031967853352">
        <ele>9.075184752787692</ele>
        <time>2018-09-25T22:50:22Z</time>
      </trkpt>
      <trkpt lat="31.198530435278798" lon="121.62051101785396">
        <ele>8.898861630145092</ele>
        <time>2018-09-25T22:50:32Z</time>
      </trkpt>
      <trkpt lat="31.198293995604608" lon="121.62077227369772">
        <ele>8.78566209607968</ele>
        <time>2018-09-25T22:50:43Z</time>
      </trkpt>
      <trkpt lat="31.198043492601293" lon="121.62099884161933">
        <ele>8.162630422076951</ele>
        <time>2018-09-25T22:50:57Z</time>
      </trkpt>
      <trkpt lat="31.19778564735428" lon="121.6212435642488">
        <ele>7.158340057910429</ele>
        <time>2018-09-25T22:51:11Z</time>
      </trkpt>
      <trkpt lat="31.197568275269436" lon="121.6214194514202">
        <ele>6.8893590762864</ele>
        <time>2018-09-25T22:51:31Z</time>
      </trkpt>
      <trkpt lat="31.19761197182021" lon="121.6213796131302">
        <ele>6.836088155744719</ele>
        <time>2018-09-25T22:52:09Z</time>
      </trkpt>
      <trkpt lat="31.197876585199726" lon="121.62114518870321">
        <ele>7.568311821897304</ele>
        <time>2018-09-25T22:52:29Z</time>
      </trkpt>
      <trkpt lat="31.198093703502458" lon="121.62095195644748">
        <ele>7.989938775732114</ele>
        <time>2018-09-25T22:52:50Z</time>
      </trkpt>
      <trkpt lat="31.198367248436515" lon="121.62072918008957">
        <ele>8.174305147408035</ele>
        <time>2018-09-25T22:53:16Z</time>
      </trkpt>
      <trkpt lat="31.198531719785624" lon="121.62057714004054">
        <ele>8.557028453379985</ele>
        <time>2018-09-25T22:53:35Z</time>
      </trkpt>
      <trkpt lat="31.198634263273064" lon="121.6205261848857">
        <ele>8.187675403450758</ele>
        <time>2018-09-25T22:53:46Z</time>
      </trkpt>
      <trkpt lat="31.19886850877683" lon="121.62053944416571">
        <ele>11.75157454910865</ele>
        <time>2018-09-25T22:54:09Z</time>
      </trkpt>
      <trkpt lat="31.198877184191357" lon="121.62054025642699">
        <ele>11.133029888283243</ele>
        <time>2018-09-25T22:54:10Z</time>
      </trkpt>
      <trkpt lat="31.19917128788313" lon="121.6206115031632">
        <ele>10.436237517489566</ele>
        <time>2018-09-25T22:54:34Z</time>
      </trkpt>
      <trkpt lat="31.199447785616705" lon="121.62066622067051">
        <ele>7.422490427678419</ele>
        <time>2018-09-25T22:55:02Z</time>
      </trkpt>
      <trkpt lat="31.199739475332795" lon="121.62071307806048">
        <ele>7.713078916346635</ele>
        <time>2018-09-25T22:55:28Z</time>
      </trkpt>
      <trkpt lat="31.199791776376397" lon="121.620738817888">
        <ele>7.139127246679365</ele>
        <time>2018-09-25T22:55:38Z</time>
      </trkpt>
      <trkpt lat="31.199860913850674" lon="121.62074043811259">
        <ele>7.041146046112619</ele>
        <time>2018-09-25T22:55:49Z</time>
      </trkpt>
      <trkpt lat="31.199572201057116" lon="121.62069872936264">
        <ele>6.891244759621159</ele>
        <time>2018-09-25T22:56:11Z</time>
      </trkpt>
      <trkpt lat="31.19929895813525" lon="121.62064292768657">
        <ele>6.390286060661694</ele>
        <time>2018-09-25T22:56:32Z</time>
      </trkpt>
      <trkpt lat="31.199154946399148" lon="121.62067952349422">
        <ele>5.97791458574229</ele>
        <time>2018-09-25T22:56:43Z</time>
      </trkpt>
      <trkpt lat="31.19889923274708" lon="121.62096083241795">
        <ele>6.664287679163245</ele>
        <time>2018-09-25T22:57:10Z</time>
      </trkpt>
      <trkpt lat="31.19880745505254" lon="121.62108386858728">
        <ele>7.121115852888483</ele>
        <time>2018-09-25T22:57:21Z</time>
      </trkpt>
      <trkpt lat="31.198538823298033" lon="121.62127439428168">
        <ele>7.453348039169001</ele>
        <time>2018-09-25T22:57:46Z</time>
      </trkpt>
      <trkpt lat="31.19838320520288" lon="121.6215082665743">
        <ele>6.320142647499857</ele>
        <time>2018-09-25T22:58:07Z</time>
      </trkpt>
      <trkpt lat="31.198179075326024" lon="121.62172154627885">
        <ele>7.01749674802376</ele>
        <time>2018-09-25T22:58:27Z</time>
      </trkpt>
      <trkpt lat="31.198056946384025" lon="121.62182778068039">
        <ele>6.8878843472770654</ele>
        <time>2018-09-25T22:58:38Z</time>
      </trkpt>
      <trkpt lat="31.197889855383806" lon="121.62189255860284">
        <ele>6.567223334750423</ele>
        <time>2018-09-25T22:58:53Z</time>
      </trkpt>
      <trkpt lat="31.19780653730406" lon="121.62196383291801">
        <ele>6.363280680733396</ele>
        <time>2018-09-25T22:59:01Z</time>
      </trkpt>
      <trkpt lat="31.19771096185693" lon="121.6220849679075">
        <ele>5.779854322219492</ele>
        <time>2018-09-25T22:59:12Z</time>
      </trkpt>
      <trkpt lat="31.197510681052034" lon="121.6222478412812">
        <ele>5.627035564030983</ele>
        <time>2018-09-25T22:59:32Z</time>
      </trkpt>
      <trkpt lat="31.19745773714055" lon="121.62231206679076">
        <ele>5.903173977985883</ele>
        <time>2018-09-25T22:59:38Z</time>
      </trkpt>
      <trkpt lat="31.19730413123981" lon="121.62243889545738">
        <ele>5.956610442716762</ele>
        <time>2018-09-25T22:59:53Z</time>
      </trkpt>
      <trkpt lat="31.19710226304114" lon="121.62256572752153">
        <ele>6.931195356397737</ele>
        <time>2018-09-25T23:00:11Z</time>
      </trkpt>
      <trkpt lat="31.196885911854462" lon="121.62279038057044">
        <ele>6.954586002507078</ele>
        <time>2018-09-25T23:00:34Z</time>
      </trkpt>
      <trkpt lat="31.196837610452278" lon="121.62282479774866">
        <ele>6.796227927604789</ele>
        <time>2018-09-25T23:00:38Z</time>
      </trkpt>
      <trkpt lat="31.19680800566905" lon="121.62286923920202">
        <ele>7.081042095365717</ele>
        <time>2018-09-25T23:00:42Z</time>
      </trkpt>
      <trkpt lat="31.196803058329685" lon="121.6229272269816">
        <ele>7.007716970284196</ele>
        <time>2018-09-25T23:00:46Z</time>
      </trkpt>
      <trkpt lat="31.196907290502963" lon="121.62329356561109">
        <ele>8.071309214856065</ele>
        <time>2018-09-25T23:01:14Z</time>
      </trkpt>
      <trkpt lat="31.19693321547412" lon="121.62338243986906">
        <ele>7.883907859401276</ele>
        <time>2018-09-25T23:01:21Z</time>
      </trkpt>
      <trkpt lat="31.196963956747545" lon="121.62375582346044">
        <ele>7.339530908858688</ele>
        <time>2018-09-25T23:01:46Z</time>
      </trkpt>
      <trkpt lat="31.19696745021079" lon="121.62401079584718">
        <ele>6.847967525876715</ele>
        <time>2018-09-25T23:02:05Z</time>
      </trkpt>
      <trkpt lat="31.196954363505363" lon="121.62407149146152">
        <ele>6.983014234802177</ele>
        <time>2018-09-25T23:02:08Z</time>
      </trkpt>
      <trkpt lat="31.196967584084238" lon="121.62412595275721">
        <ele>6.607832715220177</ele>
        <time>2018-09-25T23:02:12Z</time>
      </trkpt>
      <trkpt lat="31.19700386420653" lon="121.62416930282374">
        <ele>6.301948659679148</ele>
        <time>2018-09-25T23:02:18Z</time>
      </trkpt>
      <trkpt lat="31.197187738135135" lon="121.62413135366907">
        <ele>6.177283623529938</ele>
        <time>2018-09-25T23:02:33Z</time>
      </trkpt>
      <trkpt lat="31.197504860055894" lon="121.62399151333169">
        <ele>6.177619398455612</ele>
        <time>2018-09-25T23:03:00Z</time>
      </trkpt>
      <trkpt lat="31.197693380774556" lon="121.62392186137743">
        <ele>6.5238235417226065</ele>
        <time>2018-09-25T23:03:18Z</time>
      </trkpt>
      <trkpt lat="31.19777369424511" lon="121.62387308208524">
        <ele>6.509536506857081</ele>
        <time>2018-09-25T23:03:25Z</time>
      </trkpt>
      <trkpt lat="31.197859401113504" lon="121.62384895959569">
        <ele>6.782192802260948</ele>
        <time>2018-09-25T23:03:33Z</time>
      </trkpt>
      <trkpt lat="31.198131598405798" lon="121.62363731679896">
        <ele>6.6775698071890055</ele>
        <time>2018-09-25T23:04:01Z</time>
      </trkpt>
      <trkpt lat="31.198361747928118" lon="121.62344328849596">
        <ele>6.982866770890283</ele>
        <time>2018-09-25T23:04:23Z</time>
      </trkpt>
      <trkpt lat="31.198502604673894" lon="121.62332513645241">
        <ele>7.39386481032286</ele>
        <time>2018-09-25T23:04:37Z</time>
      </trkpt>
      <trkpt lat="31.198590302631903" lon="121.6232208075587">
        <ele>7.279298912973442</ele>
        <time>2018-09-25T23:04:53Z</time>
      </trkpt>
      <trkpt lat="31.1986950281542" lon="121.62316254118042">
        <ele>7.458557324020774</ele>
        <time>2018-09-25T23:05:04Z</time>
      </trkpt>
      <trkpt lat="31.198731716864806" lon="121.62308883518875">
        <ele>7.654379236803354</ele>
        <time>2018-09-25T23:05:11Z</time>
      </trkpt>
      <trkpt lat="31.198977349910898" lon="121.62286689188697">
        <ele>7.650095986613131</ele>
        <time>2018-09-25T23:05:33Z</time>
      </trkpt>
      <trkpt lat="31.199086499585654" lon="121.6227332946469">
        <ele>7.57802631029341</ele>
        <time>2018-09-25T23:05:45Z</time>
      </trkpt>
      <trkpt lat="31.199365184365764" lon="121.6225324815761">
        <ele>7.861822976762724</ele>
        <time>2018-09-25T23:06:14Z</time>
      </trkpt>
      <trkpt lat="31.199563321331027" lon="121.62234901605306">
        <ele>7.365491275851724</ele>
        <time>2018-09-25T23:06:38Z</time>
      </trkpt>
      <trkpt lat="31.199645455282905" lon="121.6223663516183">
        <ele>7.580924320169586</ele>
        <time>2018-09-25T23:06:45Z</time>
      </trkpt>
      <trkpt lat="31.199705400892515" lon="121.6223443977259">
        <ele>7.56158438519849</ele>
        <time>2018-09-25T23:06:52Z</time>
      </trkpt>
      <trkpt lat="31.199663881625277" lon="121.62237583419343">
        <ele>6.959844868556239</ele>
        <time>2018-09-25T23:06:58Z</time>
      </trkpt>
      <trkpt lat="31.19948895227223" lon="121.62241784964796">
        <ele>7.40935502916653</ele>
        <time>2018-09-25T23:07:08Z</time>
      </trkpt>
      <trkpt lat="31.199226279090045" lon="121.62260646851156">
        <ele>7.121728359620597</ele>
        <time>2018-09-25T23:07:20Z</time>
      </trkpt>
      <trkpt lat="31.1989494187271" lon="121.62287068776922">
        <ele>6.534861476962135</ele>
        <time>2018-09-25T23:07:34Z</time>
      </trkpt>
      <trkpt lat="31.19880560000065" lon="121.62297258393396">
        <ele>6.597880589419262</ele>
        <time>2018-09-25T23:07:41Z</time>
      </trkpt>
      <trkpt lat="31.198639120002863" lon="121.62320942295167">
        <ele>6.822378932016321</ele>
        <time>2018-09-25T23:07:52Z</time>
      </trkpt>
      <trkpt lat="31.19842013720058" lon="121.62336172349809">
        <ele>6.853777538215169</ele>
        <time>2018-09-25T23:08:03Z</time>
      </trkpt>
      <trkpt lat="31.198335504106957" lon="121.62339533006958">
        <ele>7.11936227166489</ele>
        <time>2018-09-25T23:08:07Z</time>
      </trkpt>
      <trkpt lat="31.19815473216888" lon="121.62356307128205">
        <ele>6.958025351516184</ele>
        <time>2018-09-25T23:08:17Z</time>
      </trkpt>
      <trkpt lat="31.198105305123345" lon="121.62363162877959">
        <ele>6.739505974678572</ele>
        <time>2018-09-25T23:08:20Z</time>
      </trkpt>
      <trkpt lat="31.198021446807207" lon="121.62369775030699">
        <ele>6.769179706027895</ele>
        <time>2018-09-25T23:08:24Z</time>
      </trkpt>
      <trkpt lat="31.19793301110361" lon="121.62373677599736">
        <ele>6.774592117010435</ele>
        <time>2018-09-25T23:08:28Z</time>
      </trkpt>
      <trkpt lat="31.19785599533041" lon="121.6237484336809">
        <ele>6.7953214868029335</ele>
        <time>2018-09-25T23:08:31Z</time>
      </trkpt>
      <trkpt lat="31.197762660251204" lon="121.62380344635297">
        <ele>6.775377523989388</ele>
        <time>2018-09-25T23:08:35Z</time>
      </trkpt>
      <trkpt lat="31.197549342102338" lon="121.6239779617354">
        <ele>6.767366730452615</ele>
        <time>2018-09-25T23:08:45Z</time>
      </trkpt>
      <trkpt lat="31.197382809572687" lon="121.62402539319129">
        <ele>6.713511081094225</ele>
        <time>2018-09-25T23:08:53Z</time>
      </trkpt>
      <trkpt lat="31.197075976362004" lon="121.62417715459056">
        <ele>7.04711571778499</ele>
        <time>2018-09-25T23:09:07Z</time>
      </trkpt>
      <trkpt lat="31.19698432865834" lon="121.62418095556704">
        <ele>6.947574625636964</ele>
        <time>2018-09-25T23:09:11Z</time>
      </trkpt>
      <trkpt lat="31.196918811398017" lon="121.6240996739632">
        <ele>7.077098000087702</ele>
        <time>2018-09-25T23:09:14Z</time>
      </trkpt>
      <trkpt lat="31.19693979926539" lon="121.62377831517452">
        <ele>7.588087016222062</ele>
        <time>2018-09-25T23:09:26Z</time>
      </trkpt>
      <trkpt lat="31.196923874703394" lon="121.62348676166303">
        <ele>7.266882960776552</ele>
        <time>2018-09-25T23:09:37Z</time>
      </trkpt>
      <trkpt lat="31.196815082411092" lon="121.62308005192035">
        <ele>7.20545003922205</ele>
        <time>2018-09-25T23:09:51Z</time>
      </trkpt>
      <trkpt lat="31.196795818406486" lon="121.62285731755853">
        <ele>6.78343898833581</ele>
        <time>2018-09-25T23:09:59Z</time>
      </trkpt>
      <trkpt lat="31.197054775283217" lon="121.62260014491804">
        <ele>6.716155271140419</ele>
        <time>2018-09-25T23:10:14Z</time>
      </trkpt>
      <trkpt lat="31.19712399956448" lon="121.62252562178531">
        <ele>6.8592299471035645</ele>
        <time>2018-09-25T23:10:17Z</time>
      </trkpt>
      <trkpt lat="31.19729031885457" lon="121.62242534791608">
        <ele>6.57859958985803</ele>
        <time>2018-09-25T23:10:25Z</time>
      </trkpt>
      <trkpt lat="31.197558483094433" lon="121.6221749448039">
        <ele>6.379673614826427</ele>
        <time>2018-09-25T23:10:40Z</time>
      </trkpt>
      <trkpt lat="31.19777667816234" lon="121.62199445593316">
        <ele>6.204027883783329</ele>
        <time>2018-09-25T23:10:50Z</time>
      </trkpt>
      <trkpt lat="31.197898275722235" lon="121.62187900894533">
        <ele>6.59486330693824</ele>
        <time>2018-09-25T23:10:57Z</time>
      </trkpt>
      <trkpt lat="31.19812344447697" lon="121.62176490778879">
        <ele>5.824626692612398</ele>
        <time>2018-09-25T23:11:10Z</time>
      </trkpt>
      <trkpt lat="31.198362035721726" lon="121.62152723713365">
        <ele>5.132456453695841</ele>
        <time>2018-09-25T23:11:22Z</time>
      </trkpt>
      <trkpt lat="31.198577371124486" lon="121.6212318463407">
        <ele>5.775422397845389</ele>
        <time>2018-09-25T23:11:37Z</time>
      </trkpt>
      <trkpt lat="31.198881543678702" lon="121.62102072231266">
        <ele>5.5614692841899185</ele>
        <time>2018-09-25T23:11:50Z</time>
      </trkpt>
      <trkpt lat="31.19906747622536" lon="121.62083182756491">
        <ele>5.189418192553738</ele>
        <time>2018-09-25T23:12:01Z</time>
      </trkpt>
      <trkpt lat="31.199277735283545" lon="121.62071176131334">
        <ele>5.484528652067816</ele>
        <time>2018-09-25T23:12:11Z</time>
      </trkpt>
      <trkpt lat="31.19936479630577" lon="121.62068682290132">
        <ele>5.6006285818713835</ele>
        <time>2018-09-25T23:12:15Z</time>
      </trkpt>
      <trkpt lat="31.199683364618018" lon="121.62070007512074">
        <ele>6.008970417236085</ele>
        <time>2018-09-25T23:12:29Z</time>
      </trkpt>
      <trkpt lat="31.20001030472984" lon="121.62074421962338">
        <ele>5.7504786597421855</ele>
        <time>2018-09-25T23:12:43Z</time>
      </trkpt>
      <trkpt lat="31.200347532390452" lon="121.62080272568993">
        <ele>5.4148799901762885</ele>
        <time>2018-09-25T23:12:57Z</time>
      </trkpt>
      <trkpt lat="31.200654400923703" lon="121.62085391741411">
        <ele>5.11893804824723</ele>
        <time>2018-09-25T23:13:10Z</time>
      </trkpt>
      <trkpt lat="31.200939305486706" lon="121.62090700777986">
        <ele>5.1568924029243846</ele>
        <time>2018-09-25T23:13:22Z</time>
      </trkpt>
      <trkpt lat="31.201267045738554" lon="121.6209633463564">
        <ele>5.1023932364256765</ele>
        <time>2018-09-25T23:13:36Z</time>
      </trkpt>
      <trkpt lat="31.201581237230904" lon="121.62101236925366">
        <ele>4.711269456671516</ele>
        <time>2018-09-25T23:13:49Z</time>
      </trkpt>
      <trkpt lat="31.201880230655032" lon="121.62107467170722">
        <ele>4.874640331402489</ele>
        <time>2018-09-25T23:14:04Z</time>
      </trkpt>
      <trkpt lat="31.202194145346564" lon="121.62112884317051">
        <ele>4.853702043640194</ele>
        <time>2018-09-25T23:14:17Z</time>
      </trkpt>
      <trkpt lat="31.202443561446152" lon="121.62115429528777">
        <ele>5.307539125290539</ele>
        <time>2018-09-25T23:14:28Z</time>
      </trkpt>
      <trkpt lat="31.20247207664311" lon="121.62111228995954">
        <ele>5.255536221192777</ele>
        <time>2018-09-25T23:14:39Z</time>
      </trkpt>
      <trkpt lat="31.20245355031362" lon="121.62119358749968">
        <ele>5.079477565353635</ele>
        <time>2018-09-25T23:15:41Z</time>
      </trkpt>
      <trkpt lat="31.202446603835583" lon="121.62085105919711">
        <ele>5.691590198358686</ele>
        <time>2018-09-25T23:15:56Z</time>
      </trkpt>
      <trkpt lat="31.202414784671745" lon="121.62043807010602">
        <ele>5.24412225332464</ele>
        <time>2018-09-25T23:16:11Z</time>
      </trkpt>
      <trkpt lat="31.202418686783407" lon="121.62033888575665">
        <ele>5.548630606432447</ele>
        <time>2018-09-25T23:16:15Z</time>
      </trkpt>
      <trkpt lat="31.202437938805616" lon="121.62033752918781">
        <ele>5.825611272517158</ele>
        <time>2018-09-25T23:16:22Z</time>
      </trkpt>
      <trkpt lat="31.202449849028998" lon="121.62035595586508">
        <ele>5.186011677692655</ele>
        <time>2018-09-25T23:16:28Z</time>
      </trkpt>
      <trkpt lat="31.202478109909254" lon="121.62029714755639">
        <ele>5.263763038126399</ele>
        <time>2018-09-25T23:16:53Z</time>
      </trkpt>
      <trkpt lat="31.2025355314107" lon="121.6203524258399">
        <ele>5.163892363972259</ele>
        <time>2018-09-25T23:17:01Z</time>
      </trkpt>
      <trkpt lat="31.2027722440507" lon="121.62034129545401">
        <ele>5.103179715816459</ele>
        <time>2018-09-25T23:17:11Z</time>
      </trkpt>
      <trkpt lat="31.202864750867974" lon="121.62029467659987">
        <ele>4.540477849899283</ele>
        <time>2018-09-25T23:17:15Z</time>
      </trkpt>
      <trkpt lat="31.202907101120132" lon="121.62024480985974">
        <ele>4.754146058579867</ele>
        <time>2018-09-25T23:17:18Z</time>
      </trkpt>
      <trkpt lat="31.20282733373055" lon="121.6200402135935">
        <ele>4.873158535834925</ele>
        <time>2018-09-25T23:17:26Z</time>
      </trkpt>
      <trkpt lat="31.20280114768107" lon="121.61993235823314">
        <ele>4.7589693779432025</ele>
        <time>2018-09-25T23:17:29Z</time>
      </trkpt>
      <trkpt lat="31.202805326065832" lon="121.61982666791327">
        <ele>4.480596398519246</ele>
        <time>2018-09-25T23:17:33Z</time>
      </trkpt>
      <trkpt lat="31.202721442270477" lon="121.6196665130671">
        <ele>4.948056432270459</ele>
        <time>2018-09-25T23:17:40Z</time>
      </trkpt>
      <trkpt lat="31.202646382504746" lon="121.61936326605021">
        <ele>4.772592413235341</ele>
        <time>2018-09-25T23:17:51Z</time>
      </trkpt>
      <trkpt lat="31.202532623069068" lon="121.6189860331822">
        <ele>5.094488814507219</ele>
        <time>2018-09-25T23:18:05Z</time>
      </trkpt>
      <trkpt lat="31.202459162967166" lon="121.61870256185263">
        <ele>5.457451392895685</ele>
        <time>2018-09-25T23:18:16Z</time>
      </trkpt>
      <trkpt lat="31.202485796713933" lon="121.61864076874154">
        <ele>5.5549011198426825</ele>
        <time>2018-09-25T23:18:19Z</time>
      </trkpt>
      <trkpt lat="31.20273451520923" lon="121.61855375281442">
        <ele>6.20181654853922</ele>
        <time>2018-09-25T23:18:29Z</time>
      </trkpt>
      <trkpt lat="31.20280260965222" lon="121.6185144501178">
        <ele>5.95689623635635</ele>
        <time>2018-09-25T23:18:32Z</time>
      </trkpt>
      <trkpt lat="31.202871009483264" lon="121.61844099943941">
        <ele>5.9761903203217415</ele>
        <time>2018-09-25T23:18:36Z</time>
      </trkpt>
      <trkpt lat="31.202843752451933" lon="121.61831362421623">
        <ele>6.041644217459574</ele>
        <time>2018-09-25T23:18:40Z</time>
      </trkpt>
      <trkpt lat="31.202754538398562" lon="121.61805182820058">
        <ele>6.240357321351958</ele>
        <time>2018-09-25T23:18:51Z</time>
      </trkpt>
      <trkpt lat="31.20260324375526" lon="121.61777810960295">
        <ele>6.780500933645126</ele>
        <time>2018-09-25T23:19:02Z</time>
      </trkpt>
      <trkpt lat="31.202447412619918" lon="121.61742660397523">
        <ele>6.997536659327874</ele>
        <time>2018-09-25T23:19:17Z</time>
      </trkpt>
      <trkpt lat="31.20241656746323" lon="121.6173602050149">
        <ele>6.849252030101688</ele>
        <time>2018-09-25T23:19:20Z</time>
      </trkpt>
      <trkpt lat="31.202409047318405" lon="121.61728594414372">
        <ele>6.881844051116531</ele>
        <time>2018-09-25T23:19:23Z</time>
      </trkpt>
      <trkpt lat="31.202470388196232" lon="121.61721899512396">
        <ele>6.800389056694392</ele>
        <time>2018-09-25T23:19:27Z</time>
      </trkpt>
      <trkpt lat="31.202744966104746" lon="121.61702112082497">
        <ele>6.903744817692619</ele>
        <time>2018-09-25T23:19:41Z</time>
      </trkpt>
      <trkpt lat="31.202932992312693" lon="121.61688477647581">
        <ele>6.99947037702097</ele>
        <time>2018-09-25T23:19:52Z</time>
      </trkpt>
      <trkpt lat="31.203046183351784" lon="121.61674979273106">
        <ele>6.642848307677518</ele>
        <time>2018-09-25T23:19:59Z</time>
      </trkpt>
      <trkpt lat="31.203124324672547" lon="121.61669205603467">
        <ele>6.625255347313988</ele>
        <time>2018-09-25T23:20:03Z</time>
      </trkpt>
      <trkpt lat="31.2032035251838" lon="121.61666115155668">
        <ele>6.73447044184006</ele>
        <time>2018-09-25T23:20:07Z</time>
      </trkpt>
      <trkpt lat="31.203463753698635" lon="121.61643698338067">
        <ele>6.264766550285483</ele>
        <time>2018-09-25T23:20:20Z</time>
      </trkpt>
      <trkpt lat="31.203752141893048" lon="121.61625238257022">
        <ele>5.908393814058897</ele>
        <time>2018-09-25T23:20:35Z</time>
      </trkpt>
      <trkpt lat="31.203813448793234" lon="121.6162195817415">
        <ele>6.0268860085021565</ele>
        <time>2018-09-25T23:20:39Z</time>
      </trkpt>
      <trkpt lat="31.20388427516913" lon="121.61615452631587">
        <ele>6.13174222283126</ele>
        <time>2018-09-25T23:20:43Z</time>
      </trkpt>
      <trkpt lat="31.20395895534227" lon="121.61602631777518">
        <ele>5.966784095061193</ele>
        <time>2018-09-25T23:20:51Z</time>
      </trkpt>
      <trkpt lat="31.20404682528081" lon="121.6160021877883">
        <ele>6.101175913324482</ele>
        <time>2018-09-25T23:20:57Z</time>
      </trkpt>
      <trkpt lat="31.204186463397484" lon="121.61599838165125">
        <ele>5.977339643672526</ele>
        <time>2018-09-25T23:21:08Z</time>
      </trkpt>
      <trkpt lat="31.204232866764404" lon="121.61595555314545">
        <ele>5.755794544954718</ele>
        <time>2018-09-25T23:21:11Z</time>
      </trkpt>
      <trkpt lat="31.20431116969663" lon="121.6160157180157">
        <ele>6.234512684181112</ele>
        <time>2018-09-25T23:21:18Z</time>
      </trkpt>
      <trkpt lat="31.204453905260266" lon="121.61618158320638">
        <ele>6.028772637925936</ele>
        <time>2018-09-25T23:21:32Z</time>
      </trkpt>
      <trkpt lat="31.204574467404033" lon="121.61628212883784">
        <ele>6.087084655249548</ele>
        <time>2018-09-25T23:21:43Z</time>
      </trkpt>
      <trkpt lat="31.20460072325243" lon="121.61632982944917">
        <ele>6.1302821752443215</ele>
        <time>2018-09-25T23:21:46Z</time>
      </trkpt>
      <trkpt lat="31.20460376534614" lon="121.61626559304167">
        <ele>7.115424793977837</ele>
        <time>2018-09-25T23:21:56Z</time>
      </trkpt>
      <trkpt lat="31.20449002276952" lon="121.61612032511955">
        <ele>7.421275069993648</ele>
        <time>2018-09-25T23:22:06Z</time>
      </trkpt>
      <trkpt lat="31.20425626094796" lon="121.61587179895258">
        <ele>7.839614043365199</ele>
        <time>2018-09-25T23:22:27Z</time>
      </trkpt>
      <trkpt lat="31.204004856734908" lon="121.6156414317852">
        <ele>8.34036795844764</ele>
        <time>2018-09-25T23:22:48Z</time>
      </trkpt>
      <trkpt lat="31.203816832078722" lon="121.61548261388876">
        <ele>7.585294059676315</ele>
        <time>2018-09-25T23:23:06Z</time>
      </trkpt>
      <trkpt lat="31.20369575270022" lon="121.61535089434672">
        <ele>6.775983315232871</ele>
        <time>2018-09-25T23:23:20Z</time>
      </trkpt>
      <trkpt lat="31.203575701763725" lon="121.61528151557802">
        <ele>6.221846738958909</ele>
        <time>2018-09-25T23:23:30Z</time>
      </trkpt>
      <trkpt lat="31.203642772853875" lon="121.61516821086862">
        <ele>6.347376617588743</ele>
        <time>2018-09-25T23:23:38Z</time>
      </trkpt>
      <trkpt lat="31.203761899748812" lon="121.61505679868826">
        <ele>5.799360405377875</ele>
        <time>2018-09-25T23:23:44Z</time>
      </trkpt>
      <trkpt lat="31.203818367286633" lon="121.61497574917755">
        <ele>6.11716684396503</ele>
        <time>2018-09-25T23:23:47Z</time>
      </trkpt>
      <trkpt lat="31.203847986025142" lon="121.6149017490257">
        <ele>6.278915634856922</ele>
        <time>2018-09-25T23:23:51Z</time>
      </trkpt>
      <trkpt lat="31.204090313684834" lon="121.614668079062">
        <ele>6.319417089218419</ele>
        <time>2018-09-25T23:24:03Z</time>
      </trkpt>
      <trkpt lat="31.204292763146217" lon="121.61445690804617">
        <ele>6.472568641757206</ele>
        <time>2018-09-25T23:24:15Z</time>
      </trkpt>
      <trkpt lat="31.204491424118345" lon="121.6142351640636">
        <ele>6.579404640806725</ele>
        <time>2018-09-25T23:24:28Z</time>
      </trkpt>
      <trkpt lat="31.204757885216264" lon="121.6139919983103">
        <ele>7.461702859548879</ele>
        <time>2018-09-25T23:24:41Z</time>
      </trkpt>
      <trkpt lat="31.20489272937852" lon="121.61388518745807">
        <ele>7.532925329423165</ele>
        <time>2018-09-25T23:24:49Z</time>
      </trkpt>
      <trkpt lat="31.205081917407682" lon="121.61363768740259">
        <ele>8.30952118367291</ele>
        <time>2018-09-25T23:25:01Z</time>
      </trkpt>
      <trkpt lat="31.205308496494478" lon="121.61341864415179">
        <ele>8.781730663684463</ele>
        <time>2018-09-25T23:25:15Z</time>
      </trkpt>
      <trkpt lat="31.205535081994174" lon="121.61318956913057">
        <ele>8.84221531810875</ele>
        <time>2018-09-25T23:25:32Z</time>
      </trkpt>
      <trkpt lat="31.205592324645597" lon="121.61314890328457">
        <ele>8.920529749352792</ele>
        <time>2018-09-25T23:25:36Z</time>
      </trkpt>
      <trkpt lat="31.205361246315253" lon="121.61290088807647">
        <ele>9.44375831894913</ele>
        <time>2018-09-25T23:26:25Z</time>
      </trkpt>
      <trkpt lat="31.20529247965748" lon="121.61277375821295">
        <ele>9.53661793913665</ele>
        <time>2018-09-25T23:26:29Z</time>
      </trkpt>
      <trkpt lat="31.205276263364958" lon="121.61270870058237">
        <ele>9.429831389927621</ele>
        <time>2018-09-25T23:26:36Z</time>
      </trkpt>
      <trkpt lat="31.205223121459245" lon="121.6127078917382">
        <ele>9.319427725072508</ele>
        <time>2018-09-25T23:26:43Z</time>
      </trkpt>
      <trkpt lat="31.20512584238337" lon="121.61263416605863">
        <ele>8.944082183635654</ele>
        <time>2018-09-25T23:26:51Z</time>
      </trkpt>
      <trkpt lat="31.205042184850722" lon="121.61247803020268">
        <ele>9.270211024207413</ele>
        <time>2018-09-25T23:27:03Z</time>
      </trkpt>
      <trkpt lat="31.204755478990126" lon="121.61227962095315">
        <ele>10.289126659521372</ele>
        <time>2018-09-25T23:27:28Z</time>
      </trkpt>
      <trkpt lat="31.20468989926495" lon="121.61223462631605">
        <ele>9.87876395145824</ele>
        <time>2018-09-25T23:27:34Z</time>
      </trkpt>
      <trkpt lat="31.20454475223148" lon="121.61199987755279">
        <ele>10.522431626454726</ele>
        <time>2018-09-25T23:27:52Z</time>
      </trkpt>
      <trkpt lat="31.204468074609327" lon="121.61192994315768">
        <ele>10.733010660063002</ele>
        <time>2018-09-25T23:27:59Z</time>
      </trkpt>
      <trkpt lat="31.204373304028984" lon="121.611763773126">
        <ele>10.708998649323526</ele>
        <time>2018-09-25T23:28:13Z</time>
      </trkpt>
      <trkpt lat="31.204124051137963" lon="121.61151005164247">
        <ele>10.47013320292065</ele>
        <time>2018-09-25T23:28:38Z</time>
      </trkpt>
      <trkpt lat="31.204136443504993" lon="121.61125332366352">
        <ele>10.521478687455428</ele>
        <time>2018-09-25T23:28:57Z</time>
      </trkpt>
      <trkpt lat="31.20420918618661" lon="121.61114704757267">
        <ele>10.009723100381397</ele>
        <time>2018-09-25T23:29:07Z</time>
      </trkpt>
    </trkseg>
  </trk>
</gpx>