<?xml version="1.0" encoding="UTF-8"?>
<gpx xmlns="http://www.topografix.com/GPX/1/1" xmlns:gpxtpx="http://www.garmin.com/xmlschemas/TrackPointExtension/v1" xmlns:xsi="http://www.w3.org/2001/XMLSchema-instance" xsi:schemaLocation="http://www.topografix.com/GPX/1/1 http://www.topografix.com/GPX/1/1/gpx.xsd" version="1.1" creator="gpx.py -- https://github.com/tkrajina/gpxpy">
  <trk>
    <name>gpx from keep</name>
    <type>Run</type>
    <trkseg>
      <trkpt lat="31.204486428699525" lon="121.61057689893569">
        <ele>8.850705929731902</ele>
        <time>2020-05-11T22:53:00Z</time>
      </trkpt>
      <trkpt lat="31.20452866215373" lon="121.61066581756018">
        <ele>8.953932097220267</ele>
        <time>2020-05-11T22:53:04Z</time>
      </trkpt>
      <trkpt lat="31.20459397128884" lon="121.61071379742683">
        <ele>8.917336843907833</ele>
        <time>2020-05-11T22:53:08Z</time>
      </trkpt>
      <trkpt lat="31.204696601849296" lon="121.61089325836186">
        <ele>8.856971649453044</ele>
        <time>2020-05-11T22:53:15Z</time>
      </trkpt>
      <trkpt lat="31.204728395780116" lon="121.61079511704177">
        <ele>8.735629307106137</ele>
        <time>2020-05-11T22:53:22Z</time>
      </trkpt>
      <trkpt lat="31.204870261726295" lon="121.61070889473322">
        <ele>8.855340995825827</ele>
        <time>2020-05-11T22:53:29Z</time>
      </trkpt>
      <trkpt lat="31.204888766032497" lon="121.6106153624875">
        <ele>8.688904102891684</ele>
        <time>2020-05-11T22:53:32Z</time>
      </trkpt>
      <trkpt lat="31.20503837160891" lon="121.61031957364108">
        <ele>8.927911140955985</ele>
        <time>2020-05-11T22:53:36Z</time>
      </trkpt>
      <trkpt lat="31.20518804180862" lon="121.61031468133066">
        <ele>8.224164750427008</ele>
        <time>2020-05-11T22:53:40Z</time>
      </trkpt>
      <trkpt lat="31.20524126066204" lon="121.61020596249409">
        <ele>7.613240882754326</ele>
        <time>2020-05-11T22:53:44Z</time>
      </trkpt>
      <trkpt lat="31.205294172045146" lon="121.61014875405456">
        <ele>8.316087619401515</ele>
        <time>2020-05-11T22:53:47Z</time>
      </trkpt>
      <trkpt lat="31.20540886538528" lon="121.61014440681828">
        <ele>7.362627938389778</ele>
        <time>2020-05-11T22:53:54Z</time>
      </trkpt>
      <trkpt lat="31.20542343237163" lon="121.6102506803707">
        <ele>6.980629356577992</ele>
        <time>2020-05-11T22:53:57Z</time>
      </trkpt>
      <trkpt lat="31.20551168968992" lon="121.61043909265484">
        <ele>4.672827028669417</ele>
        <time>2020-05-11T22:54:05Z</time>
      </trkpt>
      <trkpt lat="31.205620106190395" lon="121.61049222044183">
        <ele>6.994110896252096</ele>
        <time>2020-05-11T22:54:08Z</time>
      </trkpt>
      <trkpt lat="31.205653969968974" lon="121.61053179901793">
        <ele>6.143736339174211</ele>
        <time>2020-05-11T22:54:12Z</time>
      </trkpt>
      <trkpt lat="31.205851027668277" lon="121.61061284300014">
        <ele>6.777727050706744</ele>
        <time>2020-05-11T22:54:22Z</time>
      </trkpt>
      <trkpt lat="31.205978330026593" lon="121.61079555591155">
        <ele>8.28449332062155</ele>
        <time>2020-05-11T22:54:29Z</time>
      </trkpt>
      <trkpt lat="31.20618207296564" lon="121.61100347330148">
        <ele>8.361695613712072</ele>
        <time>2020-05-11T22:54:39Z</time>
      </trkpt>
      <trkpt lat="31.206219718178794" lon="121.61106175649897">
        <ele>6.899371958337724</ele>
        <time>2020-05-11T22:54:43Z</time>
      </trkpt>
      <trkpt lat="31.20625948504176" lon="121.61118428952678">
        <ele>7.021827254444361</ele>
        <time>2020-05-11T22:54:47Z</time>
      </trkpt>
      <trkpt lat="31.206365604332934" lon="121.61140793494793">
        <ele>5.761295760050416</ele>
        <time>2020-05-11T22:54:57Z</time>
      </trkpt>
      <trkpt lat="31.206548805679088" lon="121.61152340584034">
        <ele>6.309400865808129</ele>
        <time>2020-05-11T22:55:04Z</time>
      </trkpt>
      <trkpt lat="31.206518631273752" lon="121.61162750792967">
        <ele>7.2663631197065115</ele>
        <time>2020-05-11T22:55:11Z</time>
      </trkpt>
      <trkpt lat="31.206465429437365" lon="121.61170585780637">
        <ele>7.641689628362656</ele>
        <time>2020-05-11T22:55:15Z</time>
      </trkpt>
      <trkpt lat="31.20642085456824" lon="121.61184872608915">
        <ele>8.07134583313018</ele>
        <time>2020-05-11T22:55:21Z</time>
      </trkpt>
      <trkpt lat="31.20632151887836" lon="121.6119793990608">
        <ele>7.029086337424815</ele>
        <time>2020-05-11T22:55:27Z</time>
      </trkpt>
      <trkpt lat="31.20612131064299" lon="121.61212227851946">
        <ele>8.119586132466793</ele>
        <time>2020-05-11T22:55:37Z</time>
      </trkpt>
      <trkpt lat="31.205940298796385" lon="121.61233373981084">
        <ele>8.298491870053113</ele>
        <time>2020-05-11T22:55:48Z</time>
      </trkpt>
      <trkpt lat="31.205876550970675" lon="121.61237332328221">
        <ele>7.118871742859483</ele>
        <time>2020-05-11T22:55:52Z</time>
      </trkpt>
      <trkpt lat="31.20565433247634" lon="121.61257475569998">
        <ele>7.810760461725295</ele>
        <time>2020-05-11T22:56:02Z</time>
      </trkpt>
      <trkpt lat="31.205433728917615" lon="121.61278919801245">
        <ele>7.508409745059907</ele>
        <time>2020-05-11T22:56:13Z</time>
      </trkpt>
      <trkpt lat="31.205249966795765" lon="121.61304239914453">
        <ele>9.97700671106577</ele>
        <time>2020-05-11T22:56:27Z</time>
      </trkpt>
      <trkpt lat="31.20513868653511" lon="121.61318390935729">
        <ele>7.36456638853997</ele>
        <time>2020-05-11T22:56:34Z</time>
      </trkpt>
      <trkpt lat="31.204980769355114" lon="121.61332650686175">
        <ele>8.535888683050871</ele>
        <time>2020-05-11T22:56:42Z</time>
      </trkpt>
      <trkpt lat="31.20494248012946" lon="121.6133986151407">
        <ele>7.0863780034706</ele>
        <time>2020-05-11T22:56:45Z</time>
      </trkpt>
      <trkpt lat="31.204801907097277" lon="121.61355015521004">
        <ele>8.65521957539022</ele>
        <time>2020-05-11T22:56:53Z</time>
      </trkpt>
      <trkpt lat="31.2047676883541" lon="121.61361738322721">
        <ele>7.834554228000343</ele>
        <time>2020-05-11T22:56:57Z</time>
      </trkpt>
      <trkpt lat="31.204588825292788" lon="121.61383913135111">
        <ele>7.902245649136603</ele>
        <time>2020-05-11T22:57:07Z</time>
      </trkpt>
      <trkpt lat="31.204294437760524" lon="121.61408338523655">
        <ele>8.403105196543038</ele>
        <time>2020-05-11T22:57:21Z</time>
      </trkpt>
      <trkpt lat="31.204242852836888" lon="121.61416497949863">
        <ele>7.0449495846405625</ele>
        <time>2020-05-11T22:57:24Z</time>
      </trkpt>
      <trkpt lat="31.204160927095025" lon="121.61421540387191">
        <ele>7.99827210791409</ele>
        <time>2020-05-11T22:57:27Z</time>
      </trkpt>
      <trkpt lat="31.20401846439014" lon="121.61435203054334">
        <ele>8.338202421553433</ele>
        <time>2020-05-11T22:57:34Z</time>
      </trkpt>
      <trkpt lat="31.203866808101154" lon="121.61445884068708">
        <ele>7.331278611905873</ele>
        <time>2020-05-11T22:57:41Z</time>
      </trkpt>
      <trkpt lat="31.203797047343926" lon="121.6145504643223">
        <ele>8.60469310823828</ele>
        <time>2020-05-11T22:57:45Z</time>
      </trkpt>
      <trkpt lat="31.203633706062043" lon="121.6146865486867">
        <ele>7.643176967278123</ele>
        <time>2020-05-11T22:57:53Z</time>
      </trkpt>
      <trkpt lat="31.20350703761657" lon="121.61474212572323">
        <ele>7.785474274307489</ele>
        <time>2020-05-11T22:57:59Z</time>
      </trkpt>
      <trkpt lat="31.20339522532101" lon="121.61486194145809">
        <ele>6.184802138246596</ele>
        <time>2020-05-11T22:58:06Z</time>
      </trkpt>
      <trkpt lat="31.203359377975232" lon="121.61492753957629">
        <ele>8.095304873771966</ele>
        <time>2020-05-11T22:58:09Z</time>
      </trkpt>
      <trkpt lat="31.20335822979077" lon="121.6149999109755">
        <ele>6.745260586962104</ele>
        <time>2020-05-11T22:58:13Z</time>
      </trkpt>
      <trkpt lat="31.20346809829801" lon="121.61523978274262">
        <ele>6.354033027775586</ele>
        <time>2020-05-11T22:58:25Z</time>
      </trkpt>
      <trkpt lat="31.203518220159026" lon="121.61528260453194">
        <ele>6.717845734208822</ele>
        <time>2020-05-11T22:58:28Z</time>
      </trkpt>
      <trkpt lat="31.203460933716837" lon="121.61536880300866">
        <ele>6.582514549605548</ele>
        <time>2020-05-11T22:58:32Z</time>
      </trkpt>
      <trkpt lat="31.203335849376202" lon="121.61547045651812">
        <ele>7.317443453706801</ele>
        <time>2020-05-11T22:58:39Z</time>
      </trkpt>
      <trkpt lat="31.203304611578154" lon="121.61553415526664">
        <ele>7.604417383670807</ele>
        <time>2020-05-11T22:58:42Z</time>
      </trkpt>
      <trkpt lat="31.203044338882314" lon="121.61581498001541">
        <ele>5.891579897142947</ele>
        <time>2020-05-11T22:58:57Z</time>
      </trkpt>
      <trkpt lat="31.202792493757517" lon="121.61606842567464">
        <ele>6.439644602127373</ele>
        <time>2020-05-11T22:59:11Z</time>
      </trkpt>
      <trkpt lat="31.20270505207857" lon="121.61621614990608">
        <ele>5.767407319508493</ele>
        <time>2020-05-11T22:59:18Z</time>
      </trkpt>
      <trkpt lat="31.202425019255944" lon="121.61645468670329">
        <ele>7.321152442134917</ele>
        <time>2020-05-11T22:59:32Z</time>
      </trkpt>
      <trkpt lat="31.202227153355157" lon="121.61667722335498">
        <ele>6.379987986758351</ele>
        <time>2020-05-11T22:59:43Z</time>
      </trkpt>
      <trkpt lat="31.20211611899336" lon="121.61682575896464">
        <ele>5.210387601517141</ele>
        <time>2020-05-11T22:59:50Z</time>
      </trkpt>
      <trkpt lat="31.20205154962611" lon="121.61686723228978">
        <ele>5.284112303517759</ele>
        <time>2020-05-11T22:59:53Z</time>
      </trkpt>
      <trkpt lat="31.20197445801244" lon="121.61696128671205">
        <ele>5.028308448381722</ele>
        <time>2020-05-11T22:59:57Z</time>
      </trkpt>
      <trkpt lat="31.201848017241133" lon="121.61705778413024">
        <ele>5.6481150053441525</ele>
        <time>2020-05-11T23:00:11Z</time>
      </trkpt>
      <trkpt lat="31.201899494495038" lon="121.61709789231742">
        <ele>6.815424227155745</ele>
        <time>2020-05-11T23:00:25Z</time>
      </trkpt>
      <trkpt lat="31.20184194878062" lon="121.61716592546752">
        <ele>6.41742398403585</ele>
        <time>2020-05-11T23:00:40Z</time>
      </trkpt>
      <trkpt lat="31.201651496052577" lon="121.61728681989146">
        <ele>6.421987243928015</ele>
        <time>2020-05-11T23:00:47Z</time>
      </trkpt>
      <trkpt lat="31.201383343692253" lon="121.61756708318116">
        <ele>5.428675178438425</ele>
        <time>2020-05-11T23:01:02Z</time>
      </trkpt>
      <trkpt lat="31.201173023279136" lon="121.61776277963605">
        <ele>5.6929527865722775</ele>
        <time>2020-05-11T23:01:12Z</time>
      </trkpt>
      <trkpt lat="31.20103865771134" lon="121.6179194413003">
        <ele>5.937205979600549</ele>
        <time>2020-05-11T23:01:19Z</time>
      </trkpt>
      <trkpt lat="31.20100089752537" lon="121.61799289096984">
        <ele>5.7461094399914145</ele>
        <time>2020-05-11T23:01:22Z</time>
      </trkpt>
      <trkpt lat="31.200765849722767" lon="121.61824007949711">
        <ele>5.378656547516584</ele>
        <time>2020-05-11T23:01:34Z</time>
      </trkpt>
      <trkpt lat="31.200602134874526" lon="121.61846070023529">
        <ele>5.763156333938241</ele>
        <time>2020-05-11T23:01:44Z</time>
      </trkpt>
      <trkpt lat="31.20036544696506" lon="121.61871709872676">
        <ele>5.315846600569785</ele>
        <time>2020-05-11T23:01:57Z</time>
      </trkpt>
      <trkpt lat="31.200168624922412" lon="121.6189623799316">
        <ele>4.913320068269968</ele>
        <time>2020-05-11T23:02:08Z</time>
      </trkpt>
      <trkpt lat="31.19998130030271" lon="121.61919817273633">
        <ele>5.628212112002075</ele>
        <time>2020-05-11T23:02:19Z</time>
      </trkpt>
      <trkpt lat="31.199882207870743" lon="121.61932257291113">
        <ele>6.191970975138247</ele>
        <time>2020-05-11T23:02:25Z</time>
      </trkpt>
      <trkpt lat="31.199760624563584" lon="121.61943369511725">
        <ele>5.33068775665015</ele>
        <time>2020-05-11T23:02:32Z</time>
      </trkpt>
      <trkpt lat="31.199644148021104" lon="121.6195873639289">
        <ele>5.03421510849148</ele>
        <time>2020-05-11T23:02:39Z</time>
      </trkpt>
      <trkpt lat="31.19937356568726" lon="121.61983697888975">
        <ele>5.939026809297502</ele>
        <time>2020-05-11T23:02:53Z</time>
      </trkpt>
      <trkpt lat="31.199308698976736" lon="121.61989931427216">
        <ele>5.714787769131362</ele>
        <time>2020-05-11T23:02:57Z</time>
      </trkpt>
      <trkpt lat="31.199229637687097" lon="121.62005189321619">
        <ele>5.507289039902389</ele>
        <time>2020-05-11T23:03:04Z</time>
      </trkpt>
      <trkpt lat="31.199182397409427" lon="121.62011124564921">
        <ele>5.482546189799905</ele>
        <time>2020-05-11T23:03:07Z</time>
      </trkpt>
      <trkpt lat="31.198872944127647" lon="121.62019528034821">
        <ele>4.944227290339768</ele>
        <time>2020-05-11T23:03:18Z</time>
      </trkpt>
      <trkpt lat="31.19880267913864" lon="121.62023403865253">
        <ele>5.7550254398956895</ele>
        <time>2020-05-11T23:03:21Z</time>
      </trkpt>
      <trkpt lat="31.198724754038437" lon="121.62033675246974">
        <ele>5.584003262221813</ele>
        <time>2020-05-11T23:03:25Z</time>
      </trkpt>
      <trkpt lat="31.198666341511444" lon="121.62044759408798">
        <ele>6.244323532097042</ele>
        <time>2020-05-11T23:03:29Z</time>
      </trkpt>
      <trkpt lat="31.198605267673233" lon="121.62051155364863">
        <ele>6.056451205164194</ele>
        <time>2020-05-11T23:03:32Z</time>
      </trkpt>
      <trkpt lat="31.19835323736381" lon="121.62064788379767">
        <ele>6.077784985303879</ele>
        <time>2020-05-11T23:03:40Z</time>
      </trkpt>
      <trkpt lat="31.19826635639099" lon="121.62075710050473">
        <ele>5.860363555140793</ele>
        <time>2020-05-11T23:03:46Z</time>
      </trkpt>
      <trkpt lat="31.198026161916744" lon="121.6209787899119">
        <ele>7.3258946388959885</ele>
        <time>2020-05-11T23:04:01Z</time>
      </trkpt>
      <trkpt lat="31.1979040234556" lon="121.62109613777838">
        <ele>7.003321255557239</ele>
        <time>2020-05-11T23:04:08Z</time>
      </trkpt>
      <trkpt lat="31.197874404836597" lon="121.62115548637956">
        <ele>6.717872121371329</ele>
        <time>2020-05-11T23:04:12Z</time>
      </trkpt>
      <trkpt lat="31.197773779698935" lon="121.62118692914272">
        <ele>6.310016139410436</ele>
        <time>2020-05-11T23:04:18Z</time>
      </trkpt>
      <trkpt lat="31.197644306097725" lon="121.62131674200332">
        <ele>6.079554097726941</ele>
        <time>2020-05-11T23:04:33Z</time>
      </trkpt>
      <trkpt lat="31.197435097335127" lon="121.62146580065989">
        <ele>6.402072018012404</ele>
        <time>2020-05-11T23:04:50Z</time>
      </trkpt>
      <trkpt lat="31.19714034641483" lon="121.62173545226246">
        <ele>5.72175854537636</ele>
        <time>2020-05-11T23:05:17Z</time>
      </trkpt>
      <trkpt lat="31.197092275826922" lon="121.62180699506136">
        <ele>5.852433399297297</ele>
        <time>2020-05-11T23:05:23Z</time>
      </trkpt>
      <trkpt lat="31.196932968232556" lon="121.62194276888829">
        <ele>5.496581204235554</ele>
        <time>2020-05-11T23:05:37Z</time>
      </trkpt>
      <trkpt lat="31.196828241827124" lon="121.62200401865725">
        <ele>5.888580536469817</ele>
        <time>2020-05-11T23:05:44Z</time>
      </trkpt>
      <trkpt lat="31.196726959639697" lon="121.62213653496133">
        <ele>5.035874480381608</ele>
        <time>2020-05-11T23:05:56Z</time>
      </trkpt>
      <trkpt lat="31.196681101632176" lon="121.62216878496145">
        <ele>6.4327312195673585</ele>
        <time>2020-05-11T23:05:59Z</time>
      </trkpt>
      <trkpt lat="31.19662214999641" lon="121.62227094772928">
        <ele>4.825889614410698</ele>
        <time>2020-05-11T23:06:06Z</time>
      </trkpt>
      <trkpt lat="31.19663604934941" lon="121.62244653801068">
        <ele>4.017044988460839</ele>
        <time>2020-05-11T23:06:16Z</time>
      </trkpt>
      <trkpt lat="31.19662886408675" lon="121.62256549573002">
        <ele>4.3211382972076535</ele>
        <time>2020-05-11T23:06:23Z</time>
      </trkpt>
      <trkpt lat="31.196722831892906" lon="121.62290203351829">
        <ele>5.505132331512868</ele>
        <time>2020-05-11T23:06:45Z</time>
      </trkpt>
      <trkpt lat="31.19674058475991" lon="121.62302478072021">
        <ele>5.356105303391814</ele>
        <time>2020-05-11T23:06:52Z</time>
      </trkpt>
      <trkpt lat="31.196725609587748" lon="121.62307897545728">
        <ele>4.862312889657915</ele>
        <time>2020-05-11T23:06:56Z</time>
      </trkpt>
      <trkpt lat="31.196769869074473" lon="121.62325645474391">
        <ele>4.290273508056998</ele>
        <time>2020-05-11T23:07:05Z</time>
      </trkpt>
      <trkpt lat="31.196816374324513" lon="121.62336754650522">
        <ele>4.8990681963041425</ele>
        <time>2020-05-11T23:07:09Z</time>
      </trkpt>
      <trkpt lat="31.19680514170733" lon="121.62346672020905">
        <ele>4.573681145906448</ele>
        <time>2020-05-11T23:07:12Z</time>
      </trkpt>
      <trkpt lat="31.196856270455825" lon="121.62356507550498">
        <ele>3.5029292572289705</ele>
        <time>2020-05-11T23:07:16Z</time>
      </trkpt>
      <trkpt lat="31.196863756288185" lon="121.62365503425565">
        <ele>4.709288985468447</ele>
        <time>2020-05-11T23:07:19Z</time>
      </trkpt>
      <trkpt lat="31.19692529759804" lon="121.62388940987569">
        <ele>4.36338465847075</ele>
        <time>2020-05-11T23:07:26Z</time>
      </trkpt>
      <trkpt lat="31.19695992356047" lon="121.62395606289529">
        <ele>5.468361006118357</ele>
        <time>2020-05-11T23:07:30Z</time>
      </trkpt>
      <trkpt lat="31.196897632974505" lon="121.62366776663968">
        <ele>5.700528169050813</ele>
        <time>2020-05-11T23:07:40Z</time>
      </trkpt>
      <trkpt lat="31.196881610912524" lon="121.62345858497682">
        <ele>5.839246653020382</ele>
        <time>2020-05-11T23:07:47Z</time>
      </trkpt>
      <trkpt lat="31.196807822720974" lon="121.62326078704929">
        <ele>6.179832671768963</ele>
        <time>2020-05-11T23:07:54Z</time>
      </trkpt>
      <trkpt lat="31.196811207242646" lon="121.62314833589173">
        <ele>5.432429619133472</ele>
        <time>2020-05-11T23:07:58Z</time>
      </trkpt>
      <trkpt lat="31.196705870873334" lon="121.62303237068964">
        <ele>6.517161698080599</ele>
        <time>2020-05-11T23:08:02Z</time>
      </trkpt>
      <trkpt lat="31.196673426420364" lon="121.62295325069677">
        <ele>1.5840547289699316</ele>
        <time>2020-05-11T23:08:05Z</time>
      </trkpt>
      <trkpt lat="31.196688740947742" lon="121.6228397134026">
        <ele>3.6759751280769706</ele>
        <time>2020-05-11T23:08:09Z</time>
      </trkpt>
      <trkpt lat="31.19677072464556" lon="121.62275164135265">
        <ele>5.7632238287478685</ele>
        <time>2020-05-11T23:08:16Z</time>
      </trkpt>
      <trkpt lat="31.196923454698425" lon="121.62268036338045">
        <ele>5.5556232603266835</ele>
        <time>2020-05-11T23:08:20Z</time>
      </trkpt>
      <trkpt lat="31.197054043988146" lon="121.62252833730255">
        <ele>4.750361337326467</ele>
        <time>2020-05-11T23:08:28Z</time>
      </trkpt>
      <trkpt lat="31.197125916065257" lon="121.62250936325681">
        <ele>5.8183934753760695</ele>
        <time>2020-05-11T23:08:31Z</time>
      </trkpt>
      <trkpt lat="31.197189162839305" lon="121.62244567931236">
        <ele>5.060522638261318</ele>
        <time>2020-05-11T23:08:35Z</time>
      </trkpt>
      <trkpt lat="31.19737936134269" lon="121.62232806079169">
        <ele>5.9175229873508215</ele>
        <time>2020-05-11T23:08:43Z</time>
      </trkpt>
      <trkpt lat="31.19758888804735" lon="121.62214134120735">
        <ele>6.652918563224375</ele>
        <time>2020-05-11T23:08:53Z</time>
      </trkpt>
      <trkpt lat="31.197717231227454" lon="121.62205543085828">
        <ele>5.703022134490311</ele>
        <time>2020-05-11T23:08:59Z</time>
      </trkpt>
      <trkpt lat="31.197808156798338" lon="121.62197033626528">
        <ele>6.735562268644571</ele>
        <time>2020-05-11T23:09:03Z</time>
      </trkpt>
      <trkpt lat="31.19783695024184" lon="121.62192291262815">
        <ele>6.433611492626369</ele>
        <time>2020-05-11T23:09:06Z</time>
      </trkpt>
      <trkpt lat="31.197951195993" lon="121.62183510588588">
        <ele>7.090266306884587</ele>
        <time>2020-05-11T23:09:17Z</time>
      </trkpt>
      <trkpt lat="31.198058892814316" lon="121.62178442371568">
        <ele>5.8711167788133025</ele>
        <time>2020-05-11T23:09:32Z</time>
      </trkpt>
      <trkpt lat="31.198111285808647" lon="121.6217269715061">
        <ele>5.48079211357981</ele>
        <time>2020-05-11T23:09:39Z</time>
      </trkpt>
      <trkpt lat="31.198171511984913" lon="121.62169607468954">
        <ele>6.679158223792911</ele>
        <time>2020-05-11T23:09:42Z</time>
      </trkpt>
      <trkpt lat="31.198282545660234" lon="121.62157032995272">
        <ele>5.6293260315433145</ele>
        <time>2020-05-11T23:09:56Z</time>
      </trkpt>
      <trkpt lat="31.198337615027796" lon="121.621544040087">
        <ele>6.533348185010254</ele>
        <time>2020-05-11T23:09:59Z</time>
      </trkpt>
      <trkpt lat="31.198341201366983" lon="121.6214884882796">
        <ele>5.477397811599076</ele>
        <time>2020-05-11T23:10:03Z</time>
      </trkpt>
      <trkpt lat="31.198403877112607" lon="121.62144891950689">
        <ele>6.616242924705148</ele>
        <time>2020-05-11T23:10:06Z</time>
      </trkpt>
      <trkpt lat="31.198444083718016" lon="121.62137764737902">
        <ele>6.21157590392977</ele>
        <time>2020-05-11T23:10:10Z</time>
      </trkpt>
      <trkpt lat="31.19870410966662" lon="121.62112344127233">
        <ele>4.823615945875645</ele>
        <time>2020-05-11T23:10:25Z</time>
      </trkpt>
      <trkpt lat="31.198780348173972" lon="121.62107790910662">
        <ele>5.6845390079542994</ele>
        <time>2020-05-11T23:10:28Z</time>
      </trkpt>
      <trkpt lat="31.19885634715161" lon="121.62100338115575">
        <ele>5.915237954817712</ele>
        <time>2020-05-11T23:10:32Z</time>
      </trkpt>
      <trkpt lat="31.199117065207354" lon="121.62085810947984">
        <ele>5.777393906377256</ele>
        <time>2020-05-11T23:10:44Z</time>
      </trkpt>
      <trkpt lat="31.199281194291796" lon="121.62077246299879">
        <ele>5.838986190967262</ele>
        <time>2020-05-11T23:10:51Z</time>
      </trkpt>
      <trkpt lat="31.19956640657176" lon="121.62079167972489">
        <ele>7.266027469187975</ele>
        <time>2020-05-11T23:11:02Z</time>
      </trkpt>
      <trkpt lat="31.199809598095534" lon="121.62080629307948">
        <ele>5.2487774500623345</ele>
        <time>2020-05-11T23:11:12Z</time>
      </trkpt>
      <trkpt lat="31.1999140188795" lon="121.6207748495473">
        <ele>5.559384250082076</ele>
        <time>2020-05-11T23:11:16Z</time>
      </trkpt>
      <trkpt lat="31.200202470218112" lon="121.62080761551954">
        <ele>4.791470563039184</ele>
        <time>2020-05-11T23:11:27Z</time>
      </trkpt>
      <trkpt lat="31.200281646152128" lon="121.62080327312289">
        <ele>6.272900831885636</ele>
        <time>2020-05-11T23:11:30Z</time>
      </trkpt>
      <trkpt lat="31.200482191379095" lon="121.6208899732816">
        <ele>4.600271132774651</ele>
        <time>2020-05-11T23:11:38Z</time>
      </trkpt>
      <trkpt lat="31.20058848668039" lon="121.62088020886453">
        <ele>5.204939864575863</ele>
        <time>2020-05-11T23:11:42Z</time>
      </trkpt>
      <trkpt lat="31.20066818693881" lon="121.620892396794">
        <ele>5.787992214784026</ele>
        <time>2020-05-11T23:11:45Z</time>
      </trkpt>
      <trkpt lat="31.200761137965557" lon="121.6209365603341">
        <ele>4.947957129217684</ele>
        <time>2020-05-11T23:11:49Z</time>
      </trkpt>
      <trkpt lat="31.201088066779988" lon="121.62099100199605">
        <ele>4.64844907540828</ele>
        <time>2020-05-11T23:12:03Z</time>
      </trkpt>
      <trkpt lat="31.201316859666683" lon="121.62103190227242">
        <ele>5.236067723482847</ele>
        <time>2020-05-11T23:12:15Z</time>
      </trkpt>
      <trkpt lat="31.201368888182436" lon="121.62105872575903">
        <ele>5.958511169999838</ele>
        <time>2020-05-11T23:12:19Z</time>
      </trkpt>
      <trkpt lat="31.201722666393923" lon="121.62110666125281">
        <ele>5.339636394754052</ele>
        <time>2020-05-11T23:12:44Z</time>
      </trkpt>
      <trkpt lat="31.20206426199043" lon="121.62113779648752">
        <ele>5.642194869928062</ele>
        <time>2020-05-11T23:13:09Z</time>
      </trkpt>
      <trkpt lat="31.202116307682783" lon="121.62114890263842">
        <ele>4.982307458296418</ele>
        <time>2020-05-11T23:13:13Z</time>
      </trkpt>
      <trkpt lat="31.202299016851725" lon="121.62118140590451">
        <ele>4.4930370291695</ele>
        <time>2020-05-11T23:13:27Z</time>
      </trkpt>
      <trkpt lat="31.20240069032644" lon="121.6211832943943">
        <ele>5.066863497719169</ele>
        <time>2020-05-11T23:13:35Z</time>
      </trkpt>
      <trkpt lat="31.20240829786445" lon="121.62116893148274">
        <ele>5.138837202452123</ele>
        <time>2020-05-11T23:13:46Z</time>
      </trkpt>
      <trkpt lat="31.20240884637782" lon="121.62116324071971">
        <ele>4.930437485687435</ele>
        <time>2020-05-11T23:13:55Z</time>
      </trkpt>
      <trkpt lat="31.202458210157133" lon="121.62114751940763">
        <ele>5.549042728729546</ele>
        <time>2020-05-11T23:14:02Z</time>
      </trkpt>
      <trkpt lat="31.20247170080458" lon="121.62095999479494">
        <ele>4.565556290559471</ele>
        <time>2020-05-11T23:14:12Z</time>
      </trkpt>
      <trkpt lat="31.202447389844835" lon="121.62087626117173">
        <ele>5.7830057637766</ele>
        <time>2020-05-11T23:14:16Z</time>
      </trkpt>
      <trkpt lat="31.20243670498264" lon="121.62072830134721">
        <ele>5.354394453577697</ele>
        <time>2020-05-11T23:14:23Z</time>
      </trkpt>
      <trkpt lat="31.202419405992746" lon="121.62067871136503">
        <ele>4.7861798563972116</ele>
        <time>2020-05-11T23:14:31Z</time>
      </trkpt>
      <trkpt lat="31.202585842937008" lon="121.62071555242103">
        <ele>4.98190376535058</ele>
        <time>2020-05-11T23:14:50Z</time>
      </trkpt>
      <trkpt lat="31.202585842937008" lon="121.62071555242103">
        <ele>4.98190376535058</ele>
        <time>2020-05-11T23:14:51Z</time>
      </trkpt>
      <trkpt lat="31.20256903228186" lon="121.62071582480348">
        <ele>5.6937234830111265</ele>
        <time>2020-05-11T23:14:54Z</time>
      </trkpt>
      <trkpt lat="31.202503119817045" lon="121.62074049044631">
        <ele>4.690658095292747</ele>
        <time>2020-05-11T23:15:01Z</time>
      </trkpt>
      <trkpt lat="31.202491728044727" lon="121.6207442852621">
        <ele>4.5928455060347915</ele>
        <time>2020-05-11T23:15:02Z</time>
      </trkpt>
      <trkpt lat="31.202402814301692" lon="121.62072722018766">
        <ele>3.282038009725511</ele>
        <time>2020-05-11T23:15:10Z</time>
      </trkpt>
      <trkpt lat="31.202411798104922" lon="121.62069361652782">
        <ele>3.5567175010219216</ele>
        <time>2020-05-11T23:15:13Z</time>
      </trkpt>
      <trkpt lat="31.20241640944818" lon="121.62069171920606">
        <ele>4.575542448088527</ele>
        <time>2020-05-11T23:15:14Z</time>
      </trkpt>
      <trkpt lat="31.20236899043413" lon="121.62066435297912">
        <ele>4.173513473942876</ele>
        <time>2020-05-11T23:15:48Z</time>
      </trkpt>
      <trkpt lat="31.20239727208272" lon="121.62058684688627">
        <ele>4.839957835152745</ele>
        <time>2020-05-11T23:16:01Z</time>
      </trkpt>
      <trkpt lat="31.202401283985964" lon="121.62038576931111">
        <ele>4.897498158738017</ele>
        <time>2020-05-11T23:16:19Z</time>
      </trkpt>
      <trkpt lat="31.202446571918337" lon="121.62037790671769">
        <ele>4.7253551026806235</ele>
        <time>2020-05-11T23:16:36Z</time>
      </trkpt>
      <trkpt lat="31.202424153207648" lon="121.6202979650082">
        <ele>4.817030178382993</ele>
        <time>2020-05-11T23:16:50Z</time>
      </trkpt>
      <trkpt lat="31.20241134324297" lon="121.62036029497041">
        <ele>4.609178783372045</ele>
        <time>2020-05-11T23:17:04Z</time>
      </trkpt>
      <trkpt lat="31.20241134324297" lon="121.62036029497041">
        <ele>4.609178783372045</ele>
        <time>2020-05-11T23:17:08Z</time>
      </trkpt>
      <trkpt lat="31.202431627572583" lon="121.62040771735629">
        <ele>4.646145683713257</ele>
        <time>2020-05-11T23:17:21Z</time>
      </trkpt>
      <trkpt lat="31.202448982815827" lon="121.62040527697026">
        <ele>4.5513980621472</ele>
        <time>2020-05-11T23:17:42Z</time>
      </trkpt>
      <trkpt lat="31.20244741722239" lon="121.62034809721168">
        <ele>4.855484144762158</ele>
        <time>2020-05-11T23:17:49Z</time>
      </trkpt>
      <trkpt lat="31.20250375902341" lon="121.62039876857004">
        <ele>4.202324839308858</ele>
        <time>2020-05-11T23:18:03Z</time>
      </trkpt>
      <trkpt lat="31.20269816447067" lon="121.62039712651483">
        <ele>4.552881142124534</ele>
        <time>2020-05-11T23:18:17Z</time>
      </trkpt>
      <trkpt lat="31.202813726533964" lon="121.62034237600146">
        <ele>5.132267979905009</ele>
        <time>2020-05-11T23:18:24Z</time>
      </trkpt>
      <trkpt lat="31.20284823824847" lon="121.62026974636062">
        <ele>4.449322335422039</ele>
        <time>2020-05-11T23:18:28Z</time>
      </trkpt>
      <trkpt lat="31.202759442920936" lon="121.61988493674941">
        <ele>4.735166150145233</ele>
        <time>2020-05-11T23:18:42Z</time>
      </trkpt>
      <trkpt lat="31.202707230481316" lon="121.61977410188202">
        <ele>4.592057571746409</ele>
        <time>2020-05-11T23:18:46Z</time>
      </trkpt>
      <trkpt lat="31.202711117585867" lon="121.6196871100786">
        <ele>4.423316002823412</ele>
        <time>2020-05-11T23:18:49Z</time>
      </trkpt>
      <trkpt lat="31.20259629209935" lon="121.61929606077165">
        <ele>5.497148893773556</ele>
        <time>2020-05-11T23:19:04Z</time>
      </trkpt>
      <trkpt lat="31.202545893426414" lon="121.61900093759643">
        <ele>4.957897761836648</ele>
        <time>2020-05-11T23:19:15Z</time>
      </trkpt>
      <trkpt lat="31.202456462598843" lon="121.61869172157688">
        <ele>5.409846373833716</ele>
        <time>2020-05-11T23:19:26Z</time>
      </trkpt>
      <trkpt lat="31.202505312943284" lon="121.61864618738795">
        <ele>4.885003253817558</ele>
        <time>2020-05-11T23:19:29Z</time>
      </trkpt>
      <trkpt lat="31.2026959908263" lon="121.61857679218257">
        <ele>5.695336394943297</ele>
        <time>2020-05-11T23:19:40Z</time>
      </trkpt>
      <trkpt lat="31.202727219412928" lon="121.61852909113058">
        <ele>6.056499044410884</ele>
        <time>2020-05-11T23:19:43Z</time>
      </trkpt>
      <trkpt lat="31.20271647346123" lon="121.61843017161345">
        <ele>4.209414403885603</ele>
        <time>2020-05-11T23:19:47Z</time>
      </trkpt>
      <trkpt lat="31.20267831841039" lon="121.61835537442443">
        <ele>4.771655562333763</ele>
        <time>2020-05-11T23:19:51Z</time>
      </trkpt>
      <trkpt lat="31.20263648715493" lon="121.61816024550178">
        <ele>4.0422387002035975</ele>
        <time>2020-05-11T23:19:58Z</time>
      </trkpt>
      <trkpt lat="31.20263196206568" lon="121.61807541702001">
        <ele>4.936662613414228</ele>
        <time>2020-05-11T23:20:02Z</time>
      </trkpt>
      <trkpt lat="31.202656982390856" lon="121.61799871640818">
        <ele>6.205263270065188</ele>
        <time>2020-05-11T23:20:05Z</time>
      </trkpt>
      <trkpt lat="31.202650272513644" lon="121.61792933574775">
        <ele>4.814888782799244</ele>
        <time>2020-05-11T23:20:12Z</time>
      </trkpt>
      <trkpt lat="31.20258616810488" lon="121.61777214852228">
        <ele>4.185688284225762</ele>
        <time>2020-05-11T23:20:20Z</time>
      </trkpt>
      <trkpt lat="31.202553670424127" lon="121.61773285292391">
        <ele>7.722062807530165</ele>
        <time>2020-05-11T23:20:23Z</time>
      </trkpt>
      <trkpt lat="31.202491047742058" lon="121.61744475911549">
        <ele>5.74735495261848</ele>
        <time>2020-05-11T23:20:38Z</time>
      </trkpt>
      <trkpt lat="31.20243775521843" lon="121.61731954918763">
        <ele>5.926593953743577</ele>
        <time>2020-05-11T23:20:45Z</time>
      </trkpt>
      <trkpt lat="31.20243538392136" lon="121.61724799805057">
        <ele>5.4283163752406836</ele>
        <time>2020-05-11T23:20:49Z</time>
      </trkpt>
      <trkpt lat="31.202469316935076" lon="121.61720517275593">
        <ele>5.557064510881901</ele>
        <time>2020-05-11T23:20:53Z</time>
      </trkpt>
      <trkpt lat="31.20256342830624" lon="121.61717643591878">
        <ele>5.382443531416357</ele>
        <time>2020-05-11T23:21:01Z</time>
      </trkpt>
      <trkpt lat="31.202795142861678" lon="121.61700349967555">
        <ele>4.144984389655292</ele>
        <time>2020-05-11T23:21:20Z</time>
      </trkpt>
      <trkpt lat="31.202974462840125" lon="121.61689859568133">
        <ele>5.528474910184741</ele>
        <time>2020-05-11T23:21:34Z</time>
      </trkpt>
      <trkpt lat="31.203058917225864" lon="121.61675981992033">
        <ele>5.571337875910103</ele>
        <time>2020-05-11T23:21:45Z</time>
      </trkpt>
      <trkpt lat="31.203100164277835" lon="121.616723226955">
        <ele>5.738923082128167</ele>
        <time>2020-05-11T23:21:49Z</time>
      </trkpt>
      <trkpt lat="31.203240932632934" lon="121.61667090570667">
        <ele>5.702073409222066</ele>
        <time>2020-05-11T23:22:00Z</time>
      </trkpt>
      <trkpt lat="31.203427907417968" lon="121.61649742754284">
        <ele>5.383873326703906</ele>
        <time>2020-05-11T23:22:16Z</time>
      </trkpt>
      <trkpt lat="31.203480801048737" lon="121.61647357195076">
        <ele>6.191823977977037</ele>
        <time>2020-05-11T23:22:20Z</time>
      </trkpt>
      <trkpt lat="31.20352802459295" lon="121.61642423931781">
        <ele>5.681345100514591</ele>
        <time>2020-05-11T23:22:24Z</time>
      </trkpt>
      <trkpt lat="31.203587684419897" lon="121.61641339289126">
        <ele>6.785410893149674</ele>
        <time>2020-05-11T23:22:28Z</time>
      </trkpt>
      <trkpt lat="31.20363950328659" lon="121.61637896683693">
        <ele>6.585770561359823</ele>
        <time>2020-05-11T23:22:32Z</time>
      </trkpt>
      <trkpt lat="31.20371577109176" lon="121.61629412557026">
        <ele>6.516593541949987</ele>
        <time>2020-05-11T23:22:39Z</time>
      </trkpt>
      <trkpt lat="31.203852496266588" lon="121.61621524187929">
        <ele>7.278836199082434</ele>
        <time>2020-05-11T23:22:53Z</time>
      </trkpt>
      <trkpt lat="31.2038951038131" lon="121.6161726851085">
        <ele>7.146751738153398</ele>
        <time>2020-05-11T23:22:57Z</time>
      </trkpt>
      <trkpt lat="31.20394021713434" lon="121.6160588443015">
        <ele>6.762120375409722</ele>
        <time>2020-05-11T23:23:04Z</time>
      </trkpt>
      <trkpt lat="31.203980370790973" lon="121.61603092371148">
        <ele>6.56581349298358</ele>
        <time>2020-05-11T23:23:07Z</time>
      </trkpt>
      <trkpt lat="31.204073081848207" lon="121.61604961790626">
        <ele>5.651570849120617</ele>
        <time>2020-05-11T23:23:14Z</time>
      </trkpt>
      <trkpt lat="31.204220869964537" lon="121.6160284644445">
        <ele>5.718006561510265</ele>
        <time>2020-05-11T23:23:30Z</time>
      </trkpt>
      <trkpt lat="31.204321921142665" lon="121.61611789965853">
        <ele>6.884737493470311</ele>
        <time>2020-05-11T23:23:41Z</time>
      </trkpt>
      <trkpt lat="31.204430502097075" lon="121.61627400958068">
        <ele>7.302341612055898</ele>
        <time>2020-05-11T23:23:55Z</time>
      </trkpt>
      <trkpt lat="31.204541856399647" lon="121.61636262992792">
        <ele>6.854757837951183</ele>
        <time>2020-05-11T23:24:06Z</time>
      </trkpt>
      <trkpt lat="31.204517001793644" lon="121.61626587125747">
        <ele>7.410250648856163</ele>
        <time>2020-05-11T23:24:13Z</time>
      </trkpt>
      <trkpt lat="31.204369744364577" lon="121.6160054135814">
        <ele>7.645665030926466</ele>
        <time>2020-05-11T23:24:32Z</time>
      </trkpt>
      <trkpt lat="31.204153603599547" lon="121.61575878209382">
        <ele>9.257569040171802</ele>
        <time>2020-05-11T23:24:54Z</time>
      </trkpt>
      <trkpt lat="31.203979908621267" lon="121.61564549953755">
        <ele>8.013790799304843</ele>
        <time>2020-05-11T23:25:08Z</time>
      </trkpt>
      <trkpt lat="31.20374612538512" lon="121.61541621295159">
        <ele>5.3161233169957995</ele>
        <time>2020-05-11T23:25:31Z</time>
      </trkpt>
      <trkpt lat="31.203707941182554" lon="121.61536498789343">
        <ele>7.73929241579026</ele>
        <time>2020-05-11T23:25:35Z</time>
      </trkpt>
      <trkpt lat="31.203577582071475" lon="121.61530130206367">
        <ele>7.608828061260283</ele>
        <time>2020-05-11T23:25:45Z</time>
      </trkpt>
      <trkpt lat="31.203592861626333" lon="121.61519342275098">
        <ele>6.82295351382345</ele>
        <time>2020-05-11T23:25:52Z</time>
      </trkpt>
      <trkpt lat="31.20378585585739" lon="121.61494756229234">
        <ele>5.119017653167248</ele>
        <time>2020-05-11T23:26:05Z</time>
      </trkpt>
      <trkpt lat="31.203990481947855" lon="121.61473015927193">
        <ele>5.410504006780684</ele>
        <time>2020-05-11T23:26:16Z</time>
      </trkpt>
      <trkpt lat="31.20410934206015" lon="121.61461169758273">
        <ele>6.1978009240701795</ele>
        <time>2020-05-11T23:26:23Z</time>
      </trkpt>
      <trkpt lat="31.204146269226126" lon="121.61455070650031">
        <ele>6.7247813288122416</ele>
        <time>2020-05-11T23:26:26Z</time>
      </trkpt>
      <trkpt lat="31.204367982543676" lon="121.61432299814668">
        <ele>7.188444158993661</ele>
        <time>2020-05-11T23:26:38Z</time>
      </trkpt>
      <trkpt lat="31.20448684922201" lon="121.61419477619307">
        <ele>6.042379225604236</ele>
        <time>2020-05-11T23:26:44Z</time>
      </trkpt>
      <trkpt lat="31.204640417873158" lon="121.61406980344272">
        <ele>5.0154994977638125</ele>
        <time>2020-05-11T23:26:51Z</time>
      </trkpt>
      <trkpt lat="31.204757984879983" lon="121.61387354276667">
        <ele>7.675546668469906</ele>
        <time>2020-05-11T23:26:59Z</time>
      </trkpt>
      <trkpt lat="31.204943313785623" lon="121.61370194205479">
        <ele>7.489547921344638</ele>
        <time>2020-05-11T23:27:09Z</time>
      </trkpt>
      <trkpt lat="31.20508900133557" lon="121.61359621327176">
        <ele>5.9857030268758535</ele>
        <time>2020-05-11T23:27:17Z</time>
      </trkpt>
      <trkpt lat="31.20519893657773" lon="121.61344440496192">
        <ele>8.143001632764935</ele>
        <time>2020-05-11T23:27:24Z</time>
      </trkpt>
      <trkpt lat="31.20546701704864" lon="121.61320177307897">
        <ele>6.294623007066548</ele>
        <time>2020-05-11T23:27:39Z</time>
      </trkpt>
      <trkpt lat="31.205733160509183" lon="121.61300495073323">
        <ele>6.861603070981801</ele>
        <time>2020-05-11T23:27:53Z</time>
      </trkpt>
      <trkpt lat="31.205792863177074" lon="121.61293934531604">
        <ele>6.6043587401509285</ele>
        <time>2020-05-11T23:27:56Z</time>
      </trkpt>
      <trkpt lat="31.20584852145727" lon="121.61284527689367">
        <ele>7.303058665245771</ele>
        <time>2020-05-11T23:28:00Z</time>
      </trkpt>
      <trkpt lat="31.20591255043513" lon="121.61279403783176">
        <ele>6.592369982972741</ele>
        <time>2020-05-11T23:28:03Z</time>
      </trkpt>
      <trkpt lat="31.205949783481493" lon="121.61268424772969">
        <ele>7.1157232923433185</ele>
        <time>2020-05-11T23:28:07Z</time>
      </trkpt>
      <trkpt lat="31.205799902256516" lon="121.61261269497005">
        <ele>6.649323218502104</ele>
        <time>2020-05-11T23:28:25Z</time>
      </trkpt>
      <trkpt lat="31.205732709717296" lon="121.61255062299917">
        <ele>7.145393229089677</ele>
        <time>2020-05-11T23:28:29Z</time>
      </trkpt>
      <trkpt lat="31.20580627200318" lon="121.61244326848787">
        <ele>9.597976688295603</ele>
        <time>2020-05-11T23:28:35Z</time>
      </trkpt>
      <trkpt lat="31.20588086535444" lon="121.61240368423891">
        <ele>6.85614226385951</ele>
        <time>2020-05-11T23:28:39Z</time>
      </trkpt>
      <trkpt lat="31.205935946004537" lon="121.61235244494509">
        <ele>8.164743715897202</ele>
        <time>2020-05-11T23:28:42Z</time>
      </trkpt>
      <trkpt lat="31.206112103556293" lon="121.61210736953116">
        <ele>6.996772630140185</ele>
        <time>2020-05-11T23:28:59Z</time>
      </trkpt>
      <trkpt lat="31.206217079293395" lon="121.61204745066985">
        <ele>8.936686319299042</ele>
        <time>2020-05-11T23:29:06Z</time>
      </trkpt>
      <trkpt lat="31.20628709255137" lon="121.61196910056316">
        <ele>8.485991528257728</ele>
        <time>2020-05-11T23:29:14Z</time>
      </trkpt>
      <trkpt lat="31.206385003101403" lon="121.61192924248779">
        <ele>8.743916478008032</ele>
        <time>2020-05-11T23:29:20Z</time>
      </trkpt>
      <trkpt lat="31.206480850872076" lon="121.61174977325697">
        <ele>8.08533506654203</ele>
        <time>2020-05-11T23:29:37Z</time>
      </trkpt>
      <trkpt lat="31.206536190529956" lon="121.61171290032472">
        <ele>8.458955037407577</ele>
        <time>2020-05-11T23:29:41Z</time>
      </trkpt>
      <trkpt lat="31.20658426718221" lon="121.61159958000157">
        <ele>7.338055033236742</ele>
        <time>2020-05-11T23:29:49Z</time>
      </trkpt>
      <trkpt lat="31.20656831116878" lon="121.611545091682">
        <ele>7.477428627200425</ele>
        <time>2020-05-11T23:29:55Z</time>
      </trkpt>
      <trkpt lat="31.206520630329425" lon="121.61149304569938">
        <ele>7.900140223093331</ele>
        <time>2020-05-11T23:30:03Z</time>
      </trkpt>
      <trkpt lat="31.20645883289499" lon="121.61146431486222">
        <ele>7.8661969397217035</ele>
        <time>2020-05-11T23:30:07Z</time>
      </trkpt>
      <trkpt lat="31.206414967814236" lon="121.61138542999782">
        <ele>7.237627458758652</ele>
        <time>2020-05-11T23:30:14Z</time>
      </trkpt>
      <trkpt lat="31.206359952694132" lon="121.6113512765589">
        <ele>7.733749584294856</ele>
        <time>2020-05-11T23:30:18Z</time>
      </trkpt>
      <trkpt lat="31.206274610138653" lon="121.61126344855607">
        <ele>7.423458801582456</ele>
        <time>2020-05-11T23:30:25Z</time>
      </trkpt>
      <trkpt lat="31.206069028588818" lon="121.61097718598455">
        <ele>7.703708115965128</ele>
        <time>2020-05-11T23:30:51Z</time>
      </trkpt>
      <trkpt lat="31.205879442093163" lon="121.61068929188134">
        <ele>6.280404805205762</ele>
        <time>2020-05-11T23:31:11Z</time>
      </trkpt>
      <trkpt lat="31.20584829767728" lon="121.6106388692054">
        <ele>7.472094267606735</ele>
        <time>2020-05-11T23:31:15Z</time>
      </trkpt>
      <trkpt lat="31.205797163694914" lon="121.61048380153086">
        <ele>7.7133011212572455</ele>
        <time>2020-05-11T23:31:22Z</time>
      </trkpt>
      <trkpt lat="31.205715359485094" lon="121.61037265470543">
        <ele>7.662834390997887</ele>
        <time>2020-05-11T23:31:33Z</time>
      </trkpt>
      <trkpt lat="31.205688022568093" lon="121.61030488011986">
        <ele>8.269539917819202</ele>
        <time>2020-05-11T23:31:40Z</time>
      </trkpt>
      <trkpt lat="31.205423783319954" lon="121.61013654340212">
        <ele>8.13240775000304</ele>
        <time>2020-05-11T23:32:01Z</time>
      </trkpt>
      <trkpt lat="31.205355777534635" lon="121.61006578925442">
        <ele>7.83758011739701</ele>
        <time>2020-05-11T23:32:08Z</time>
      </trkpt>
      <trkpt lat="31.205327347398757" lon="121.61000940051859">
        <ele>7.722650649957359</ele>
        <time>2020-05-11T23:32:12Z</time>
      </trkpt>
      <trkpt lat="31.205232756903516" lon="121.60995762601475">
        <ele>7.694674884900451</ele>
        <time>2020-05-11T23:32:18Z</time>
      </trkpt>
    </trkseg>
  </trk>
</gpx>