<?xml version="1.0" encoding="UTF-8"?>
<gpx xmlns="http://www.topografix.com/GPX/1/1" xmlns:gpxtpx="http://www.garmin.com/xmlschemas/TrackPointExtension/v1" xmlns:xsi="http://www.w3.org/2001/XMLSchema-instance" xsi:schemaLocation="http://www.topografix.com/GPX/1/1 http://www.topografix.com/GPX/1/1/gpx.xsd" version="1.1" creator="gpx.py -- https://github.com/tkrajina/gpxpy">
  <trk>
    <name>gpx from keep</name>
    <type>Run</type>
    <trkseg>
      <trkpt lat="31.204454037355656" lon="121.61075284778057">
        <ele>9.137308120727539</ele>
        <time>2018-09-12T22:00:52Z</time>
      </trkpt>
      <trkpt lat="31.204361282084868" lon="121.61116194537092">
        <ele>7.918544769287109</ele>
        <time>2018-09-12T22:01:07Z</time>
      </trkpt>
      <trkpt lat="31.204187831803697" lon="121.61105812909835">
        <ele>7.918178558349609</ele>
        <time>2018-09-12T22:01:14Z</time>
      </trkpt>
      <trkpt lat="31.20408426946636" lon="121.61104268502193">
        <ele>7.917934417724609</ele>
        <time>2018-09-12T22:01:18Z</time>
      </trkpt>
      <trkpt lat="31.204089767255695" lon="121.6113086311429">
        <ele>7.917263031005859</ele>
        <time>2018-09-12T22:01:40Z</time>
      </trkpt>
      <trkpt lat="31.204133640765264" lon="121.61137640137868">
        <ele>7.917263031005859</ele>
        <time>2018-09-12T22:01:44Z</time>
      </trkpt>
      <trkpt lat="31.204196019624323" lon="121.61171363598919">
        <ele>7.916957855224609</ele>
        <time>2018-09-12T22:01:57Z</time>
      </trkpt>
      <trkpt lat="31.204513570499273" lon="121.61164556577569">
        <ele>7.917324066162109</ele>
        <time>2018-09-12T22:02:01Z</time>
      </trkpt>
      <trkpt lat="31.204708802259237" lon="121.61162657319574">
        <ele>7.876308441162109</ele>
        <time>2018-09-12T22:02:09Z</time>
      </trkpt>
      <trkpt lat="31.20478006046028" lon="121.61169325586359">
        <ele>7.881984710693359</ele>
        <time>2018-09-12T22:02:13Z</time>
      </trkpt>
      <trkpt lat="31.205144297720018" lon="121.61226603457933">
        <ele>10.14840316772461</ele>
        <time>2018-09-12T22:02:24Z</time>
      </trkpt>
      <trkpt lat="31.205215819529815" lon="121.61234030572413">
        <ele>10.82809066772461</ele>
        <time>2018-09-12T22:02:27Z</time>
      </trkpt>
      <trkpt lat="31.205371901562945" lon="121.61245767177289">
        <ele>13.01852035522461</ele>
        <time>2018-09-12T22:02:34Z</time>
      </trkpt>
      <trkpt lat="31.205418755288935" lon="121.61252462514275">
        <ele>15.39724349975586</ele>
        <time>2018-09-12T22:02:37Z</time>
      </trkpt>
      <trkpt lat="31.205450121278684" lon="121.61263305492412">
        <ele>14.92977523803711</ele>
        <time>2018-09-12T22:02:41Z</time>
      </trkpt>
      <trkpt lat="31.205412872900602" lon="121.61276236295107">
        <ele>14.59188461303711</ele>
        <time>2018-09-12T22:02:44Z</time>
      </trkpt>
      <trkpt lat="31.205320605561127" lon="121.61286402490963">
        <ele>13.30556869506836</ele>
        <time>2018-09-12T22:02:48Z</time>
      </trkpt>
      <trkpt lat="31.20518447490344" lon="121.61288978852578">
        <ele>12.78042221069336</ele>
        <time>2018-09-12T22:02:55Z</time>
      </trkpt>
      <trkpt lat="31.205062070585033" lon="121.61304160145481">
        <ele>11.49880599975586</ele>
        <time>2018-09-12T22:03:02Z</time>
      </trkpt>
      <trkpt lat="31.204947104789053" lon="121.61337991082172">
        <ele>12.08700180053711</ele>
        <time>2018-09-12T22:03:06Z</time>
      </trkpt>
      <trkpt lat="31.204746539571047" lon="121.61361765604497">
        <ele>13.61874008178711</ele>
        <time>2018-09-12T22:03:17Z</time>
      </trkpt>
      <trkpt lat="31.204490057624913" lon="121.61392777805621">
        <ele>14.06106185913086</ele>
        <time>2018-09-12T22:03:32Z</time>
      </trkpt>
      <trkpt lat="31.204373333301035" lon="121.61408907104666">
        <ele>14.96737289428711</ele>
        <time>2018-09-12T22:03:40Z</time>
      </trkpt>
      <trkpt lat="31.204141617062604" lon="121.61428506831841">
        <ele>14.19491195678711</ele>
        <time>2018-09-12T22:03:52Z</time>
      </trkpt>
      <trkpt lat="31.20389008788873" lon="121.61450275032745">
        <ele>14.41646957397461</ele>
        <time>2018-09-12T22:04:05Z</time>
      </trkpt>
      <trkpt lat="31.203617362421916" lon="121.61477328802843">
        <ele>13.262094129916452</ele>
        <time>2018-09-12T22:04:20Z</time>
      </trkpt>
      <trkpt lat="31.203460830034405" lon="121.61487332032829">
        <ele>13.00969573312332</ele>
        <time>2018-09-12T22:04:28Z</time>
      </trkpt>
      <trkpt lat="31.203396772942153" lon="121.61495220238345">
        <ele>12.949485217649467</ele>
        <time>2018-09-12T22:04:32Z</time>
      </trkpt>
      <trkpt lat="31.203352175347685" lon="121.615101285146">
        <ele>13.268853210357285</ele>
        <time>2018-09-12T22:04:39Z</time>
      </trkpt>
      <trkpt lat="31.20338936682845" lon="121.61504924002578">
        <ele>12.931604322885413</ele>
        <time>2018-09-12T22:05:08Z</time>
      </trkpt>
      <trkpt lat="31.2034997689605" lon="121.61529832695153">
        <ele>12.458072413906056</ele>
        <time>2018-09-12T22:05:22Z</time>
      </trkpt>
      <trkpt lat="31.203466891900668" lon="121.61537639188697">
        <ele>12.421877068067015</ele>
        <time>2018-09-12T22:05:25Z</time>
      </trkpt>
      <trkpt lat="31.20340662414055" lon="121.61546096398743">
        <ele>12.234554385357718</ele>
        <time>2018-09-12T22:05:29Z</time>
      </trkpt>
      <trkpt lat="31.20319088881706" lon="121.61566399591034">
        <ele>12.124657269077918</ele>
        <time>2018-09-12T22:05:40Z</time>
      </trkpt>
      <trkpt lat="31.202933895216844" lon="121.61591554627013">
        <ele>12.349323245044001</ele>
        <time>2018-09-12T22:05:54Z</time>
      </trkpt>
      <trkpt lat="31.202739327872916" lon="121.61609390793022">
        <ele>12.339620353116928</ele>
        <time>2018-09-12T22:06:05Z</time>
      </trkpt>
      <trkpt lat="31.202548503487492" lon="121.6163281019298">
        <ele>12.768213789545339</ele>
        <time>2018-09-12T22:06:16Z</time>
      </trkpt>
      <trkpt lat="31.202394377730382" lon="121.61645821271718">
        <ele>13.220436730101671</ele>
        <time>2018-09-12T22:06:24Z</time>
      </trkpt>
      <trkpt lat="31.202175337758202" lon="121.61670785451372">
        <ele>12.733267646324624</ele>
        <time>2018-09-12T22:06:37Z</time>
      </trkpt>
      <trkpt lat="31.201924016633306" lon="121.61697213213458">
        <ele>12.093929043668044</ele>
        <time>2018-09-12T22:06:51Z</time>
      </trkpt>
      <trkpt lat="31.20169797782047" lon="121.617164311202">
        <ele>12.171960231392543</ele>
        <time>2018-09-12T22:07:03Z</time>
      </trkpt>
      <trkpt lat="31.201462648393914" lon="121.61742966672419">
        <ele>12.39091954608989</ele>
        <time>2018-09-12T22:07:17Z</time>
      </trkpt>
      <trkpt lat="31.20125125996929" lon="121.61760937392282">
        <ele>12.333744579553404</ele>
        <time>2018-09-12T22:07:28Z</time>
      </trkpt>
      <trkpt lat="31.20102808346492" lon="121.61791944217504">
        <ele>12.069667352533376</ele>
        <time>2018-09-12T22:07:42Z</time>
      </trkpt>
      <trkpt lat="31.200779430481905" lon="121.6182159578137">
        <ele>10.968707376174955</ele>
        <time>2018-09-12T22:07:57Z</time>
      </trkpt>
      <trkpt lat="31.200546207031753" lon="121.61853442084066">
        <ele>8.920877820787847</ele>
        <time>2018-09-12T22:08:12Z</time>
      </trkpt>
      <trkpt lat="31.20031818072733" lon="121.61880463945032">
        <ele>8.047316720400925</ele>
        <time>2018-09-12T22:08:26Z</time>
      </trkpt>
      <trkpt lat="31.200074967854473" lon="121.61907539845473">
        <ele>8.00264702462498</ele>
        <time>2018-09-12T22:08:41Z</time>
      </trkpt>
      <trkpt lat="31.19983502490142" lon="121.61932799693075">
        <ele>7.097468692737195</ele>
        <time>2018-09-12T22:08:55Z</time>
      </trkpt>
      <trkpt lat="31.199588025219843" lon="121.61958547155113">
        <ele>7.092698714841951</ele>
        <time>2018-09-12T22:09:09Z</time>
      </trkpt>
      <trkpt lat="31.19932094854938" lon="121.6198532432618">
        <ele>7.0698868183375865</ele>
        <time>2018-09-12T22:09:23Z</time>
      </trkpt>
      <trkpt lat="31.199190939504557" lon="121.6199819788038">
        <ele>7.209190200870033</ele>
        <time>2018-09-12T22:09:30Z</time>
      </trkpt>
      <trkpt lat="31.198943482796487" lon="121.62015408298986">
        <ele>7.373004824201928</ele>
        <time>2018-09-12T22:09:44Z</time>
      </trkpt>
      <trkpt lat="31.198813181664907" lon="121.62030124476249">
        <ele>7.29055209800876</ele>
        <time>2018-09-12T22:09:52Z</time>
      </trkpt>
      <trkpt lat="31.198639002017263" lon="121.6204055922452">
        <ele>7.156619180908066</ele>
        <time>2018-09-12T22:10:00Z</time>
      </trkpt>
      <trkpt lat="31.19840852380628" lon="121.62067091352645">
        <ele>7.216696869366281</ele>
        <time>2018-09-12T22:10:13Z</time>
      </trkpt>
      <trkpt lat="31.198144168354833" lon="121.62092078854347">
        <ele>7.056451219658598</ele>
        <time>2018-09-12T22:10:28Z</time>
      </trkpt>
      <trkpt lat="31.197873872970117" lon="121.621146001888">
        <ele>7.056236889889803</ele>
        <time>2018-09-12T22:10:44Z</time>
      </trkpt>
      <trkpt lat="31.197597039408322" lon="121.62139777031318">
        <ele>7.233639568105865</ele>
        <time>2018-09-12T22:11:00Z</time>
      </trkpt>
      <trkpt lat="31.19735822762215" lon="121.62159100110176">
        <ele>7.473314495994135</ele>
        <time>2018-09-12T22:11:14Z</time>
      </trkpt>
      <trkpt lat="31.19710746597876" lon="121.62180103224323">
        <ele>7.308493626528669</ele>
        <time>2018-09-12T22:11:28Z</time>
      </trkpt>
      <trkpt lat="31.196843941349222" lon="121.62202732145728">
        <ele>7.160183545354904</ele>
        <time>2018-09-12T22:11:43Z</time>
      </trkpt>
      <trkpt lat="31.196675122906957" lon="121.62218097938917">
        <ele>7.922604267810655</ele>
        <time>2018-09-12T22:11:53Z</time>
      </trkpt>
      <trkpt lat="31.19664057816692" lon="121.6222788044872">
        <ele>8.36108681391486</ele>
        <time>2018-09-12T22:11:57Z</time>
      </trkpt>
      <trkpt lat="31.19668604382051" lon="121.62259123335866">
        <ele>8.381136806366552</ele>
        <time>2018-09-12T22:12:07Z</time>
      </trkpt>
      <trkpt lat="31.196749858195943" lon="121.62297736055372">
        <ele>7.655268114374149</ele>
        <time>2018-09-12T22:12:20Z</time>
      </trkpt>
      <trkpt lat="31.196778016980048" lon="121.62324453158688">
        <ele>7.393308517520296</ele>
        <time>2018-09-12T22:12:31Z</time>
      </trkpt>
      <trkpt lat="31.196850244619167" lon="121.6236168297739">
        <ele>7.13351338999302</ele>
        <time>2018-09-12T22:12:45Z</time>
      </trkpt>
      <trkpt lat="31.196890428907206" lon="121.62379864127668">
        <ele>7.265802042686978</ele>
        <time>2018-09-12T22:12:52Z</time>
      </trkpt>
      <trkpt lat="31.196941635080506" lon="121.6240590284706">
        <ele>7.295668229383651</ele>
        <time>2018-09-12T22:13:02Z</time>
      </trkpt>
      <trkpt lat="31.196974541908368" lon="121.6239752997362">
        <ele>7.866070781667897</ele>
        <time>2018-09-12T22:13:10Z</time>
      </trkpt>
      <trkpt lat="31.196951936947634" lon="121.62360218940991">
        <ele>8.11019057942659</ele>
        <time>2018-09-12T22:13:25Z</time>
      </trkpt>
      <trkpt lat="31.19686446593833" lon="121.62328110475903">
        <ele>8.219010178944743</ele>
        <time>2018-09-12T22:13:38Z</time>
      </trkpt>
      <trkpt lat="31.196829338248666" lon="121.62294456679959">
        <ele>7.557860521519025</ele>
        <time>2018-09-12T22:13:49Z</time>
      </trkpt>
      <trkpt lat="31.19685413211836" lon="121.62283997068309">
        <ele>7.267357002130648</ele>
        <time>2018-09-12T22:13:53Z</time>
      </trkpt>
      <trkpt lat="31.197047734181776" lon="121.62259282925575">
        <ele>7.328261994794051</ele>
        <time>2018-09-12T22:14:07Z</time>
      </trkpt>
      <trkpt lat="31.19712101554678" lon="121.62252697689601">
        <ele>7.709223494797012</ele>
        <time>2018-09-12T22:14:11Z</time>
      </trkpt>
      <trkpt lat="31.197427329847216" lon="121.62234756699566">
        <ele>8.197338723242272</ele>
        <time>2018-09-12T22:14:25Z</time>
      </trkpt>
      <trkpt lat="31.19759591394988" lon="121.62216220581772">
        <ele>8.942822751323597</ele>
        <time>2018-09-12T22:14:35Z</time>
      </trkpt>
      <trkpt lat="31.19774543188934" lon="121.62205298972682">
        <ele>9.398114643023884</ele>
        <time>2018-09-12T22:14:43Z</time>
      </trkpt>
      <trkpt lat="31.197801383630225" lon="121.62196573019341">
        <ele>10.22919595473692</ele>
        <time>2018-09-12T22:14:47Z</time>
      </trkpt>
      <trkpt lat="31.19791997371755" lon="121.62187250364605">
        <ele>10.580172736763295</ele>
        <time>2018-09-12T22:14:54Z</time>
      </trkpt>
      <trkpt lat="31.19807569796445" lon="121.62178902898863">
        <ele>10.634315227859439</ele>
        <time>2018-09-12T22:15:02Z</time>
      </trkpt>
      <trkpt lat="31.198301810611678" lon="121.62155732119878">
        <ele>9.652417782701452</ele>
        <time>2018-09-12T22:15:16Z</time>
      </trkpt>
      <trkpt lat="31.198416948772714" lon="121.62139716049401">
        <ele>9.565708142948068</ele>
        <time>2018-09-12T22:15:24Z</time>
      </trkpt>
      <trkpt lat="31.19845960920168" lon="121.62131342271394">
        <ele>10.215952067611642</ele>
        <time>2018-09-12T22:15:28Z</time>
      </trkpt>
      <trkpt lat="31.198660978866553" lon="121.62114214293847">
        <ele>10.205885041033454</ele>
        <time>2018-09-12T22:15:39Z</time>
      </trkpt>
      <trkpt lat="31.198826746175797" lon="121.62104674168874">
        <ele>10.368086725631358</ele>
        <time>2018-09-12T22:15:47Z</time>
      </trkpt>
      <trkpt lat="31.199071318567935" lon="121.6207890107893">
        <ele>9.920020265849896</ele>
        <time>2018-09-12T22:16:02Z</time>
      </trkpt>
      <trkpt lat="31.19912018113961" lon="121.62073507958883">
        <ele>9.92901136404684</ele>
        <time>2018-09-12T22:16:05Z</time>
      </trkpt>
      <trkpt lat="31.199289165402988" lon="121.62067246660533">
        <ele>10.282096749224063</ele>
        <time>2018-09-12T22:16:13Z</time>
      </trkpt>
      <trkpt lat="31.199356956844063" lon="121.6206651442196">
        <ele>10.285110541336635</ele>
        <time>2018-09-12T22:16:16Z</time>
      </trkpt>
      <trkpt lat="31.199650242547104" lon="121.62074045554593">
        <ele>10.417650435109962</ele>
        <time>2018-09-12T22:16:30Z</time>
      </trkpt>
      <trkpt lat="31.1999617417439" lon="121.62077186470133">
        <ele>10.283185514588464</ele>
        <time>2018-09-12T22:16:44Z</time>
      </trkpt>
      <trkpt lat="31.200265334843166" lon="121.6208431100176">
        <ele>10.262758722157638</ele>
        <time>2018-09-12T22:16:58Z</time>
      </trkpt>
      <trkpt lat="31.200586304634857" lon="121.62089213258086">
        <ele>10.17352373363423</ele>
        <time>2018-09-12T22:17:12Z</time>
      </trkpt>
      <trkpt lat="31.200903476185314" lon="121.62094332327692">
        <ele>9.846068552557142</ele>
        <time>2018-09-12T22:17:27Z</time>
      </trkpt>
      <trkpt lat="31.20124586087932" lon="121.62099667969225">
        <ele>9.889923307929884</ele>
        <time>2018-09-12T22:17:43Z</time>
      </trkpt>
      <trkpt lat="31.20154080560272" lon="121.62104218127844">
        <ele>10.031979272260251</ele>
        <time>2018-09-12T22:17:56Z</time>
      </trkpt>
      <trkpt lat="31.20183086693766" lon="121.62109039306281">
        <ele>10.39223280984011</ele>
        <time>2018-09-12T22:18:10Z</time>
      </trkpt>
      <trkpt lat="31.202152646873216" lon="121.6211423959485">
        <ele>10.395127498884069</ele>
        <time>2018-09-12T22:18:24Z</time>
      </trkpt>
      <trkpt lat="31.20244407606444" lon="121.62117949699393">
        <ele>10.533273872108424</ele>
        <time>2018-09-12T22:18:38Z</time>
      </trkpt>
      <trkpt lat="31.202443828122526" lon="121.62115836006551">
        <ele>9.552012301898788</ele>
        <time>2018-09-12T22:19:30Z</time>
      </trkpt>
      <trkpt lat="31.202439504527376" lon="121.62114508207496">
        <ele>9.313158162612538</ele>
        <time>2018-09-12T22:19:35Z</time>
      </trkpt>
      <trkpt lat="31.202427041534683" lon="121.62113668251523">
        <ele>8.624566026046345</ele>
        <time>2018-09-12T22:20:26Z</time>
      </trkpt>
      <trkpt lat="31.202428969765162" lon="121.62110904168173">
        <ele>8.566139918000928</ele>
        <time>2018-09-12T22:20:28Z</time>
      </trkpt>
      <trkpt lat="31.20240113171556" lon="121.62077870858269">
        <ele>8.860672860083106</ele>
        <time>2018-09-12T22:20:49Z</time>
      </trkpt>
      <trkpt lat="31.202422099788812" lon="121.62044321838786">
        <ele>7.850089072368924</ele>
        <time>2018-09-12T22:21:10Z</time>
      </trkpt>
      <trkpt lat="31.20243815048699" lon="121.62039308311438">
        <ele>8.136525206371367</ele>
        <time>2018-09-12T22:21:14Z</time>
      </trkpt>
      <trkpt lat="31.20269115645216" lon="121.62035837485004">
        <ele>8.289246083094561</ele>
        <time>2018-09-12T22:21:39Z</time>
      </trkpt>
      <trkpt lat="31.20289596551398" lon="121.62026269651803">
        <ele>7.91659835993871</ele>
        <time>2018-09-12T22:21:53Z</time>
      </trkpt>
      <trkpt lat="31.20291175401122" lon="121.62020388903053">
        <ele>8.025759216207952</ele>
        <time>2018-09-12T22:21:56Z</time>
      </trkpt>
      <trkpt lat="31.20283659534377" lon="121.61999956305812">
        <ele>7.4344896082812575</ele>
        <time>2018-09-12T22:22:04Z</time>
      </trkpt>
      <trkpt lat="31.202829912000574" lon="121.61990959189504">
        <ele>7.189671819013018</ele>
        <time>2018-09-12T22:22:07Z</time>
      </trkpt>
      <trkpt lat="31.202797224497854" lon="121.61979577450938">
        <ele>7.184643590238444</ele>
        <time>2018-09-12T22:22:11Z</time>
      </trkpt>
      <trkpt lat="31.20275066694019" lon="121.61972179503334">
        <ele>7.306311479733139</ele>
        <time>2018-09-12T22:22:14Z</time>
      </trkpt>
      <trkpt lat="31.20261740923049" lon="121.61932641168899">
        <ele>6.85515826494678</ele>
        <time>2018-09-12T22:22:28Z</time>
      </trkpt>
      <trkpt lat="31.202526412460625" lon="121.61896110081972">
        <ele>6.4938718673621985</ele>
        <time>2018-09-12T22:22:42Z</time>
      </trkpt>
      <trkpt lat="31.202456726871596" lon="121.61869849686754">
        <ele>6.475606135725229</ele>
        <time>2018-09-12T22:22:52Z</time>
      </trkpt>
      <trkpt lat="31.202483901509577" lon="121.61863805876737">
        <ele>6.5894320464892715</ele>
        <time>2018-09-12T22:22:55Z</time>
      </trkpt>
      <trkpt lat="31.202572568908412" lon="121.61863181812909">
        <ele>6.775343576127177</ele>
        <time>2018-09-12T22:22:59Z</time>
      </trkpt>
      <trkpt lat="31.20273964737229" lon="121.61857299437757">
        <ele>6.551165562196559</ele>
        <time>2018-09-12T22:23:07Z</time>
      </trkpt>
      <trkpt lat="31.202809644153422" lon="121.61852935532544">
        <ele>6.448202871495592</ele>
        <time>2018-09-12T22:23:10Z</time>
      </trkpt>
      <trkpt lat="31.20284227734184" lon="121.61843287135846">
        <ele>6.186699169743541</ele>
        <time>2018-09-12T22:23:14Z</time>
      </trkpt>
      <trkpt lat="31.202815247506198" lon="121.61834940073989">
        <ele>6.418094236356588</ele>
        <time>2018-09-12T22:23:17Z</time>
      </trkpt>
      <trkpt lat="31.20275841097033" lon="121.61824750314017">
        <ele>6.353186697474843</ele>
        <time>2018-09-12T22:23:21Z</time>
      </trkpt>
      <trkpt lat="31.202730687650682" lon="121.61804261551168">
        <ele>6.592969584331843</ele>
        <time>2018-09-12T22:23:29Z</time>
      </trkpt>
      <trkpt lat="31.20265006357275" lon="121.61786618785082">
        <ele>6.467079241573501</ele>
        <time>2018-09-12T22:23:35Z</time>
      </trkpt>
      <trkpt lat="31.20250443404242" lon="121.6176201112235">
        <ele>6.851030656351835</ele>
        <time>2018-09-12T22:23:46Z</time>
      </trkpt>
      <trkpt lat="31.202461419888863" lon="121.61752119078604">
        <ele>6.815698133737701</ele>
        <time>2018-09-12T22:23:50Z</time>
      </trkpt>
      <trkpt lat="31.202443349008558" lon="121.61742308097031">
        <ele>7.032732002436887</ele>
        <time>2018-09-12T22:23:54Z</time>
      </trkpt>
      <trkpt lat="31.202408702196944" lon="121.61736264490789">
        <ele>7.015182655231786</ele>
        <time>2018-09-12T22:23:57Z</time>
      </trkpt>
      <trkpt lat="31.202389533702533" lon="121.61727754389611">
        <ele>6.6091361428935755</ele>
        <time>2018-09-12T22:24:01Z</time>
      </trkpt>
      <trkpt lat="31.202424046004932" lon="121.6171962325541">
        <ele>6.348175772640641</ele>
        <time>2018-09-12T22:24:05Z</time>
      </trkpt>
      <trkpt lat="31.20271108561401" lon="121.61700919827584">
        <ele>5.949115878081187</ele>
        <time>2018-09-12T22:24:19Z</time>
      </trkpt>
      <trkpt lat="31.20297536127849" lon="121.61680888385155">
        <ele>6.186550763333216</ele>
        <time>2018-09-12T22:24:33Z</time>
      </trkpt>
      <trkpt lat="31.2030348135889" lon="121.61673082130953">
        <ele>5.919137645111093</ele>
        <time>2018-09-12T22:24:37Z</time>
      </trkpt>
      <trkpt lat="31.20310508838272" lon="121.61667687970176">
        <ele>5.991387042282259</ele>
        <time>2018-09-12T22:24:41Z</time>
      </trkpt>
      <trkpt lat="31.20318917134504" lon="121.61664380652245">
        <ele>6.123567231138367</ele>
        <time>2018-09-12T22:24:45Z</time>
      </trkpt>
      <trkpt lat="31.203399755454807" lon="121.61644810119259">
        <ele>5.966812709601626</ele>
        <time>2018-09-12T22:24:57Z</time>
      </trkpt>
      <trkpt lat="31.203658295475176" lon="121.61628870955025">
        <ele>5.677439687426862</ele>
        <time>2018-09-12T22:25:12Z</time>
      </trkpt>
      <trkpt lat="31.203844686684604" lon="121.61615751103268">
        <ele>5.849329113258602</ele>
        <time>2018-09-12T22:25:22Z</time>
      </trkpt>
      <trkpt lat="31.203943764803522" lon="121.61603390819668">
        <ele>6.151562170113959</ele>
        <time>2018-09-12T22:25:29Z</time>
      </trkpt>
      <trkpt lat="31.20401944634319" lon="121.61599595608793">
        <ele>6.119400618995307</ele>
        <time>2018-09-12T22:25:33Z</time>
      </trkpt>
      <trkpt lat="31.204081250997504" lon="121.61601140036439">
        <ele>6.038998565571095</ele>
        <time>2018-09-12T22:25:36Z</time>
      </trkpt>
      <trkpt lat="31.20421686358054" lon="121.61596233052914">
        <ele>5.903887825240265</ele>
        <time>2018-09-12T22:25:43Z</time>
      </trkpt>
      <trkpt lat="31.20432123078601" lon="121.61598400527598">
        <ele>6.020076384177603</ele>
        <time>2018-09-12T22:25:47Z</time>
      </trkpt>
      <trkpt lat="31.204547916242237" lon="121.61626044792001">
        <ele>6.010000448437118</ele>
        <time>2018-09-12T22:26:01Z</time>
      </trkpt>
      <trkpt lat="31.204638892065752" lon="121.61639568850428">
        <ele>6.250039866398094</ele>
        <time>2018-09-12T22:26:08Z</time>
      </trkpt>
      <trkpt lat="31.20471339792229" lon="121.61645612363932">
        <ele>6.050965100031757</ele>
        <time>2018-09-12T22:26:12Z</time>
      </trkpt>
      <trkpt lat="31.20477900635221" lon="121.61646289413319">
        <ele>6.550159901578699</ele>
        <time>2018-09-12T22:26:15Z</time>
      </trkpt>
      <trkpt lat="31.2048616512065" lon="121.61651790770566">
        <ele>6.333271207849897</ele>
        <time>2018-09-12T22:26:19Z</time>
      </trkpt>
      <trkpt lat="31.20498920000161" lon="121.61668404177763">
        <ele>6.149657145601818</ele>
        <time>2018-09-12T22:26:28Z</time>
      </trkpt>
      <trkpt lat="31.205064813067633" lon="121.61671981203172">
        <ele>6.181596566249382</ele>
        <time>2018-09-12T22:26:32Z</time>
      </trkpt>
      <trkpt lat="31.205153219574584" lon="121.6167024585388">
        <ele>6.23817568797601</ele>
        <time>2018-09-12T22:26:36Z</time>
      </trkpt>
      <trkpt lat="31.205168464388695" lon="121.61663740899492">
        <ele>6.263134486588402</ele>
        <time>2018-09-12T22:26:39Z</time>
      </trkpt>
      <trkpt lat="31.205124095064402" lon="121.6165341481622">
        <ele>5.869902549709156</ele>
        <time>2018-09-12T22:26:43Z</time>
      </trkpt>
      <trkpt lat="31.20489138992379" lon="121.61631950594914">
        <ele>6.783415115470664</ele>
        <time>2018-09-12T22:26:56Z</time>
      </trkpt>
      <trkpt lat="31.204801177487145" lon="121.61623793071982">
        <ele>7.367713020737568</ele>
        <time>2018-09-12T22:27:03Z</time>
      </trkpt>
      <trkpt lat="31.204988435748675" lon="121.61634172305946">
        <ele>7.175005731851751</ele>
        <time>2018-09-12T22:27:17Z</time>
      </trkpt>
      <trkpt lat="31.205097554481814" lon="121.61650135497831">
        <ele>6.880714188076087</ele>
        <time>2018-09-12T22:27:29Z</time>
      </trkpt>
      <trkpt lat="31.205141994825603" lon="121.61652899699676">
        <ele>6.49245592394761</ele>
        <time>2018-09-12T22:27:36Z</time>
      </trkpt>
      <trkpt lat="31.20493722212377" lon="121.61630838958148">
        <ele>7.137475229869246</ele>
        <time>2018-09-12T22:27:50Z</time>
      </trkpt>
      <trkpt lat="31.204682023264766" lon="121.61608046623697">
        <ele>7.949944812955657</ele>
        <time>2018-09-12T22:28:05Z</time>
      </trkpt>
      <trkpt lat="31.204560675272347" lon="121.61594902101191">
        <ele>8.251081172524053</ele>
        <time>2018-09-12T22:28:15Z</time>
      </trkpt>
      <trkpt lat="31.204548486336353" lon="121.61593574093347">
        <ele>8.251081172524053</ele>
        <time>2018-09-12T22:28:16Z</time>
      </trkpt>
      <trkpt lat="31.20431117794376" lon="121.6157094388869">
        <ele>8.8885047634562</ele>
        <time>2018-09-12T22:28:38Z</time>
      </trkpt>
      <trkpt lat="31.204094188509103" lon="121.6154991248551">
        <ele>9.47397997049201</ele>
        <time>2018-09-12T22:28:59Z</time>
      </trkpt>
      <trkpt lat="31.20389021392488" lon="121.61528663951556">
        <ele>8.688080603451112</ele>
        <time>2018-09-12T22:29:13Z</time>
      </trkpt>
      <trkpt lat="31.203788932949074" lon="121.61514759887567">
        <ele>7.7421667314871385</ele>
        <time>2018-09-12T22:29:20Z</time>
      </trkpt>
      <trkpt lat="31.20377899250628" lon="121.61504405780275">
        <ele>6.951133379431504</ele>
        <time>2018-09-12T22:29:24Z</time>
      </trkpt>
      <trkpt lat="31.203840400896834" lon="121.61489416013217">
        <ele>7.077869516062169</ele>
        <time>2018-09-12T22:29:30Z</time>
      </trkpt>
      <trkpt lat="31.20389849168674" lon="121.61481663365599">
        <ele>7.219457347194751</ele>
        <time>2018-09-12T22:29:34Z</time>
      </trkpt>
      <trkpt lat="31.203983121130996" lon="121.61477623939285">
        <ele>7.313547745904476</ele>
        <time>2018-09-12T22:29:38Z</time>
      </trkpt>
      <trkpt lat="31.204052810915464" lon="121.61476701773411">
        <ele>7.344100696117369</ele>
        <time>2018-09-12T22:29:41Z</time>
      </trkpt>
      <trkpt lat="31.20412707025951" lon="121.61480333304202">
        <ele>7.526178480657222</ele>
        <time>2018-09-12T22:29:45Z</time>
      </trkpt>
      <trkpt lat="31.204160724858276" lon="121.6147645693072">
        <ele>7.369938658680958</ele>
        <time>2018-09-12T22:29:52Z</time>
      </trkpt>
      <trkpt lat="31.20413831309166" lon="121.61465831704137">
        <ele>7.44586984325155</ele>
        <time>2018-09-12T22:29:56Z</time>
      </trkpt>
      <trkpt lat="31.204216244825858" lon="121.61452440804854">
        <ele>7.465296739555406</ele>
        <time>2018-09-12T22:30:02Z</time>
      </trkpt>
      <trkpt lat="31.204431446053682" lon="121.61430212120443">
        <ele>7.580042932331999</ele>
        <time>2018-09-12T22:30:15Z</time>
      </trkpt>
      <trkpt lat="31.204498746158045" lon="121.61423353708697">
        <ele>6.933507335415236</ele>
        <time>2018-09-12T22:30:19Z</time>
      </trkpt>
      <trkpt lat="31.204710845258685" lon="121.61414976128427">
        <ele>7.454243127941876</ele>
        <time>2018-09-12T22:30:30Z</time>
      </trkpt>
      <trkpt lat="31.204931525848824" lon="121.61385645125296">
        <ele>7.578231570855955</ele>
        <time>2018-09-12T22:30:44Z</time>
      </trkpt>
      <trkpt lat="31.205180355548936" lon="121.61361843337798">
        <ele>7.477890869412981</ele>
        <time>2018-09-12T22:30:59Z</time>
      </trkpt>
      <trkpt lat="31.205304103416694" lon="121.61348532793683">
        <ele>7.627072604058185</ele>
        <time>2018-09-12T22:31:07Z</time>
      </trkpt>
      <trkpt lat="31.205395868640704" lon="121.6133375864969">
        <ele>7.456109453571042</ele>
        <time>2018-09-12T22:31:14Z</time>
      </trkpt>
      <trkpt lat="31.20546178806905" lon="121.6132966491172">
        <ele>7.390729328730387</ele>
        <time>2018-09-12T22:31:18Z</time>
      </trkpt>
      <trkpt lat="31.205596155070985" lon="121.61310634426113">
        <ele>7.706636708916925</ele>
        <time>2018-09-12T22:31:36Z</time>
      </trkpt>
      <trkpt lat="31.205727692472948" lon="121.61306106384698">
        <ele>8.074849907102113</ele>
        <time>2018-09-12T22:31:47Z</time>
      </trkpt>
      <trkpt lat="31.205818062211343" lon="121.61295994505589">
        <ele>7.96787067297722</ele>
        <time>2018-09-12T22:31:54Z</time>
      </trkpt>
      <trkpt lat="31.205864769179257" lon="121.61287075685291">
        <ele>7.799200509631103</ele>
        <time>2018-09-12T22:31:58Z</time>
      </trkpt>
      <trkpt lat="31.205916058951125" lon="121.61281436841517">
        <ele>7.749347766029533</ele>
        <time>2018-09-12T22:32:01Z</time>
      </trkpt>
      <trkpt lat="31.205977588958042" lon="121.61283659172875">
        <ele>7.73047381410673</ele>
        <time>2018-09-12T22:32:07Z</time>
      </trkpt>
      <trkpt lat="31.20597839107937" lon="121.6128506877109">
        <ele>7.405885781789586</ele>
        <time>2018-09-12T22:32:17Z</time>
      </trkpt>
      <trkpt lat="31.2059726737678" lon="121.61287996456487">
        <ele>7.413585712294061</ele>
        <time>2018-09-12T22:32:23Z</time>
      </trkpt>
      <trkpt lat="31.20597131569804" lon="121.61288294652876">
        <ele>7.409948993996473</ele>
        <time>2018-09-12T22:32:31Z</time>
      </trkpt>
      <trkpt lat="31.205967828725978" lon="121.61283577930199">
        <ele>7.474339578266225</ele>
        <time>2018-09-12T22:32:34Z</time>
      </trkpt>
      <trkpt lat="31.205918031076774" lon="121.61272138824569">
        <ele>7.452585417539975</ele>
        <time>2018-09-12T22:32:42Z</time>
      </trkpt>
      <trkpt lat="31.205750044620107" lon="121.61257312129989">
        <ele>7.490431329563091</ele>
        <time>2018-09-12T22:32:55Z</time>
      </trkpt>
      <trkpt lat="31.205692319289373" lon="121.61253951200437">
        <ele>7.639391493914665</ele>
        <time>2018-09-12T22:33:01Z</time>
      </trkpt>
      <trkpt lat="31.205573795570828" lon="121.61258696100037">
        <ele>7.622832171999725</ele>
        <time>2018-09-12T22:33:13Z</time>
      </trkpt>
      <trkpt lat="31.20553124807537" lon="121.61256066966193">
        <ele>7.201605591336591</ele>
        <time>2018-09-12T22:33:17Z</time>
      </trkpt>
      <trkpt lat="31.205440764227756" lon="121.61246498530129">
        <ele>6.969635489651338</ele>
        <time>2018-09-12T22:33:26Z</time>
      </trkpt>
      <trkpt lat="31.205398427392353" lon="121.61251541004842">
        <ele>7.490443688922273</ele>
        <time>2018-09-12T22:33:41Z</time>
      </trkpt>
      <trkpt lat="31.205362564481323" lon="121.61260785168177">
        <ele>7.42433658777669</ele>
        <time>2018-09-12T22:33:49Z</time>
      </trkpt>
      <trkpt lat="31.205403198281026" lon="121.61265393197822">
        <ele>7.4907084283238845</ele>
        <time>2018-09-12T22:33:55Z</time>
      </trkpt>
      <trkpt lat="31.205397996514556" lon="121.61271709397734">
        <ele>7.251752699257903</ele>
        <time>2018-09-12T22:34:03Z</time>
      </trkpt>
      <trkpt lat="31.20538229932399" lon="121.61268104169677">
        <ele>7.339024984518296</ele>
        <time>2018-09-12T22:34:10Z</time>
      </trkpt>
      <trkpt lat="31.20538229932399" lon="121.61268104169677">
        <ele>7.157524245806272</ele>
        <time>2018-09-12T22:34:11Z</time>
      </trkpt>
      <trkpt lat="31.205365483322378" lon="121.6126880911596">
        <ele>7.086248315886664</ele>
        <time>2018-09-12T22:34:19Z</time>
      </trkpt>
      <trkpt lat="31.205397194969457" lon="121.61270218467581">
        <ele>7.126821132894722</ele>
        <time>2018-09-12T22:34:22Z</time>
      </trkpt>
      <trkpt lat="31.20525053286027" lon="121.6126742755974">
        <ele>6.90534023735259</ele>
        <time>2018-09-12T22:34:33Z</time>
      </trkpt>
      <trkpt lat="31.205019739586028" lon="121.61240294219174">
        <ele>6.317257481866022</ele>
        <time>2018-09-12T22:34:54Z</time>
      </trkpt>
      <trkpt lat="31.204858038775818" lon="121.61218879901095">
        <ele>5.732723648801517</ele>
        <time>2018-09-12T22:35:09Z</time>
      </trkpt>
      <trkpt lat="31.204851845090637" lon="121.61213404018858">
        <ele>6.109561852873771</ele>
        <time>2018-09-12T22:35:13Z</time>
      </trkpt>
      <trkpt lat="31.204664734478545" lon="121.61181634052504">
        <ele>5.720216896580716</ele>
        <time>2018-09-12T22:35:41Z</time>
      </trkpt>
      <trkpt lat="31.20469866722613" lon="121.61176266186409">
        <ele>5.537570971184998</ele>
        <time>2018-09-12T22:35:53Z</time>
      </trkpt>
      <trkpt lat="31.204834258160304" lon="121.61173201740758">
        <ele>5.778473704418836</ele>
        <time>2018-09-12T22:36:04Z</time>
      </trkpt>
      <trkpt lat="31.20493222169417" lon="121.61162140397381">
        <ele>5.642533742090791</ele>
        <time>2018-09-12T22:36:17Z</time>
      </trkpt>
      <trkpt lat="31.205000628161496" lon="121.61151458776023">
        <ele>5.609836262223684</ele>
        <time>2018-09-12T22:36:24Z</time>
      </trkpt>
      <trkpt lat="31.205039767136107" lon="121.61138689917027">
        <ele>5.609439170651253</ele>
        <time>2018-09-12T22:36:31Z</time>
      </trkpt>
      <trkpt lat="31.20507261568121" lon="121.61133159302332">
        <ele>5.5147543931769185</ele>
        <time>2018-09-12T22:36:35Z</time>
      </trkpt>
      <trkpt lat="31.205120632217604" lon="121.61129715988935">
        <ele>5.5931526777988125</ele>
        <time>2018-09-12T22:36:39Z</time>
      </trkpt>
      <trkpt lat="31.205305587773054" lon="121.61124156985395">
        <ele>5.28225284769794</ele>
        <time>2018-09-12T22:36:56Z</time>
      </trkpt>
      <trkpt lat="31.20534367967205" lon="121.61106101562905">
        <ele>5.471654159487773</ele>
        <time>2018-09-12T22:37:07Z</time>
      </trkpt>
      <trkpt lat="31.205413987743267" lon="121.61094606364406">
        <ele>5.548776013835191</ele>
        <time>2018-09-12T22:37:14Z</time>
      </trkpt>
      <trkpt lat="31.205638932354688" lon="121.61070666236286">
        <ele>5.534489471641159</ele>
        <time>2018-09-12T22:37:32Z</time>
      </trkpt>
      <trkpt lat="31.20570162982299" lon="121.6106158374961">
        <ele>5.7441418817894</ele>
        <time>2018-09-12T22:37:40Z</time>
      </trkpt>
      <trkpt lat="31.20569001882686" lon="121.61054887565113">
        <ele>5.80807793635006</ele>
        <time>2018-09-12T22:37:43Z</time>
      </trkpt>
      <trkpt lat="31.205607442167732" lon="121.61038025462098">
        <ele>5.649213535012969</ele>
        <time>2018-09-12T22:37:54Z</time>
      </trkpt>
      <trkpt lat="31.205424579517597" lon="121.610161214315">
        <ele>5.658200174135597</ele>
        <time>2018-09-12T22:38:19Z</time>
      </trkpt>
      <trkpt lat="31.205416949249113" lon="121.610216250109">
        <ele>5.189968356093161</ele>
        <time>2018-09-12T22:38:29Z</time>
      </trkpt>
      <trkpt lat="31.20544050401586" lon="121.61026477659374">
        <ele>4.837224714882957</ele>
        <time>2018-09-12T22:38:50Z</time>
      </trkpt>
      <trkpt lat="31.205394955724035" lon="121.61026125595137">
        <ele>5.5760908126831055</ele>
        <time>2018-09-12T22:39:35Z</time>
      </trkpt>
      <trkpt lat="31.205524764775127" lon="121.6103534218582">
        <ele>6.455564975738525</ele>
        <time>2018-09-12T22:39:41Z</time>
      </trkpt>
      <trkpt lat="31.205586605845554" lon="121.61032196828803">
        <ele>6.793832302093506</ele>
        <time>2018-09-12T22:39:47Z</time>
      </trkpt>
      <trkpt lat="31.20551370737148" lon="121.61026937938225">
        <ele>7.328678131103516</ele>
        <time>2018-09-12T22:39:53Z</time>
      </trkpt>
      <trkpt lat="31.205452678440437" lon="121.61030273071302">
        <ele>8.26484203338623</ele>
        <time>2018-09-12T22:40:06Z</time>
      </trkpt>
      <trkpt lat="31.205492277951727" lon="121.61028320766842">
        <ele>9.013513565063477</ele>
        <time>2018-09-12T22:40:25Z</time>
      </trkpt>
      <trkpt lat="31.20540963485276" lon="121.61020730411988">
        <ele>9.046364784240723</ele>
        <time>2018-09-12T22:40:32Z</time>
      </trkpt>
      <trkpt lat="31.20549500777413" lon="121.6102569099469">
        <ele>8.9828519821167</ele>
        <time>2018-09-12T22:40:38Z</time>
      </trkpt>
      <trkpt lat="31.205525104198653" lon="121.61025636524214">
        <ele>8.947815895080566</ele>
        <time>2018-09-12T22:40:45Z</time>
      </trkpt>
      <trkpt lat="31.205526984633373" lon="121.61028130704285">
        <ele>8.89389705657959</ele>
        <time>2018-09-12T22:40:51Z</time>
      </trkpt>
      <trkpt lat="31.205526984633373" lon="121.61028130704285">
        <ele>8.89389705657959</ele>
        <time>2018-09-12T22:40:53Z</time>
      </trkpt>
      <trkpt lat="31.205552269013133" lon="121.61018316361873">
        <ele>4.574681308600052</ele>
        <time>2018-09-12T22:41:03Z</time>
      </trkpt>
      <trkpt lat="31.20552945852724" lon="121.61023332065915">
        <ele>4.964346449529103</ele>
        <time>2018-09-12T22:41:10Z</time>
      </trkpt>
      <trkpt lat="31.20552945852724" lon="121.61023332065915">
        <ele>4.964346449529103</ele>
        <time>2018-09-12T22:41:21Z</time>
      </trkpt>
      <trkpt lat="31.205536002585866" lon="121.6101807249801">
        <ele>5.1932045221616185</ele>
        <time>2018-09-12T22:41:34Z</time>
      </trkpt>
      <trkpt lat="31.20547010717625" lon="121.61019428588716">
        <ele>5.131487427588276</ele>
        <time>2018-09-12T22:41:38Z</time>
      </trkpt>
      <trkpt lat="31.20547010717625" lon="121.61019428588716">
        <ele>5.131487427588276</ele>
        <time>2018-09-12T22:41:42Z</time>
      </trkpt>
    </trkseg>
  </trk>
</gpx>