<?xml version="1.0" encoding="UTF-8"?>
<gpx xmlns="http://www.topografix.com/GPX/1/1" xmlns:gpxtpx="http://www.garmin.com/xmlschemas/TrackPointExtension/v1" xmlns:xsi="http://www.w3.org/2001/XMLSchema-instance" xsi:schemaLocation="http://www.topografix.com/GPX/1/1 http://www.topografix.com/GPX/1/1/gpx.xsd" version="1.1" creator="gpx.py -- https://github.com/tkrajina/gpxpy">
  <trk>
    <name>gpx from keep</name>
    <type>Run</type>
    <trkseg>
      <trkpt lat="31.204196377025973" lon="121.61123623962244">
        <ele>7.541713714599609</ele>
        <time>2018-09-21T22:14:21Z</time>
      </trkpt>
      <trkpt lat="31.204288339763405" lon="121.61153579192558">
        <ele>9.857836174094583</ele>
        <time>2018-09-21T22:14:38Z</time>
      </trkpt>
      <trkpt lat="31.204364397492334" lon="121.61170982679315">
        <ele>9.892689834479505</ele>
        <time>2018-09-21T22:14:45Z</time>
      </trkpt>
      <trkpt lat="31.204551572234415" lon="121.61194565938361">
        <ele>9.501264600022253</ele>
        <time>2018-09-21T22:14:56Z</time>
      </trkpt>
      <trkpt lat="31.204750398874474" lon="121.61218772356871">
        <ele>8.388501689539844</ele>
        <time>2018-09-21T22:15:07Z</time>
      </trkpt>
      <trkpt lat="31.204840628800124" lon="121.61226253558736">
        <ele>8.65374791880959</ele>
        <time>2018-09-21T22:15:11Z</time>
      </trkpt>
      <trkpt lat="31.205080108366122" lon="121.61252302665429">
        <ele>8.464101347273107</ele>
        <time>2018-09-21T22:15:24Z</time>
      </trkpt>
      <trkpt lat="31.205355169397905" lon="121.61270164599176">
        <ele>8.331979861649678</ele>
        <time>2018-09-21T22:15:38Z</time>
      </trkpt>
      <trkpt lat="31.205394954807794" lon="121.6127913698464">
        <ele>8.342642540267189</ele>
        <time>2018-09-21T22:15:42Z</time>
      </trkpt>
      <trkpt lat="31.205395979491403" lon="121.61286618729797">
        <ele>8.501394026759765</ele>
        <time>2018-09-21T22:15:45Z</time>
      </trkpt>
      <trkpt lat="31.2053669083597" lon="121.61294046484493">
        <ele>8.67843094482226</ele>
        <time>2018-09-21T22:15:48Z</time>
      </trkpt>
      <trkpt lat="31.20531075079751" lon="121.61298085988699">
        <ele>8.704316448175526</ele>
        <time>2018-09-21T22:15:51Z</time>
      </trkpt>
      <trkpt lat="31.20523888591067" lon="121.61299821470399">
        <ele>8.535915976924407</ele>
        <time>2018-09-21T22:15:55Z</time>
      </trkpt>
      <trkpt lat="31.205166727770404" lon="121.61304294817859">
        <ele>8.671021572847351</ele>
        <time>2018-09-21T22:15:59Z</time>
      </trkpt>
      <trkpt lat="31.20500412181143" lon="121.613283946546">
        <ele>8.183768427917599</ele>
        <time>2018-09-21T22:16:09Z</time>
      </trkpt>
      <trkpt lat="31.204873368638356" lon="121.61336446582976">
        <ele>8.132479327586033</ele>
        <time>2018-09-21T22:16:15Z</time>
      </trkpt>
      <trkpt lat="31.204735775609972" lon="121.61351925871351">
        <ele>8.01763402473209</ele>
        <time>2018-09-21T22:16:23Z</time>
      </trkpt>
      <trkpt lat="31.204677444979037" lon="121.61356344791322">
        <ele>7.898860395859309</ele>
        <time>2018-09-21T22:16:26Z</time>
      </trkpt>
      <trkpt lat="31.204437005413237" lon="121.61382016925202">
        <ele>7.619496470326329</ele>
        <time>2018-09-21T22:16:38Z</time>
      </trkpt>
      <trkpt lat="31.204246188308467" lon="121.61406848072518">
        <ele>7.163050463113958</ele>
        <time>2018-09-21T22:16:49Z</time>
      </trkpt>
      <trkpt lat="31.204179420089197" lon="121.61414980523132">
        <ele>6.841218800067388</ele>
        <time>2018-09-21T22:16:53Z</time>
      </trkpt>
      <trkpt lat="31.203926263091912" lon="121.61436992815518">
        <ele>7.170314217752001</ele>
        <time>2018-09-21T22:17:06Z</time>
      </trkpt>
      <trkpt lat="31.2036687166266" lon="121.61464724253598">
        <ele>6.944429039187661</ele>
        <time>2018-09-21T22:17:21Z</time>
      </trkpt>
      <trkpt lat="31.203559908958095" lon="121.61474212135082">
        <ele>6.684892426514356</ele>
        <time>2018-09-21T22:17:28Z</time>
      </trkpt>
      <trkpt lat="31.203494277020727" lon="121.61476191386426">
        <ele>6.182805452414602</ele>
        <time>2018-09-21T22:17:31Z</time>
      </trkpt>
      <trkpt lat="31.20333333115292" lon="121.61494787077046">
        <ele>6.602113617874828</ele>
        <time>2018-09-21T22:17:41Z</time>
      </trkpt>
      <trkpt lat="31.203316193114034" lon="121.61501211184131">
        <ele>6.7300366361793</ele>
        <time>2018-09-21T22:17:44Z</time>
      </trkpt>
      <trkpt lat="31.203357649050712" lon="121.61504355054345">
        <ele>6.210127517823086</ele>
        <time>2018-09-21T22:18:04Z</time>
      </trkpt>
      <trkpt lat="31.203425645034173" lon="121.6151102237849">
        <ele>5.6244856454044125</ele>
        <time>2018-09-21T22:18:49Z</time>
      </trkpt>
      <trkpt lat="31.203487606758404" lon="121.61525468889988">
        <ele>5.701463078527102</ele>
        <time>2018-09-21T22:18:56Z</time>
      </trkpt>
      <trkpt lat="31.2033901208798" lon="121.61542085021885">
        <ele>6.029335730658232</ele>
        <time>2018-09-21T22:19:03Z</time>
      </trkpt>
      <trkpt lat="31.203139074297" lon="121.61569462834042">
        <ele>5.633348354394865</ele>
        <time>2018-09-21T22:19:17Z</time>
      </trkpt>
      <trkpt lat="31.20308180825789" lon="121.6157569734286">
        <ele>5.305916417682951</ele>
        <time>2018-09-21T22:19:20Z</time>
      </trkpt>
      <trkpt lat="31.202880433517564" lon="121.61596813295559">
        <ele>4.997530466282452</ele>
        <time>2018-09-21T22:19:31Z</time>
      </trkpt>
      <trkpt lat="31.202623953145622" lon="121.61624813925917">
        <ele>5.185472558402811</ele>
        <time>2018-09-21T22:19:46Z</time>
      </trkpt>
      <trkpt lat="31.202383764469634" lon="121.61649995323617">
        <ele>5.368216609620543</ele>
        <time>2018-09-21T22:19:59Z</time>
      </trkpt>
      <trkpt lat="31.20215930194229" lon="121.61674905298942">
        <ele>3.9496108310139775</ele>
        <time>2018-09-21T22:20:12Z</time>
      </trkpt>
      <trkpt lat="31.201956007692417" lon="121.61697511083136">
        <ele>3.9724793232804885</ele>
        <time>2018-09-21T22:20:24Z</time>
      </trkpt>
      <trkpt lat="31.20169874231781" lon="121.61721526455482">
        <ele>3.7695843030347547</ele>
        <time>2018-09-21T22:20:38Z</time>
      </trkpt>
      <trkpt lat="31.201460971937056" lon="121.61748089075937">
        <ele>3.656438499395991</ele>
        <time>2018-09-21T22:20:52Z</time>
      </trkpt>
      <trkpt lat="31.201218336996334" lon="121.61772781395274">
        <ele>3.248891488480915</ele>
        <time>2018-09-21T22:21:06Z</time>
      </trkpt>
      <trkpt lat="31.201003104607583" lon="121.61795440590818">
        <ele>3.5322227605044585</ele>
        <time>2018-09-21T22:21:18Z</time>
      </trkpt>
      <trkpt lat="31.200821747968376" lon="121.61819535696254">
        <ele>3.7883691977131253</ele>
        <time>2018-09-21T22:21:30Z</time>
      </trkpt>
      <trkpt lat="31.200619244917732" lon="121.61843224222633">
        <ele>4.105081706123812</ele>
        <time>2018-09-21T22:21:42Z</time>
      </trkpt>
      <trkpt lat="31.200432737968615" lon="121.61866803989071">
        <ele>4.031514930915257</ele>
        <time>2018-09-21T22:21:54Z</time>
      </trkpt>
      <trkpt lat="31.200238924793258" lon="121.61888784635144">
        <ele>4.275539295918762</ele>
        <time>2018-09-21T22:22:06Z</time>
      </trkpt>
      <trkpt lat="31.200014153864764" lon="121.61915318279252">
        <ele>4.299936905685993</ele>
        <time>2018-09-21T22:22:20Z</time>
      </trkpt>
      <trkpt lat="31.199787490763494" lon="121.61941065748901">
        <ele>4.318126604746325</ele>
        <time>2018-09-21T22:22:34Z</time>
      </trkpt>
      <trkpt lat="31.199547831962008" lon="121.61964807650348">
        <ele>4.902649221746586</ele>
        <time>2018-09-21T22:22:48Z</time>
      </trkpt>
      <trkpt lat="31.199303031435523" lon="121.61987438275304">
        <ele>4.843961759929336</ele>
        <time>2018-09-21T22:23:02Z</time>
      </trkpt>
      <trkpt lat="31.19906200466295" lon="121.62011992752986">
        <ele>4.957396241463869</ele>
        <time>2018-09-21T22:23:17Z</time>
      </trkpt>
      <trkpt lat="31.198887179253703" lon="121.62032183429191">
        <ele>4.953978063997887</ele>
        <time>2018-09-21T22:23:27Z</time>
      </trkpt>
      <trkpt lat="31.198681273647853" lon="121.62042916525344">
        <ele>4.667022642706534</ele>
        <time>2018-09-21T22:23:36Z</time>
      </trkpt>
      <trkpt lat="31.198424241082325" lon="121.62067877098363">
        <ele>4.673394133440013</ele>
        <time>2018-09-21T22:23:49Z</time>
      </trkpt>
      <trkpt lat="31.19817618162373" lon="121.62090290060767">
        <ele>4.436404856220136</ele>
        <time>2018-09-21T22:24:03Z</time>
      </trkpt>
      <trkpt lat="31.19795227756344" lon="121.62110317945401">
        <ele>4.965020016500091</ele>
        <time>2018-09-21T22:24:16Z</time>
      </trkpt>
      <trkpt lat="31.197703412365154" lon="121.62131755006722">
        <ele>5.285299423716744</ele>
        <time>2018-09-21T22:24:30Z</time>
      </trkpt>
      <trkpt lat="31.197452627301246" lon="121.62155034592585">
        <ele>5.301787347752644</ele>
        <time>2018-09-21T22:24:44Z</time>
      </trkpt>
      <trkpt lat="31.197249087043527" lon="121.62172108128016">
        <ele>6.095239082495631</ele>
        <time>2018-09-21T22:24:55Z</time>
      </trkpt>
      <trkpt lat="31.19708595600772" lon="121.62188178596425">
        <ele>6.195312787419553</ele>
        <time>2018-09-21T22:25:04Z</time>
      </trkpt>
      <trkpt lat="31.196849575010795" lon="121.62208070356057">
        <ele>6.530663696846659</ele>
        <time>2018-09-21T22:25:17Z</time>
      </trkpt>
      <trkpt lat="31.19656977388099" lon="121.62231268223037">
        <ele>6.937689273528832</ele>
        <time>2018-09-21T22:25:32Z</time>
      </trkpt>
      <trkpt lat="31.196367015669132" lon="121.62250725828294">
        <ele>7.253252852630652</ele>
        <time>2018-09-21T22:25:43Z</time>
      </trkpt>
      <trkpt lat="31.196215080265958" lon="121.62259533691862">
        <ele>6.039160253987344</ele>
        <time>2018-09-21T22:25:51Z</time>
      </trkpt>
      <trkpt lat="31.195961886384726" lon="121.62279262480948">
        <ele>5.370293747488638</ele>
        <time>2018-09-21T22:26:04Z</time>
      </trkpt>
      <trkpt lat="31.195690008168334" lon="121.62296823535414">
        <ele>4.592158943884218</ele>
        <time>2018-09-21T22:26:18Z</time>
      </trkpt>
      <trkpt lat="31.195408652257644" lon="121.62313273591786">
        <ele>4.810100582713389</ele>
        <time>2018-09-21T22:26:32Z</time>
      </trkpt>
      <trkpt lat="31.195141900026382" lon="121.62332866621">
        <ele>5.221172432250292</ele>
        <time>2018-09-21T22:26:47Z</time>
      </trkpt>
      <trkpt lat="31.19496798223216" lon="121.62343245990633">
        <ele>5.804011913346763</ele>
        <time>2018-09-21T22:26:56Z</time>
      </trkpt>
      <trkpt lat="31.194879825521603" lon="121.6234652537936">
        <ele>5.9838585172990335</ele>
        <time>2018-09-21T22:27:00Z</time>
      </trkpt>
      <trkpt lat="31.194840438707455" lon="121.62352703663845">
        <ele>5.977536085709634</ele>
        <time>2018-09-21T22:27:03Z</time>
      </trkpt>
      <trkpt lat="31.194814720501093" lon="121.62372375704616">
        <ele>5.839102025103088</ele>
        <time>2018-09-21T22:27:10Z</time>
      </trkpt>
      <trkpt lat="31.19472539400883" lon="121.62382835512928">
        <ele>5.802074161285525</ele>
        <time>2018-09-21T22:27:16Z</time>
      </trkpt>
      <trkpt lat="31.194653243708693" lon="121.62385274747467">
        <ele>5.952720317476363</ele>
        <time>2018-09-21T22:27:20Z</time>
      </trkpt>
      <trkpt lat="31.1945060203631" lon="121.62385113390347">
        <ele>5.546380264772182</ele>
        <time>2018-09-21T22:27:28Z</time>
      </trkpt>
      <trkpt lat="31.194628979494297" lon="121.62419253071405">
        <ele>6.567928087357647</ele>
        <time>2018-09-21T22:27:43Z</time>
      </trkpt>
      <trkpt lat="31.194719191544632" lon="121.62448109016785">
        <ele>6.304894713891983</ele>
        <time>2018-09-21T22:27:57Z</time>
      </trkpt>
      <trkpt lat="31.19476576567377" lon="121.6245314836094">
        <ele>6.035741071638505</ele>
        <time>2018-09-21T22:28:01Z</time>
      </trkpt>
      <trkpt lat="31.194923704234625" lon="121.62441604433295">
        <ele>4.143683813049957</ele>
        <time>2018-09-21T22:28:08Z</time>
      </trkpt>
      <trkpt lat="31.195086843941944" lon="121.62425887701616">
        <ele>4.794709496380182</ele>
        <time>2018-09-21T22:28:18Z</time>
      </trkpt>
      <trkpt lat="31.195154936341666" lon="121.62422716955477">
        <ele>4.9689853503902555</ele>
        <time>2018-09-21T22:28:22Z</time>
      </trkpt>
      <trkpt lat="31.195359328071838" lon="121.62403585709725">
        <ele>4.80375248739654</ele>
        <time>2018-09-21T22:28:34Z</time>
      </trkpt>
      <trkpt lat="31.195457386879223" lon="121.62388465412278">
        <ele>4.8629301150492985</ele>
        <time>2018-09-21T22:28:41Z</time>
      </trkpt>
      <trkpt lat="31.195695422357407" lon="121.62367193057604">
        <ele>5.034205825754583</ele>
        <time>2018-09-21T22:28:54Z</time>
      </trkpt>
      <trkpt lat="31.195951582322966" lon="121.6234933452604">
        <ele>4.351532453515958</ele>
        <time>2018-09-21T22:29:07Z</time>
      </trkpt>
      <trkpt lat="31.19616869620204" lon="121.62331638780489">
        <ele>4.87319385303762</ele>
        <time>2018-09-21T22:29:18Z</time>
      </trkpt>
      <trkpt lat="31.19646519513763" lon="121.62318765465015">
        <ele>4.93254873816765</ele>
        <time>2018-09-21T22:29:32Z</time>
      </trkpt>
      <trkpt lat="31.196518293139142" lon="121.6232255854882">
        <ele>5.007369727281187</ele>
        <time>2018-09-21T22:29:35Z</time>
      </trkpt>
      <trkpt lat="31.19655177248649" lon="121.62357783594047">
        <ele>5.039874301237685</ele>
        <time>2018-09-21T22:29:49Z</time>
      </trkpt>
      <trkpt lat="31.196615055487737" lon="121.62394444022375">
        <ele>4.860077749550637</ele>
        <time>2018-09-21T22:30:03Z</time>
      </trkpt>
      <trkpt lat="31.196643137987984" lon="121.62404144093475">
        <ele>4.887905458576803</ele>
        <time>2018-09-21T22:30:07Z</time>
      </trkpt>
      <trkpt lat="31.196738445779545" lon="121.62415144166332">
        <ele>4.829928736283289</ele>
        <time>2018-09-21T22:30:19Z</time>
      </trkpt>
      <trkpt lat="31.196706403764388" lon="121.62419181682765">
        <ele>5.22374360099392</ele>
        <time>2018-09-21T22:30:27Z</time>
      </trkpt>
      <trkpt lat="31.19679158925537" lon="121.62415035343722">
        <ele>5.17097611002524</ele>
        <time>2018-09-21T22:31:14Z</time>
      </trkpt>
      <trkpt lat="31.196860471426632" lon="121.62413842563912">
        <ele>4.928270947630544</ele>
        <time>2018-09-21T22:31:17Z</time>
      </trkpt>
      <trkpt lat="31.196942131797805" lon="121.62409723341811">
        <ele>4.625516118692204</ele>
        <time>2018-09-21T22:31:21Z</time>
      </trkpt>
      <trkpt lat="31.196967968286284" lon="121.62403111764866">
        <ele>4.857810702778142</ele>
        <time>2018-09-21T22:31:24Z</time>
      </trkpt>
      <trkpt lat="31.19696218257912" lon="121.623650961685">
        <ele>5.2087910458987565</ele>
        <time>2018-09-21T22:31:39Z</time>
      </trkpt>
      <trkpt lat="31.19692129130114" lon="121.62337756349996">
        <ele>5.105433770560921</ele>
        <time>2018-09-21T22:31:50Z</time>
      </trkpt>
      <trkpt lat="31.196862097753367" lon="121.62321932481733">
        <ele>4.903784119071389</ele>
        <time>2018-09-21T22:31:57Z</time>
      </trkpt>
      <trkpt lat="31.196831855110293" lon="121.62287817921374">
        <ele>4.028629420801861</ele>
        <time>2018-09-21T22:32:10Z</time>
      </trkpt>
      <trkpt lat="31.19687615728089" lon="121.62278496197534">
        <ele>3.64643051554253</ele>
        <time>2018-09-21T22:32:14Z</time>
      </trkpt>
      <trkpt lat="31.19700668588062" lon="121.62268631785737">
        <ele>3.530633525115366</ele>
        <time>2018-09-21T22:32:21Z</time>
      </trkpt>
      <trkpt lat="31.197113669860435" lon="121.62254892628668">
        <ele>3.6035902094967938</ele>
        <time>2018-09-21T22:32:28Z</time>
      </trkpt>
      <trkpt lat="31.19723985526329" lon="121.62245407529568">
        <ele>3.6210138734663087</ele>
        <time>2018-09-21T22:32:35Z</time>
      </trkpt>
      <trkpt lat="31.19731580881645" lon="121.6224223650949">
        <ele>3.4289651763929037</ele>
        <time>2018-09-21T22:32:39Z</time>
      </trkpt>
      <trkpt lat="31.19754651121297" lon="121.6222120695198">
        <ele>3.4143860795595096</ele>
        <time>2018-09-21T22:32:52Z</time>
      </trkpt>
      <trkpt lat="31.197733216822773" lon="121.62206545570064">
        <ele>3.5722218827727854</ele>
        <time>2018-09-21T22:33:02Z</time>
      </trkpt>
      <trkpt lat="31.1978350434844" lon="121.62193077117105">
        <ele>4.597825832813562</ele>
        <time>2018-09-21T22:33:09Z</time>
      </trkpt>
      <trkpt lat="31.19801440777487" lon="121.62180149914707">
        <ele>4.578816743329686</ele>
        <time>2018-09-21T22:33:19Z</time>
      </trkpt>
      <trkpt lat="31.198163349560556" lon="121.62172154758028">
        <ele>3.780042886955723</ele>
        <time>2018-09-21T22:33:27Z</time>
      </trkpt>
      <trkpt lat="31.19841140132988" lon="121.6215098901392">
        <ele>3.6968977036426107</ele>
        <time>2018-09-21T22:33:41Z</time>
      </trkpt>
      <trkpt lat="31.198546116163076" lon="121.62129959531362">
        <ele>4.571609487798373</ele>
        <time>2018-09-21T22:33:51Z</time>
      </trkpt>
      <trkpt lat="31.1987662165732" lon="121.62110771888163">
        <ele>4.812023592937223</ele>
        <time>2018-09-21T22:34:02Z</time>
      </trkpt>
      <trkpt lat="31.199003967523737" lon="121.62089009560917">
        <ele>5.473322059881852</ele>
        <time>2018-09-21T22:34:16Z</time>
      </trkpt>
      <trkpt lat="31.199128268187295" lon="121.62077843744665">
        <ele>5.592911123728733</ele>
        <time>2018-09-21T22:34:23Z</time>
      </trkpt>
      <trkpt lat="31.199347163796183" lon="121.62069495410466">
        <ele>6.4253812997316615</ele>
        <time>2018-09-21T22:34:34Z</time>
      </trkpt>
      <trkpt lat="31.199654317775895" lon="121.6207328674607">
        <ele>6.875528853321537</ele>
        <time>2018-09-21T22:34:48Z</time>
      </trkpt>
      <trkpt lat="31.19990023594813" lon="121.62073338909272">
        <ele>7.120837554079586</ele>
        <time>2018-09-21T22:34:59Z</time>
      </trkpt>
      <trkpt lat="31.200174560432917" lon="121.62079190038921">
        <ele>7.323589347771055</ele>
        <time>2018-09-21T22:35:12Z</time>
      </trkpt>
      <trkpt lat="31.20038302422787" lon="121.62082738285969">
        <ele>7.533667321371162</ele>
        <time>2018-09-21T22:35:22Z</time>
      </trkpt>
      <trkpt lat="31.200608075785667" lon="121.6208181505721">
        <ele>7.392390642549657</ele>
        <time>2018-09-21T22:35:33Z</time>
      </trkpt>
      <trkpt lat="31.20087722424014" lon="121.6208991542286">
        <ele>7.05686353109261</ele>
        <time>2018-09-21T22:35:47Z</time>
      </trkpt>
      <trkpt lat="31.201220400840246" lon="121.62097229284055">
        <ele>7.207015147468653</ele>
        <time>2018-09-21T22:36:04Z</time>
      </trkpt>
      <trkpt lat="31.20150639578399" lon="121.6210199631144">
        <ele>7.176588606655905</ele>
        <time>2018-09-21T22:36:17Z</time>
      </trkpt>
      <trkpt lat="31.201810554075703" lon="121.62107007068589">
        <ele>7.59906193844915</ele>
        <time>2018-09-21T22:36:40Z</time>
      </trkpt>
      <trkpt lat="31.202116065955163" lon="121.62112207495825">
        <ele>6.802916986400074</ele>
        <time>2018-09-21T22:37:06Z</time>
      </trkpt>
      <trkpt lat="31.202325601148907" lon="121.62116948030013">
        <ele>6.582578565056615</ele>
        <time>2018-09-21T22:37:24Z</time>
      </trkpt>
      <trkpt lat="31.20245034605809" lon="121.62114860400546">
        <ele>6.304843177654092</ele>
        <time>2018-09-21T22:37:34Z</time>
      </trkpt>
      <trkpt lat="31.20245823317563" lon="121.62087815720105">
        <ele>6.607079314994664</ele>
        <time>2018-09-21T22:37:49Z</time>
      </trkpt>
      <trkpt lat="31.202415794423175" lon="121.62050771541065">
        <ele>6.24445564112677</ele>
        <time>2018-09-21T22:38:07Z</time>
      </trkpt>
      <trkpt lat="31.20243494009183" lon="121.6203527051593">
        <ele>6.158821971561672</ele>
        <time>2018-09-21T22:38:18Z</time>
      </trkpt>
      <trkpt lat="31.20248643251203" lon="121.62037438048746">
        <ele>5.886764117347742</ele>
        <time>2018-09-21T22:38:28Z</time>
      </trkpt>
      <trkpt lat="31.202732897306113" lon="121.62037137914868">
        <ele>5.877243176092392</ele>
        <time>2018-09-21T22:38:42Z</time>
      </trkpt>
      <trkpt lat="31.202883440364356" lon="121.62031228976022">
        <ele>5.534646559283921</ele>
        <time>2018-09-21T22:38:49Z</time>
      </trkpt>
      <trkpt lat="31.20292065757849" lon="121.62024507973398">
        <ele>5.607202707471284</ele>
        <time>2018-09-21T22:38:53Z</time>
      </trkpt>
      <trkpt lat="31.202786278422472" lon="121.61989143852499">
        <ele>5.918752235177951</ele>
        <time>2018-09-21T22:39:07Z</time>
      </trkpt>
      <trkpt lat="31.202694462344017" lon="121.61953860195376">
        <ele>5.669243761526417</ele>
        <time>2018-09-21T22:39:22Z</time>
      </trkpt>
      <trkpt lat="31.202608302044432" lon="121.61921855191703">
        <ele>5.690403835396989</ele>
        <time>2018-09-21T22:39:35Z</time>
      </trkpt>
      <trkpt lat="31.20252077756857" lon="121.61890337616313">
        <ele>5.661644085966291</ele>
        <time>2018-09-21T22:39:48Z</time>
      </trkpt>
      <trkpt lat="31.20246320911637" lon="121.6187231584535">
        <ele>5.545070785271271</ele>
        <time>2018-09-21T22:39:55Z</time>
      </trkpt>
      <trkpt lat="31.20248335293845" lon="121.61864429211357">
        <ele>5.614999170903406</ele>
        <time>2018-09-21T22:39:59Z</time>
      </trkpt>
      <trkpt lat="31.202673757218268" lon="121.6185773360496">
        <ele>5.612245509241319</ele>
        <time>2018-09-21T22:40:07Z</time>
      </trkpt>
      <trkpt lat="31.2027814949336" lon="121.61848084605214">
        <ele>5.75467849181517</ele>
        <time>2018-09-21T22:40:14Z</time>
      </trkpt>
      <trkpt lat="31.202821138064355" lon="121.61842365858506">
        <ele>5.602556226820806</ele>
        <time>2018-09-21T22:40:17Z</time>
      </trkpt>
      <trkpt lat="31.202839670796752" lon="121.61832825944589">
        <ele>5.281289770679404</ele>
        <time>2018-09-21T22:40:21Z</time>
      </trkpt>
      <trkpt lat="31.202830540424692" lon="121.61823990868693">
        <ele>5.405333043106104</ele>
        <time>2018-09-21T22:40:25Z</time>
      </trkpt>
      <trkpt lat="31.202756337938066" lon="121.61815102096418">
        <ele>5.167112439484658</ele>
        <time>2018-09-21T22:40:32Z</time>
      </trkpt>
      <trkpt lat="31.20271582000229" lon="121.61799735644055">
        <ele>5.325528140811208</ele>
        <time>2018-09-21T22:40:43Z</time>
      </trkpt>
      <trkpt lat="31.202549099315405" lon="121.61769382597664">
        <ele>5.574857165646861</ele>
        <time>2018-09-21T22:41:06Z</time>
      </trkpt>
      <trkpt lat="31.202499567882118" lon="121.61760547631995">
        <ele>6.06385945653064</ele>
        <time>2018-09-21T22:41:13Z</time>
      </trkpt>
      <trkpt lat="31.202454981555118" lon="121.61745018261877">
        <ele>5.48399137884482</ele>
        <time>2018-09-21T22:41:24Z</time>
      </trkpt>
      <trkpt lat="31.202438497952354" lon="121.61739272641248">
        <ele>5.645114954779594</ele>
        <time>2018-09-21T22:41:28Z</time>
      </trkpt>
      <trkpt lat="31.202447811244458" lon="121.61729461382372">
        <ele>5.416947248653727</ele>
        <time>2018-09-21T22:41:35Z</time>
      </trkpt>
      <trkpt lat="31.202600005239017" lon="121.61720380680211">
        <ele>5.397142609728178</ele>
        <time>2018-09-21T22:41:49Z</time>
      </trkpt>
      <trkpt lat="31.202794883607925" lon="121.61699103227484">
        <ele>4.88482875450061</ele>
        <time>2018-09-21T22:42:10Z</time>
      </trkpt>
      <trkpt lat="31.202967448047247" lon="121.61686200691437">
        <ele>4.811457419203734</ele>
        <time>2018-09-21T22:42:25Z</time>
      </trkpt>
      <trkpt lat="31.203045390921183" lon="121.61672756802821">
        <ele>4.858929086510383</ele>
        <time>2018-09-21T22:42:35Z</time>
      </trkpt>
      <trkpt lat="31.203089617861956" lon="121.6166936851111">
        <ele>4.818844094565129</ele>
        <time>2018-09-21T22:42:39Z</time>
      </trkpt>
      <trkpt lat="31.20319999609273" lon="121.61666575943664">
        <ele>5.155316551259379</ele>
        <time>2018-09-21T22:42:47Z</time>
      </trkpt>
      <trkpt lat="31.20324774797425" lon="121.61663160510784">
        <ele>5.290916146904184</ele>
        <time>2018-09-21T22:42:51Z</time>
      </trkpt>
      <trkpt lat="31.203332168596923" lon="121.61652752048656">
        <ele>5.452153743543647</ele>
        <time>2018-09-21T22:43:00Z</time>
      </trkpt>
      <trkpt lat="31.203432812926952" lon="121.6164705945164">
        <ele>5.446193848327095</ele>
        <time>2018-09-21T22:43:08Z</time>
      </trkpt>
      <trkpt lat="31.203683247698248" lon="121.61628030528408">
        <ele>5.742849986429192</ele>
        <time>2018-09-21T22:43:32Z</time>
      </trkpt>
      <trkpt lat="31.203848420964935" lon="121.6162241865199">
        <ele>5.694043483509741</ele>
        <time>2018-09-21T22:43:46Z</time>
      </trkpt>
      <trkpt lat="31.203897271893304" lon="121.61617376908926">
        <ele>5.946677183559515</ele>
        <time>2018-09-21T22:43:50Z</time>
      </trkpt>
      <trkpt lat="31.203962982022137" lon="121.61607022615003">
        <ele>5.373535804731361</ele>
        <time>2018-09-21T22:43:57Z</time>
      </trkpt>
      <trkpt lat="31.2040234730714" lon="121.61603986451752">
        <ele>5.416925967138965</ele>
        <time>2018-09-21T22:44:01Z</time>
      </trkpt>
      <trkpt lat="31.204199997279247" lon="121.6160233163795">
        <ele>5.457250211924936</ele>
        <time>2018-09-21T22:44:14Z</time>
      </trkpt>
      <trkpt lat="31.204248557095525" lon="121.61599431088551">
        <ele>5.123874037375366</ele>
        <time>2018-09-21T22:44:18Z</time>
      </trkpt>
      <trkpt lat="31.20437208291544" lon="121.61611599822491">
        <ele>5.111659049286686</ele>
        <time>2018-09-21T22:44:32Z</time>
      </trkpt>
      <trkpt lat="31.20444486497953" lon="121.61628186851934">
        <ele>5.280132076792903</ele>
        <time>2018-09-21T22:44:43Z</time>
      </trkpt>
      <trkpt lat="31.20458901351364" lon="121.61638458008825">
        <ele>5.449667453286125</ele>
        <time>2018-09-21T22:44:54Z</time>
      </trkpt>
      <trkpt lat="31.204573636900406" lon="121.61630055953833">
        <ele>6.203425498904803</ele>
        <time>2018-09-21T22:45:01Z</time>
      </trkpt>
      <trkpt lat="31.204375346525563" lon="121.6161051563265">
        <ele>7.422171108770982</ele>
        <time>2018-09-21T22:45:19Z</time>
      </trkpt>
      <trkpt lat="31.204272375206454" lon="121.61603984392995">
        <ele>7.775441988540734</ele>
        <time>2018-09-21T22:45:27Z</time>
      </trkpt>
      <trkpt lat="31.204050837443702" lon="121.61576529566406">
        <ele>9.146370257200395</ele>
        <time>2018-09-21T22:45:49Z</time>
      </trkpt>
      <trkpt lat="31.203841459795623" lon="121.61553329772414">
        <ele>8.986616397477391</ele>
        <time>2018-09-21T22:46:11Z</time>
      </trkpt>
      <trkpt lat="31.203695467755168" lon="121.61536634417027">
        <ele>7.842703855577177</ele>
        <time>2018-09-21T22:46:26Z</time>
      </trkpt>
      <trkpt lat="31.20354370613234" lon="121.61528341557405">
        <ele>6.482714699293773</ele>
        <time>2018-09-21T22:46:52Z</time>
      </trkpt>
      <trkpt lat="31.2035545614366" lon="121.615272301625">
        <ele>6.384561311069511</ele>
        <time>2018-09-21T22:46:53Z</time>
      </trkpt>
      <trkpt lat="31.20379991267985" lon="121.6149955375965">
        <ele>6.7045715629418865</ele>
        <time>2018-09-21T22:47:18Z</time>
      </trkpt>
      <trkpt lat="31.20401946908625" lon="121.61475807564854">
        <ele>6.5054780214784955</ele>
        <time>2018-09-21T22:47:39Z</time>
      </trkpt>
      <trkpt lat="31.204213254614956" lon="121.61453335322629">
        <ele>7.33062828138948</ele>
        <time>2018-09-21T22:47:58Z</time>
      </trkpt>
      <trkpt lat="31.2044588144874" lon="121.61432109320909">
        <ele>7.0544543199750045</ele>
        <time>2018-09-21T22:48:20Z</time>
      </trkpt>
      <trkpt lat="31.204652034199412" lon="121.61411994921922">
        <ele>7.205652027863895</ele>
        <time>2018-09-21T22:48:41Z</time>
      </trkpt>
      <trkpt lat="31.204808292141333" lon="121.61402072697415">
        <ele>7.354444956185052</ele>
        <time>2018-09-21T22:48:53Z</time>
      </trkpt>
      <trkpt lat="31.20504928705593" lon="121.6137507254711">
        <ele>8.067436374253354</ele>
        <time>2018-09-21T22:49:17Z</time>
      </trkpt>
      <trkpt lat="31.20525875884706" lon="121.61356394198175">
        <ele>7.929084280432569</ele>
        <time>2018-09-21T22:49:35Z</time>
      </trkpt>
      <trkpt lat="31.205427056550523" lon="121.6133286385356">
        <ele>8.220515238484225</ele>
        <time>2018-09-21T22:49:53Z</time>
      </trkpt>
      <trkpt lat="31.20557874032941" lon="121.61318278867321">
        <ele>8.396783740361236</ele>
        <time>2018-09-21T22:50:07Z</time>
      </trkpt>
      <trkpt lat="31.20553922539257" lon="121.61309550597373">
        <ele>8.30292638668923</ele>
        <time>2018-09-21T22:50:14Z</time>
      </trkpt>
      <trkpt lat="31.20533277795873" lon="121.61289980612166">
        <ele>8.406084480815146</ele>
        <time>2018-09-21T22:50:31Z</time>
      </trkpt>
      <trkpt lat="31.205248822735083" lon="121.61277891231697">
        <ele>8.309260190221167</ele>
        <time>2018-09-21T22:50:45Z</time>
      </trkpt>
      <trkpt lat="31.20495184527327" lon="121.6125433683699">
        <ele>8.016120814861353</ele>
        <time>2018-09-21T22:51:09Z</time>
      </trkpt>
      <trkpt lat="31.20471506079763" lon="121.61230402188099">
        <ele>8.460028363292881</ele>
        <time>2018-09-21T22:51:31Z</time>
      </trkpt>
      <trkpt lat="31.204570996620216" lon="121.61207225568775">
        <ele>9.004450080677351</ele>
        <time>2018-09-21T22:51:48Z</time>
      </trkpt>
      <trkpt lat="31.204464805195627" lon="121.61195054614703">
        <ele>9.201445685718802</ele>
        <time>2018-09-21T22:51:59Z</time>
      </trkpt>
      <trkpt lat="31.204363740180167" lon="121.61186109519457">
        <ele>9.445628226347342</ele>
        <time>2018-09-21T22:52:10Z</time>
      </trkpt>
      <trkpt lat="31.204172510761968" lon="121.61160791217142">
        <ele>9.190731152042677</ele>
        <time>2018-09-21T22:52:35Z</time>
      </trkpt>
      <trkpt lat="31.204195916198334" lon="121.61149106915022">
        <ele>9.230846592165157</ele>
        <time>2018-09-21T22:52:42Z</time>
      </trkpt>
    </trkseg>
  </trk>
</gpx>