<?xml version="1.0" encoding="UTF-8"?>
<gpx xmlns="http://www.topografix.com/GPX/1/1" xmlns:gpxtpx="http://www.garmin.com/xmlschemas/TrackPointExtension/v1" xmlns:xsi="http://www.w3.org/2001/XMLSchema-instance" xsi:schemaLocation="http://www.topografix.com/GPX/1/1 http://www.topografix.com/GPX/1/1/gpx.xsd" version="1.1" creator="gpx.py -- https://github.com/tkrajina/gpxpy">
  <trk>
    <name>gpx from keep</name>
    <type>Run</type>
    <trkseg>
      <trkpt lat="31.204118252542465" lon="121.61128694110954">
        <ele>9.16042709350586</ele>
        <time>2018-09-19T21:50:33Z</time>
      </trkpt>
      <trkpt lat="31.204105117145758" lon="121.61144932818965">
        <ele>8.07882308959961</ele>
        <time>2018-09-19T21:50:44Z</time>
      </trkpt>
      <trkpt lat="31.204118065613667" lon="121.61153743256175">
        <ele>8.09737777709961</ele>
        <time>2018-09-19T21:50:51Z</time>
      </trkpt>
      <trkpt lat="31.204224203507987" lon="121.61173233893554">
        <ele>7.996120452880859</ele>
        <time>2018-09-19T21:51:09Z</time>
      </trkpt>
      <trkpt lat="31.204428199228794" lon="121.611954073321">
        <ele>6.967189788818359</ele>
        <time>2018-09-19T21:51:27Z</time>
      </trkpt>
      <trkpt lat="31.204646027741298" lon="121.61216712969049">
        <ele>6.607204437255859</ele>
        <time>2018-09-19T21:51:43Z</time>
      </trkpt>
      <trkpt lat="31.204896360006938" lon="121.61241948844963">
        <ele>7.370632171630859</ele>
        <time>2018-09-19T21:51:58Z</time>
      </trkpt>
      <trkpt lat="31.20501826702931" lon="121.61255149531699">
        <ele>7.519727253351874</ele>
        <time>2018-09-19T21:52:05Z</time>
      </trkpt>
      <trkpt lat="31.205255607611754" lon="121.61277077939623">
        <ele>8.150093521995665</ele>
        <time>2018-09-19T21:52:18Z</time>
      </trkpt>
      <trkpt lat="31.20532009064016" lon="121.61282986914698">
        <ele>8.10727872856338</ele>
        <time>2018-09-19T21:52:22Z</time>
      </trkpt>
      <trkpt lat="31.205318653652775" lon="121.61293125222427">
        <ele>8.301571683076283</ele>
        <time>2018-09-19T21:52:29Z</time>
      </trkpt>
      <trkpt lat="31.205113230645335" lon="121.61314596108338">
        <ele>7.973192976109466</ele>
        <time>2018-09-19T21:52:41Z</time>
      </trkpt>
      <trkpt lat="31.20494036285393" lon="121.61333545558617">
        <ele>8.16500908569678</ele>
        <time>2018-09-19T21:52:50Z</time>
      </trkpt>
      <trkpt lat="31.204857087393293" lon="121.61338046040865">
        <ele>8.082378957775568</ele>
        <time>2018-09-19T21:52:54Z</time>
      </trkpt>
      <trkpt lat="31.20462395916388" lon="121.61365046549737">
        <ele>8.029463421919658</ele>
        <time>2018-09-19T21:53:08Z</time>
      </trkpt>
      <trkpt lat="31.204536821742142" lon="121.61377407963263">
        <ele>8.90389908873361</ele>
        <time>2018-09-19T21:53:14Z</time>
      </trkpt>
      <trkpt lat="31.20438487080872" lon="121.61391152282759">
        <ele>9.014833763684855</ele>
        <time>2018-09-19T21:53:22Z</time>
      </trkpt>
      <trkpt lat="31.204147391334597" lon="121.61419073833018">
        <ele>9.241312858498596</ele>
        <time>2018-09-19T21:53:36Z</time>
      </trkpt>
      <trkpt lat="31.20393872298632" lon="121.61438429331679">
        <ele>9.006445958493856</ele>
        <time>2018-09-19T21:53:48Z</time>
      </trkpt>
      <trkpt lat="31.20370127305973" lon="121.61462392891677">
        <ele>9.324143138629061</ele>
        <time>2018-09-19T21:54:02Z</time>
      </trkpt>
      <trkpt lat="31.2035370948434" lon="121.61478657639351">
        <ele>9.196824241286627</ele>
        <time>2018-09-19T21:54:12Z</time>
      </trkpt>
      <trkpt lat="31.20343404055172" lon="121.61481287729265">
        <ele>8.944902775557445</ele>
        <time>2018-09-19T21:54:16Z</time>
      </trkpt>
      <trkpt lat="31.203353461027056" lon="121.61487278709852">
        <ele>8.990203121557307</ele>
        <time>2018-09-19T21:54:20Z</time>
      </trkpt>
      <trkpt lat="31.203313009836805" lon="121.61493215132822">
        <ele>8.761788287729033</ele>
        <time>2018-09-19T21:54:24Z</time>
      </trkpt>
      <trkpt lat="31.203302618202077" lon="121.61503271298524">
        <ele>8.848268399394257</ele>
        <time>2018-09-19T21:54:28Z</time>
      </trkpt>
      <trkpt lat="31.203322613235972" lon="121.6151107744097">
        <ele>8.992530255044521</ele>
        <time>2018-09-19T21:54:31Z</time>
      </trkpt>
      <trkpt lat="31.203467773571678" lon="121.61529995589645">
        <ele>8.49834089685121</ele>
        <time>2018-09-19T21:54:52Z</time>
      </trkpt>
      <trkpt lat="31.203471772331934" lon="121.61537639148332">
        <ele>8.630533418377162</ele>
        <time>2018-09-19T21:54:56Z</time>
      </trkpt>
      <trkpt lat="31.203203129104633" lon="121.61562062754727">
        <ele>8.494578843695393</ele>
        <time>2018-09-19T21:55:10Z</time>
      </trkpt>
      <trkpt lat="31.202960218089896" lon="121.61589060813438">
        <ele>8.733377387404538</ele>
        <time>2018-09-19T21:55:24Z</time>
      </trkpt>
      <trkpt lat="31.202846230509213" lon="121.6160117735562">
        <ele>8.914796772355416</ele>
        <time>2018-09-19T21:55:31Z</time>
      </trkpt>
      <trkpt lat="31.20270868114419" lon="121.61610312585397">
        <ele>8.91133656075639</ele>
        <time>2018-09-19T21:55:38Z</time>
      </trkpt>
      <trkpt lat="31.202478272760626" lon="121.61633542577175">
        <ele>9.399305653364614</ele>
        <time>2018-09-19T21:55:52Z</time>
      </trkpt>
      <trkpt lat="31.202277976733402" lon="121.61654820641787">
        <ele>9.741295833693073</ele>
        <time>2018-09-19T21:56:04Z</time>
      </trkpt>
      <trkpt lat="31.202127022570778" lon="121.61676423353912">
        <ele>9.383640525229552</ele>
        <time>2018-09-19T21:56:14Z</time>
      </trkpt>
      <trkpt lat="31.201844264549983" lon="121.61701252234651">
        <ele>9.661095169146762</ele>
        <time>2018-09-19T21:56:29Z</time>
      </trkpt>
      <trkpt lat="31.201710138825767" lon="121.6172060486404">
        <ele>9.40434125090421</ele>
        <time>2018-09-19T21:56:37Z</time>
      </trkpt>
      <trkpt lat="31.201641215639196" lon="121.61726324131664">
        <ele>9.397388147063424</ele>
        <time>2018-09-19T21:56:41Z</time>
      </trkpt>
      <trkpt lat="31.20141488115609" lon="121.61747872636688">
        <ele>9.436869529545326</ele>
        <time>2018-09-19T21:56:55Z</time>
      </trkpt>
      <trkpt lat="31.201312269740132" lon="121.61760476146372">
        <ele>9.451796281320838</ele>
        <time>2018-09-19T21:57:02Z</time>
      </trkpt>
      <trkpt lat="31.201112548052848" lon="121.61777525167341">
        <ele>9.770642496235226</ele>
        <time>2018-09-19T21:57:13Z</time>
      </trkpt>
      <trkpt lat="31.200919272107946" lon="121.61800699076176">
        <ele>10.527986609627042</ele>
        <time>2018-09-19T21:57:26Z</time>
      </trkpt>
      <trkpt lat="31.200710777799145" lon="121.6182717930685">
        <ele>10.338188884097356</ele>
        <time>2018-09-19T21:57:40Z</time>
      </trkpt>
      <trkpt lat="31.20052153898614" lon="121.6185292736105">
        <ele>10.805100065490095</ele>
        <time>2018-09-19T21:57:54Z</time>
      </trkpt>
      <trkpt lat="31.20031847086598" lon="121.61878593963712">
        <ele>10.697946361735823</ele>
        <time>2018-09-19T21:58:08Z</time>
      </trkpt>
      <trkpt lat="31.200123810100717" lon="121.61903826622913">
        <ele>11.119260592818659</ele>
        <time>2018-09-19T21:58:23Z</time>
      </trkpt>
      <trkpt lat="31.199928088943032" lon="121.61926511581572">
        <ele>10.980131363089086</ele>
        <time>2018-09-19T21:58:36Z</time>
      </trkpt>
      <trkpt lat="31.1997386353827" lon="121.61945998437392">
        <ele>10.438156081731428</ele>
        <time>2018-09-19T21:58:47Z</time>
      </trkpt>
      <trkpt lat="31.199502838986426" lon="121.61963344609323">
        <ele>10.3899206313556</ele>
        <time>2018-09-19T21:58:59Z</time>
      </trkpt>
      <trkpt lat="31.19938260906542" lon="121.6197456508467">
        <ele>10.553538553128796</ele>
        <time>2018-09-19T21:59:06Z</time>
      </trkpt>
      <trkpt lat="31.199269921652032" lon="121.61990419547546">
        <ele>10.448168630797205</ele>
        <time>2018-09-19T21:59:13Z</time>
      </trkpt>
      <trkpt lat="31.199150520175632" lon="121.6200012230609">
        <ele>10.605731809728574</ele>
        <time>2018-09-19T21:59:20Z</time>
      </trkpt>
      <trkpt lat="31.19904201231489" lon="121.62005245073686">
        <ele>10.544934043784863</ele>
        <time>2018-09-19T21:59:27Z</time>
      </trkpt>
      <trkpt lat="31.198890518479015" lon="121.62024161927789">
        <ele>10.601736237407366</ele>
        <time>2018-09-19T21:59:36Z</time>
      </trkpt>
      <trkpt lat="31.198815609713126" lon="121.62031262637144">
        <ele>10.454291252196342</ele>
        <time>2018-09-19T21:59:39Z</time>
      </trkpt>
      <trkpt lat="31.19870762185138" lon="121.62038417799738">
        <ele>10.432690267961163</ele>
        <time>2018-09-19T21:59:43Z</time>
      </trkpt>
      <trkpt lat="31.198453052670416" lon="121.62061264656423">
        <ele>10.42925272300075</ele>
        <time>2018-09-19T22:00:00Z</time>
      </trkpt>
      <trkpt lat="31.198244310474617" lon="121.62083460558124">
        <ele>10.531524511858144</ele>
        <time>2018-09-19T22:00:14Z</time>
      </trkpt>
      <trkpt lat="31.198004669842607" lon="121.62104518378953">
        <ele>10.856071317224632</ele>
        <time>2018-09-19T22:00:28Z</time>
      </trkpt>
      <trkpt lat="31.197798951085105" lon="121.62122703301036">
        <ele>10.88036409463071</ele>
        <time>2018-09-19T22:00:40Z</time>
      </trkpt>
      <trkpt lat="31.19774279122337" lon="121.62125901397995">
        <ele>10.855016120938796</ele>
        <time>2018-09-19T22:00:43Z</time>
      </trkpt>
      <trkpt lat="31.19749091546393" lon="121.62149777207426">
        <ele>10.709508101655388</ele>
        <time>2018-09-19T22:00:58Z</time>
      </trkpt>
      <trkpt lat="31.197432582951365" lon="121.62153273370757">
        <ele>10.6879998544035</ele>
        <time>2018-09-19T22:01:01Z</time>
      </trkpt>
      <trkpt lat="31.19717421301117" lon="121.62175794085219">
        <ele>10.674686094387347</ele>
        <time>2018-09-19T22:01:17Z</time>
      </trkpt>
      <trkpt lat="31.196935912645216" lon="121.6219766409529">
        <ele>10.685787615446316</ele>
        <time>2018-09-19T22:01:31Z</time>
      </trkpt>
      <trkpt lat="31.196683516094616" lon="121.62219154676527">
        <ele>11.046014810112133</ele>
        <time>2018-09-19T22:01:45Z</time>
      </trkpt>
      <trkpt lat="31.19658821496008" lon="121.62230915803029">
        <ele>11.711721954878854</ele>
        <time>2018-09-19T22:01:52Z</time>
      </trkpt>
      <trkpt lat="31.196616242393606" lon="121.62245900443025">
        <ele>11.356588684123139</ele>
        <time>2018-09-19T22:02:04Z</time>
      </trkpt>
      <trkpt lat="31.19660754480033" lon="121.62247770230971">
        <ele>12.263715732056319</ele>
        <time>2018-09-19T22:02:19Z</time>
      </trkpt>
      <trkpt lat="31.196621094059225" lon="121.62248420454516">
        <ele>11.99395481877935</ele>
        <time>2018-09-19T22:02:26Z</time>
      </trkpt>
      <trkpt lat="31.19670533065056" lon="121.6227958149181">
        <ele>11.23920665274823</ele>
        <time>2018-09-19T22:02:42Z</time>
      </trkpt>
      <trkpt lat="31.196764314674652" lon="121.62313668820991">
        <ele>9.697534797133542</ele>
        <time>2018-09-19T22:02:55Z</time>
      </trkpt>
      <trkpt lat="31.19681434753721" lon="121.62347755797981">
        <ele>9.361484740726155</ele>
        <time>2018-09-19T22:03:07Z</time>
      </trkpt>
      <trkpt lat="31.19687629339207" lon="121.62382953188137">
        <ele>8.743521295641798</ele>
        <time>2018-09-19T22:03:21Z</time>
      </trkpt>
      <trkpt lat="31.196921900730576" lon="121.62400998674386">
        <ele>8.491301225702472</ele>
        <time>2018-09-19T22:03:28Z</time>
      </trkpt>
      <trkpt lat="31.196967719409553" lon="121.624012421573">
        <ele>8.491163383779615</ele>
        <time>2018-09-19T22:03:31Z</time>
      </trkpt>
      <trkpt lat="31.196951326694304" lon="121.62365990431353">
        <ele>8.802651586230745</ele>
        <time>2018-09-19T22:03:43Z</time>
      </trkpt>
      <trkpt lat="31.196937457764083" lon="121.62346427058594">
        <ele>8.67315030655324</ele>
        <time>2018-09-19T22:03:50Z</time>
      </trkpt>
      <trkpt lat="31.19683135357013" lon="121.62307734090136">
        <ele>7.823096600516067</ele>
        <time>2018-09-19T22:04:06Z</time>
      </trkpt>
      <trkpt lat="31.196813908994393" lon="121.6229226196147">
        <ele>7.462676673417732</ele>
        <time>2018-09-19T22:04:12Z</time>
      </trkpt>
      <trkpt lat="31.19683463890596" lon="121.6228153140516">
        <ele>7.116783712909644</ele>
        <time>2018-09-19T22:04:16Z</time>
      </trkpt>
      <trkpt lat="31.196910623972748" lon="121.62275650724183">
        <ele>7.020842004838428</ele>
        <time>2018-09-19T22:04:20Z</time>
      </trkpt>
      <trkpt lat="31.19714111439605" lon="121.62249635529594">
        <ele>6.892734298686676</ele>
        <time>2018-09-19T22:04:34Z</time>
      </trkpt>
      <trkpt lat="31.197416263214976" lon="121.62230367000012">
        <ele>6.12058097140811</ele>
        <time>2018-09-19T22:04:48Z</time>
      </trkpt>
      <trkpt lat="31.19757642446377" lon="121.62213375489235">
        <ele>6.339266917267054</ele>
        <time>2018-09-19T22:04:58Z</time>
      </trkpt>
      <trkpt lat="31.197717522811757" lon="121.62203727533601">
        <ele>6.705620560395303</ele>
        <time>2018-09-19T22:05:04Z</time>
      </trkpt>
      <trkpt lat="31.197858986216126" lon="121.62185679188651">
        <ele>7.2727220126803545</ele>
        <time>2018-09-19T22:05:12Z</time>
      </trkpt>
      <trkpt lat="31.19817830120599" lon="121.62168631880473">
        <ele>6.894573467907193</ele>
        <time>2018-09-19T22:05:29Z</time>
      </trkpt>
      <trkpt lat="31.198408758423124" lon="121.62144810615192">
        <ele>6.280918075813624</ele>
        <time>2018-09-19T22:05:43Z</time>
      </trkpt>
      <trkpt lat="31.198470451871838" lon="121.62131586068205">
        <ele>6.946925113692473</ele>
        <time>2018-09-19T22:05:49Z</time>
      </trkpt>
      <trkpt lat="31.198742662917514" lon="121.62107574432525">
        <ele>6.845927304642366</ele>
        <time>2018-09-19T22:06:03Z</time>
      </trkpt>
      <trkpt lat="31.199001782822766" lon="121.62090445822498">
        <ele>6.591162876200116</ele>
        <time>2018-09-19T22:06:17Z</time>
      </trkpt>
      <trkpt lat="31.19912039148743" lon="121.6207911746521">
        <ele>6.466912188525988</ele>
        <time>2018-09-19T22:06:24Z</time>
      </trkpt>
      <trkpt lat="31.199255500232518" lon="121.62071366009202">
        <ele>6.810393923146876</ele>
        <time>2018-09-19T22:06:31Z</time>
      </trkpt>
      <trkpt lat="31.199487074298755" lon="121.62069006468086">
        <ele>7.185547534492407</ele>
        <time>2018-09-19T22:06:48Z</time>
      </trkpt>
      <trkpt lat="31.199783373562152" lon="121.62073665065545">
        <ele>7.557046770579156</ele>
        <time>2018-09-19T22:07:11Z</time>
      </trkpt>
      <trkpt lat="31.200007282610013" lon="121.62078080362211">
        <ele>7.97756217065146</ele>
        <time>2018-09-19T22:07:28Z</time>
      </trkpt>
      <trkpt lat="31.200121426921378" lon="121.62078377507213">
        <ele>7.918616248529375</ele>
        <time>2018-09-19T22:07:36Z</time>
      </trkpt>
      <trkpt lat="31.20040741690523" lon="121.6208360525215">
        <ele>7.868207007181752</ele>
        <time>2018-09-19T22:07:56Z</time>
      </trkpt>
      <trkpt lat="31.200755236425834" lon="121.62087829813841">
        <ele>8.593377278552147</ele>
        <time>2018-09-19T22:08:21Z</time>
      </trkpt>
      <trkpt lat="31.201066443674822" lon="121.62092894737685">
        <ele>8.474016364074984</ele>
        <time>2018-09-19T22:08:43Z</time>
      </trkpt>
      <trkpt lat="31.201357308135456" lon="121.62098664389984">
        <ele>8.586143233922947</ele>
        <time>2018-09-19T22:09:04Z</time>
      </trkpt>
      <trkpt lat="31.20167338926279" lon="121.62104325425707">
        <ele>7.849108497504766</ele>
        <time>2018-09-19T22:09:20Z</time>
      </trkpt>
      <trkpt lat="31.201944748263756" lon="121.62108604784007">
        <ele>7.598151937607611</ele>
        <time>2018-09-19T22:09:33Z</time>
      </trkpt>
      <trkpt lat="31.20227140391022" lon="121.62114238611977">
        <ele>7.168421748680139</ele>
        <time>2018-09-19T22:09:48Z</time>
      </trkpt>
      <trkpt lat="31.202427562112938" lon="121.62115646450526">
        <ele>7.091633646694767</ele>
        <time>2018-09-19T22:09:56Z</time>
      </trkpt>
      <trkpt lat="31.2024644721014" lon="121.62112394303198">
        <ele>6.717402990070191</ele>
        <time>2018-09-19T22:09:59Z</time>
      </trkpt>
      <trkpt lat="31.2024139102907" lon="121.62074618863853">
        <ele>7.025132937836062</ele>
        <time>2018-09-19T22:10:13Z</time>
      </trkpt>
      <trkpt lat="31.202373632876565" lon="121.62038143568486">
        <ele>6.60419376994237</ele>
        <time>2018-09-19T22:10:27Z</time>
      </trkpt>
      <trkpt lat="31.202398376003288" lon="121.620316123837">
        <ele>6.5370453361578384</ele>
        <time>2018-09-19T22:10:31Z</time>
      </trkpt>
      <trkpt lat="31.20244209033254" lon="121.62025839814311">
        <ele>6.487680449506826</ele>
        <time>2018-09-19T22:10:38Z</time>
      </trkpt>
      <trkpt lat="31.20250519502202" lon="121.62032370286629">
        <ele>6.68297219305677</ele>
        <time>2018-09-19T22:11:01Z</time>
      </trkpt>
      <trkpt lat="31.20266487723781" lon="121.62033886538319">
        <ele>6.701762855489967</ele>
        <time>2018-09-19T22:11:08Z</time>
      </trkpt>
      <trkpt lat="31.202892174249687" lon="121.62025836089671">
        <ele>6.3118394091396794</ele>
        <time>2018-09-19T22:11:18Z</time>
      </trkpt>
      <trkpt lat="31.20289199230752" lon="121.62017462302384">
        <ele>6.508741193252064</ele>
        <time>2018-09-19T22:11:22Z</time>
      </trkpt>
      <trkpt lat="31.202744299894697" lon="121.6198464559913">
        <ele>6.397335696116663</ele>
        <time>2018-09-19T22:11:36Z</time>
      </trkpt>
      <trkpt lat="31.202662803878493" lon="121.61947681569478">
        <ele>6.670179155593246</ele>
        <time>2018-09-19T22:11:51Z</time>
      </trkpt>
      <trkpt lat="31.202581529461572" lon="121.61915080231275">
        <ele>6.74324247007474</ele>
        <time>2018-09-19T22:12:04Z</time>
      </trkpt>
      <trkpt lat="31.20248372951927" lon="121.61880771242124">
        <ele>6.591710043405122</ele>
        <time>2018-09-19T22:12:18Z</time>
      </trkpt>
      <trkpt lat="31.202460763956903" lon="121.61872803687497">
        <ele>6.616638035365298</ele>
        <time>2018-09-19T22:12:21Z</time>
      </trkpt>
      <trkpt lat="31.202492845672083" lon="121.61864131018453">
        <ele>6.8114236245864745</ele>
        <time>2018-09-19T22:12:25Z</time>
      </trkpt>
      <trkpt lat="31.20276871342287" lon="121.61851878915282">
        <ele>6.765173621943717</ele>
        <time>2018-09-19T22:12:39Z</time>
      </trkpt>
      <trkpt lat="31.20282922829957" lon="121.61846729135938">
        <ele>6.400553670524218</ele>
        <time>2018-09-19T22:12:42Z</time>
      </trkpt>
      <trkpt lat="31.202715420259064" lon="121.61812717472311">
        <ele>6.139206287347591</ele>
        <time>2018-09-19T22:12:57Z</time>
      </trkpt>
      <trkpt lat="31.202706567374662" lon="121.61803177672391">
        <ele>6.402943639330495</ele>
        <time>2018-09-19T22:13:01Z</time>
      </trkpt>
      <trkpt lat="31.202561021828995" lon="121.61770141364174">
        <ele>6.432247504918294</ele>
        <time>2018-09-19T22:13:15Z</time>
      </trkpt>
      <trkpt lat="31.202414909745826" lon="121.61739218631057">
        <ele>6.890097930434251</ele>
        <time>2018-09-19T22:13:29Z</time>
      </trkpt>
      <trkpt lat="31.202412837984173" lon="121.61729136438463">
        <ele>6.385580070454928</ele>
        <time>2018-09-19T22:13:33Z</time>
      </trkpt>
      <trkpt lat="31.202460067357283" lon="121.6172374259079">
        <ele>6.147299780640552</ele>
        <time>2018-09-19T22:13:36Z</time>
      </trkpt>
      <trkpt lat="31.20269967131906" lon="121.61703711537515">
        <ele>5.752807376230244</ele>
        <time>2018-09-19T22:13:49Z</time>
      </trkpt>
      <trkpt lat="31.202839698220256" lon="121.61690971913838">
        <ele>5.547603479781962</ele>
        <time>2018-09-19T22:13:57Z</time>
      </trkpt>
      <trkpt lat="31.202927310307146" lon="121.61687230946364">
        <ele>5.4456918811988615</ele>
        <time>2018-09-19T22:14:04Z</time>
      </trkpt>
      <trkpt lat="31.2030757858919" lon="121.61669802280298">
        <ele>5.350318193725286</ele>
        <time>2018-09-19T22:14:19Z</time>
      </trkpt>
      <trkpt lat="31.203217910636667" lon="121.61664488828444">
        <ele>5.543792786233453</ele>
        <time>2018-09-19T22:14:29Z</time>
      </trkpt>
      <trkpt lat="31.203336248813173" lon="121.61651342626824">
        <ele>5.770603596147218</ele>
        <time>2018-09-19T22:14:39Z</time>
      </trkpt>
      <trkpt lat="31.203587489708905" lon="121.61633126845135">
        <ele>5.491069351286669</ele>
        <time>2018-09-19T22:14:59Z</time>
      </trkpt>
      <trkpt lat="31.203685166244064" lon="121.61625807993131">
        <ele>5.400049770101518</ele>
        <time>2018-09-19T22:15:06Z</time>
      </trkpt>
      <trkpt lat="31.203781727234997" lon="121.61621822916777">
        <ele>5.524749981319005</ele>
        <time>2018-09-19T22:15:13Z</time>
      </trkpt>
      <trkpt lat="31.203865838228232" lon="121.61615425680064">
        <ele>5.746014756242964</ele>
        <time>2018-09-19T22:15:20Z</time>
      </trkpt>
      <trkpt lat="31.20395435102059" lon="121.61602089732239">
        <ele>6.10078782007033</ele>
        <time>2018-09-19T22:15:31Z</time>
      </trkpt>
      <trkpt lat="31.204008332285625" lon="121.61599324658715">
        <ele>6.105156911211566</ele>
        <time>2018-09-19T22:15:35Z</time>
      </trkpt>
      <trkpt lat="31.204127365113717" lon="121.61598835798479">
        <ele>6.311815274304216</ele>
        <time>2018-09-19T22:15:42Z</time>
      </trkpt>
      <trkpt lat="31.204207381044462" lon="121.61595447108367">
        <ele>6.256381426364442</ele>
        <time>2018-09-19T22:15:49Z</time>
      </trkpt>
      <trkpt lat="31.204422196948162" lon="121.6161658655086">
        <ele>7.029890091293659</ele>
        <time>2018-09-19T22:16:08Z</time>
      </trkpt>
      <trkpt lat="31.20460937514473" lon="121.61635611943215">
        <ele>7.362341253442089</ele>
        <time>2018-09-19T22:16:25Z</time>
      </trkpt>
      <trkpt lat="31.204576642769425" lon="121.61627535268681">
        <ele>8.304634176045234</ele>
        <time>2018-09-19T22:16:32Z</time>
      </trkpt>
      <trkpt lat="31.204357250749062" lon="121.61602872420555">
        <ele>8.783584776313305</ele>
        <time>2018-09-19T22:16:52Z</time>
      </trkpt>
      <trkpt lat="31.204140045114773" lon="121.61576068052763">
        <ele>9.631393469839594</ele>
        <time>2018-09-19T22:17:15Z</time>
      </trkpt>
      <trkpt lat="31.20411215853497" lon="121.61571623147663">
        <ele>9.877735910260299</ele>
        <time>2018-09-19T22:17:18Z</time>
      </trkpt>
      <trkpt lat="31.20391737227248" lon="121.6155392544824">
        <ele>9.369292616139091</ele>
        <time>2018-09-19T22:17:36Z</time>
      </trkpt>
      <trkpt lat="31.203869134849587" lon="121.61551188269999">
        <ele>9.0092553245252</ele>
        <time>2018-09-19T22:17:39Z</time>
      </trkpt>
      <trkpt lat="31.203732088681935" lon="121.61534655455378">
        <ele>8.187564482149114</ele>
        <time>2018-09-19T22:17:56Z</time>
      </trkpt>
      <trkpt lat="31.20368683984893" lon="121.61531213501576">
        <ele>7.804364088633058</ele>
        <time>2018-09-19T22:17:59Z</time>
      </trkpt>
      <trkpt lat="31.203596578683126" lon="121.61528205595138">
        <ele>7.271834089383411</ele>
        <time>2018-09-19T22:18:06Z</time>
      </trkpt>
      <trkpt lat="31.2035798281223" lon="121.61521483684692">
        <ele>6.806419915153789</ele>
        <time>2018-09-19T22:18:13Z</time>
      </trkpt>
      <trkpt lat="31.20371443146991" lon="121.61507902891053">
        <ele>6.395762103481992</ele>
        <time>2018-09-19T22:18:24Z</time>
      </trkpt>
      <trkpt lat="31.2037925590669" lon="121.61503294351891">
        <ele>6.338120305868088</ele>
        <time>2018-09-19T22:18:32Z</time>
      </trkpt>
      <trkpt lat="31.20380754643071" lon="121.61494783155224">
        <ele>6.896431255805929</ele>
        <time>2018-09-19T22:18:39Z</time>
      </trkpt>
      <trkpt lat="31.203630148293634" lon="121.6147244968903">
        <ele>6.235310311232759</ele>
        <time>2018-09-19T22:18:58Z</time>
      </trkpt>
      <trkpt lat="31.203487024333892" lon="121.61468385024983">
        <ele>6.1666372954344055</ele>
        <time>2018-09-19T22:19:10Z</time>
      </trkpt>
      <trkpt lat="31.203452076866217" lon="121.61465051313742">
        <ele>6.096095856003892</ele>
        <time>2018-09-19T22:19:14Z</time>
      </trkpt>
      <trkpt lat="31.203363652391843" lon="121.61437620906726">
        <ele>5.7914657466080754</ele>
        <time>2018-09-19T22:19:38Z</time>
      </trkpt>
      <trkpt lat="31.20321747384649" lon="121.61410136448443">
        <ele>5.5843330625512735</ele>
        <time>2018-09-19T22:19:59Z</time>
      </trkpt>
      <trkpt lat="31.203178507449685" lon="121.61401029023783">
        <ele>5.365743367745573</ele>
        <time>2018-09-19T22:20:06Z</time>
      </trkpt>
      <trkpt lat="31.203136791980096" lon="121.61396367056187">
        <ele>5.193531497024409</ele>
        <time>2018-09-19T22:20:09Z</time>
      </trkpt>
      <trkpt lat="31.20299579688376" lon="121.61364544982769">
        <ele>5.33840981583004</ele>
        <time>2018-09-19T22:20:33Z</time>
      </trkpt>
      <trkpt lat="31.202922998421826" lon="121.61348010342029">
        <ele>5.283377080309123</ele>
        <time>2018-09-19T22:20:46Z</time>
      </trkpt>
      <trkpt lat="31.20272694290125" lon="121.61317950051904">
        <ele>6.310316510634486</ele>
        <time>2018-09-19T22:21:12Z</time>
      </trkpt>
      <trkpt lat="31.202592700819025" lon="121.61288132834781">
        <ele>7.927206710149889</ele>
        <time>2018-09-19T22:21:35Z</time>
      </trkpt>
      <trkpt lat="31.202437038756347" lon="121.61257935900703">
        <ele>8.381315010796548</ele>
        <time>2018-09-19T22:21:58Z</time>
      </trkpt>
      <trkpt lat="31.20234910429145" lon="121.61234488008074">
        <ele>8.414447591444258</ele>
        <time>2018-09-19T22:22:17Z</time>
      </trkpt>
      <trkpt lat="31.202286554167276" lon="121.61223970454706">
        <ele>8.461611719274394</ele>
        <time>2018-09-19T22:22:25Z</time>
      </trkpt>
      <trkpt lat="31.202287746712553" lon="121.61210036638761">
        <ele>8.480704460996272</ele>
        <time>2018-09-19T22:22:34Z</time>
      </trkpt>
      <trkpt lat="31.202568839257218" lon="121.61184389386226">
        <ele>8.5285296921599</ele>
        <time>2018-09-19T22:23:00Z</time>
      </trkpt>
      <trkpt lat="31.20279730385578" lon="121.61162103829074">
        <ele>8.435715357411688</ele>
        <time>2018-09-19T22:23:24Z</time>
      </trkpt>
      <trkpt lat="31.203086794192508" lon="121.61136835506939">
        <ele>8.157531614714415</ele>
        <time>2018-09-19T22:23:53Z</time>
      </trkpt>
      <trkpt lat="31.203247420910397" lon="121.61121354593779">
        <ele>7.870861976053014</ele>
        <time>2018-09-19T22:24:08Z</time>
      </trkpt>
      <trkpt lat="31.203327138613282" lon="121.61120811740739">
        <ele>8.471768569112378</ele>
        <time>2018-09-19T22:24:15Z</time>
      </trkpt>
      <trkpt lat="31.20339717727375" lon="121.61109153959158">
        <ele>7.864038787193678</ele>
        <time>2018-09-19T22:24:26Z</time>
      </trkpt>
      <trkpt lat="31.20353011697441" lon="121.61097739587981">
        <ele>7.740671729448955</ele>
        <time>2018-09-19T22:24:40Z</time>
      </trkpt>
      <trkpt lat="31.203587044263156" lon="121.61099257275636">
        <ele>7.787517577878724</ele>
        <time>2018-09-19T22:24:43Z</time>
      </trkpt>
      <trkpt lat="31.203661532388708" lon="121.61109368652504">
        <ele>8.208007236248179</ele>
        <time>2018-09-19T22:24:51Z</time>
      </trkpt>
      <trkpt lat="31.203743098217426" lon="121.6111560323288">
        <ele>7.904963600757995</ele>
        <time>2018-09-19T22:24:59Z</time>
      </trkpt>
      <trkpt lat="31.20386338647073" lon="121.61128560669907">
        <ele>8.738294989097113</ele>
        <time>2018-09-19T22:25:14Z</time>
      </trkpt>
      <trkpt lat="31.204021192368558" lon="121.61127854515273">
        <ele>9.224200136653735</ele>
        <time>2018-09-19T22:25:24Z</time>
      </trkpt>
      <trkpt lat="31.204118482412667" lon="121.61134251572545">
        <ele>9.761964555237391</ele>
        <time>2018-09-19T22:25:36Z</time>
      </trkpt>
      <trkpt lat="31.204183062300714" lon="121.6112755497122">
        <ele>10.344416718790427</ele>
        <time>2018-09-19T22:25:42Z</time>
      </trkpt>
      <trkpt lat="31.204183062300714" lon="121.6112755497122">
        <ele>10.344416718790427</ele>
        <time>2018-09-19T22:25:43Z</time>
      </trkpt>
    </trkseg>
  </trk>
</gpx>