<?xml version="1.0" encoding="UTF-8"?>
<gpx xmlns="http://www.topografix.com/GPX/1/1" xmlns:gpxtpx="http://www.garmin.com/xmlschemas/TrackPointExtension/v1" xmlns:xsi="http://www.w3.org/2001/XMLSchema-instance" xsi:schemaLocation="http://www.topografix.com/GPX/1/1 http://www.topografix.com/GPX/1/1/gpx.xsd" version="1.1" creator="gpx.py -- https://github.com/tkrajina/gpxpy">
  <trk>
    <name>gpx from keep</name>
    <type>Run</type>
    <trkseg>
      <trkpt lat="31.205337634587696" lon="121.6100324441194">
        <ele>7.949064409437334</ele>
        <time>2020-04-08T23:21:47Z</time>
      </trkpt>
      <trkpt lat="31.205363876349864" lon="121.61011648622006">
        <ele>7.949813489718217</ele>
        <time>2020-04-08T23:21:51Z</time>
      </trkpt>
      <trkpt lat="31.205438901351343" lon="121.61023034595004">
        <ele>7.832085559144616</ele>
        <time>2020-04-08T23:21:55Z</time>
      </trkpt>
      <trkpt lat="31.205473534687467" lon="121.61033282193621">
        <ele>7.601483390666544</ele>
        <time>2020-04-08T23:21:58Z</time>
      </trkpt>
      <trkpt lat="31.205563192945956" lon="121.61045671029217">
        <ele>7.169068179093301</ele>
        <time>2020-04-08T23:22:02Z</time>
      </trkpt>
      <trkpt lat="31.205636894028068" lon="121.61052393838102">
        <ele>6.827466212213039</ele>
        <time>2020-04-08T23:22:05Z</time>
      </trkpt>
      <trkpt lat="31.205659091962794" lon="121.6105732776333">
        <ele>6.475850185379386</ele>
        <time>2020-04-08T23:22:08Z</time>
      </trkpt>
      <trkpt lat="31.20565710779217" lon="121.61069364791294">
        <ele>5.738795332610607</ele>
        <time>2020-04-08T23:22:12Z</time>
      </trkpt>
      <trkpt lat="31.20559171298196" lon="121.61076468223294">
        <ele>6.3448305409401655</ele>
        <time>2020-04-08T23:22:15Z</time>
      </trkpt>
      <trkpt lat="31.205493796628204" lon="121.61081511530014">
        <ele>5.850351233035326</ele>
        <time>2020-04-08T23:22:19Z</time>
      </trkpt>
      <trkpt lat="31.205431876366962" lon="121.61095473736816">
        <ele>6.349291367456317</ele>
        <time>2020-04-08T23:22:23Z</time>
      </trkpt>
      <trkpt lat="31.205319524157307" lon="121.61109436275184">
        <ele>8.28334616869688</ele>
        <time>2020-04-08T23:22:29Z</time>
      </trkpt>
      <trkpt lat="31.20525170741318" lon="121.61113909954842">
        <ele>7.101648458279669</ele>
        <time>2020-04-08T23:22:33Z</time>
      </trkpt>
      <trkpt lat="31.20504838536764" lon="121.61146470256907">
        <ele>6.942917922511697</ele>
        <time>2020-04-08T23:22:46Z</time>
      </trkpt>
      <trkpt lat="31.204917287352597" lon="121.61165041205108">
        <ele>8.244224853813648</ele>
        <time>2020-04-08T23:22:53Z</time>
      </trkpt>
      <trkpt lat="31.204855880365297" lon="121.61182228869775">
        <ele>6.39294780511409</ele>
        <time>2020-04-08T23:22:59Z</time>
      </trkpt>
      <trkpt lat="31.204841979374834" lon="121.61191798434551">
        <ele>6.937010847963393</ele>
        <time>2020-04-08T23:23:03Z</time>
      </trkpt>
      <trkpt lat="31.204958466192693" lon="121.61204999451873">
        <ele>5.784408851526678</ele>
        <time>2020-04-08T23:23:10Z</time>
      </trkpt>
      <trkpt lat="31.205007729266" lon="121.61215815395335">
        <ele>4.506630810908973</ele>
        <time>2020-04-08T23:23:14Z</time>
      </trkpt>
      <trkpt lat="31.205163242540785" lon="121.61231049084292">
        <ele>6.498399006202817</ele>
        <time>2020-04-08T23:23:23Z</time>
      </trkpt>
      <trkpt lat="31.205220385976112" lon="121.61239506419355">
        <ele>5.512824594043195</ele>
        <time>2020-04-08T23:23:27Z</time>
      </trkpt>
      <trkpt lat="31.20530956722602" lon="121.61242352052575">
        <ele>5.223130845464766</ele>
        <time>2020-04-08T23:23:30Z</time>
      </trkpt>
      <trkpt lat="31.20536048486684" lon="121.61249453988722">
        <ele>5.966378558427095</ele>
        <time>2020-04-08T23:23:34Z</time>
      </trkpt>
      <trkpt lat="31.205498148112582" lon="121.61258778049789">
        <ele>7.587329699657857</ele>
        <time>2020-04-08T23:23:41Z</time>
      </trkpt>
      <trkpt lat="31.205674903814394" lon="121.61261894015745">
        <ele>7.576141668483615</ele>
        <time>2020-04-08T23:23:48Z</time>
      </trkpt>
      <trkpt lat="31.20577603695651" lon="121.61261947395596">
        <ele>7.57789989747107</ele>
        <time>2020-04-08T23:23:51Z</time>
      </trkpt>
      <trkpt lat="31.205874679344696" lon="121.61268371178049">
        <ele>6.09210641682148</ele>
        <time>2020-04-08T23:23:55Z</time>
      </trkpt>
      <trkpt lat="31.205935629626968" lon="121.61275310304424">
        <ele>5.10632489901036</ele>
        <time>2020-04-08T23:23:58Z</time>
      </trkpt>
      <trkpt lat="31.20596242661108" lon="121.61281002732953">
        <ele>5.180261919274926</ele>
        <time>2020-04-08T23:24:01Z</time>
      </trkpt>
      <trkpt lat="31.205955313476444" lon="121.61288945370865">
        <ele>6.243810826912522</ele>
        <time>2020-04-08T23:24:08Z</time>
      </trkpt>
      <trkpt lat="31.205680756395147" lon="121.6130976628698">
        <ele>6.268920533359051</ele>
        <time>2020-04-08T23:24:28Z</time>
      </trkpt>
      <trkpt lat="31.205570802275602" lon="121.61327495428365">
        <ele>7.4493377562612295</ele>
        <time>2020-04-08T23:24:35Z</time>
      </trkpt>
      <trkpt lat="31.20537952819828" lon="121.61342568612824">
        <ele>6.989813416264951</ele>
        <time>2020-04-08T23:24:45Z</time>
      </trkpt>
      <trkpt lat="31.205230490854557" lon="121.6136482467927">
        <ele>6.869039139710367</ele>
        <time>2020-04-08T23:24:55Z</time>
      </trkpt>
      <trkpt lat="31.20499441698549" lon="121.61387108362091">
        <ele>6.6652589393779635</ele>
        <time>2020-04-08T23:25:06Z</time>
      </trkpt>
      <trkpt lat="31.204927401452732" lon="121.6139247601708">
        <ele>6.744273831136525</ele>
        <time>2020-04-08T23:25:09Z</time>
      </trkpt>
      <trkpt lat="31.204664986050094" lon="121.61419367721238">
        <ele>7.691923542879522</ele>
        <time>2020-04-08T23:25:23Z</time>
      </trkpt>
      <trkpt lat="31.204606340375275" lon="121.61428801156073">
        <ele>6.353800446726382</ele>
        <time>2020-04-08T23:25:27Z</time>
      </trkpt>
      <trkpt lat="31.204422971671505" lon="121.61438289796968">
        <ele>6.658217744901776</ele>
        <time>2020-04-08T23:25:35Z</time>
      </trkpt>
      <trkpt lat="31.204306575639357" lon="121.6144747968121">
        <ele>5.676066007465124</ele>
        <time>2020-04-08T23:25:42Z</time>
      </trkpt>
      <trkpt lat="31.204167076709897" lon="121.61463148000165">
        <ele>5.626176815479994</ele>
        <time>2020-04-08T23:25:50Z</time>
      </trkpt>
      <trkpt lat="31.203952160809305" lon="121.61483451885636">
        <ele>5.013583763502538</ele>
        <time>2020-04-08T23:26:01Z</time>
      </trkpt>
      <trkpt lat="31.203749672089753" lon="121.61508688651058">
        <ele>5.399944958277047</ele>
        <time>2020-04-08T23:26:18Z</time>
      </trkpt>
      <trkpt lat="31.203579510693082" lon="121.6152668785591">
        <ele>5.263056254014373</ele>
        <time>2020-04-08T23:26:28Z</time>
      </trkpt>
      <trkpt lat="31.203337197261774" lon="121.61547912993686">
        <ele>5.795778132043779</ele>
        <time>2020-04-08T23:26:40Z</time>
      </trkpt>
      <trkpt lat="31.203089407914582" lon="121.61574829936939">
        <ele>6.732997871935368</ele>
        <time>2020-04-08T23:26:53Z</time>
      </trkpt>
      <trkpt lat="31.20300149856998" lon="121.61581606773467">
        <ele>6.360615300945938</ele>
        <time>2020-04-08T23:26:57Z</time>
      </trkpt>
      <trkpt lat="31.202954255595905" lon="121.6158878981957">
        <ele>6.644001864828169</ele>
        <time>2020-04-08T23:27:00Z</time>
      </trkpt>
      <trkpt lat="31.202893208369208" lon="121.6159337095021">
        <ele>6.872872208245099</ele>
        <time>2020-04-08T23:27:03Z</time>
      </trkpt>
      <trkpt lat="31.202656263085682" lon="121.61619962052364">
        <ele>3.3422313099727035</ele>
        <time>2020-04-08T23:27:18Z</time>
      </trkpt>
      <trkpt lat="31.20237700814056" lon="121.61647637361686">
        <ele>7.0001215590164065</ele>
        <time>2020-04-08T23:27:32Z</time>
      </trkpt>
      <trkpt lat="31.202259469380646" lon="121.6166230137338">
        <ele>5.45144110545516</ele>
        <time>2020-04-08T23:27:39Z</time>
      </trkpt>
      <trkpt lat="31.202202216353985" lon="121.61666936541755">
        <ele>4.4462357042357326</ele>
        <time>2020-04-08T23:27:42Z</time>
      </trkpt>
      <trkpt lat="31.202099860913968" lon="121.61681519002776">
        <ele>4.516984988003969</ele>
        <time>2020-04-08T23:27:49Z</time>
      </trkpt>
      <trkpt lat="31.20195549044356" lon="121.61694882083735">
        <ele>5.425715154968202</ele>
        <time>2020-04-08T23:27:57Z</time>
      </trkpt>
      <trkpt lat="31.201906072407844" lon="121.61702390052294">
        <ele>6.474165151827037</ele>
        <time>2020-04-08T23:28:01Z</time>
      </trkpt>
      <trkpt lat="31.201854256445632" lon="121.61705453125089">
        <ele>5.784352421760559</ele>
        <time>2020-04-08T23:28:05Z</time>
      </trkpt>
      <trkpt lat="31.20180483891012" lon="121.61712879752673">
        <ele>6.43258504755795</ele>
        <time>2020-04-08T23:28:08Z</time>
      </trkpt>
      <trkpt lat="31.201761065249745" lon="121.61725482953328">
        <ele>5.686504248529673</ele>
        <time>2020-04-08T23:28:12Z</time>
      </trkpt>
      <trkpt lat="31.201570628125904" lon="121.61735919088359">
        <ele>4.388010695576668</ele>
        <time>2020-04-08T23:28:19Z</time>
      </trkpt>
      <trkpt lat="31.201417276370456" lon="121.61752507151199">
        <ele>4.461885256692767</ele>
        <time>2020-04-08T23:28:27Z</time>
      </trkpt>
      <trkpt lat="31.201272037024637" lon="121.61771209017506">
        <ele>3.8605280108749866</ele>
        <time>2020-04-08T23:28:35Z</time>
      </trkpt>
      <trkpt lat="31.201179516160273" lon="121.61777741431297">
        <ele>4.14365841075778</ele>
        <time>2020-04-08T23:28:39Z</time>
      </trkpt>
      <trkpt lat="31.200979464503956" lon="121.61800644374256">
        <ele>5.13308996334672</ele>
        <time>2020-04-08T23:28:50Z</time>
      </trkpt>
      <trkpt lat="31.200741370515495" lon="121.6183173213618">
        <ele>4.776177509687841</ele>
        <time>2020-04-08T23:29:05Z</time>
      </trkpt>
      <trkpt lat="31.20070039749862" lon="121.61834903366952">
        <ele>3.888804577291012</ele>
        <time>2020-04-08T23:29:08Z</time>
      </trkpt>
      <trkpt lat="31.200505731747548" lon="121.61861003704652">
        <ele>3.76817939709872</ele>
        <time>2020-04-08T23:29:31Z</time>
      </trkpt>
      <trkpt lat="31.200459284997276" lon="121.61869188680954">
        <ele>2.927618839778006</ele>
        <time>2020-04-08T23:29:37Z</time>
      </trkpt>
      <trkpt lat="31.200330381773774" lon="121.6188046384409">
        <ele>3.8910201685503125</ele>
        <time>2020-04-08T23:29:49Z</time>
      </trkpt>
      <trkpt lat="31.20010534045812" lon="121.61906997577232">
        <ele>4.198377595283091</ele>
        <time>2020-04-08T23:30:03Z</time>
      </trkpt>
      <trkpt lat="31.199993998070756" lon="121.61924234581214">
        <ele>3.295563230291009</ele>
        <time>2020-04-08T23:30:10Z</time>
      </trkpt>
      <trkpt lat="31.199791266109695" lon="121.6194304405261">
        <ele>3.166050479747355</ele>
        <time>2020-04-08T23:30:21Z</time>
      </trkpt>
      <trkpt lat="31.199685934351866" lon="121.619557008115">
        <ele>3.6986007392406464</ele>
        <time>2020-04-08T23:30:27Z</time>
      </trkpt>
      <trkpt lat="31.199463648315568" lon="121.61977409926817">
        <ele>4.9008630234748125</ele>
        <time>2020-04-08T23:30:38Z</time>
      </trkpt>
      <trkpt lat="31.199378997208612" lon="121.61982857742674">
        <ele>4.816798526793718</ele>
        <time>2020-04-08T23:30:42Z</time>
      </trkpt>
      <trkpt lat="31.199187354831178" lon="121.62003861780255">
        <ele>5.433260332792997</ele>
        <time>2020-04-08T23:30:54Z</time>
      </trkpt>
      <trkpt lat="31.19915041739032" lon="121.62009824041121">
        <ele>5.38283855933696</ele>
        <time>2020-04-08T23:30:57Z</time>
      </trkpt>
      <trkpt lat="31.199069811679593" lon="121.62017250033125">
        <ele>4.762031064368784</ele>
        <time>2020-04-08T23:31:01Z</time>
      </trkpt>
      <trkpt lat="31.198828081878574" lon="121.62031262533945">
        <ele>6.229390270076692</ele>
        <time>2020-04-08T23:31:12Z</time>
      </trkpt>
      <trkpt lat="31.19876355603364" lon="121.62030883674247">
        <ele>5.949141612276435</ele>
        <time>2020-04-08T23:31:16Z</time>
      </trkpt>
      <trkpt lat="31.198682992736693" lon="121.6203429888132">
        <ele>6.164438153617084</ele>
        <time>2020-04-08T23:31:23Z</time>
      </trkpt>
      <trkpt lat="31.19861416786281" lon="121.62055545379651">
        <ele>7.09584762621671</ele>
        <time>2020-04-08T23:31:31Z</time>
      </trkpt>
      <trkpt lat="31.198506072536848" lon="121.62072591670906">
        <ele>7.696078990586102</ele>
        <time>2020-04-08T23:31:43Z</time>
      </trkpt>
      <trkpt lat="31.198439856552287" lon="121.62078066233643">
        <ele>5.83058868907392</ele>
        <time>2020-04-08T23:31:49Z</time>
      </trkpt>
      <trkpt lat="31.19834465532405" lon="121.6208112921283">
        <ele>7.149326421320438</ele>
        <time>2020-04-08T23:31:55Z</time>
      </trkpt>
      <trkpt lat="31.198214671427525" lon="121.62091319501351">
        <ele>5.162404965609312</ele>
        <time>2020-04-08T23:32:03Z</time>
      </trkpt>
      <trkpt lat="31.198117547329588" lon="121.62096658786442">
        <ele>5.877659604884684</ele>
        <time>2020-04-08T23:32:07Z</time>
      </trkpt>
      <trkpt lat="31.198065688287848" lon="121.62103298428566">
        <ele>7.598968872800469</ele>
        <time>2020-04-08T23:32:10Z</time>
      </trkpt>
      <trkpt lat="31.19779075923865" lon="121.62127960490943">
        <ele>5.597065101377666</ele>
        <time>2020-04-08T23:32:24Z</time>
      </trkpt>
      <trkpt lat="31.197640409730923" lon="121.62140779313746">
        <ele>6.435019290074706</ele>
        <time>2020-04-08T23:32:32Z</time>
      </trkpt>
      <trkpt lat="31.19755359447759" lon="121.62145522249531">
        <ele>4.758099352009594</ele>
        <time>2020-04-08T23:32:36Z</time>
      </trkpt>
      <trkpt lat="31.197265076372222" lon="121.6217278544784">
        <ele>5.943317872472107</ele>
        <time>2020-04-08T23:32:51Z</time>
      </trkpt>
      <trkpt lat="31.197050921401065" lon="121.62193381683022">
        <ele>4.953464584425092</ele>
        <time>2020-04-08T23:33:02Z</time>
      </trkpt>
      <trkpt lat="31.196817274043106" lon="121.62211268152896">
        <ele>6.304225319996476</ele>
        <time>2020-04-08T23:33:14Z</time>
      </trkpt>
      <trkpt lat="31.19664056771728" lon="121.62228801764456">
        <ele>6.882061267271638</ele>
        <time>2020-04-08T23:33:25Z</time>
      </trkpt>
      <trkpt lat="31.196707398204" lon="121.62264813567077">
        <ele>5.131786451674998</ele>
        <time>2020-04-08T23:33:40Z</time>
      </trkpt>
      <trkpt lat="31.19674169157449" lon="121.623005541911">
        <ele>3.7422506287693977</ele>
        <time>2020-04-08T23:33:53Z</time>
      </trkpt>
      <trkpt lat="31.19680067170319" lon="121.62334776740002">
        <ele>3.8172269985079765</ele>
        <time>2020-04-08T23:34:05Z</time>
      </trkpt>
      <trkpt lat="31.19682839305194" lon="121.62352307860814">
        <ele>5.024049318395555</ele>
        <time>2020-04-08T23:34:11Z</time>
      </trkpt>
      <trkpt lat="31.19681691879132" lon="121.62359678134521">
        <ele>5.269356490112841</ele>
        <time>2020-04-08T23:34:14Z</time>
      </trkpt>
      <trkpt lat="31.196893547314904" lon="121.62391271498655">
        <ele>5.068805276416242</ele>
        <time>2020-04-08T23:34:25Z</time>
      </trkpt>
      <trkpt lat="31.196912969119257" lon="121.62399671053649">
        <ele>4.685039498843253</ele>
        <time>2020-04-08T23:34:28Z</time>
      </trkpt>
      <trkpt lat="31.19695513515075" lon="121.62387856903503">
        <ele>5.465704925358295</ele>
        <time>2020-04-08T23:34:36Z</time>
      </trkpt>
      <trkpt lat="31.196905963985717" lon="121.62350031130102">
        <ele>6.8437842931598425</ele>
        <time>2020-04-08T23:34:55Z</time>
      </trkpt>
      <trkpt lat="31.196884445015424" lon="121.62335372168513">
        <ele>5.589262523688376</ele>
        <time>2020-04-08T23:35:06Z</time>
      </trkpt>
      <trkpt lat="31.196831821583988" lon="121.62314128905479">
        <ele>5.654177096672356</ele>
        <time>2020-04-08T23:35:23Z</time>
      </trkpt>
      <trkpt lat="31.196837006335944" lon="121.62287844975658">
        <ele>4.569030934013426</ele>
        <time>2020-04-08T23:35:34Z</time>
      </trkpt>
      <trkpt lat="31.19696168391658" lon="121.62268090215873">
        <ele>5.179714136756957</ele>
        <time>2020-04-08T23:35:42Z</time>
      </trkpt>
      <trkpt lat="31.19703575372581" lon="121.62263699865947">
        <ele>4.887491073459387</ele>
        <time>2020-04-08T23:35:45Z</time>
      </trkpt>
      <trkpt lat="31.197089286718942" lon="121.62253239897622">
        <ele>4.763372959569097</ele>
        <time>2020-04-08T23:35:49Z</time>
      </trkpt>
      <trkpt lat="31.19725155691971" lon="121.62241640898868">
        <ele>4.069546856917441</ele>
        <time>2020-04-08T23:35:57Z</time>
      </trkpt>
      <trkpt lat="31.1974149004727" lon="121.6223099025368">
        <ele>4.930177398957312</ele>
        <time>2020-04-08T23:36:04Z</time>
      </trkpt>
      <trkpt lat="31.197686871265233" lon="121.62204920088787">
        <ele>6.759093536064029</ele>
        <time>2020-04-08T23:36:17Z</time>
      </trkpt>
      <trkpt lat="31.19784188383587" lon="121.6218754908814">
        <ele>7.112409447319806</ele>
        <time>2020-04-08T23:36:25Z</time>
      </trkpt>
      <trkpt lat="31.19791161014984" lon="121.62183538014169">
        <ele>6.848335334099829</ele>
        <time>2020-04-08T23:36:28Z</time>
      </trkpt>
      <trkpt lat="31.19797648477807" lon="121.6217695266181">
        <ele>6.616091893054545</ele>
        <time>2020-04-08T23:36:32Z</time>
      </trkpt>
      <trkpt lat="31.198077900645625" lon="121.62175894998755">
        <ele>4.635550447739661</ele>
        <time>2020-04-08T23:36:36Z</time>
      </trkpt>
      <trkpt lat="31.19821468445387" lon="121.62164024894257">
        <ele>5.86362072173506</ele>
        <time>2020-04-08T23:36:43Z</time>
      </trkpt>
      <trkpt lat="31.19847257222758" lon="121.62136003102974">
        <ele>6.5189322931692</ele>
        <time>2020-04-08T23:36:58Z</time>
      </trkpt>
      <trkpt lat="31.1984989439277" lon="121.62129499246855">
        <ele>6.215852675959468</ele>
        <time>2020-04-08T23:37:01Z</time>
      </trkpt>
      <trkpt lat="31.19869057522923" lon="121.62110311835885">
        <ele>6.311445671133697</ele>
        <time>2020-04-08T23:37:11Z</time>
      </trkpt>
      <trkpt lat="31.198907639379854" lon="121.62095947677882">
        <ele>5.980162207968533</ele>
        <time>2020-04-08T23:37:21Z</time>
      </trkpt>
      <trkpt lat="31.198989269339673" lon="121.6209423977303">
        <ele>5.3746371334418654</ele>
        <time>2020-04-08T23:37:25Z</time>
      </trkpt>
      <trkpt lat="31.19909863280089" lon="121.62085377516885">
        <ele>6.163160853087902</ele>
        <time>2020-04-08T23:37:32Z</time>
      </trkpt>
      <trkpt lat="31.19916602685326" lon="121.62071285452217">
        <ele>5.452042267657816</ele>
        <time>2020-04-08T23:37:40Z</time>
      </trkpt>
      <trkpt lat="31.199297337473563" lon="121.62063723698861">
        <ele>5.03759519290179</ele>
        <time>2020-04-08T23:37:51Z</time>
      </trkpt>
      <trkpt lat="31.199607774105115" lon="121.62064832197116">
        <ele>5.8883157735690475</ele>
        <time>2020-04-08T23:38:16Z</time>
      </trkpt>
      <trkpt lat="31.19990029164626" lon="121.62068190074115">
        <ele>5.679940909147263</ele>
        <time>2020-04-08T23:38:39Z</time>
      </trkpt>
      <trkpt lat="31.199955862454587" lon="121.62069273580302">
        <ele>4.946401407942176</ele>
        <time>2020-04-08T23:38:45Z</time>
      </trkpt>
      <trkpt lat="31.20016561505735" lon="121.62079000419641">
        <ele>3.481409634463489</ele>
        <time>2020-04-08T23:38:56Z</time>
      </trkpt>
      <trkpt lat="31.20050180050598" lon="121.62080948768056">
        <ele>5.030133699066937</ele>
        <time>2020-04-08T23:39:07Z</time>
      </trkpt>
      <trkpt lat="31.200600452238383" lon="121.62084741812306">
        <ele>4.76754336617887</ele>
        <time>2020-04-08T23:39:11Z</time>
      </trkpt>
      <trkpt lat="31.2009349921031" lon="121.62088424503146">
        <ele>3.907495508901775</ele>
        <time>2020-04-08T23:39:22Z</time>
      </trkpt>
      <trkpt lat="31.2011266157606" lon="121.62094709865417">
        <ele>4.43203448317945</ele>
        <time>2020-04-08T23:39:29Z</time>
      </trkpt>
      <trkpt lat="31.20123344572906" lon="121.62094437992484">
        <ele>4.962381709367037</ele>
        <time>2020-04-08T23:39:33Z</time>
      </trkpt>
      <trkpt lat="31.2013142160635" lon="121.62096984617942">
        <ele>4.259648916311562</ele>
        <time>2020-04-08T23:39:36Z</time>
      </trkpt>
      <trkpt lat="31.201597791533377" lon="121.62099854748479">
        <ele>3.255883241072297</ele>
        <time>2020-04-08T23:39:47Z</time>
      </trkpt>
      <trkpt lat="31.201879170716392" lon="121.62105217982301">
        <ele>4.607275771908462</ele>
        <time>2020-04-08T23:39:58Z</time>
      </trkpt>
      <trkpt lat="31.20198680290528" lon="121.62105975857054">
        <ele>4.393184901215136</ele>
        <time>2020-04-08T23:40:02Z</time>
      </trkpt>
      <trkpt lat="31.202339485476656" lon="121.62111799166192">
        <ele>3.33629232365638</ele>
        <time>2020-04-08T23:40:17Z</time>
      </trkpt>
      <trkpt lat="31.20242514448198" lon="121.62113586971165">
        <ele>2.578990084119141</ele>
        <time>2020-04-08T23:40:21Z</time>
      </trkpt>
      <trkpt lat="31.20247775206659" lon="121.62112909068513">
        <ele>3.907282806932926</ele>
        <time>2020-04-08T23:40:24Z</time>
      </trkpt>
      <trkpt lat="31.202454961870796" lon="121.62089441683818">
        <ele>4.9252945790067315</ele>
        <time>2020-04-08T23:40:34Z</time>
      </trkpt>
      <trkpt lat="31.202460999590716" lon="121.62082748188213">
        <ele>4.024978685192764</ele>
        <time>2020-04-08T23:40:38Z</time>
      </trkpt>
      <trkpt lat="31.202413615667783" lon="121.62076786792515">
        <ele>5.227064567618072</ele>
        <time>2020-04-08T23:40:46Z</time>
      </trkpt>
      <trkpt lat="31.20246296749458" lon="121.62076298600839">
        <ele>5.454081615433097</ele>
        <time>2020-04-08T23:40:54Z</time>
      </trkpt>
      <trkpt lat="31.202453461620294" lon="121.6207778912802">
        <ele>5.322331700474024</ele>
        <time>2020-04-08T23:41:32Z</time>
      </trkpt>
      <trkpt lat="31.20240330931333" lon="121.62077084967524">
        <ele>4.2853652546182275</ele>
        <time>2020-04-08T23:41:44Z</time>
      </trkpt>
      <trkpt lat="31.20245624751198" lon="121.62070905935647">
        <ele>4.387818230316043</ele>
        <time>2020-04-08T23:42:02Z</time>
      </trkpt>
      <trkpt lat="31.202459050791717" lon="121.62062396772562">
        <ele>4.748147086240351</ele>
        <time>2020-04-08T23:42:06Z</time>
      </trkpt>
      <trkpt lat="31.20244168684878" lon="121.62038224303707">
        <ele>5.319842210039496</ele>
        <time>2020-04-08T23:42:18Z</time>
      </trkpt>
      <trkpt lat="31.202460456323823" lon="121.620325061545">
        <ele>6.682914984412491</ele>
        <time>2020-04-08T23:42:22Z</time>
      </trkpt>
      <trkpt lat="31.202507689643088" lon="121.62027275549667">
        <ele>9.133803246542811</ele>
        <time>2020-04-08T23:42:29Z</time>
      </trkpt>
      <trkpt lat="31.202515802283564" lon="121.62029280850787">
        <ele>7.094967044889927</ele>
        <time>2020-04-08T23:42:35Z</time>
      </trkpt>
      <trkpt lat="31.202515239463647" lon="121.62031204923528">
        <ele>5.130544260144234</ele>
        <time>2020-04-08T23:42:43Z</time>
      </trkpt>
      <trkpt lat="31.20245942532662" lon="121.62027492745716">
        <ele>4.853844520635903</ele>
        <time>2020-04-08T23:42:57Z</time>
      </trkpt>
      <trkpt lat="31.20242600510567" lon="121.62034105311194">
        <ele>4.862180422060192</ele>
        <time>2020-04-08T23:43:44Z</time>
      </trkpt>
      <trkpt lat="31.20244478086397" lon="121.6202779096226">
        <ele>4.261808414943516</ele>
        <time>2020-04-08T23:43:58Z</time>
      </trkpt>
      <trkpt lat="31.202508982219808" lon="121.62033183241009">
        <ele>5.74059718940407</ele>
        <time>2020-04-08T23:44:06Z</time>
      </trkpt>
      <trkpt lat="31.20257241995432" lon="121.62033914402963">
        <ele>5.270332000218332</ele>
        <time>2020-04-08T23:44:10Z</time>
      </trkpt>
      <trkpt lat="31.20278095946785" lon="121.62030471036873">
        <ele>1.4909792495891452</ele>
        <time>2020-04-08T23:44:18Z</time>
      </trkpt>
      <trkpt lat="31.202843082636605" lon="121.62027354072883">
        <ele>2.843941528350115</ele>
        <time>2020-04-08T23:44:21Z</time>
      </trkpt>
      <trkpt lat="31.20285459845143" lon="121.62015321735922">
        <ele>3.5553951114416122</ele>
        <time>2020-04-08T23:44:25Z</time>
      </trkpt>
      <trkpt lat="31.202773090927302" lon="121.61979821551363">
        <ele>4.561175160109997</ele>
        <time>2020-04-08T23:44:38Z</time>
      </trkpt>
      <trkpt lat="31.202769110931317" lon="121.61971528946806">
        <ele>5.485000070184469</ele>
        <time>2020-04-08T23:44:41Z</time>
      </trkpt>
      <trkpt lat="31.202651800710196" lon="121.61936760168766">
        <ele>4.029743294231594</ele>
        <time>2020-04-08T23:44:55Z</time>
      </trkpt>
      <trkpt lat="31.202580567886933" lon="121.61903101673461">
        <ele>4.932215254753828</ele>
        <time>2020-04-08T23:45:07Z</time>
      </trkpt>
      <trkpt lat="31.202493552856513" lon="121.61874619196956">
        <ele>4.623804522678256</ele>
        <time>2020-04-08T23:45:18Z</time>
      </trkpt>
      <trkpt lat="31.202534295312223" lon="121.61867491235441">
        <ele>5.789070571772754</ele>
        <time>2020-04-08T23:45:21Z</time>
      </trkpt>
      <trkpt lat="31.202589088409017" lon="121.61865132970367">
        <ele>5.992938186042011</ele>
        <time>2020-04-08T23:45:24Z</time>
      </trkpt>
      <trkpt lat="31.202666985679535" lon="121.61857056126486">
        <ele>6.3963676588609815</ele>
        <time>2020-04-08T23:45:28Z</time>
      </trkpt>
      <trkpt lat="31.20270909046768" lon="121.61849223466146">
        <ele>6.091205537319183</ele>
        <time>2020-04-08T23:45:31Z</time>
      </trkpt>
      <trkpt lat="31.202771425317632" lon="121.61851824689967">
        <ele>5.07423394639045</ele>
        <time>2020-04-08T23:45:34Z</time>
      </trkpt>
      <trkpt lat="31.202805173716015" lon="121.61839113803534">
        <ele>4.5821522641927</ele>
        <time>2020-04-08T23:45:38Z</time>
      </trkpt>
      <trkpt lat="31.202851644875537" lon="121.61828408273688">
        <ele>4.708863374777138</ele>
        <time>2020-04-08T23:45:42Z</time>
      </trkpt>
      <trkpt lat="31.202815941525444" lon="121.61819736012828">
        <ele>6.7473893677815795</ele>
        <time>2020-04-08T23:45:46Z</time>
      </trkpt>
      <trkpt lat="31.202762028538956" lon="121.61815427271338">
        <ele>5.4266723887994885</ele>
        <time>2020-04-08T23:45:50Z</time>
      </trkpt>
      <trkpt lat="31.20259342516345" lon="121.61783692220442">
        <ele>5.891794330440462</ele>
        <time>2020-04-08T23:46:13Z</time>
      </trkpt>
      <trkpt lat="31.202423460748037" lon="121.61752146495132">
        <ele>5.969627157784998</ele>
        <time>2020-04-08T23:46:36Z</time>
      </trkpt>
      <trkpt lat="31.202383936348024" lon="121.61745831927327">
        <ele>6.265948880463839</ele>
        <time>2020-04-08T23:46:40Z</time>
      </trkpt>
      <trkpt lat="31.202399527820628" lon="121.61731684207584">
        <ele>6.078264051117003</ele>
        <time>2020-04-08T23:46:47Z</time>
      </trkpt>
      <trkpt lat="31.20243428425685" lon="121.61726371777033">
        <ele>5.515886454842985</ele>
        <time>2020-04-08T23:46:51Z</time>
      </trkpt>
      <trkpt lat="31.202484456460095" lon="121.61725097530093">
        <ele>4.227183187380433</ele>
        <time>2020-04-08T23:46:54Z</time>
      </trkpt>
      <trkpt lat="31.202554453019218" lon="121.61720543674207">
        <ele>6.242373358458281</ele>
        <time>2020-04-08T23:46:58Z</time>
      </trkpt>
      <trkpt lat="31.202597356801068" lon="121.61713821800049">
        <ele>7.618878131732345</ele>
        <time>2020-04-08T23:47:02Z</time>
      </trkpt>
      <trkpt lat="31.20270263568956" lon="121.6170560872562">
        <ele>6.374915634281933</ele>
        <time>2020-04-08T23:47:09Z</time>
      </trkpt>
      <trkpt lat="31.202773476599486" lon="121.61697775352377">
        <ele>5.628240197896957</ele>
        <time>2020-04-08T23:47:13Z</time>
      </trkpt>
      <trkpt lat="31.20283831472679" lon="121.6169389906783">
        <ele>7.112218433991075</ele>
        <time>2020-04-08T23:47:16Z</time>
      </trkpt>
      <trkpt lat="31.203081228248806" lon="121.61667715270981">
        <ele>4.918264553882182</ele>
        <time>2020-04-08T23:47:30Z</time>
      </trkpt>
      <trkpt lat="31.203157162883077" lon="121.61665925814924">
        <ele>5.901473646052182</ele>
        <time>2020-04-08T23:47:33Z</time>
      </trkpt>
      <trkpt lat="31.20331345368135" lon="121.61653456897194">
        <ele>5.772246793843806</ele>
        <time>2020-04-08T23:47:40Z</time>
      </trkpt>
      <trkpt lat="31.203390005973517" lon="121.61643590533234">
        <ele>5.940452721901238</ele>
        <time>2020-04-08T23:47:44Z</time>
      </trkpt>
      <trkpt lat="31.203654502600326" lon="121.61628545739892">
        <ele>7.104139647446573</ele>
        <time>2020-04-08T23:47:55Z</time>
      </trkpt>
      <trkpt lat="31.203703625018047" lon="121.6162347690329">
        <ele>6.854331400245428</ele>
        <time>2020-04-08T23:47:58Z</time>
      </trkpt>
      <trkpt lat="31.203846319997993" lon="121.61615046385157">
        <ele>6.548796628601849</ele>
        <time>2020-04-08T23:48:06Z</time>
      </trkpt>
      <trkpt lat="31.203906053355084" lon="121.61605966025114">
        <ele>6.536728971637785</ele>
        <time>2020-04-08T23:48:10Z</time>
      </trkpt>
      <trkpt lat="31.203979862096713" lon="121.61599433311007">
        <ele>7.334809898398817</ele>
        <time>2020-04-08T23:48:13Z</time>
      </trkpt>
      <trkpt lat="31.204145548808498" lon="121.61596911248594">
        <ele>5.117692230269313</ele>
        <time>2020-04-08T23:48:21Z</time>
      </trkpt>
      <trkpt lat="31.204204142305397" lon="121.61593820879905">
        <ele>6.615871788002551</ele>
        <time>2020-04-08T23:48:24Z</time>
      </trkpt>
      <trkpt lat="31.20429761069491" lon="121.61601815851301">
        <ele>5.6164509654045105</ele>
        <time>2020-04-08T23:48:28Z</time>
      </trkpt>
      <trkpt lat="31.20434147931586" lon="121.61607832607656">
        <ele>3.7705594515427947</ele>
        <time>2020-04-08T23:48:31Z</time>
      </trkpt>
      <trkpt lat="31.20452516597636" lon="121.6162333458822">
        <ele>3.024040059186518</ele>
        <time>2020-04-08T23:48:39Z</time>
      </trkpt>
      <trkpt lat="31.204677750855357" lon="121.61630271923501">
        <ele>2.5326644387096167</ele>
        <time>2020-04-08T23:48:45Z</time>
      </trkpt>
      <trkpt lat="31.20457051696431" lon="121.61615609579478">
        <ele>6.039869854226708</ele>
        <time>2020-04-08T23:48:53Z</time>
      </trkpt>
      <trkpt lat="31.20435967876869" lon="121.61604200504063">
        <ele>7.579888300970197</ele>
        <time>2020-04-08T23:49:03Z</time>
      </trkpt>
      <trkpt lat="31.204144053462358" lon="121.61582518872855">
        <ele>7.49136692751199</ele>
        <time>2020-04-08T23:49:17Z</time>
      </trkpt>
      <trkpt lat="31.203947983195537" lon="121.61556960920609">
        <ele>7.347583368420601</ele>
        <time>2020-04-08T23:49:37Z</time>
      </trkpt>
      <trkpt lat="31.20377734983749" lon="121.61536715054524">
        <ele>7.387128240428865</ele>
        <time>2020-04-08T23:49:55Z</time>
      </trkpt>
      <trkpt lat="31.20369605868484" lon="121.61531186320367">
        <ele>6.432533928193152</ele>
        <time>2020-04-08T23:50:02Z</time>
      </trkpt>
      <trkpt lat="31.203605783022017" lon="121.61529804713388">
        <ele>6.834508351050317</ele>
        <time>2020-04-08T23:50:19Z</time>
      </trkpt>
      <trkpt lat="31.203635378760293" lon="121.61525088197415">
        <ele>6.617118593305349</ele>
        <time>2020-04-08T23:50:29Z</time>
      </trkpt>
      <trkpt lat="31.20375699657148" lon="121.61508254906953">
        <ele>6.624529482796788</ele>
        <time>2020-04-08T23:50:36Z</time>
      </trkpt>
      <trkpt lat="31.203832434094064" lon="121.61501234020021">
        <ele>6.528050540946424</ele>
        <time>2020-04-08T23:50:40Z</time>
      </trkpt>
      <trkpt lat="31.20392638494134" lon="121.61485512116171">
        <ele>6.546420682221651</ele>
        <time>2020-04-08T23:50:47Z</time>
      </trkpt>
      <trkpt lat="31.20400885294211" lon="121.61480605337246">
        <ele>5.525622640736401</ele>
        <time>2020-04-08T23:50:51Z</time>
      </trkpt>
      <trkpt lat="31.204086689809383" lon="121.61478192299649">
        <ele>6.039222043007612</ele>
        <time>2020-04-08T23:50:55Z</time>
      </trkpt>
      <trkpt lat="31.204226816983518" lon="121.61483883302192">
        <ele>5.410022063180804</ele>
        <time>2020-04-08T23:51:03Z</time>
      </trkpt>
      <trkpt lat="31.204305297236154" lon="121.61500850635022">
        <ele>5.101190587505698</ele>
        <time>2020-04-08T23:51:09Z</time>
      </trkpt>
      <trkpt lat="31.204360561013733" lon="121.61506271233141">
        <ele>5.7382428562268615</ele>
        <time>2020-04-08T23:51:13Z</time>
      </trkpt>
      <trkpt lat="31.204430492363283" lon="121.6150871012561">
        <ele>6.362048603594303</ele>
        <time>2020-04-08T23:51:20Z</time>
      </trkpt>
      <trkpt lat="31.204571292175928" lon="121.61499574485386">
        <ele>6.714558256790042</ele>
        <time>2020-04-08T23:51:31Z</time>
      </trkpt>
      <trkpt lat="31.204598995424274" lon="121.61494180291365">
        <ele>5.601190218701959</ele>
        <time>2020-04-08T23:51:34Z</time>
      </trkpt>
      <trkpt lat="31.204607191549922" lon="121.61487105708507">
        <ele>8.395843936130404</ele>
        <time>2020-04-08T23:51:38Z</time>
      </trkpt>
      <trkpt lat="31.204666624729942" lon="121.61480870952661">
        <ele>6.233803297393024</ele>
        <time>2020-04-08T23:51:44Z</time>
      </trkpt>
      <trkpt lat="31.204761247651696" lon="121.61481249647521">
        <ele>6.36234200373292</ele>
        <time>2020-04-08T23:51:48Z</time>
      </trkpt>
      <trkpt lat="31.20497987989765" lon="121.61470107441441">
        <ele>5.226205843500793</ele>
        <time>2020-04-08T23:51:58Z</time>
      </trkpt>
      <trkpt lat="31.205137328056043" lon="121.61448204670346">
        <ele>6.925007487647235</ele>
        <time>2020-04-08T23:52:09Z</time>
      </trkpt>
      <trkpt lat="31.205227935590177" lon="121.61442592992523">
        <ele>6.215720986016095</ele>
        <time>2020-04-08T23:52:17Z</time>
      </trkpt>
      <trkpt lat="31.205320120953726" lon="121.61442673548035">
        <ele>7.682265408337116</ele>
        <time>2020-04-08T23:52:23Z</time>
      </trkpt>
      <trkpt lat="31.205609895621233" lon="121.61419061738366">
        <ele>6.397454827092588</ele>
        <time>2020-04-08T23:52:37Z</time>
      </trkpt>
      <trkpt lat="31.2057574521005" lon="121.61412148418162">
        <ele>6.575406755320728</ele>
        <time>2020-04-08T23:52:44Z</time>
      </trkpt>
      <trkpt lat="31.206004422743153" lon="121.61384009855185">
        <ele>6.745258300565183</ele>
        <time>2020-04-08T23:52:55Z</time>
      </trkpt>
      <trkpt lat="31.206070123683617" lon="121.61373708767867">
        <ele>7.947512064129114</ele>
        <time>2020-04-08T23:52:59Z</time>
      </trkpt>
      <trkpt lat="31.20618923886201" lon="121.61363298766402">
        <ele>7.3063663905486465</ele>
        <time>2020-04-08T23:53:05Z</time>
      </trkpt>
      <trkpt lat="31.206327555838442" lon="121.61358743663436">
        <ele>4.255103088915348</ele>
        <time>2020-04-08T23:53:13Z</time>
      </trkpt>
      <trkpt lat="31.206333294998302" lon="121.61353268010616">
        <ele>6.012414396740496</ele>
        <time>2020-04-08T23:53:16Z</time>
      </trkpt>
      <trkpt lat="31.206231151286293" lon="121.61344242210744">
        <ele>7.039344678632915</ele>
        <time>2020-04-08T23:53:23Z</time>
      </trkpt>
      <trkpt lat="31.20615183104995" lon="121.61329306811122">
        <ele>7.638725982047617</ele>
        <time>2020-04-08T23:53:31Z</time>
      </trkpt>
      <trkpt lat="31.205985388513167" lon="121.61325052343018">
        <ele>7.571130060590804</ele>
        <time>2020-04-08T23:53:39Z</time>
      </trkpt>
      <trkpt lat="31.2058425819043" lon="121.61314996688765">
        <ele>6.6205366011708975</ele>
        <time>2020-04-08T23:53:49Z</time>
      </trkpt>
      <trkpt lat="31.205762670498082" lon="121.61305916342721">
        <ele>6.949631951749325</ele>
        <time>2020-04-08T23:53:56Z</time>
      </trkpt>
      <trkpt lat="31.205763279067984" lon="121.6129770273996">
        <ele>8.84737704694271</ele>
        <time>2020-04-08T23:54:00Z</time>
      </trkpt>
      <trkpt lat="31.205814311206776" lon="121.61290410353902">
        <ele>8.318082126788795</ele>
        <time>2020-04-08T23:54:04Z</time>
      </trkpt>
      <trkpt lat="31.205970314878027" lon="121.61277831050091">
        <ele>4.07129574380815</ele>
        <time>2020-04-08T23:54:15Z</time>
      </trkpt>
      <trkpt lat="31.205983111394794" lon="121.6127116240083">
        <ele>7.28829494304955</ele>
        <time>2020-04-08T23:54:19Z</time>
      </trkpt>
      <trkpt lat="31.205863314680638" lon="121.61265470717267">
        <ele>7.076750789768994</ele>
        <time>2020-04-08T23:54:40Z</time>
      </trkpt>
      <trkpt lat="31.20579882565508" lon="121.61260266507688">
        <ele>7.069439182057977</ele>
        <time>2020-04-08T23:54:44Z</time>
      </trkpt>
      <trkpt lat="31.205777187293663" lon="121.61253625200997">
        <ele>6.794947285205126</ele>
        <time>2020-04-08T23:54:48Z</time>
      </trkpt>
      <trkpt lat="31.205790792341485" lon="121.61247498640061">
        <ele>8.082358781248331</ele>
        <time>2020-04-08T23:54:51Z</time>
      </trkpt>
      <trkpt lat="31.205853473217243" lon="121.61241317440616">
        <ele>5.281077489256859</ele>
        <time>2020-04-08T23:54:55Z</time>
      </trkpt>
      <trkpt lat="31.206003881626426" lon="121.61215752941709">
        <ele>7.096515296027064</ele>
        <time>2020-04-08T23:55:05Z</time>
      </trkpt>
      <trkpt lat="31.206188706869376" lon="121.61192139714942">
        <ele>6.945444392040372</ele>
        <time>2020-04-08T23:55:15Z</time>
      </trkpt>
      <trkpt lat="31.20635018462925" lon="121.61172186170778">
        <ele>7.695032060146332</ele>
        <time>2020-04-08T23:55:25Z</time>
      </trkpt>
      <trkpt lat="31.206615229060244" lon="121.61152990658687">
        <ele>7.140624135732651</ele>
        <time>2020-04-08T23:55:39Z</time>
      </trkpt>
      <trkpt lat="31.206537980986695" lon="121.6114957552013">
        <ele>7.031232036650181</ele>
        <time>2020-04-08T23:55:46Z</time>
      </trkpt>
      <trkpt lat="31.206443488090326" lon="121.61131684051813">
        <ele>6.940235090442002</ele>
        <time>2020-04-08T23:55:59Z</time>
      </trkpt>
      <trkpt lat="31.206418615292932" lon="121.61122006118816">
        <ele>8.563332383520901</ele>
        <time>2020-04-08T23:56:06Z</time>
      </trkpt>
      <trkpt lat="31.206370413099144" lon="121.61113873596095">
        <ele>8.248256344348192</ele>
        <time>2020-04-08T23:56:14Z</time>
      </trkpt>
      <trkpt lat="31.20618289904257" lon="121.61098612286106">
        <ele>7.224639654159546</ele>
        <time>2020-04-08T23:56:29Z</time>
      </trkpt>
      <trkpt lat="31.206034246313497" lon="121.6107090696081">
        <ele>8.569470125250518</ele>
        <time>2020-04-08T23:56:47Z</time>
      </trkpt>
      <trkpt lat="31.20587331016042" lon="121.6105437095051">
        <ele>7.287736899219453</ele>
        <time>2020-04-08T23:57:01Z</time>
      </trkpt>
      <trkpt lat="31.205844074006073" lon="121.61047837553913">
        <ele>8.503088376484811</ele>
        <time>2020-04-08T23:57:05Z</time>
      </trkpt>
      <trkpt lat="31.205760104895198" lon="121.61036126451047">
        <ele>6.087030299007893</ele>
        <time>2020-04-08T23:57:13Z</time>
      </trkpt>
      <trkpt lat="31.205586906350256" lon="121.61028021765692">
        <ele>6.979329536668956</ele>
        <time>2020-04-08T23:57:26Z</time>
      </trkpt>
      <trkpt lat="31.205471236192402" lon="121.61013057506287">
        <ele>8.187250818125904</ele>
        <time>2020-04-08T23:57:41Z</time>
      </trkpt>
      <trkpt lat="31.205428147540097" lon="121.61009912985749">
        <ele>8.367064848542213</ele>
        <time>2020-04-08T23:57:44Z</time>
      </trkpt>
      <trkpt lat="31.205349244090595" lon="121.61010347414378">
        <ele>8.350651839748025</ele>
        <time>2020-04-08T23:57:48Z</time>
      </trkpt>
      <trkpt lat="31.205199491943908" lon="121.61022575689334">
        <ele>6.396542043425143</ele>
        <time>2020-04-08T23:57:59Z</time>
      </trkpt>
      <trkpt lat="31.205136511750712" lon="121.61033501865678">
        <ele>7.1913999961689115</ele>
        <time>2020-04-08T23:58:06Z</time>
      </trkpt>
    </trkseg>
  </trk>
</gpx>