<?xml version="1.0" encoding="UTF-8"?>
<gpx xmlns="http://www.topografix.com/GPX/1/1" xmlns:gpxtpx="http://www.garmin.com/xmlschemas/TrackPointExtension/v1" xmlns:xsi="http://www.w3.org/2001/XMLSchema-instance" xsi:schemaLocation="http://www.topografix.com/GPX/1/1 http://www.topografix.com/GPX/1/1/gpx.xsd" version="1.1" creator="gpx.py -- https://github.com/tkrajina/gpxpy">
  <trk>
    <name>gpx from keep</name>
    <type>Run</type>
    <trkseg>
      <trkpt lat="31.204413813909813" lon="121.61050750206985">
        <ele>9.407758712768555</ele>
        <time>2018-09-14T22:43:59Z</time>
      </trkpt>
      <trkpt lat="31.20453146597502" lon="121.61053650059996">
        <ele>9.39544677734375</ele>
        <time>2018-09-14T22:44:05Z</time>
      </trkpt>
      <trkpt lat="31.204534113813462" lon="121.61062542265485">
        <ele>9.348073959350586</ele>
        <time>2018-09-14T22:44:11Z</time>
      </trkpt>
      <trkpt lat="31.204762434008188" lon="121.61059151575944">
        <ele>9.31200122833252</ele>
        <time>2018-09-14T22:44:18Z</time>
      </trkpt>
      <trkpt lat="31.204728134557193" lon="121.61040201585226">
        <ele>9.271771430969238</ele>
        <time>2018-09-14T22:44:24Z</time>
      </trkpt>
      <trkpt lat="31.20500225070614" lon="121.61040443315136">
        <ele>9.225255012512207</ele>
        <time>2018-09-14T22:44:31Z</time>
      </trkpt>
      <trkpt lat="31.205049073533683" lon="121.61013738770745">
        <ele>9.139108657836914</ele>
        <time>2018-09-14T22:44:37Z</time>
      </trkpt>
      <trkpt lat="31.205125250868498" lon="121.6101541902112">
        <ele>9.146605491638184</ele>
        <time>2018-09-14T22:44:44Z</time>
      </trkpt>
      <trkpt lat="31.205182821866536" lon="121.61002432358406">
        <ele>9.078394889831543</ele>
        <time>2018-09-14T22:44:50Z</time>
      </trkpt>
      <trkpt lat="31.2054536274877" lon="121.61010888771811">
        <ele>9.035626411437988</ele>
        <time>2018-09-14T22:44:57Z</time>
      </trkpt>
      <trkpt lat="31.205560910249865" lon="121.6102333180591">
        <ele>8.993496894836426</ele>
        <time>2018-09-14T22:45:03Z</time>
      </trkpt>
      <trkpt lat="31.205495845508686" lon="121.61022220798073">
        <ele>7.790248870849609</ele>
        <time>2018-09-14T22:45:10Z</time>
      </trkpt>
      <trkpt lat="31.205636934505147" lon="121.61046700622059">
        <ele>7.790493011474609</ele>
        <time>2018-09-14T22:45:22Z</time>
      </trkpt>
      <trkpt lat="31.20577652769164" lon="121.61052555346839">
        <ele>7.791103363037109</ele>
        <time>2018-09-14T22:45:30Z</time>
      </trkpt>
      <trkpt lat="31.205855422551593" lon="121.61053340899407">
        <ele>7.791225433349609</ele>
        <time>2018-09-14T22:45:33Z</time>
      </trkpt>
      <trkpt lat="31.205926209212624" lon="121.6105049370933">
        <ele>7.791408538818359</ele>
        <time>2018-09-14T22:45:37Z</time>
      </trkpt>
      <trkpt lat="31.205984540924963" lon="121.61045206665719">
        <ele>7.791652679443359</ele>
        <time>2018-09-14T22:45:40Z</time>
      </trkpt>
      <trkpt lat="31.206038515085993" lon="121.61080531060333">
        <ele>7.791957855224609</ele>
        <time>2018-09-14T22:45:44Z</time>
      </trkpt>
      <trkpt lat="31.206090590884944" lon="121.6111525850823">
        <ele>7.792201995849609</ele>
        <time>2018-09-14T22:45:48Z</time>
      </trkpt>
      <trkpt lat="31.20620001707235" lon="121.6113049324319">
        <ele>7.792690277099609</ele>
        <time>2018-09-14T22:45:51Z</time>
      </trkpt>
      <trkpt lat="31.20626614457637" lon="121.61134477802572">
        <ele>7.797389984130859</ele>
        <time>2018-09-14T22:45:55Z</time>
      </trkpt>
      <trkpt lat="31.206299124007558" lon="121.61147761166934">
        <ele>7.800563812255859</ele>
        <time>2018-09-14T22:45:59Z</time>
      </trkpt>
      <trkpt lat="31.206380985462943" lon="121.61150634083104">
        <ele>7.802822113037109</ele>
        <time>2018-09-14T22:46:02Z</time>
      </trkpt>
      <trkpt lat="31.20645116339546" lon="121.61120406377488">
        <ele>7.621425628662109</ele>
        <time>2018-09-14T22:46:10Z</time>
      </trkpt>
      <trkpt lat="31.206540931729286" lon="121.61117369345963">
        <ele>7.359157562255859</ele>
        <time>2018-09-14T22:46:14Z</time>
      </trkpt>
      <trkpt lat="31.20663898039976" lon="121.61131221572684">
        <ele>6.996730804443359</ele>
        <time>2018-09-14T22:46:18Z</time>
      </trkpt>
      <trkpt lat="31.206660845262768" lon="121.61144261062914">
        <ele>6.921535491943359</ele>
        <time>2018-09-14T22:46:21Z</time>
      </trkpt>
      <trkpt lat="31.20670413369085" lon="121.61156703897873">
        <ele>7.319850921630859</ele>
        <time>2018-09-14T22:46:24Z</time>
      </trkpt>
      <trkpt lat="31.20679327402602" lon="121.61165107022055">
        <ele>7.411769866943359</ele>
        <time>2018-09-14T22:46:28Z</time>
      </trkpt>
      <trkpt lat="31.20685619657131" lon="121.61162585346656">
        <ele>7.190761566162109</ele>
        <time>2018-09-14T22:46:31Z</time>
      </trkpt>
      <trkpt lat="31.206906671337492" lon="121.61156810660368">
        <ele>6.956935882568359</ele>
        <time>2018-09-14T22:46:35Z</time>
      </trkpt>
      <trkpt lat="31.206966077797574" lon="121.61153123304429">
        <ele>6.848110198974609</ele>
        <time>2018-09-14T22:46:39Z</time>
      </trkpt>
      <trkpt lat="31.20713096967472" lon="121.61147618742235">
        <ele>6.842678070068359</ele>
        <time>2018-09-14T22:46:47Z</time>
      </trkpt>
      <trkpt lat="31.207250670944365" lon="121.61130132131753">
        <ele>6.845607757568359</ele>
        <time>2018-09-14T22:46:53Z</time>
      </trkpt>
      <trkpt lat="31.20738684681573" lon="121.61121266151812">
        <ele>6.837856292724609</ele>
        <time>2018-09-14T22:47:01Z</time>
      </trkpt>
      <trkpt lat="31.207455172478653" lon="121.61121346915981">
        <ele>6.838710784912109</ele>
        <time>2018-09-14T22:47:04Z</time>
      </trkpt>
      <trkpt lat="31.207522185854014" lon="121.6111554487944">
        <ele>6.837001800537109</ele>
        <time>2018-09-14T22:47:07Z</time>
      </trkpt>
      <trkpt lat="31.207591546181668" lon="121.61085343827659">
        <ele>6.837429046630859</ele>
        <time>2018-09-14T22:47:16Z</time>
      </trkpt>
      <trkpt lat="31.20762305854028" lon="121.6107696652343">
        <ele>6.837551116943359</ele>
        <time>2018-09-14T22:47:19Z</time>
      </trkpt>
      <trkpt lat="31.207616357966486" lon="121.61066149573925">
        <ele>6.837673187255859</ele>
        <time>2018-09-14T22:47:24Z</time>
      </trkpt>
      <trkpt lat="31.207632041194305" lon="121.6107208660369">
        <ele>6.837734222412109</ele>
        <time>2018-09-14T22:47:25Z</time>
      </trkpt>
      <trkpt lat="31.2076967508859" lon="121.61084800755296">
        <ele>6.837978363037109</ele>
        <time>2018-09-14T22:47:29Z</time>
      </trkpt>
      <trkpt lat="31.2077215514466" lon="121.61104563749696">
        <ele>6.807338714599609</ele>
        <time>2018-09-14T22:47:33Z</time>
      </trkpt>
      <trkpt lat="31.20781417317395" lon="121.61119093841774">
        <ele>6.807765960693359</ele>
        <time>2018-09-14T22:47:37Z</time>
      </trkpt>
      <trkpt lat="31.207920378484474" lon="121.61129909717718">
        <ele>6.808803558349609</ele>
        <time>2018-09-14T22:47:41Z</time>
      </trkpt>
      <trkpt lat="31.208103308758062" lon="121.6117753927007">
        <ele>6.812099456787109</ele>
        <time>2018-09-14T22:48:03Z</time>
      </trkpt>
      <trkpt lat="31.20813334043865" lon="121.6118599702466">
        <ele>6.812343597412109</ele>
        <time>2018-09-14T22:48:06Z</time>
      </trkpt>
      <trkpt lat="31.20843733617681" lon="121.61214485824772">
        <ele>6.813930511474609</ele>
        <time>2018-09-14T22:48:20Z</time>
      </trkpt>
      <trkpt lat="31.208599584128752" lon="121.61235385119161">
        <ele>6.814479827880859</ele>
        <time>2018-09-14T22:48:31Z</time>
      </trkpt>
      <trkpt lat="31.208651088561496" lon="121.6123684854397">
        <ele>6.814723968505859</ele>
        <time>2018-09-14T22:48:34Z</time>
      </trkpt>
      <trkpt lat="31.20870045804634" lon="121.6123394754173">
        <ele>6.814846038818359</ele>
        <time>2018-09-14T22:48:37Z</time>
      </trkpt>
      <trkpt lat="31.208676139889388" lon="121.61223158585696">
        <ele>6.815151214599609</ele>
        <time>2018-09-14T22:48:44Z</time>
      </trkpt>
      <trkpt lat="31.208708801284143" lon="121.61241863103844">
        <ele>6.815944671630859</ele>
        <time>2018-09-14T22:48:55Z</time>
      </trkpt>
      <trkpt lat="31.208803113474083" lon="121.61247365298149">
        <ele>6.816188812255859</ele>
        <time>2018-09-14T22:48:59Z</time>
      </trkpt>
      <trkpt lat="31.208689066721202" lon="121.61234408478207">
        <ele>6.816677093505859</ele>
        <time>2018-09-14T22:49:13Z</time>
      </trkpt>
      <trkpt lat="31.208414595118494" lon="121.61210040198202">
        <ele>6.816738128662109</ele>
        <time>2018-09-14T22:49:24Z</time>
      </trkpt>
      <trkpt lat="31.208214446935393" lon="121.6118117095871">
        <ele>6.816799163818359</ele>
        <time>2018-09-14T22:49:34Z</time>
      </trkpt>
      <trkpt lat="31.20804588282171" lon="121.61170301621608">
        <ele>6.816677093505859</ele>
        <time>2018-09-14T22:49:38Z</time>
      </trkpt>
      <trkpt lat="31.207960801829653" lon="121.6116292863303">
        <ele>6.816738128662109</ele>
        <time>2018-09-14T22:49:41Z</time>
      </trkpt>
      <trkpt lat="31.207618853280373" lon="121.61096024965713">
        <ele>6.836391448974609</ele>
        <time>2018-09-14T22:50:03Z</time>
      </trkpt>
      <trkpt lat="31.207647100936587" lon="121.61089220112767">
        <ele>6.836879730224609</ele>
        <time>2018-09-14T22:50:10Z</time>
      </trkpt>
      <trkpt lat="31.207622750381653" lon="121.61082090352474">
        <ele>6.836879730224609</ele>
        <time>2018-09-14T22:50:14Z</time>
      </trkpt>
      <trkpt lat="31.20765722754571" lon="121.61076152934073">
        <ele>6.837001800537109</ele>
        <time>2018-09-14T22:50:18Z</time>
      </trkpt>
      <trkpt lat="31.20780534542052" lon="121.61065361811069">
        <ele>6.837490081787109</ele>
        <time>2018-09-14T22:50:24Z</time>
      </trkpt>
      <trkpt lat="31.207952594063066" lon="121.6106232423111">
        <ele>6.837917327880859</ele>
        <time>2018-09-14T22:50:31Z</time>
      </trkpt>
      <trkpt lat="31.208167786380763" lon="121.6103681142435">
        <ele>6.838405609130859</ele>
        <time>2018-09-14T22:50:41Z</time>
      </trkpt>
      <trkpt lat="31.20820066828934" lon="121.61026237953908">
        <ele>6.838466644287109</ele>
        <time>2018-09-14T22:50:44Z</time>
      </trkpt>
      <trkpt lat="31.20832761849087" lon="121.61017886753658">
        <ele>6.838771820068359</ele>
        <time>2018-09-14T22:50:52Z</time>
      </trkpt>
      <trkpt lat="31.20839817493453" lon="121.61009129323376">
        <ele>6.649929046630859</ele>
        <time>2018-09-14T22:50:56Z</time>
      </trkpt>
      <trkpt lat="31.208447606635303" lon="121.60996874694219">
        <ele>6.477870941162109</ele>
        <time>2018-09-14T22:51:00Z</time>
      </trkpt>
      <trkpt lat="31.20868093227912" lon="121.60975237939226">
        <ele>6.520534515380859</ele>
        <time>2018-09-14T22:51:10Z</time>
      </trkpt>
      <trkpt lat="31.208763203604747" lon="121.60957994316657">
        <ele>6.328456878662109</ele>
        <time>2018-09-14T22:51:14Z</time>
      </trkpt>
      <trkpt lat="31.208865991508524" lon="121.60953953827617">
        <ele>5.989284515380859</ele>
        <time>2018-09-14T22:51:21Z</time>
      </trkpt>
      <trkpt lat="31.2089313907606" lon="121.60945711315861">
        <ele>5.743251800537109</ele>
        <time>2018-09-14T22:51:25Z</time>
      </trkpt>
      <trkpt lat="31.208976655061587" lon="121.60948015443186">
        <ele>5.557155609130859</ele>
        <time>2018-09-14T22:51:29Z</time>
      </trkpt>
      <trkpt lat="31.209071275632834" lon="121.60948909349123">
        <ele>5.299770355224609</ele>
        <time>2018-09-14T22:51:33Z</time>
      </trkpt>
      <trkpt lat="31.209141257737027" lon="121.60944597996891">
        <ele>5.004543304443359</ele>
        <time>2018-09-14T22:51:36Z</time>
      </trkpt>
      <trkpt lat="31.20926716144803" lon="121.60930146314702">
        <ele>5.232326507568359</ele>
        <time>2018-09-14T22:51:43Z</time>
      </trkpt>
      <trkpt lat="31.209326632182457" lon="121.6091626444387">
        <ele>5.729824066162109</ele>
        <time>2018-09-14T22:51:46Z</time>
      </trkpt>
      <trkpt lat="31.20938872081222" lon="121.60916507939932">
        <ele>5.845119476318359</ele>
        <time>2018-09-14T22:51:50Z</time>
      </trkpt>
      <trkpt lat="31.209474108753373" lon="121.60919543792724">
        <ele>5.748989105224609</ele>
        <time>2018-09-14T22:51:53Z</time>
      </trkpt>
      <trkpt lat="31.209581206218658" lon="121.60919759804214">
        <ele>5.298793792724609</ele>
        <time>2018-09-14T22:51:57Z</time>
      </trkpt>
      <trkpt lat="31.209727369531794" lon="121.60916613588836">
        <ele>4.930751800537109</ele>
        <time>2018-09-14T22:52:01Z</time>
      </trkpt>
      <trkpt lat="31.209952127401227" lon="121.60918780701505">
        <ele>4.775966644287109</ele>
        <time>2018-09-14T22:52:12Z</time>
      </trkpt>
      <trkpt lat="31.210003508087393" lon="121.60898066519577">
        <ele>4.857204437255859</ele>
        <time>2018-09-14T22:52:19Z</time>
      </trkpt>
      <trkpt lat="31.21006184390511" lon="121.60891694620518">
        <ele>4.850246429443359</ele>
        <time>2018-09-14T22:52:23Z</time>
      </trkpt>
      <trkpt lat="31.210111455382417" lon="121.60892697370812">
        <ele>4.850429534912109</ele>
        <time>2018-09-14T22:52:26Z</time>
      </trkpt>
      <trkpt lat="31.21020620239808" lon="121.60915742041234">
        <ele>4.850795745849609</ele>
        <time>2018-09-14T22:52:36Z</time>
      </trkpt>
      <trkpt lat="31.2102639458503" lon="121.60957683681094">
        <ele>4.440700531005859</ele>
        <time>2018-09-14T22:52:48Z</time>
      </trkpt>
      <trkpt lat="31.21062588579869" lon="121.60961747432744">
        <ele>4.834194183349609</ele>
        <time>2018-09-14T22:53:00Z</time>
      </trkpt>
      <trkpt lat="31.210693374591507" lon="121.6096532560347">
        <ele>4.868312835693359</ele>
        <time>2018-09-14T22:53:04Z</time>
      </trkpt>
      <trkpt lat="31.210924201140067" lon="121.60991947089161">
        <ele>4.857326507568359</ele>
        <time>2018-09-14T22:53:17Z</time>
      </trkpt>
      <trkpt lat="31.211116551941746" lon="121.61014501937152">
        <ele>5.261745452880859</ele>
        <time>2018-09-14T22:53:29Z</time>
      </trkpt>
      <trkpt lat="31.211322437526512" lon="121.61039903069796">
        <ele>4.54076801972117</ele>
        <time>2018-09-14T22:53:43Z</time>
      </trkpt>
      <trkpt lat="31.21141075411563" lon="121.61050339921358">
        <ele>4.145427040982117</ele>
        <time>2018-09-14T22:53:49Z</time>
      </trkpt>
      <trkpt lat="31.211476281208487" lon="121.61062674641657">
        <ele>4.063416917196456</ele>
        <time>2018-09-14T22:53:55Z</time>
      </trkpt>
      <trkpt lat="31.211696235248137" lon="121.61091653648133">
        <ele>3.637305816116424</ele>
        <time>2018-09-14T22:54:09Z</time>
      </trkpt>
      <trkpt lat="31.211887715311622" lon="121.61120822289794">
        <ele>3.504624384715603</ele>
        <time>2018-09-14T22:54:23Z</time>
      </trkpt>
      <trkpt lat="31.212057208486073" lon="121.61152864331534">
        <ele>4.140304507498323</ele>
        <time>2018-09-14T22:54:37Z</time>
      </trkpt>
      <trkpt lat="31.212226430140515" lon="121.61184445076469">
        <ele>4.317209869704481</ele>
        <time>2018-09-14T22:54:51Z</time>
      </trkpt>
      <trkpt lat="31.21237316253428" lon="121.61213585801323">
        <ele>4.596450667965438</ele>
        <time>2018-09-14T22:55:03Z</time>
      </trkpt>
      <trkpt lat="31.212504663939477" lon="121.61248337689868">
        <ele>4.317801242611317</ele>
        <time>2018-09-14T22:55:17Z</time>
      </trkpt>
      <trkpt lat="31.212613211896336" lon="121.6127083649154">
        <ele>4.326542457805072</ele>
        <time>2018-09-14T22:55:27Z</time>
      </trkpt>
      <trkpt lat="31.21269943138914" lon="121.61304910211008">
        <ele>3.8105831340158947</ele>
        <time>2018-09-14T22:55:40Z</time>
      </trkpt>
      <trkpt lat="31.212733247333208" lon="121.61314316230553">
        <ele>3.4016852409091687</ele>
        <time>2018-09-14T22:55:44Z</time>
      </trkpt>
      <trkpt lat="31.212743199778494" lon="121.61324101912267">
        <ele>3.4172131514549555</ele>
        <time>2018-09-14T22:55:48Z</time>
      </trkpt>
      <trkpt lat="31.21284682533502" lon="121.61350910044568">
        <ele>2.771827410277936</ele>
        <time>2018-09-14T22:56:01Z</time>
      </trkpt>
      <trkpt lat="31.212954449798616" lon="121.61352969286483">
        <ele>2.754254359888277</ele>
        <time>2018-09-14T22:56:08Z</time>
      </trkpt>
      <trkpt lat="31.213178182567592" lon="121.61347573138666">
        <ele>2.3377500235451585</ele>
        <time>2018-09-14T22:56:19Z</time>
      </trkpt>
      <trkpt lat="31.213504613358754" lon="121.6134982032277">
        <ele>1.5907039153773592</ele>
        <time>2018-09-14T22:56:34Z</time>
      </trkpt>
      <trkpt lat="31.213725356962986" lon="121.61345237404971">
        <ele>1.4811316677243749</ele>
        <time>2018-09-14T22:56:44Z</time>
      </trkpt>
      <trkpt lat="31.21405154112972" lon="121.61344529922678">
        <ele>0.9105833843108417</ele>
        <time>2018-09-14T22:56:59Z</time>
      </trkpt>
      <trkpt lat="31.214345511251505" lon="121.61337588066529">
        <ele>0.9580880645940777</ele>
        <time>2018-09-14T22:57:13Z</time>
      </trkpt>
      <trkpt lat="31.214484085898242" lon="121.61334740666018">
        <ele>0.6812020508868155</ele>
        <time>2018-09-14T22:57:23Z</time>
      </trkpt>
      <trkpt lat="31.214561953859203" lon="121.61328451143176">
        <ele>0.37346233738931645</ele>
        <time>2018-09-14T22:57:30Z</time>
      </trkpt>
      <trkpt lat="31.21459751912599" lon="121.61322785422261">
        <ele>0.23817592773364105</ele>
        <time>2018-09-14T22:57:33Z</time>
      </trkpt>
      <trkpt lat="31.21461004550673" lon="121.6131614401152">
        <ele>0.020224228418090462</ele>
        <time>2018-09-14T22:57:36Z</time>
      </trkpt>
      <trkpt lat="31.214556111973565" lon="121.61279657593354">
        <ele>0.19079743148137496</ele>
        <time>2018-09-14T22:57:51Z</time>
      </trkpt>
      <trkpt lat="31.214510581250618" lon="121.61242845235817">
        <ele>0.27191593582959506</ele>
        <time>2018-09-14T22:58:06Z</time>
      </trkpt>
      <trkpt lat="31.214446618705065" lon="121.61204649903232">
        <ele>0.28735550278181066</ele>
        <time>2018-09-14T22:58:20Z</time>
      </trkpt>
      <trkpt lat="31.214418425814905" lon="121.61168432611677">
        <ele>0.13779193831502923</ele>
        <time>2018-09-14T22:58:34Z</time>
      </trkpt>
      <trkpt lat="31.21436828188027" lon="121.6113004616551">
        <ele>-0.6657605043161166</ele>
        <time>2018-09-14T22:58:49Z</time>
      </trkpt>
      <trkpt lat="31.214360477307757" lon="121.61122157325278">
        <ele>-0.479408827549209</ele>
        <time>2018-09-14T22:58:52Z</time>
      </trkpt>
      <trkpt lat="31.214446432720166" lon="121.61084446731478">
        <ele>-0.7353406486646001</ele>
        <time>2018-09-14T22:59:06Z</time>
      </trkpt>
      <trkpt lat="31.214539318776037" lon="121.61062649312487">
        <ele>-0.6438422790801113</ele>
        <time>2018-09-14T22:59:16Z</time>
      </trkpt>
      <trkpt lat="31.214643546393894" lon="121.61047114142838">
        <ele>-0.45962745637928215</ele>
        <time>2018-09-14T22:59:23Z</time>
      </trkpt>
      <trkpt lat="31.214919189235882" lon="121.61023444205887">
        <ele>-0.6607101053637692</ele>
        <time>2018-09-14T22:59:38Z</time>
      </trkpt>
      <trkpt lat="31.21523053793509" lon="121.61011621265213">
        <ele>-0.6503942927186603</ele>
        <time>2018-09-14T22:59:53Z</time>
      </trkpt>
      <trkpt lat="31.215560309101075" lon="121.61001885667525">
        <ele>-0.9051040642604811</ele>
        <time>2018-09-14T23:00:08Z</time>
      </trkpt>
      <trkpt lat="31.215820125476082" lon="121.60992286162589">
        <ele>-0.5972022352420261</ele>
        <time>2018-09-14T23:00:18Z</time>
      </trkpt>
      <trkpt lat="31.215913136982742" lon="121.60990658718806">
        <ele>-0.750970002562326</ele>
        <time>2018-09-14T23:00:22Z</time>
      </trkpt>
      <trkpt lat="31.21599802906437" lon="121.60986889549427">
        <ele>-1.0465623513105218</ele>
        <time>2018-09-14T23:00:26Z</time>
      </trkpt>
      <trkpt lat="31.216254827413987" lon="121.60982414057098">
        <ele>-0.8307289996254941</ele>
        <time>2018-09-14T23:00:38Z</time>
      </trkpt>
      <trkpt lat="31.216350052071782" lon="121.60974334072156">
        <ele>-0.938596243773576</ele>
        <time>2018-09-14T23:00:46Z</time>
      </trkpt>
      <trkpt lat="31.216424485742465" lon="121.6095340332028">
        <ele>-0.8906185162603926</ele>
        <time>2018-09-14T23:00:59Z</time>
      </trkpt>
      <trkpt lat="31.216318982442864" lon="121.60917318227585">
        <ele>-0.23319125186309186</ele>
        <time>2018-09-14T23:01:23Z</time>
      </trkpt>
      <trkpt lat="31.21624734615919" lon="121.60884350217091">
        <ele>0.4589451991906852</ele>
        <time>2018-09-14T23:01:42Z</time>
      </trkpt>
      <trkpt lat="31.216205031531185" lon="121.60844576118637">
        <ele>1.3587239404973968</ele>
        <time>2018-09-14T23:02:06Z</time>
      </trkpt>
      <trkpt lat="31.216106521005" lon="121.60815186222239">
        <ele>2.867228383332783</ele>
        <time>2018-09-14T23:02:24Z</time>
      </trkpt>
      <trkpt lat="31.216038663099717" lon="121.60782921623834">
        <ele>0.2930922068617612</ele>
        <time>2018-09-14T23:02:46Z</time>
      </trkpt>
      <trkpt lat="31.21599712555028" lon="121.60746589206357">
        <ele>-1.8885743059005318</ele>
        <time>2018-09-14T23:03:10Z</time>
      </trkpt>
      <trkpt lat="31.21598171519211" lon="121.60739051566492">
        <ele>-2.0028964595215175</ele>
        <time>2018-09-14T23:03:14Z</time>
      </trkpt>
      <trkpt lat="31.21591262247206" lon="121.60730972056349">
        <ele>-2.237719401011452</ele>
        <time>2018-09-14T23:03:18Z</time>
      </trkpt>
      <trkpt lat="31.215887446254687" lon="121.60724193649797">
        <ele>-2.5979251944266597</ele>
        <time>2018-09-14T23:03:24Z</time>
      </trkpt>
      <trkpt lat="31.21583363756418" lon="121.60698624971482">
        <ele>-3.3249153058115706</ele>
        <time>2018-09-14T23:03:43Z</time>
      </trkpt>
      <trkpt lat="31.215758887087798" lon="121.60683956424376">
        <ele>-4.012740608435505</ele>
        <time>2018-09-14T23:03:54Z</time>
      </trkpt>
      <trkpt lat="31.215664292178413" lon="121.60678263049303">
        <ele>-3.917910208888606</ele>
        <time>2018-09-14T23:04:01Z</time>
      </trkpt>
      <trkpt lat="31.215559053862165" lon="121.60684771526331">
        <ele>-3.9348523186509343</ele>
        <time>2018-09-14T23:04:09Z</time>
      </trkpt>
      <trkpt lat="31.215264536750713" lon="121.6069556570015">
        <ele>-3.434801268395292</ele>
        <time>2018-09-14T23:04:32Z</time>
      </trkpt>
      <trkpt lat="31.214993347233822" lon="121.60704597170317">
        <ele>-3.729159524810136</ele>
        <time>2018-09-14T23:04:51Z</time>
      </trkpt>
      <trkpt lat="31.214901663453354" lon="121.60711403718297">
        <ele>-2.9331222934881644</ele>
        <time>2018-09-14T23:05:12Z</time>
      </trkpt>
      <trkpt lat="31.21486696738106" lon="121.60709750010322">
        <ele>-3.005973255796672</ele>
        <time>2018-09-14T23:05:27Z</time>
      </trkpt>
      <trkpt lat="31.21460171123275" lon="121.60724150050895">
        <ele>-1.7924897789364032</ele>
        <time>2018-09-14T23:05:50Z</time>
      </trkpt>
      <trkpt lat="31.214308000183365" lon="121.60735947255671">
        <ele>0.5013667600725622</ele>
        <time>2018-09-14T23:06:11Z</time>
      </trkpt>
      <trkpt lat="31.21423723503556" lon="121.60735649582786">
        <ele>0.4934546251329923</ele>
        <time>2018-09-14T23:06:15Z</time>
      </trkpt>
      <trkpt lat="31.21395788771877" lon="121.60748476947022">
        <ele>0.5856521027595054</ele>
        <time>2018-09-14T23:06:29Z</time>
      </trkpt>
      <trkpt lat="31.213609139329467" lon="121.60759515282686">
        <ele>0.4809259751589785</ele>
        <time>2018-09-14T23:06:43Z</time>
      </trkpt>
      <trkpt lat="31.213290755329485" lon="121.60770987134876">
        <ele>0.8004975251583399</ele>
        <time>2018-09-14T23:06:56Z</time>
      </trkpt>
      <trkpt lat="31.213003832999323" lon="121.60780777612088">
        <ele>1.0055990733418643</ele>
        <time>2018-09-14T23:07:08Z</time>
      </trkpt>
      <trkpt lat="31.212725038358787" lon="121.60791571184804">
        <ele>1.3609248238171858</ele>
        <time>2018-09-14T23:07:21Z</time>
      </trkpt>
      <trkpt lat="31.212442461212934" lon="121.60800114311165">
        <ele>1.0434134120255738</ele>
        <time>2018-09-14T23:07:34Z</time>
      </trkpt>
      <trkpt lat="31.21221383477042" lon="121.60809524589159">
        <ele>0.6517006130290977</ele>
        <time>2018-09-14T23:07:45Z</time>
      </trkpt>
      <trkpt lat="31.21191926688109" lon="121.6082774718933">
        <ele>0.6853092308051725</ele>
        <time>2018-09-14T23:08:00Z</time>
      </trkpt>
      <trkpt lat="31.211803988371848" lon="121.60834987362762">
        <ele>0.5463892938330854</ele>
        <time>2018-09-14T23:08:07Z</time>
      </trkpt>
      <trkpt lat="31.211569395743364" lon="121.60844397542132">
        <ele>0.5803523959377177</ele>
        <time>2018-09-14T23:08:17Z</time>
      </trkpt>
      <trkpt lat="31.21133241183218" lon="121.60846026282317">
        <ele>0.22353961304835224</ele>
        <time>2018-09-14T23:08:27Z</time>
      </trkpt>
      <trkpt lat="31.21104195350716" lon="121.60857199214072">
        <ele>-0.8602932784929411</ele>
        <time>2018-09-14T23:08:41Z</time>
      </trkpt>
      <trkpt lat="31.21077131530628" lon="121.60864060997032">
        <ele>-0.7226063812515822</ele>
        <time>2018-09-14T23:08:53Z</time>
      </trkpt>
      <trkpt lat="31.210645216282224" lon="121.60867261346021">
        <ele>-0.7378333387658671</ele>
        <time>2018-09-14T23:08:59Z</time>
      </trkpt>
      <trkpt lat="31.210567915053872" lon="121.60871518682372">
        <ele>-0.5723864455357734</ele>
        <time>2018-09-14T23:09:03Z</time>
      </trkpt>
      <trkpt lat="31.210497377518603" lon="121.60878053415595">
        <ele>-0.7046601568378712</ele>
        <time>2018-09-14T23:09:07Z</time>
      </trkpt>
      <trkpt lat="31.210245674867885" lon="121.6089163887584">
        <ele>-0.937469065541432</ele>
        <time>2018-09-14T23:09:19Z</time>
      </trkpt>
      <trkpt lat="31.21016755790591" lon="121.60896194408802">
        <ele>-1.2547256582684163</ele>
        <time>2018-09-14T23:09:23Z</time>
      </trkpt>
      <trkpt lat="31.20985489747729" lon="121.60902324386713">
        <ele>-1.3999954932968492</ele>
        <time>2018-09-14T23:09:37Z</time>
      </trkpt>
      <trkpt lat="31.209638434619713" lon="121.60916939669843">
        <ele>-1.5579698185548683</ele>
        <time>2018-09-14T23:09:48Z</time>
      </trkpt>
      <trkpt lat="31.209371201180698" lon="121.60941640906627">
        <ele>-1.1404074077630515</ele>
        <time>2018-09-14T23:10:03Z</time>
      </trkpt>
      <trkpt lat="31.209149605589126" lon="121.60953138131819">
        <ele>-1.2024145675334328</ele>
        <time>2018-09-14T23:10:14Z</time>
      </trkpt>
      <trkpt lat="31.208896769511515" lon="121.60973365464618">
        <ele>-0.9151281273007719</ele>
        <time>2018-09-14T23:10:27Z</time>
      </trkpt>
      <trkpt lat="31.208695474288447" lon="121.60989742393173">
        <ele>-0.7013492441043567</ele>
        <time>2018-09-14T23:10:38Z</time>
      </trkpt>
      <trkpt lat="31.208639020943657" lon="121.60998011781005">
        <ele>-0.5939859090954194</ele>
        <time>2018-09-14T23:10:42Z</time>
      </trkpt>
      <trkpt lat="31.20841844058561" lon="121.61019105994242">
        <ele>-0.28529567675607836</ele>
        <time>2018-09-14T23:10:55Z</time>
      </trkpt>
      <trkpt lat="31.208180756814716" lon="121.61043046770091">
        <ele>-0.994394565678995</ele>
        <time>2018-09-14T23:11:09Z</time>
      </trkpt>
      <trkpt lat="31.208040752636574" lon="121.61056820084804">
        <ele>-1.7746180281077546</ele>
        <time>2018-09-14T23:11:17Z</time>
      </trkpt>
      <trkpt lat="31.207828279537217" lon="121.61080977136247">
        <ele>-2.1708863930295017</ele>
        <time>2018-09-14T23:11:31Z</time>
      </trkpt>
      <trkpt lat="31.207587051495537" lon="121.61106814981977">
        <ele>-2.3156689690874472</ele>
        <time>2018-09-14T23:11:46Z</time>
      </trkpt>
      <trkpt lat="31.20751460462333" lon="121.611141081241">
        <ele>-2.277254393826844</ele>
        <time>2018-09-14T23:11:50Z</time>
      </trkpt>
      <trkpt lat="31.207461920007006" lon="121.61125521749693">
        <ele>-2.333470540957851</ele>
        <time>2018-09-14T23:11:54Z</time>
      </trkpt>
      <trkpt lat="31.207209839543765" lon="121.61151711603806">
        <ele>-2.4612739845719727</ele>
        <time>2018-09-14T23:12:09Z</time>
      </trkpt>
      <trkpt lat="31.20713767543261" lon="121.61157296717319">
        <ele>-2.3009422565668842</ele>
        <time>2018-09-14T23:12:13Z</time>
      </trkpt>
      <trkpt lat="31.20696156024527" lon="121.61176870984745">
        <ele>-1.912308821998277</ele>
        <time>2018-09-14T23:12:24Z</time>
      </trkpt>
      <trkpt lat="31.206832143130402" lon="121.61188068061843">
        <ele>-1.5752006810315038</ele>
        <time>2018-09-14T23:12:31Z</time>
      </trkpt>
      <trkpt lat="31.206625301146385" lon="121.61218783963079">
        <ele>-0.9736398952840037</ele>
        <time>2018-09-14T23:12:45Z</time>
      </trkpt>
      <trkpt lat="31.206531881687237" lon="121.6123786907612">
        <ele>-0.973905549092347</ele>
        <time>2018-09-14T23:12:53Z</time>
      </trkpt>
      <trkpt lat="31.206320868305546" lon="121.6124676233512">
        <ele>-0.6094420390026798</ele>
        <time>2018-09-14T23:13:04Z</time>
      </trkpt>
      <trkpt lat="31.206145067365032" lon="121.61260073888225">
        <ele>0.004072720105448013</ele>
        <time>2018-09-14T23:13:23Z</time>
      </trkpt>
      <trkpt lat="31.206033242562714" lon="121.61274794447291">
        <ele>-0.07487939615047345</ele>
        <time>2018-09-14T23:13:37Z</time>
      </trkpt>
      <trkpt lat="31.205965414519394" lon="121.61280325012534">
        <ele>-0.2392099954352087</ele>
        <time>2018-09-14T23:13:44Z</time>
      </trkpt>
      <trkpt lat="31.205961633560598" lon="121.61278454602608">
        <ele>0.2565686709140458</ele>
        <time>2018-09-14T23:14:05Z</time>
      </trkpt>
      <trkpt lat="31.205970592287056" lon="121.61277044919684">
        <ele>0.29354029026429274</ele>
        <time>2018-09-14T23:14:11Z</time>
      </trkpt>
      <trkpt lat="31.20590901332565" lon="121.61280948958974">
        <ele>0.26677010286521075</ele>
        <time>2018-09-14T23:14:18Z</time>
      </trkpt>
      <trkpt lat="31.20590901332565" lon="121.61280948958974">
        <ele>0.26677010286521075</ele>
        <time>2018-09-14T23:14:25Z</time>
      </trkpt>
      <trkpt lat="31.20590901332565" lon="121.61280948958974">
        <ele>0.6941753169739702</ele>
        <time>2018-09-14T23:14:48Z</time>
      </trkpt>
      <trkpt lat="31.20584430849409" lon="121.61268832264649">
        <ele>0.9017010388221927</ele>
        <time>2018-09-14T23:14:56Z</time>
      </trkpt>
      <trkpt lat="31.2057833653464" lon="121.6126097144513">
        <ele>0.6905319945856316</ele>
        <time>2018-09-14T23:15:02Z</time>
      </trkpt>
      <trkpt lat="31.205721033969773" lon="121.61257203937465">
        <ele>0.3007943343568247</ele>
        <time>2018-09-14T23:15:09Z</time>
      </trkpt>
      <trkpt lat="31.205602796136212" lon="121.61260078372126">
        <ele>0.2701866050951516</ele>
        <time>2018-09-14T23:15:20Z</time>
      </trkpt>
      <trkpt lat="31.205331818408467" lon="121.61240047664087">
        <ele>-0.43181866259939206</ele>
        <time>2018-09-14T23:15:42Z</time>
      </trkpt>
      <trkpt lat="31.205200670443446" lon="121.61229612028815">
        <ele>-0.7804662311515838</ele>
        <time>2018-09-14T23:15:54Z</time>
      </trkpt>
      <trkpt lat="31.20509584701996" lon="121.61215977318271">
        <ele>-0.27929387380623183</ele>
        <time>2018-09-14T23:16:05Z</time>
      </trkpt>
      <trkpt lat="31.20496330898347" lon="121.61209878974833">
        <ele>-0.8876585902610561</ele>
        <time>2018-09-14T23:16:16Z</time>
      </trkpt>
      <trkpt lat="31.204724876266628" lon="121.6118822102954">
        <ele>-1.2656609134856769</ele>
        <time>2018-09-14T23:16:37Z</time>
      </trkpt>
      <trkpt lat="31.204567505735167" lon="121.6116729415795">
        <ele>-1.1773678113244834</ele>
        <time>2018-09-14T23:16:55Z</time>
      </trkpt>
      <trkpt lat="31.204312835086466" lon="121.61141135779907">
        <ele>-1.1292544864109306</ele>
        <time>2018-09-14T23:17:21Z</time>
      </trkpt>
      <trkpt lat="31.204208280689627" lon="121.61127175227962">
        <ele>-1.4968891206962844</ele>
        <time>2018-09-14T23:17:33Z</time>
      </trkpt>
      <trkpt lat="31.204198572946535" lon="121.61119991245316">
        <ele>-1.4679743907855745</ele>
        <time>2018-09-14T23:17:40Z</time>
      </trkpt>
      <trkpt lat="31.204264770707383" lon="121.61114460309743">
        <ele>-1.5248093553880242</ele>
        <time>2018-09-14T23:17:47Z</time>
      </trkpt>
      <trkpt lat="31.204288687160837" lon="121.6110676092173">
        <ele>-1.4064363534394708</ele>
        <time>2018-09-14T23:17:54Z</time>
      </trkpt>
    </trkseg>
  </trk>
</gpx>