<?xml version="1.0" encoding="UTF-8"?>
<gpx xmlns="http://www.topografix.com/GPX/1/1" xmlns:gpxtpx="http://www.garmin.com/xmlschemas/TrackPointExtension/v1" xmlns:xsi="http://www.w3.org/2001/XMLSchema-instance" xsi:schemaLocation="http://www.topografix.com/GPX/1/1 http://www.topografix.com/GPX/1/1/gpx.xsd" version="1.1" creator="gpx.py -- https://github.com/tkrajina/gpxpy">
  <trk>
    <name>gpx from keep</name>
    <type>Run</type>
    <trkseg>
      <trkpt lat="31.204529219977697" lon="121.6106441292252">
        <ele>9.322507858276367</ele>
        <time>2018-09-10T22:10:22Z</time>
      </trkpt>
      <trkpt lat="31.204246183758052" lon="121.61097896328215">
        <ele>9.074291229248047</ele>
        <time>2018-09-10T22:10:37Z</time>
      </trkpt>
      <trkpt lat="31.204122665284583" lon="121.61118609277028">
        <ele>8.760412216186523</ele>
        <time>2018-09-10T22:10:45Z</time>
      </trkpt>
      <trkpt lat="31.204086772488154" lon="121.6113251682315">
        <ele>8.603144645690918</ele>
        <time>2018-09-10T22:10:51Z</time>
      </trkpt>
      <trkpt lat="31.204280104177155" lon="121.61167052551652">
        <ele>8.431685447692871</ele>
        <time>2018-09-10T22:11:03Z</time>
      </trkpt>
      <trkpt lat="31.204306714941186" lon="121.61161820258195">
        <ele>8.443927764892578</ele>
        <time>2018-09-10T22:11:10Z</time>
      </trkpt>
      <trkpt lat="31.20464240506193" lon="121.61194239881334">
        <ele>8.453213691711426</ele>
        <time>2018-09-10T22:11:29Z</time>
      </trkpt>
      <trkpt lat="31.204767188705272" lon="121.61186214619576">
        <ele>8.45699691772461</ele>
        <time>2018-09-10T22:11:37Z</time>
      </trkpt>
      <trkpt lat="31.20504722447606" lon="121.61227471731081">
        <ele>8.4633207321167</ele>
        <time>2018-09-10T22:11:50Z</time>
      </trkpt>
      <trkpt lat="31.205067219496406" lon="121.61236308903226">
        <ele>8.470808029174805</ele>
        <time>2018-09-10T22:11:56Z</time>
      </trkpt>
      <trkpt lat="31.20512902904064" lon="121.61237501159059">
        <ele>7.881618499755859</ele>
        <time>2018-09-10T22:12:00Z</time>
      </trkpt>
      <trkpt lat="31.20513840718782" lon="121.61251705803816">
        <ele>7.883205413818359</ele>
        <time>2018-09-10T22:12:04Z</time>
      </trkpt>
      <trkpt lat="31.205325617353687" lon="121.61269947979916">
        <ele>7.915065765380859</ele>
        <time>2018-09-10T22:12:14Z</time>
      </trkpt>
      <trkpt lat="31.20540315865704" lon="121.61270381065965">
        <ele>7.977565765380859</ele>
        <time>2018-09-10T22:12:18Z</time>
      </trkpt>
      <trkpt lat="31.205441713283985" lon="121.61263657966305">
        <ele>7.994777679443359</ele>
        <time>2018-09-10T22:12:21Z</time>
      </trkpt>
      <trkpt lat="31.20539472324484" lon="121.6127417624538">
        <ele>7.979946136474609</ele>
        <time>2018-09-10T22:12:31Z</time>
      </trkpt>
      <trkpt lat="31.205205552199086" lon="121.61297842889921">
        <ele>7.947841644287109</ele>
        <time>2018-09-10T22:12:38Z</time>
      </trkpt>
      <trkpt lat="31.205097821208913" lon="121.61309012097402">
        <ele>7.957546234130859</ele>
        <time>2018-09-10T22:12:42Z</time>
      </trkpt>
      <trkpt lat="31.204842417804716" lon="121.61341488769557">
        <ele>7.950649261474609</ele>
        <time>2018-09-10T22:12:53Z</time>
      </trkpt>
      <trkpt lat="31.204723814731206" lon="121.61355666733937">
        <ele>7.928127288818359</ele>
        <time>2018-09-10T22:13:00Z</time>
      </trkpt>
      <trkpt lat="31.20459086488202" lon="121.61366944302407">
        <ele>7.910549163818359</ele>
        <time>2018-09-10T22:13:07Z</time>
      </trkpt>
      <trkpt lat="31.204387588540204" lon="121.61390393276643">
        <ele>7.914211273193359</ele>
        <time>2018-09-10T22:13:19Z</time>
      </trkpt>
      <trkpt lat="31.204155559958906" lon="121.61415007826727">
        <ele>7.840236663818359</ele>
        <time>2018-09-10T22:13:33Z</time>
      </trkpt>
      <trkpt lat="31.20396635503599" lon="121.61441193915037">
        <ele>7.549221038818359</ele>
        <time>2018-09-10T22:13:47Z</time>
      </trkpt>
      <trkpt lat="31.203708329856227" lon="121.61461552555166">
        <ele>7.205532073974609</ele>
        <time>2018-09-10T22:14:01Z</time>
      </trkpt>
      <trkpt lat="31.20360925294764" lon="121.6147450988868">
        <ele>6.774135589599609</ele>
        <time>2018-09-10T22:14:09Z</time>
      </trkpt>
      <trkpt lat="31.203550658931285" lon="121.6147781725474">
        <ele>6.743312835693359</ele>
        <time>2018-09-10T22:14:13Z</time>
      </trkpt>
      <trkpt lat="31.20374633149541" lon="121.61487763359024">
        <ele>6.772609710693359</ele>
        <time>2018-09-10T22:14:21Z</time>
      </trkpt>
      <trkpt lat="31.20389182296197" lon="121.61500068000576">
        <ele>6.783290863037109</ele>
        <time>2018-09-10T22:14:29Z</time>
      </trkpt>
      <trkpt lat="31.20404738640822" lon="121.61507791716488">
        <ele>6.821865081787109</ele>
        <time>2018-09-10T22:14:37Z</time>
      </trkpt>
      <trkpt lat="31.204125454659227" lon="121.61509905277703">
        <ele>6.818202972412109</ele>
        <time>2018-09-10T22:14:40Z</time>
      </trkpt>
      <trkpt lat="31.20417770787456" lon="121.61518470074859">
        <ele>6.822658538818359</ele>
        <time>2018-09-10T22:14:44Z</time>
      </trkpt>
      <trkpt lat="31.204161915293263" lon="121.61525978308619">
        <ele>6.821071624755859</ele>
        <time>2018-09-10T22:14:47Z</time>
      </trkpt>
      <trkpt lat="31.20411874777086" lon="121.61532375442637">
        <ele>6.755702972412109</ele>
        <time>2018-09-10T22:14:52Z</time>
      </trkpt>
      <trkpt lat="31.204027350757137" lon="121.61535113797078">
        <ele>6.646816253662109</ele>
        <time>2018-09-10T22:14:55Z</time>
      </trkpt>
      <trkpt lat="31.204058486451178" lon="121.61540127944653">
        <ele>6.683254241943359</ele>
        <time>2018-09-10T22:14:59Z</time>
      </trkpt>
      <trkpt lat="31.203976968724337" lon="121.61529611908617">
        <ele>6.313869476318359</ele>
        <time>2018-09-10T22:15:10Z</time>
      </trkpt>
      <trkpt lat="31.203903541058157" lon="121.61524001778005">
        <ele>6.410366058349609</ele>
        <time>2018-09-10T22:15:14Z</time>
      </trkpt>
      <trkpt lat="31.203877022309612" lon="121.61518093090136">
        <ele>6.516872406005859</ele>
        <time>2018-09-10T22:15:17Z</time>
      </trkpt>
      <trkpt lat="31.20385708947176" lon="121.61503266712928">
        <ele>6.632023448045267</ele>
        <time>2018-09-10T22:15:24Z</time>
      </trkpt>
      <trkpt lat="31.203769226857425" lon="121.6150494796631">
        <ele>6.611487622126472</ele>
        <time>2018-09-10T22:15:27Z</time>
      </trkpt>
      <trkpt lat="31.203675342216556" lon="121.6151308030713">
        <ele>6.686279574952405</ele>
        <time>2018-09-10T22:15:31Z</time>
      </trkpt>
      <trkpt lat="31.203495105217595" lon="121.61535931346535">
        <ele>6.434185889718627</ele>
        <time>2018-09-10T22:15:42Z</time>
      </trkpt>
      <trkpt lat="31.203439226180976" lon="121.61538750717837">
        <ele>6.5935325148714625</ele>
        <time>2018-09-10T22:15:45Z</time>
      </trkpt>
      <trkpt lat="31.203382773742103" lon="121.61545039508668">
        <ele>6.568013958476609</ele>
        <time>2018-09-10T22:15:49Z</time>
      </trkpt>
      <trkpt lat="31.203356827622653" lon="121.61565937440868">
        <ele>6.43971978454665</ele>
        <time>2018-09-10T22:15:57Z</time>
      </trkpt>
      <trkpt lat="31.203393363557314" lon="121.6157336378086">
        <ele>5.922195215063301</ele>
        <time>2018-09-10T22:16:01Z</time>
      </trkpt>
      <trkpt lat="31.203406795011503" lon="121.61587132712592">
        <ele>5.508658476136503</ele>
        <time>2018-09-10T22:16:09Z</time>
      </trkpt>
      <trkpt lat="31.203358817459264" lon="121.61585669474712">
        <ele>7.514095695242247</ele>
        <time>2018-09-10T22:16:17Z</time>
      </trkpt>
      <trkpt lat="31.20319257111418" lon="121.61590115959794">
        <ele>7.093996319276631</ele>
        <time>2018-09-10T22:16:25Z</time>
      </trkpt>
      <trkpt lat="31.203010793749446" lon="121.61602883557372">
        <ele>7.574190021571987</ele>
        <time>2018-09-10T22:16:35Z</time>
      </trkpt>
      <trkpt lat="31.202936742028676" lon="121.61606353500204">
        <ele>7.169654626675673</ele>
        <time>2018-09-10T22:16:39Z</time>
      </trkpt>
      <trkpt lat="31.202877365967968" lon="121.61606082950047">
        <ele>6.902315133190825</ele>
        <time>2018-09-10T22:16:43Z</time>
      </trkpt>
      <trkpt lat="31.20281769833528" lon="121.61608034939927">
        <ele>6.691181729739007</ele>
        <time>2018-09-10T22:16:47Z</time>
      </trkpt>
      <trkpt lat="31.202699016810953" lon="121.61629204135977">
        <ele>6.960284753670312</ele>
        <time>2018-09-10T22:16:57Z</time>
      </trkpt>
      <trkpt lat="31.202572087688115" lon="121.61633297866805">
        <ele>7.195384312492816</ele>
        <time>2018-09-10T22:17:05Z</time>
      </trkpt>
      <trkpt lat="31.202361820285073" lon="121.61648098249589">
        <ele>7.543307061801066</ele>
        <time>2018-09-10T22:17:15Z</time>
      </trkpt>
      <trkpt lat="31.202149546463392" lon="121.61674336208904">
        <ele>5.944675928198109</ele>
        <time>2018-09-10T22:17:30Z</time>
      </trkpt>
      <trkpt lat="31.20191860167896" lon="121.61696400164527">
        <ele>5.228723033235191</ele>
        <time>2018-09-10T22:17:44Z</time>
      </trkpt>
      <trkpt lat="31.20186758187641" lon="121.61701279144853">
        <ele>5.109306708054554</ele>
        <time>2018-09-10T22:17:47Z</time>
      </trkpt>
      <trkpt lat="31.20183390269963" lon="121.61707404710774">
        <ele>5.198650816636668</ele>
        <time>2018-09-10T22:17:50Z</time>
      </trkpt>
      <trkpt lat="31.2015834148724" lon="121.61731419931037">
        <ele>4.987231038143641</ele>
        <time>2018-09-10T22:18:05Z</time>
      </trkpt>
      <trkpt lat="31.201517226379323" lon="121.61734699908492">
        <ele>4.884134089859298</ele>
        <time>2018-09-10T22:18:09Z</time>
      </trkpt>
      <trkpt lat="31.20132612585077" lon="121.6175757607028">
        <ele>4.934041523295363</ele>
        <time>2018-09-10T22:18:22Z</time>
      </trkpt>
      <trkpt lat="31.201081035520364" lon="121.6178373183386">
        <ele>4.674076442151687</ele>
        <time>2018-09-10T22:18:37Z</time>
      </trkpt>
      <trkpt lat="31.20086737748933" lon="121.61811594482357">
        <ele>4.255516244612606</ele>
        <time>2018-09-10T22:18:52Z</time>
      </trkpt>
      <trkpt lat="31.200651806878373" lon="121.61840649306318">
        <ele>4.151750304203063</ele>
        <time>2018-09-10T22:19:07Z</time>
      </trkpt>
      <trkpt lat="31.200403985106544" lon="121.6186805088551">
        <ele>3.983345041804588</ele>
        <time>2018-09-10T22:19:23Z</time>
      </trkpt>
      <trkpt lat="31.20020282881582" lon="121.61892226764142">
        <ele>3.8738629728173564</ele>
        <time>2018-09-10T22:19:37Z</time>
      </trkpt>
      <trkpt lat="31.19994444920501" lon="121.61917568218225">
        <ele>3.6237837970111713</ele>
        <time>2018-09-10T22:19:52Z</time>
      </trkpt>
      <trkpt lat="31.199742155339436" lon="121.61946459115657">
        <ele>3.94507472867371</ele>
        <time>2018-09-10T22:20:07Z</time>
      </trkpt>
      <trkpt lat="31.199544588835522" lon="121.61963804968167">
        <ele>4.518079936814445</ele>
        <time>2018-09-10T22:20:18Z</time>
      </trkpt>
      <trkpt lat="31.199448195090532" lon="121.61977274554145">
        <ele>4.651211599928647</ele>
        <time>2018-09-10T22:20:25Z</time>
      </trkpt>
      <trkpt lat="31.199270715616553" lon="121.61992262338198">
        <ele>5.191024788032852</ele>
        <time>2018-09-10T22:20:36Z</time>
      </trkpt>
      <trkpt lat="31.199182478148046" lon="121.6200350952282">
        <ele>4.9746521872403235</ele>
        <time>2018-09-10T22:20:43Z</time>
      </trkpt>
      <trkpt lat="31.199113283518887" lon="121.62008740357535">
        <ele>5.166796257107016</ele>
        <time>2018-09-10T22:20:47Z</time>
      </trkpt>
      <trkpt lat="31.199025146826074" lon="121.62010448372162">
        <ele>4.912288011247643</ele>
        <time>2018-09-10T22:20:51Z</time>
      </trkpt>
      <trkpt lat="31.19893377982237" lon="121.62009961332443">
        <ele>4.966352013328709</ele>
        <time>2018-09-10T22:20:59Z</time>
      </trkpt>
      <trkpt lat="31.198810499833026" lon="121.6202736034254">
        <ele>4.811653590231359</ele>
        <time>2018-09-10T22:21:05Z</time>
      </trkpt>
      <trkpt lat="31.198592264020494" lon="121.62050152796905">
        <ele>4.720312297041765</ele>
        <time>2018-09-10T22:21:16Z</time>
      </trkpt>
      <trkpt lat="31.198520102457593" lon="121.62053866001571">
        <ele>4.508031824037502</ele>
        <time>2018-09-10T22:21:20Z</time>
      </trkpt>
      <trkpt lat="31.198290488483444" lon="121.62075601454467">
        <ele>4.5876190956909895</ele>
        <time>2018-09-10T22:21:34Z</time>
      </trkpt>
      <trkpt lat="31.198165116708616" lon="121.62085547835542">
        <ele>4.901765973526583</ele>
        <time>2018-09-10T22:21:41Z</time>
      </trkpt>
      <trkpt lat="31.197949613080084" lon="121.62106036365887">
        <ele>5.165719855357217</ele>
        <time>2018-09-10T22:21:56Z</time>
      </trkpt>
      <trkpt lat="31.197889353736254" lon="121.62112215375956">
        <ele>5.226878377191248</ele>
        <time>2018-09-10T22:22:00Z</time>
      </trkpt>
      <trkpt lat="31.19765816437254" lon="121.62128910036942">
        <ele>5.437336159638512</ele>
        <time>2018-09-10T22:22:13Z</time>
      </trkpt>
      <trkpt lat="31.197418750922502" lon="121.62153652861133">
        <ele>5.772186404175535</ele>
        <time>2018-09-10T22:22:28Z</time>
      </trkpt>
      <trkpt lat="31.197155244548444" lon="121.62174818712157">
        <ele>6.008964637671685</ele>
        <time>2018-09-10T22:22:42Z</time>
      </trkpt>
      <trkpt lat="31.196990505726646" lon="121.62189182009406">
        <ele>6.243195641049432</ele>
        <time>2018-09-10T22:22:52Z</time>
      </trkpt>
      <trkpt lat="31.196849356393844" lon="121.6220340954528">
        <ele>6.11908460134125</ele>
        <time>2018-09-10T22:23:00Z</time>
      </trkpt>
      <trkpt lat="31.196655079549338" lon="121.62216282563466">
        <ele>6.8446410890467675</ele>
        <time>2018-09-10T22:23:10Z</time>
      </trkpt>
      <trkpt lat="31.196604846882657" lon="121.62222732209977">
        <ele>7.011596951821904</ele>
        <time>2018-09-10T22:23:14Z</time>
      </trkpt>
      <trkpt lat="31.196606097161283" lon="121.62232026652025">
        <ele>7.5059468394998525</ele>
        <time>2018-09-10T22:23:18Z</time>
      </trkpt>
      <trkpt lat="31.19671113097791" lon="121.62270314252478">
        <ele>6.815544425603132</ele>
        <time>2018-09-10T22:23:33Z</time>
      </trkpt>
      <trkpt lat="31.196774178319817" lon="121.62304808115682">
        <ele>5.3144699337068175</ele>
        <time>2018-09-10T22:23:46Z</time>
      </trkpt>
      <trkpt lat="31.196786749116985" lon="121.62319656991554">
        <ele>4.875283800380259</ele>
        <time>2018-09-10T22:23:52Z</time>
      </trkpt>
      <trkpt lat="31.19684816797882" lon="121.62353825088476">
        <ele>4.3631343248690815</ele>
        <time>2018-09-10T22:24:06Z</time>
      </trkpt>
      <trkpt lat="31.196913121649278" lon="121.62386827605694">
        <ele>3.8395112440971655</ele>
        <time>2018-09-10T22:24:19Z</time>
      </trkpt>
      <trkpt lat="31.19692767668826" lon="121.62394089188128">
        <ele>3.7842507749736303</ele>
        <time>2018-09-10T22:24:22Z</time>
      </trkpt>
      <trkpt lat="31.196985616486046" lon="121.62401052338528">
        <ele>3.869681651249035</ele>
        <time>2018-09-10T22:24:26Z</time>
      </trkpt>
      <trkpt lat="31.197064822320087" lon="121.623981253346">
        <ele>4.080092092503655</ele>
        <time>2018-09-10T22:24:29Z</time>
      </trkpt>
      <trkpt lat="31.197090506922937" lon="121.62381434039551">
        <ele>4.254365644143137</ele>
        <time>2018-09-10T22:24:33Z</time>
      </trkpt>
      <trkpt lat="31.196966092628642" lon="121.62355395695342">
        <ele>4.541909990331501</ele>
        <time>2018-09-10T22:24:40Z</time>
      </trkpt>
      <trkpt lat="31.196935438402356" lon="121.62333637573128">
        <ele>4.612602728055414</ele>
        <time>2018-09-10T22:24:47Z</time>
      </trkpt>
      <trkpt lat="31.19682720853381" lon="121.6231445410356">
        <ele>4.683222890130526</ele>
        <time>2018-09-10T22:24:55Z</time>
      </trkpt>
      <trkpt lat="31.196793911722718" lon="121.62286490485926">
        <ele>4.118914110741809</ele>
        <time>2018-09-10T22:25:09Z</time>
      </trkpt>
      <trkpt lat="31.196797779089703" lon="121.62280285248657">
        <ele>3.5798947767539353</ele>
        <time>2018-09-10T22:25:13Z</time>
      </trkpt>
      <trkpt lat="31.19703854508546" lon="121.62256708765688">
        <ele>3.574162230904383</ele>
        <time>2018-09-10T22:25:24Z</time>
      </trkpt>
      <trkpt lat="31.19724705456014" lon="121.62232238127173">
        <ele>4.2386667189809355</ele>
        <time>2018-09-10T22:25:36Z</time>
      </trkpt>
      <trkpt lat="31.197359065992835" lon="121.6222931067075">
        <ele>4.092594446044737</ele>
        <time>2018-09-10T22:25:45Z</time>
      </trkpt>
      <trkpt lat="31.197459441995083" lon="121.6222432389372">
        <ele>4.388649373116396</ele>
        <time>2018-09-10T22:25:56Z</time>
      </trkpt>
      <trkpt lat="31.197582403480368" lon="121.62212128946643">
        <ele>4.698226673503996</ele>
        <time>2018-09-10T22:26:02Z</time>
      </trkpt>
      <trkpt lat="31.19777209965698" lon="121.62196708750893">
        <ele>5.129612600933953</ele>
        <time>2018-09-10T22:26:10Z</time>
      </trkpt>
      <trkpt lat="31.197806895424183" lon="121.62188633294751">
        <ele>5.255708637369814</ele>
        <time>2018-09-10T22:26:13Z</time>
      </trkpt>
      <trkpt lat="31.198016691221763" lon="121.62169906829459">
        <ele>5.446300587234358</ele>
        <time>2018-09-10T22:26:24Z</time>
      </trkpt>
      <trkpt lat="31.198156093587404" lon="121.62166355820845">
        <ele>5.002651241417787</ele>
        <time>2018-09-10T22:26:32Z</time>
      </trkpt>
      <trkpt lat="31.198189802212337" lon="121.62158442871029">
        <ele>4.765583948297714</ele>
        <time>2018-09-10T22:26:35Z</time>
      </trkpt>
      <trkpt lat="31.198451922656382" lon="121.62139932547323">
        <ele>5.269891708669611</ele>
        <time>2018-09-10T22:26:54Z</time>
      </trkpt>
      <trkpt lat="31.198603935997866" lon="121.6212375348455">
        <ele>5.163634269073938</ele>
        <time>2018-09-10T22:27:07Z</time>
      </trkpt>
      <trkpt lat="31.198824011425334" lon="121.6210681499424">
        <ele>5.2155007289543</ele>
        <time>2018-09-10T22:27:14Z</time>
      </trkpt>
      <trkpt lat="31.19894239679329" lon="121.62091150885921">
        <ele>5.072929421264128</ele>
        <time>2018-09-10T22:27:21Z</time>
      </trkpt>
      <trkpt lat="31.199144546220904" lon="121.62076922241866">
        <ele>4.752130971216616</ele>
        <time>2018-09-10T22:27:31Z</time>
      </trkpt>
      <trkpt lat="31.19923051804935" lon="121.6207486200059">
        <ele>4.730530700183657</ele>
        <time>2018-09-10T22:27:35Z</time>
      </trkpt>
      <trkpt lat="31.19930019570474" lon="121.62075213712124">
        <ele>4.946122537576798</ele>
        <time>2018-09-10T22:27:38Z</time>
      </trkpt>
      <trkpt lat="31.19937830962865" lon="121.62072692849695">
        <ele>5.258155060476575</ele>
        <time>2018-09-10T22:27:42Z</time>
      </trkpt>
      <trkpt lat="31.19955050475276" lon="121.62070387999398">
        <ele>6.691318897846855</ele>
        <time>2018-09-10T22:27:50Z</time>
      </trkpt>
      <trkpt lat="31.199588158975207" lon="121.6207347698726">
        <ele>6.857291060419254</ele>
        <time>2018-09-10T22:27:53Z</time>
      </trkpt>
      <trkpt lat="31.199908862627808" lon="121.6207791858233">
        <ele>8.159212355802076</ele>
        <time>2018-09-10T22:28:07Z</time>
      </trkpt>
      <trkpt lat="31.200164023795132" lon="121.62075721446367">
        <ele>7.909187419728596</ele>
        <time>2018-09-10T22:28:18Z</time>
      </trkpt>
      <trkpt lat="31.20040499699794" lon="121.62081735440731">
        <ele>8.177552802972926</ele>
        <time>2018-09-10T22:28:29Z</time>
      </trkpt>
      <trkpt lat="31.200648742126422" lon="121.62082167007851">
        <ele>8.144111276878142</ele>
        <time>2018-09-10T22:28:40Z</time>
      </trkpt>
      <trkpt lat="31.20098300825099" lon="121.62086093595329">
        <ele>7.9209770693020864</ele>
        <time>2018-09-10T22:28:55Z</time>
      </trkpt>
      <trkpt lat="31.201298023860225" lon="121.62090020336164">
        <ele>7.825116879987021</ele>
        <time>2018-09-10T22:29:08Z</time>
      </trkpt>
      <trkpt lat="31.201530361734505" lon="121.62092267623605">
        <ele>7.125417920975789</ele>
        <time>2018-09-10T22:29:19Z</time>
      </trkpt>
      <trkpt lat="31.201776722959192" lon="121.62101452098025">
        <ele>6.600068495481313</ele>
        <time>2018-09-10T22:29:32Z</time>
      </trkpt>
      <trkpt lat="31.201855077335654" lon="121.6210177663528">
        <ele>6.3715422719028965</ele>
        <time>2018-09-10T22:29:36Z</time>
      </trkpt>
      <trkpt lat="31.201911717547095" lon="121.62104242156931">
        <ele>6.315594134269425</ele>
        <time>2018-09-10T22:29:39Z</time>
      </trkpt>
      <trkpt lat="31.202234318111444" lon="121.62108792078618">
        <ele>5.605370898780649</ele>
        <time>2018-09-10T22:29:55Z</time>
      </trkpt>
      <trkpt lat="31.20242491520616" lon="121.6210976605549">
        <ele>5.269058990531178</ele>
        <time>2018-09-10T22:30:05Z</time>
      </trkpt>
      <trkpt lat="31.2025073612584" lon="121.62107841362898">
        <ele>5.665043446017037</ele>
        <time>2018-09-10T22:30:09Z</time>
      </trkpt>
      <trkpt lat="31.20251280648427" lon="121.62105781812355">
        <ele>4.9626107587839705</ele>
        <time>2018-09-10T22:30:17Z</time>
      </trkpt>
      <trkpt lat="31.20252038818333" lon="121.62106703107519">
        <ele>4.398140158621265</ele>
        <time>2018-09-10T22:30:23Z</time>
      </trkpt>
      <trkpt lat="31.202483461635115" lon="121.62111472790113">
        <ele>3.7120690519350408</ele>
        <time>2018-09-10T22:30:43Z</time>
      </trkpt>
      <trkpt lat="31.202492102607273" lon="121.62114697462906">
        <ele>3.7825611672651025</ele>
        <time>2018-09-10T22:30:46Z</time>
      </trkpt>
      <trkpt lat="31.20244905347054" lon="121.62084238731919">
        <ele>4.06745979941358</ele>
        <time>2018-09-10T22:31:10Z</time>
      </trkpt>
      <trkpt lat="31.202436995919953" lon="121.62045839281679">
        <ele>3.956523174326094</ele>
        <time>2018-09-10T22:31:25Z</time>
      </trkpt>
      <trkpt lat="31.20243736551717" lon="121.62036652569893">
        <ele>3.9673601401386804</ele>
        <time>2018-09-10T22:31:29Z</time>
      </trkpt>
      <trkpt lat="31.202458051428696" lon="121.62029200030015">
        <ele>3.9548916104593452</ele>
        <time>2018-09-10T22:31:36Z</time>
      </trkpt>
      <trkpt lat="31.20246910366166" lon="121.62035216034215">
        <ele>4.539146265995367</ele>
        <time>2018-09-10T22:32:00Z</time>
      </trkpt>
      <trkpt lat="31.20255584419581" lon="121.62037329076423">
        <ele>5.155537760521202</ele>
        <time>2018-09-10T22:32:10Z</time>
      </trkpt>
      <trkpt lat="31.20274971811133" lon="121.62036162194258">
        <ele>5.259224848410163</ele>
        <time>2018-09-10T22:32:18Z</time>
      </trkpt>
      <trkpt lat="31.20291871135068" lon="121.62029033620463">
        <ele>5.366704067073719</ele>
        <time>2018-09-10T22:32:26Z</time>
      </trkpt>
      <trkpt lat="31.202970004139818" lon="121.6202450756503">
        <ele>5.275159130816537</ele>
        <time>2018-09-10T22:32:29Z</time>
      </trkpt>
      <trkpt lat="31.202904050849746" lon="121.62005348615563">
        <ele>5.595518886528389</ele>
        <time>2018-09-10T22:32:37Z</time>
      </trkpt>
      <trkpt lat="31.202810985960237" lon="121.61985891648294">
        <ele>5.491257183729914</ele>
        <time>2018-09-10T22:32:45Z</time>
      </trkpt>
      <trkpt lat="31.202726777056732" lon="121.61949090261477">
        <ele>6.114220755562123</ele>
        <time>2018-09-10T22:33:00Z</time>
      </trkpt>
      <trkpt lat="31.202702999684224" lon="121.61941150027806">
        <ele>6.234880587770178</ele>
        <time>2018-09-10T22:33:03Z</time>
      </trkpt>
      <trkpt lat="31.202698212473862" lon="121.61932152689864">
        <ele>6.063724668004397</ele>
        <time>2018-09-10T22:33:06Z</time>
      </trkpt>
      <trkpt lat="31.202552444453968" lon="121.61895811755943">
        <ele>6.221816889821511</ele>
        <time>2018-09-10T22:33:20Z</time>
      </trkpt>
      <trkpt lat="31.20253168316685" lon="121.61884429495225">
        <ele>6.54674143300015</ele>
        <time>2018-09-10T22:33:24Z</time>
      </trkpt>
      <trkpt lat="31.20253800109478" lon="121.61876380406295">
        <ele>6.4729955960549574</ele>
        <time>2018-09-10T22:33:27Z</time>
      </trkpt>
      <trkpt lat="31.202516940486884" lon="121.61867708189193">
        <ele>6.5678509232323705</ele>
        <time>2018-09-10T22:33:31Z</time>
      </trkpt>
      <trkpt lat="31.20245548790913" lon="121.61858304539652">
        <ele>6.74211602625482</ele>
        <time>2018-09-10T22:33:38Z</time>
      </trkpt>
      <trkpt lat="31.20235255260002" lon="121.61821691174266">
        <ele>6.8189913378567795</ele>
        <time>2018-09-10T22:34:02Z</time>
      </trkpt>
      <trkpt lat="31.202348116898303" lon="121.61804210512243">
        <ele>7.07242472364792</ele>
        <time>2018-09-10T22:34:09Z</time>
      </trkpt>
      <trkpt lat="31.202268849049805" lon="121.61786513530184">
        <ele>7.585589380518229</ele>
        <time>2018-09-10T22:34:17Z</time>
      </trkpt>
      <trkpt lat="31.202206490681384" lon="121.61758544476062">
        <ele>8.416273904456066</ele>
        <time>2018-09-10T22:34:28Z</time>
      </trkpt>
      <trkpt lat="31.202070710226597" lon="121.61724531793455">
        <ele>8.142566960871712</ele>
        <time>2018-09-10T22:34:46Z</time>
      </trkpt>
      <trkpt lat="31.202019927268367" lon="121.61704665766737">
        <ele>6.690497503702826</ele>
        <time>2018-09-10T22:34:58Z</time>
      </trkpt>
      <trkpt lat="31.202055949346157" lon="121.6170873092108">
        <ele>6.777666687300602</ele>
        <time>2018-09-10T22:35:09Z</time>
      </trkpt>
      <trkpt lat="31.2021602724593" lon="121.6174353005655">
        <ele>6.891192312764808</ele>
        <time>2018-09-10T22:35:24Z</time>
      </trkpt>
      <trkpt lat="31.20226185920203" lon="121.61780442700238">
        <ele>4.7293657415896675</ele>
        <time>2018-09-10T22:35:37Z</time>
      </trkpt>
      <trkpt lat="31.20228230750043" lon="121.61796486988175">
        <ele>4.156803722481387</ele>
        <time>2018-09-10T22:35:43Z</time>
      </trkpt>
      <trkpt lat="31.202396134217736" lon="121.61828818567565">
        <ele>4.433407680098497</ele>
        <time>2018-09-10T22:35:55Z</time>
      </trkpt>
      <trkpt lat="31.202458229045885" lon="121.61855350465892">
        <ele>4.422749341725265</ele>
        <time>2018-09-10T22:36:05Z</time>
      </trkpt>
      <trkpt lat="31.202503131256726" lon="121.61865865416453">
        <ele>4.668583926369394</ele>
        <time>2018-09-10T22:36:09Z</time>
      </trkpt>
      <trkpt lat="31.202594233941422" lon="121.61865729156257">
        <ele>5.002366283093792</ele>
        <time>2018-09-10T22:36:13Z</time>
      </trkpt>
      <trkpt lat="31.202892870020253" lon="121.61854181509337">
        <ele>5.025381576982461</ele>
        <time>2018-09-10T22:36:25Z</time>
      </trkpt>
      <trkpt lat="31.202920624728634" lon="121.61844343447143">
        <ele>4.97605532235475</ele>
        <time>2018-09-10T22:36:29Z</time>
      </trkpt>
      <trkpt lat="31.20285240302456" lon="121.61833937006406">
        <ele>5.280223861371049</ele>
        <time>2018-09-10T22:36:33Z</time>
      </trkpt>
      <trkpt lat="31.202804603723447" lon="121.61814722271389">
        <ele>5.5689158205777325</ele>
        <time>2018-09-10T22:36:41Z</time>
      </trkpt>
      <trkpt lat="31.202653840257394" lon="121.61788570107396">
        <ele>5.4526762609644805</ele>
        <time>2018-09-10T22:36:53Z</time>
      </trkpt>
      <trkpt lat="31.202565359986856" lon="121.61770141328286">
        <ele>5.631710928958306</ele>
        <time>2018-09-10T22:37:01Z</time>
      </trkpt>
      <trkpt lat="31.202526906768405" lon="121.61765236121232">
        <ele>5.6375136422405845</ele>
        <time>2018-09-10T22:37:05Z</time>
      </trkpt>
      <trkpt lat="31.202499324730944" lon="121.61757674775123">
        <ele>5.698670459283406</ele>
        <time>2018-09-10T22:37:08Z</time>
      </trkpt>
      <trkpt lat="31.202418366004753" lon="121.61746292386452">
        <ele>5.895270881708104</ele>
        <time>2018-09-10T22:37:12Z</time>
      </trkpt>
      <trkpt lat="31.20237318039266" lon="121.61736590016909">
        <ele>5.966459679456442</ele>
        <time>2018-09-10T22:37:16Z</time>
      </trkpt>
      <trkpt lat="31.20238355751148" lon="121.6172891985851">
        <ele>5.7914723395916425</ele>
        <time>2018-09-10T22:37:19Z</time>
      </trkpt>
      <trkpt lat="31.202413987461618" lon="121.61722387830171">
        <ele>5.5130478977000195</ele>
        <time>2018-09-10T22:37:22Z</time>
      </trkpt>
      <trkpt lat="31.20272975435619" lon="121.61705066440695">
        <ele>5.290405962949521</ele>
        <time>2018-09-10T22:37:37Z</time>
      </trkpt>
      <trkpt lat="31.20283315852372" lon="121.61694386967234">
        <ele>5.031841901809408</ele>
        <time>2018-09-10T22:37:43Z</time>
      </trkpt>
      <trkpt lat="31.202975298623027" lon="121.61687501581689">
        <ele>5.313770313288543</ele>
        <time>2018-09-10T22:37:50Z</time>
      </trkpt>
      <trkpt lat="31.20312266694812" lon="121.61672485129718">
        <ele>4.830275810715168</ele>
        <time>2018-09-10T22:38:00Z</time>
      </trkpt>
      <trkpt lat="31.203255033950036" lon="121.61666846522957">
        <ele>5.037350489656273</ele>
        <time>2018-09-10T22:38:07Z</time>
      </trkpt>
      <trkpt lat="31.203416245061955" lon="121.61650122301714">
        <ele>5.056473661247171</ele>
        <time>2018-09-10T22:38:17Z</time>
      </trkpt>
      <trkpt lat="31.203707087725775" lon="121.61630171537024">
        <ele>5.122274569028946</ele>
        <time>2018-09-10T22:38:32Z</time>
      </trkpt>
      <trkpt lat="31.203938234319022" lon="121.61615099832952">
        <ele>5.453730107027461</ele>
        <time>2018-09-10T22:38:43Z</time>
      </trkpt>
      <trkpt lat="31.203978724807385" lon="121.61605179404188">
        <ele>5.498889105781082</ele>
        <time>2018-09-10T22:38:47Z</time>
      </trkpt>
      <trkpt lat="31.204042232136434" lon="121.61598457043705">
        <ele>5.409218004312038</ele>
        <time>2018-09-10T22:38:51Z</time>
      </trkpt>
      <trkpt lat="31.20430906519788" lon="121.615945247228">
        <ele>5.296321421820942</ele>
        <time>2018-09-10T22:39:03Z</time>
      </trkpt>
      <trkpt lat="31.204424966777914" lon="121.61610244181428">
        <ele>5.590253261204225</ele>
        <time>2018-09-10T22:39:10Z</time>
      </trkpt>
      <trkpt lat="31.204496752647568" lon="121.61617290638318">
        <ele>5.38721325494847</ele>
        <time>2018-09-10T22:39:14Z</time>
      </trkpt>
      <trkpt lat="31.204558544201806" lon="121.61620244461615">
        <ele>5.264201778665843</ele>
        <time>2018-09-10T22:39:18Z</time>
      </trkpt>
      <trkpt lat="31.204615689773846" lon="121.61627155491234">
        <ele>5.390913290505786</ele>
        <time>2018-09-10T22:39:22Z</time>
      </trkpt>
      <trkpt lat="31.204691734660283" lon="121.61642658239393">
        <ele>5.365764406378762</ele>
        <time>2018-09-10T22:39:29Z</time>
      </trkpt>
      <trkpt lat="31.204780646828382" lon="121.61644825800586">
        <ele>5.350997894012423</ele>
        <time>2018-09-10T22:39:33Z</time>
      </trkpt>
      <trkpt lat="31.20485463083803" lon="121.61648673910446">
        <ele>5.280291624555645</ele>
        <time>2018-09-10T22:39:39Z</time>
      </trkpt>
      <trkpt lat="31.20487408764441" lon="121.61655612275021">
        <ele>5.6069340059974735</ele>
        <time>2018-09-10T22:39:43Z</time>
      </trkpt>
      <trkpt lat="31.205004626370606" lon="121.61671412529668">
        <ele>6.005369127387631</ele>
        <time>2018-09-10T22:39:58Z</time>
      </trkpt>
      <trkpt lat="31.205073184247496" lon="121.6167558588297">
        <ele>6.370000295163727</ele>
        <time>2018-09-10T22:40:05Z</time>
      </trkpt>
      <trkpt lat="31.205146110209053" lon="121.61676588103684">
        <ele>6.568981285557051</ele>
        <time>2018-09-10T22:40:15Z</time>
      </trkpt>
      <trkpt lat="31.20519389117004" lon="121.61670110000351">
        <ele>6.594711105143624</ele>
        <time>2018-09-10T22:40:19Z</time>
      </trkpt>
      <trkpt lat="31.205194782357903" lon="121.61661843436956">
        <ele>6.60564077274249</ele>
        <time>2018-09-10T22:40:22Z</time>
      </trkpt>
      <trkpt lat="31.20517070039484" lon="121.61656612653545">
        <ele>6.609724574696205</ele>
        <time>2018-09-10T22:40:25Z</time>
      </trkpt>
      <trkpt lat="31.20508425388537" lon="121.61651734721943">
        <ele>6.845401530926303</ele>
        <time>2018-09-10T22:40:32Z</time>
      </trkpt>
      <trkpt lat="31.204921831478746" lon="121.61623927593605">
        <ele>7.361646177539942</ele>
        <time>2018-09-10T22:40:53Z</time>
      </trkpt>
      <trkpt lat="31.204763927079764" lon="121.61605769200375">
        <ele>7.612498820749465</ele>
        <time>2018-09-10T22:41:09Z</time>
      </trkpt>
      <trkpt lat="31.20472282065211" lon="121.61594196049393">
        <ele>7.919942582143591</ele>
        <time>2018-09-10T22:41:20Z</time>
      </trkpt>
      <trkpt lat="31.204672998864083" lon="121.61586851196235">
        <ele>8.112875002937379</ele>
        <time>2018-09-10T22:41:27Z</time>
      </trkpt>
      <trkpt lat="31.20453402385511" lon="121.61573950645207">
        <ele>8.640039456499885</ele>
        <time>2018-09-10T22:41:39Z</time>
      </trkpt>
      <trkpt lat="31.204383037634702" lon="121.61569967531464">
        <ele>9.348183925080217</ele>
        <time>2018-09-10T22:41:47Z</time>
      </trkpt>
      <trkpt lat="31.20415193299928" lon="121.61550725150408">
        <ele>9.767264846516952</ele>
        <time>2018-09-10T22:42:06Z</time>
      </trkpt>
      <trkpt lat="31.204018937814123" lon="121.6153598122396">
        <ele>9.209227121033074</ele>
        <time>2018-09-10T22:42:20Z</time>
      </trkpt>
      <trkpt lat="31.203874272921954" lon="121.61522375716783">
        <ele>7.9795248745767395</ele>
        <time>2018-09-10T22:42:35Z</time>
      </trkpt>
      <trkpt lat="31.20379847234134" lon="121.6150914903613">
        <ele>7.146240320122729</ele>
        <time>2018-09-10T22:42:45Z</time>
      </trkpt>
      <trkpt lat="31.20377066538039" lon="121.61495542410623">
        <ele>6.974669811139684</ele>
        <time>2018-09-10T22:42:53Z</time>
      </trkpt>
      <trkpt lat="31.203724655168276" lon="121.61486110104988">
        <ele>7.252787711315001</ele>
        <time>2018-09-10T22:42:57Z</time>
      </trkpt>
      <trkpt lat="31.20357453418765" lon="121.61476055194773">
        <ele>7.465617473207772</ele>
        <time>2018-09-10T22:43:05Z</time>
      </trkpt>
      <trkpt lat="31.203557495647505" lon="121.6147112211372">
        <ele>7.529609775912924</ele>
        <time>2018-09-10T22:43:08Z</time>
      </trkpt>
      <trkpt lat="31.203758765687898" lon="121.61461010022973">
        <ele>7.678874776313297</ele>
        <time>2018-09-10T22:43:19Z</time>
      </trkpt>
      <trkpt lat="31.20394901867869" lon="121.61439296638841">
        <ele>7.6975747586634995</ele>
        <time>2018-09-10T22:43:41Z</time>
      </trkpt>
      <trkpt lat="31.20407978804056" lon="121.61429700012457">
        <ele>8.024963364211565</ele>
        <time>2018-09-10T22:43:52Z</time>
      </trkpt>
      <trkpt lat="31.204133816343326" lon="121.61421215336883">
        <ele>8.201850537763082</ele>
        <time>2018-09-10T22:43:59Z</time>
      </trkpt>
      <trkpt lat="31.20422659577819" lon="121.61415196983252">
        <ele>8.151714903665312</ele>
        <time>2018-09-10T22:44:05Z</time>
      </trkpt>
      <trkpt lat="31.20439842780049" lon="121.61391125064097">
        <ele>7.752585354615054</ele>
        <time>2018-09-10T22:44:30Z</time>
      </trkpt>
      <trkpt lat="31.204556074840347" lon="121.61377109630205">
        <ele>7.859410031950013</ele>
        <time>2018-09-10T22:44:43Z</time>
      </trkpt>
      <trkpt lat="31.20458784764801" lon="121.61371118775791">
        <ele>7.950941510773983</ele>
        <time>2018-09-10T22:44:47Z</time>
      </trkpt>
      <trkpt lat="31.20467136929553" lon="121.61369681425133">
        <ele>7.91302391357911</ele>
        <time>2018-09-10T22:44:54Z</time>
      </trkpt>
      <trkpt lat="31.204829570078594" lon="121.6135414786908">
        <ele>7.8701870762690795</ele>
        <time>2018-09-10T22:45:12Z</time>
      </trkpt>
      <trkpt lat="31.204888760104627" lon="121.61344144883088">
        <ele>7.947335597271326</ele>
        <time>2018-09-10T22:45:19Z</time>
      </trkpt>
      <trkpt lat="31.205112362567693" lon="121.61321318749862">
        <ele>7.979128950383583</ele>
        <time>2018-09-10T22:45:42Z</time>
      </trkpt>
      <trkpt lat="31.20539993951642" lon="121.61299928569085">
        <ele>8.42562038701935</ele>
        <time>2018-09-10T22:46:06Z</time>
      </trkpt>
      <trkpt lat="31.205547368007846" lon="121.61274744249116">
        <ele>10.347123195894522</ele>
        <time>2018-09-10T22:46:35Z</time>
      </trkpt>
      <trkpt lat="31.205559612046024" lon="121.61269349670036">
        <ele>10.705960283127741</ele>
        <time>2018-09-10T22:46:38Z</time>
      </trkpt>
      <trkpt lat="31.205522804069155" lon="121.61260973599629">
        <ele>10.87363560264125</ele>
        <time>2018-09-10T22:46:45Z</time>
      </trkpt>
      <trkpt lat="31.205513102325245" lon="121.61253491843897">
        <ele>11.233963100545381</ele>
        <time>2018-09-10T22:46:52Z</time>
      </trkpt>
      <trkpt lat="31.205445054151127" lon="121.61252624945757">
        <ele>11.021697442714729</ele>
        <time>2018-09-10T22:46:59Z</time>
      </trkpt>
      <trkpt lat="31.205414385024042" lon="121.61256528770393">
        <ele>11.084799206309722</ele>
        <time>2018-09-10T22:47:12Z</time>
      </trkpt>
      <trkpt lat="31.205466667849713" lon="121.61262383682373">
        <ele>11.08513745479673</ele>
        <time>2018-09-10T22:47:17Z</time>
      </trkpt>
      <trkpt lat="31.205429731661805" lon="121.61270163982644">
        <ele>11.49741323369804</ele>
        <time>2018-09-10T22:47:24Z</time>
      </trkpt>
      <trkpt lat="31.205393621630954" lon="121.6127631777793">
        <ele>11.341593600298907</ele>
        <time>2018-09-10T22:47:32Z</time>
      </trkpt>
      <trkpt lat="31.205345644047096" lon="121.61274637485525">
        <ele>11.248100220550612</ele>
        <time>2018-09-10T22:47:36Z</time>
      </trkpt>
      <trkpt lat="31.205112967827283" lon="121.61245687993559">
        <ele>10.928622682077368</ele>
        <time>2018-09-10T22:47:57Z</time>
      </trkpt>
      <trkpt lat="31.205060679334974" lon="121.61240510747052">
        <ele>10.754999404712748</ele>
        <time>2018-09-10T22:48:01Z</time>
      </trkpt>
      <trkpt lat="31.205039858345692" lon="121.61233300101152">
        <ele>10.649241579089331</ele>
        <time>2018-09-10T22:48:05Z</time>
      </trkpt>
      <trkpt lat="31.204965090496657" lon="121.61224897106115">
        <ele>10.556054301048434</ele>
        <time>2018-09-10T22:48:13Z</time>
      </trkpt>
      <trkpt lat="31.204931852669123" lon="121.61210475625244">
        <ele>11.024228150727897</ele>
        <time>2018-09-10T22:48:21Z</time>
      </trkpt>
      <trkpt lat="31.204828417831823" lon="121.6119242205053">
        <ele>15.037718196181025</ele>
        <time>2018-09-10T22:48:35Z</time>
      </trkpt>
      <trkpt lat="31.204799196125077" lon="121.6118445227366">
        <ele>15.518041549222545</ele>
        <time>2018-09-10T22:48:42Z</time>
      </trkpt>
      <trkpt lat="31.20488391002932" lon="121.61168701217662">
        <ele>16.14096192930736</ele>
        <time>2018-09-10T22:48:57Z</time>
      </trkpt>
      <trkpt lat="31.20492606470408" lon="121.61151622048529">
        <ele>16.060571586192705</ele>
        <time>2018-09-10T22:49:11Z</time>
      </trkpt>
      <trkpt lat="31.205062766292453" lon="121.61145033339335">
        <ele>15.756088084539584</ele>
        <time>2018-09-10T22:49:21Z</time>
      </trkpt>
      <trkpt lat="31.205098853227916" lon="121.61141563032925">
        <ele>15.836223719724721</ele>
        <time>2018-09-10T22:49:27Z</time>
      </trkpt>
      <trkpt lat="31.205150646773532" lon="121.61140667992416">
        <ele>15.673728912083739</ele>
        <time>2018-09-10T22:49:31Z</time>
      </trkpt>
      <trkpt lat="31.205349525953324" lon="121.6112223183517">
        <ele>15.907663006364366</ele>
        <time>2018-09-10T22:49:49Z</time>
      </trkpt>
      <trkpt lat="31.20536157699846" lon="121.61105776096379">
        <ele>16.24163573232699</ele>
        <time>2018-09-10T22:50:00Z</time>
      </trkpt>
      <trkpt lat="31.205463877073065" lon="121.61094551731928">
        <ele>16.160713742733616</ele>
        <time>2018-09-10T22:50:10Z</time>
      </trkpt>
      <trkpt lat="31.20556621313128" lon="121.61078284818801">
        <ele>15.915635291285021</ele>
        <time>2018-09-10T22:50:24Z</time>
      </trkpt>
      <trkpt lat="31.205672280664388" lon="121.61070855732676">
        <ele>15.848824934331269</ele>
        <time>2018-09-10T22:50:35Z</time>
      </trkpt>
      <trkpt lat="31.20572223476876" lon="121.61061773352108">
        <ele>15.708455526426082</ele>
        <time>2018-09-10T22:50:43Z</time>
      </trkpt>
      <trkpt lat="31.205719039608987" lon="121.61053586021436">
        <ele>15.931179310972883</ele>
        <time>2018-09-10T22:50:47Z</time>
      </trkpt>
      <trkpt lat="31.20560637714778" lon="121.61035260178976">
        <ele>14.76208950124363</ele>
        <time>2018-09-10T22:51:02Z</time>
      </trkpt>
      <trkpt lat="31.205484690347742" lon="121.61027724391784">
        <ele>13.07667422757227</ele>
        <time>2018-09-10T22:51:13Z</time>
      </trkpt>
      <trkpt lat="31.205428294350092" lon="121.61027697747186">
        <ele>13.178694789519707</ele>
        <time>2018-09-10T22:51:20Z</time>
      </trkpt>
      <trkpt lat="31.205419868372665" lon="121.61030652893446">
        <ele>13.324227395937648</ele>
        <time>2018-09-10T22:51:23Z</time>
      </trkpt>
    </trkseg>
  </trk>
</gpx>