<?xml version="1.0" encoding="UTF-8"?>
<gpx xmlns="http://www.topografix.com/GPX/1/1" xmlns:gpxtpx="http://www.garmin.com/xmlschemas/TrackPointExtension/v1" xmlns:xsi="http://www.w3.org/2001/XMLSchema-instance" xsi:schemaLocation="http://www.topografix.com/GPX/1/1 http://www.topografix.com/GPX/1/1/gpx.xsd" version="1.1" creator="gpx.py -- https://github.com/tkrajina/gpxpy">
  <trk>
    <name>gpx from keep</name>
    <type>Run</type>
    <trkseg>
      <trkpt lat="31.204435796489104" lon="121.61047849195953">
        <ele>9.01314926147461</ele>
        <time>2018-09-27T22:09:46Z</time>
      </trkpt>
      <trkpt lat="31.20447147748142" lon="121.61063112101539">
        <ele>9.72536849975586</ele>
        <time>2018-09-27T22:09:53Z</time>
      </trkpt>
      <trkpt lat="31.20457173312066" lon="121.6107208479398">
        <ele>11.31777572631836</ele>
        <time>2018-09-27T22:10:00Z</time>
      </trkpt>
      <trkpt lat="31.204572229071662" lon="121.61078509917795">
        <ele>11.952217492429298</ele>
        <time>2018-09-27T22:10:04Z</time>
      </trkpt>
      <trkpt lat="31.204383680749924" lon="121.61093584701307">
        <ele>11.93197423342588</ele>
        <time>2018-09-27T22:10:17Z</time>
      </trkpt>
      <trkpt lat="31.204298163772926" lon="121.61108550094147">
        <ele>11.907915907284561</ele>
        <time>2018-09-27T22:10:24Z</time>
      </trkpt>
      <trkpt lat="31.20420130349548" lon="121.61117388688731">
        <ele>11.893162759831533</ele>
        <time>2018-09-27T22:10:31Z</time>
      </trkpt>
      <trkpt lat="31.204145622518862" lon="121.6113067288542">
        <ele>11.996420215173465</ele>
        <time>2018-09-27T22:10:38Z</time>
      </trkpt>
      <trkpt lat="31.204137060951428" lon="121.61151628571595">
        <ele>11.761804731105538</ele>
        <time>2018-09-27T22:10:45Z</time>
      </trkpt>
      <trkpt lat="31.20417657227242" lon="121.6116152313271">
        <ele>11.92718021325701</ele>
        <time>2018-09-27T22:10:49Z</time>
      </trkpt>
      <trkpt lat="31.204382192271872" lon="121.61184157522838">
        <ele>10.68858786010665</ele>
        <time>2018-09-27T22:11:00Z</time>
      </trkpt>
      <trkpt lat="31.204598642800374" lon="121.61208472339416">
        <ele>9.128017356306096</ele>
        <time>2018-09-27T22:11:11Z</time>
      </trkpt>
      <trkpt lat="31.20481810259622" lon="121.61229073023435">
        <ele>8.830396379820204</ele>
        <time>2018-09-27T22:11:22Z</time>
      </trkpt>
      <trkpt lat="31.205050024299126" lon="121.61250784856784">
        <ele>8.913844312280787</ele>
        <time>2018-09-27T22:11:35Z</time>
      </trkpt>
      <trkpt lat="31.20528494293478" lon="121.61270463367295">
        <ele>9.019369513345435</ele>
        <time>2018-09-27T22:11:47Z</time>
      </trkpt>
      <trkpt lat="31.205402240357717" lon="121.61283528391391">
        <ele>9.480589086520109</ele>
        <time>2018-09-27T22:11:54Z</time>
      </trkpt>
      <trkpt lat="31.205391060336275" lon="121.61291443946689">
        <ele>9.459265643613683</ele>
        <time>2018-09-27T22:11:57Z</time>
      </trkpt>
      <trkpt lat="31.2052969084655" lon="121.61299875205829">
        <ele>9.347169947164144</ele>
        <time>2018-09-27T22:12:01Z</time>
      </trkpt>
      <trkpt lat="31.205065767851448" lon="121.61316331376031">
        <ele>8.54872420262421</ele>
        <time>2018-09-27T22:12:12Z</time>
      </trkpt>
      <trkpt lat="31.20480639597615" lon="121.61336718208594">
        <ele>8.06014045046912</ele>
        <time>2018-09-27T22:12:24Z</time>
      </trkpt>
      <trkpt lat="31.20460612067552" lon="121.61358242867124">
        <ele>7.489572937307447</ele>
        <time>2018-09-27T22:12:35Z</time>
      </trkpt>
      <trkpt lat="31.204368121614376" lon="121.6138386074692">
        <ele>7.400581227195566</ele>
        <time>2018-09-27T22:12:48Z</time>
      </trkpt>
      <trkpt lat="31.20425790210822" lon="121.61400342436795">
        <ele>7.4393151121199566</ele>
        <time>2018-09-27T22:12:56Z</time>
      </trkpt>
      <trkpt lat="31.204015300453207" lon="121.61424713015562">
        <ele>7.200506598799318</ele>
        <time>2018-09-27T22:13:09Z</time>
      </trkpt>
      <trkpt lat="31.203809845437053" lon="121.61448703554791">
        <ele>7.361101603238328</ele>
        <time>2018-09-27T22:13:21Z</time>
      </trkpt>
      <trkpt lat="31.203556685308143" lon="121.61470769747034">
        <ele>7.328041582327302</ele>
        <time>2018-09-27T22:13:34Z</time>
      </trkpt>
      <trkpt lat="31.20341263485255" lon="121.61479688679604">
        <ele>6.989252621149422</ele>
        <time>2018-09-27T22:13:41Z</time>
      </trkpt>
      <trkpt lat="31.203337996828896" lon="121.61488363055905">
        <ele>7.022613908500084</ele>
        <time>2018-09-27T22:13:45Z</time>
      </trkpt>
      <trkpt lat="31.203287753293615" lon="121.61497877464777">
        <ele>7.361308474350242</ele>
        <time>2018-09-27T22:13:49Z</time>
      </trkpt>
      <trkpt lat="31.2032868579188" lon="121.6150717458594">
        <ele>7.606703477211298</ele>
        <time>2018-09-27T22:14:07Z</time>
      </trkpt>
      <trkpt lat="31.203287130729844" lon="121.61506984847027">
        <ele>7.424666361624727</ele>
        <time>2018-09-27T22:14:16Z</time>
      </trkpt>
      <trkpt lat="31.203430686721532" lon="121.61523409377637">
        <ele>7.729430635463125</ele>
        <time>2018-09-27T22:14:31Z</time>
      </trkpt>
      <trkpt lat="31.203416245579326" lon="121.615313783693">
        <ele>7.9479786201505185</ele>
        <time>2018-09-27T22:14:35Z</time>
      </trkpt>
      <trkpt lat="31.20332691043668" lon="121.61546097058019">
        <ele>7.652340298039412</ele>
        <time>2018-09-27T22:14:42Z</time>
      </trkpt>
      <trkpt lat="31.203071527768024" lon="121.61573203815736">
        <ele>7.445756103328424</ele>
        <time>2018-09-27T22:14:57Z</time>
      </trkpt>
      <trkpt lat="31.202852789668373" lon="121.61595512520795">
        <ele>7.564495311162915</ele>
        <time>2018-09-27T22:15:10Z</time>
      </trkpt>
      <trkpt lat="31.202637309184936" lon="121.61617197602337">
        <ele>8.483098445400177</ele>
        <time>2018-09-27T22:15:23Z</time>
      </trkpt>
      <trkpt lat="31.20238057110193" lon="121.61643544675219">
        <ele>8.312572443781669</ele>
        <time>2018-09-27T22:15:37Z</time>
      </trkpt>
      <trkpt lat="31.20215122310872" lon="121.61669051031956">
        <ele>8.401644230942939</ele>
        <time>2018-09-27T22:15:50Z</time>
      </trkpt>
      <trkpt lat="31.201888755439903" lon="121.61698649970046">
        <ele>8.236194034829108</ele>
        <time>2018-09-27T22:16:05Z</time>
      </trkpt>
      <trkpt lat="31.20184316294891" lon="121.6170304104608">
        <ele>8.142509812509811</ele>
        <time>2018-09-27T22:16:08Z</time>
      </trkpt>
      <trkpt lat="31.20175799042421" lon="121.61706836175468">
        <ele>8.015414640186304</ele>
        <time>2018-09-27T22:16:12Z</time>
      </trkpt>
      <trkpt lat="31.201598903760406" lon="121.61727869340808">
        <ele>8.4531765154771</ele>
        <time>2018-09-27T22:16:22Z</time>
      </trkpt>
      <trkpt lat="31.201387209909555" lon="121.61749471916416">
        <ele>7.927732660449152</ele>
        <time>2018-09-27T22:16:34Z</time>
      </trkpt>
      <trkpt lat="31.201149433510523" lon="121.61776386567767">
        <ele>8.163959654695962</ele>
        <time>2018-09-27T22:16:48Z</time>
      </trkpt>
      <trkpt lat="31.200960204573583" lon="121.61801593103122">
        <ele>8.981832030829665</ele>
        <time>2018-09-27T22:17:02Z</time>
      </trkpt>
      <trkpt lat="31.200721314691958" lon="121.61830919252269">
        <ele>9.416275239737299</ele>
        <time>2018-09-27T22:17:17Z</time>
      </trkpt>
      <trkpt lat="31.200516069044983" lon="121.6185761594911">
        <ele>9.488383269587732</ele>
        <time>2018-09-27T22:17:31Z</time>
      </trkpt>
      <trkpt lat="31.200295658385958" lon="121.61882252805559">
        <ele>9.198733134606883</ele>
        <time>2018-09-27T22:17:45Z</time>
      </trkpt>
      <trkpt lat="31.200058393606813" lon="121.61910954686778">
        <ele>8.97527471519605</ele>
        <time>2018-09-27T22:18:00Z</time>
      </trkpt>
      <trkpt lat="31.19983309666212" lon="121.61935726569641">
        <ele>8.773728655880099</ele>
        <time>2018-09-27T22:18:14Z</time>
      </trkpt>
      <trkpt lat="31.19960346798911" lon="121.61959685239876">
        <ele>9.100635705014419</ele>
        <time>2018-09-27T22:18:28Z</time>
      </trkpt>
      <trkpt lat="31.199371950856175" lon="121.61982559700428">
        <ele>9.645108777384817</ele>
        <time>2018-09-27T22:18:42Z</time>
      </trkpt>
      <trkpt lat="31.19914644255586" lon="121.62001125034713">
        <ele>9.796447783961412</ele>
        <time>2018-09-27T22:18:56Z</time>
      </trkpt>
      <trkpt lat="31.1989852607678" lon="121.62013212876113">
        <ele>9.68395245775487</ele>
        <time>2018-09-27T22:19:07Z</time>
      </trkpt>
      <trkpt lat="31.19893097142906" lon="121.6201909396003">
        <ele>9.734545839986005</ele>
        <time>2018-09-27T22:19:10Z</time>
      </trkpt>
      <trkpt lat="31.198776031961778" lon="121.62030531276905">
        <ele>9.502606288913277</ele>
        <time>2018-09-27T22:19:18Z</time>
      </trkpt>
      <trkpt lat="31.198538561139085" lon="121.6205186049942">
        <ele>9.079828512528124</ele>
        <time>2018-09-27T22:19:30Z</time>
      </trkpt>
      <trkpt lat="31.198339845424297" lon="121.62074625478974">
        <ele>9.12245695496157</ele>
        <time>2018-09-27T22:19:40Z</time>
      </trkpt>
      <trkpt lat="31.198071402524608" lon="121.62101428563808">
        <ele>8.702868034120357</ele>
        <time>2018-09-27T22:19:55Z</time>
      </trkpt>
      <trkpt lat="31.197838280675487" lon="121.62121320946889">
        <ele>8.664091732809013</ele>
        <time>2018-09-27T22:20:09Z</time>
      </trkpt>
      <trkpt lat="31.197591327929928" lon="121.62141375884849">
        <ele>8.295559728344138</ele>
        <time>2018-09-27T22:20:23Z</time>
      </trkpt>
      <trkpt lat="31.197335389698853" lon="121.62164736723336">
        <ele>8.358967203834066</ele>
        <time>2018-09-27T22:20:38Z</time>
      </trkpt>
      <trkpt lat="31.197078117728548" lon="121.62185983728406">
        <ele>8.677330610468402</ele>
        <time>2018-09-27T22:20:52Z</time>
      </trkpt>
      <trkpt lat="31.19681296036376" lon="121.62209100372388">
        <ele>8.906869919807523</ele>
        <time>2018-09-27T22:21:07Z</time>
      </trkpt>
      <trkpt lat="31.196656892248114" lon="121.6222381568206">
        <ele>9.416161181390546</ele>
        <time>2018-09-27T22:21:17Z</time>
      </trkpt>
      <trkpt lat="31.19661994865545" lon="121.62229940030468">
        <ele>9.380998805402278</ele>
        <time>2018-09-27T22:21:20Z</time>
      </trkpt>
      <trkpt lat="31.1966149909972" lon="121.62236741536141">
        <ele>9.770845090117852</ele>
        <time>2018-09-27T22:21:23Z</time>
      </trkpt>
      <trkpt lat="31.196691607806038" lon="121.62270449899546">
        <ele>9.269938628531456</ele>
        <time>2018-09-27T22:21:37Z</time>
      </trkpt>
      <trkpt lat="31.196760033804907" lon="121.6230873725904">
        <ele>7.605506139976967</ele>
        <time>2018-09-27T22:21:51Z</time>
      </trkpt>
      <trkpt lat="31.19681463710208" lon="121.62346184208191">
        <ele>6.261403793484686</ele>
        <time>2018-09-27T22:22:05Z</time>
      </trkpt>
      <trkpt lat="31.196886331432115" lon="121.62382438281372">
        <ele>5.646371244400232</ele>
        <time>2018-09-27T22:22:19Z</time>
      </trkpt>
      <trkpt lat="31.196928408582192" lon="121.62400944428904">
        <ele>5.445967137890868</ele>
        <time>2018-09-27T22:22:27Z</time>
      </trkpt>
      <trkpt lat="31.19696840623604" lon="121.62389076110308">
        <ele>5.548183963969738</ele>
        <time>2018-09-27T22:22:35Z</time>
      </trkpt>
      <trkpt lat="31.196931705455285" lon="121.62351412828184">
        <ele>5.291353105569755</ele>
        <time>2018-09-27T22:22:49Z</time>
      </trkpt>
      <trkpt lat="31.19688427828709" lon="121.62326430327091">
        <ele>4.999376408290434</ele>
        <time>2018-09-27T22:22:59Z</time>
      </trkpt>
      <trkpt lat="31.19681912740276" lon="121.62309901928343">
        <ele>4.526307373176834</ele>
        <time>2018-09-27T22:23:06Z</time>
      </trkpt>
      <trkpt lat="31.196801485022235" lon="121.62288089141948">
        <ele>4.060258108818907</ele>
        <time>2018-09-27T22:23:15Z</time>
      </trkpt>
      <trkpt lat="31.196810818761115" lon="121.62278090283068">
        <ele>3.690526247940781</ele>
        <time>2018-09-27T22:23:19Z</time>
      </trkpt>
      <trkpt lat="31.19700269373654" lon="121.62262101406469">
        <ele>3.4425183836347593</ele>
        <time>2018-09-27T22:23:30Z</time>
      </trkpt>
      <trkpt lat="31.19709962135942" lon="121.62250475889317">
        <ele>3.563955346893799</ele>
        <time>2018-09-27T22:23:36Z</time>
      </trkpt>
      <trkpt lat="31.19734625778745" lon="121.62235028345076">
        <ele>3.117142605639799</ele>
        <time>2018-09-27T22:23:48Z</time>
      </trkpt>
      <trkpt lat="31.197621482821404" lon="121.62208931094763">
        <ele>3.712817298055999</ele>
        <time>2018-09-27T22:24:03Z</time>
      </trkpt>
      <trkpt lat="31.197683620407087" lon="121.62204676235879">
        <ele>3.749409077094084</ele>
        <time>2018-09-27T22:24:06Z</time>
      </trkpt>
      <trkpt lat="31.19775501579149" lon="121.62196925674981">
        <ele>3.905377497675655</ele>
        <time>2018-09-27T22:24:10Z</time>
      </trkpt>
      <trkpt lat="31.197790063856246" lon="121.62190530287829">
        <ele>4.195645199144</ele>
        <time>2018-09-27T22:24:14Z</time>
      </trkpt>
      <trkpt lat="31.19792575397756" lon="121.62179527394161">
        <ele>4.513064726296463</ele>
        <time>2018-09-27T22:24:22Z</time>
      </trkpt>
      <trkpt lat="31.19809935531349" lon="121.62172751445512">
        <ele>4.127616937504039</ele>
        <time>2018-09-27T22:24:31Z</time>
      </trkpt>
      <trkpt lat="31.19816366571379" lon="121.62168117137182">
        <ele>3.93034428387495</ele>
        <time>2018-09-27T22:24:35Z</time>
      </trkpt>
      <trkpt lat="31.198383272132897" lon="121.62144783727737">
        <ele>2.9989325861287988</ele>
        <time>2018-09-27T22:24:48Z</time>
      </trkpt>
      <trkpt lat="31.198603710721063" lon="121.6211958030125">
        <ele>4.2528800062052206</ele>
        <time>2018-09-27T22:25:02Z</time>
      </trkpt>
      <trkpt lat="31.198842232202708" lon="121.62101801568495">
        <ele>3.8978867869246443</ele>
        <time>2018-09-27T22:25:14Z</time>
      </trkpt>
      <trkpt lat="31.199059383671695" lon="121.62079361861431">
        <ele>3.6874252634111535</ele>
        <time>2018-09-27T22:25:27Z</time>
      </trkpt>
      <trkpt lat="31.199125066247422" lon="121.62073074332793">
        <ele>3.850442677076451</ele>
        <time>2018-09-27T22:25:31Z</time>
      </trkpt>
      <trkpt lat="31.199293509405187" lon="121.62066704641195">
        <ele>4.3767059112997515</ele>
        <time>2018-09-27T22:25:39Z</time>
      </trkpt>
      <trkpt lat="31.199381904991803" lon="121.62066161926226">
        <ele>4.673216158861706</ele>
        <time>2018-09-27T22:25:43Z</time>
      </trkpt>
      <trkpt lat="31.199629672129067" lon="121.62070739633003">
        <ele>5.179846526147806</ele>
        <time>2018-09-27T22:25:54Z</time>
      </trkpt>
      <trkpt lat="31.199793711855218" lon="121.62070413085978">
        <ele>5.475217332035385</ele>
        <time>2018-09-27T22:26:01Z</time>
      </trkpt>
      <trkpt lat="31.200095976125965" lon="121.62075071631514">
        <ele>5.683692959582192</ele>
        <time>2018-09-27T22:26:15Z</time>
      </trkpt>
      <trkpt lat="31.200441861566386" lon="121.6208262940304">
        <ele>5.859474916766743</ele>
        <time>2018-09-27T22:26:31Z</time>
      </trkpt>
      <trkpt lat="31.200733020783453" lon="121.62086231158978">
        <ele>5.883181439524275</ele>
        <time>2018-09-27T22:26:44Z</time>
      </trkpt>
      <trkpt lat="31.201031199432958" lon="121.62092596941436">
        <ele>5.923850147154159</ele>
        <time>2018-09-27T22:26:58Z</time>
      </trkpt>
      <trkpt lat="31.20132913112559" lon="121.62096740604773">
        <ele>6.328392197152297</ele>
        <time>2018-09-27T22:27:12Z</time>
      </trkpt>
      <trkpt lat="31.2016053735409" lon="121.62100748946915">
        <ele>6.588969252388129</ele>
        <time>2018-09-27T22:27:24Z</time>
      </trkpt>
      <trkpt lat="31.20191874690273" lon="121.62106084815355">
        <ele>7.01701032556992</ele>
        <time>2018-09-27T22:27:38Z</time>
      </trkpt>
      <trkpt lat="31.20220203081883" lon="121.6211082475025">
        <ele>6.676757386153554</ele>
        <time>2018-09-27T22:27:51Z</time>
      </trkpt>
      <trkpt lat="31.202465265011394" lon="121.62114264106187">
        <ele>6.95846516480043</ele>
        <time>2018-09-27T22:28:12Z</time>
      </trkpt>
      <trkpt lat="31.202448744795813" lon="121.62112529926854">
        <ele>7.053595035236455</ele>
        <time>2018-09-27T22:28:36Z</time>
      </trkpt>
      <trkpt lat="31.202446836457177" lon="121.62113478396886">
        <ele>7.137348310813898</ele>
        <time>2018-09-27T22:28:40Z</time>
      </trkpt>
      <trkpt lat="31.202461198880044" lon="121.62114182843801">
        <ele>7.398771306169408</ele>
        <time>2018-09-27T22:29:04Z</time>
      </trkpt>
      <trkpt lat="31.20246258009575" lon="121.62111852344825">
        <ele>7.010522866460676</ele>
        <time>2018-09-27T22:29:10Z</time>
      </trkpt>
      <trkpt lat="31.202350729712176" lon="121.6207518846754">
        <ele>7.018927511590746</ele>
        <time>2018-09-27T22:29:25Z</time>
      </trkpt>
      <trkpt lat="31.202379293903373" lon="121.62041205759732">
        <ele>6.692109294261691</ele>
        <time>2018-09-27T22:29:38Z</time>
      </trkpt>
      <trkpt lat="31.202413802009506" lon="121.62034295108744">
        <ele>6.652797310193904</ele>
        <time>2018-09-27T22:29:42Z</time>
      </trkpt>
      <trkpt lat="31.202441745992182" lon="121.62032696006018">
        <ele>6.087837437335679</ele>
        <time>2018-09-27T22:29:56Z</time>
      </trkpt>
      <trkpt lat="31.20244744011348" lon="121.6203266885937">
        <ele>6.3654747234353835</ele>
        <time>2018-09-27T22:29:57Z</time>
      </trkpt>
      <trkpt lat="31.20255126129104" lon="121.62034863060813">
        <ele>6.733014414951096</ele>
        <time>2018-09-27T22:30:14Z</time>
      </trkpt>
      <trkpt lat="31.20267164778525" lon="121.62034618169021">
        <ele>6.509610861191188</ele>
        <time>2018-09-27T22:30:20Z</time>
      </trkpt>
      <trkpt lat="31.20281217065238" lon="121.62027598224907">
        <ele>6.026798669038467</ele>
        <time>2018-09-27T22:30:27Z</time>
      </trkpt>
      <trkpt lat="31.20287535954769" lon="121.62026242722736">
        <ele>5.780949501530763</ele>
        <time>2018-09-27T22:30:30Z</time>
      </trkpt>
      <trkpt lat="31.202877627920557" lon="121.62016920427521">
        <ele>5.72262569375977</ele>
        <time>2018-09-27T22:30:34Z</time>
      </trkpt>
      <trkpt lat="31.20274106253014" lon="121.61983100923852">
        <ele>5.240217530083328</ele>
        <time>2018-09-27T22:30:48Z</time>
      </trkpt>
      <trkpt lat="31.202646548182212" lon="121.61946489285314">
        <ele>5.421686051570713</ele>
        <time>2018-09-27T22:31:02Z</time>
      </trkpt>
      <trkpt lat="31.202551755040496" lon="121.6191017523466">
        <ele>5.620029398400906</ele>
        <time>2018-09-27T22:31:17Z</time>
      </trkpt>
      <trkpt lat="31.202447451132585" lon="121.61875486816493">
        <ele>5.614772234287543</ele>
        <time>2018-09-27T22:31:31Z</time>
      </trkpt>
      <trkpt lat="31.20244592317478" lon="121.61865730383319">
        <ele>5.490784353484187</ele>
        <time>2018-09-27T22:31:35Z</time>
      </trkpt>
      <trkpt lat="31.20270253549124" lon="121.61853966272753">
        <ele>5.473885913222745</ele>
        <time>2018-09-27T22:31:46Z</time>
      </trkpt>
      <trkpt lat="31.202778771866218" lon="121.61849249991106">
        <ele>5.230238893427607</ele>
        <time>2018-09-27T22:31:50Z</time>
      </trkpt>
      <trkpt lat="31.20282410450071" lon="121.61843964824389">
        <ele>5.014577847243153</ele>
        <time>2018-09-27T22:31:53Z</time>
      </trkpt>
      <trkpt lat="31.202806863199825" lon="121.61832853317661">
        <ele>5.172880106089423</ele>
        <time>2018-09-27T22:31:57Z</time>
      </trkpt>
      <trkpt lat="31.202709015365567" lon="121.6180239169506">
        <ele>5.325320941076562</ele>
        <time>2018-09-27T22:32:10Z</time>
      </trkpt>
      <trkpt lat="31.202558829945982" lon="121.61772472180932">
        <ele>5.6377827848316535</ele>
        <time>2018-09-27T22:32:24Z</time>
      </trkpt>
      <trkpt lat="31.202425983256408" lon="121.61743663371591">
        <ele>5.879441670240151</ele>
        <time>2018-09-27T22:32:37Z</time>
      </trkpt>
      <trkpt lat="31.20240138993295" lon="121.61735397264997">
        <ele>6.049803278367484</ele>
        <time>2018-09-27T22:32:41Z</time>
      </trkpt>
      <trkpt lat="31.20240986124503" lon="121.61728540202087">
        <ele>5.663772838563737</ele>
        <time>2018-09-27T22:32:44Z</time>
      </trkpt>
      <trkpt lat="31.20268691452454" lon="121.61705121001128">
        <ele>5.094540774151881</ele>
        <time>2018-09-27T22:33:00Z</time>
      </trkpt>
      <trkpt lat="31.202802543208534" lon="121.61691975038924">
        <ele>4.842042677668733</ele>
        <time>2018-09-27T22:33:11Z</time>
      </trkpt>
      <trkpt lat="31.20291403831623" lon="121.61685794584595">
        <ele>4.7591399825060385</ele>
        <time>2018-09-27T22:33:21Z</time>
      </trkpt>
      <trkpt lat="31.203029944152437" lon="121.6167191672541">
        <ele>4.695039708888952</ele>
        <time>2018-09-27T22:33:34Z</time>
      </trkpt>
      <trkpt lat="31.203173700077993" lon="121.61666142505834">
        <ele>4.700487194036217</ele>
        <time>2018-09-27T22:33:44Z</time>
      </trkpt>
      <trkpt lat="31.203459940607484" lon="121.61645541421144">
        <ele>3.857378032767503</ele>
        <time>2018-09-27T22:34:11Z</time>
      </trkpt>
      <trkpt lat="31.20359665838918" lon="121.6163849332103">
        <ele>4.031182177719408</ele>
        <time>2018-09-27T22:34:22Z</time>
      </trkpt>
      <trkpt lat="31.203644427073282" lon="121.61633234789483">
        <ele>4.073128547752553</ele>
        <time>2018-09-27T22:34:26Z</time>
      </trkpt>
      <trkpt lat="31.203738830147493" lon="121.61628057172544">
        <ele>4.359835500840411</ele>
        <time>2018-09-27T22:34:33Z</time>
      </trkpt>
      <trkpt lat="31.203831311346267" lon="121.61625454433477">
        <ele>4.267090210645712</ele>
        <time>2018-09-27T22:34:40Z</time>
      </trkpt>
      <trkpt lat="31.204012622932563" lon="121.61604501520291">
        <ele>4.423079286285855</ele>
        <time>2018-09-27T22:34:57Z</time>
      </trkpt>
      <trkpt lat="31.20408962557882" lon="121.61604473779235">
        <ele>4.799249521127894</ele>
        <time>2018-09-27T22:35:03Z</time>
      </trkpt>
      <trkpt lat="31.204208431564968" lon="121.6159916037842">
        <ele>4.601946419955187</ele>
        <time>2018-09-27T22:35:11Z</time>
      </trkpt>
      <trkpt lat="31.20429354689979" lon="121.61601463530626">
        <ele>4.545450481402725</ele>
        <time>2018-09-27T22:35:18Z</time>
      </trkpt>
      <trkpt lat="31.204456557202402" lon="121.61624581936405">
        <ele>5.138275541916595</ele>
        <time>2018-09-27T22:35:36Z</time>
      </trkpt>
      <trkpt lat="31.204584970444674" lon="121.61635883183055">
        <ele>5.823695456330373</ele>
        <time>2018-09-27T22:35:47Z</time>
      </trkpt>
      <trkpt lat="31.204560111805815" lon="121.61626640976952">
        <ele>6.569996977942978</ele>
        <time>2018-09-27T22:35:53Z</time>
      </trkpt>
      <trkpt lat="31.204443388747507" lon="121.61611897377384">
        <ele>7.313499717956724</ele>
        <time>2018-09-27T22:36:04Z</time>
      </trkpt>
      <trkpt lat="31.204325798062577" lon="121.61602981097359">
        <ele>7.789038456875733</ele>
        <time>2018-09-27T22:36:14Z</time>
      </trkpt>
      <trkpt lat="31.204183901451522" lon="121.61583494301087">
        <ele>8.2304359582382</ele>
        <time>2018-09-27T22:36:27Z</time>
      </trkpt>
      <trkpt lat="31.20394498481947" lon="121.61558722748664">
        <ele>7.892561570894426</ele>
        <time>2018-09-27T22:36:50Z</time>
      </trkpt>
      <trkpt lat="31.203882405596225" lon="121.61552841548821">
        <ele>7.995014919780758</ele>
        <time>2018-09-27T22:36:57Z</time>
      </trkpt>
      <trkpt lat="31.20383070545979" lon="121.61543192676271">
        <ele>7.381396512795817</ele>
        <time>2018-09-27T22:37:05Z</time>
      </trkpt>
      <trkpt lat="31.203707960561385" lon="121.615343303958">
        <ele>6.465567189656717</ele>
        <time>2018-09-27T22:37:16Z</time>
      </trkpt>
      <trkpt lat="31.203526346722835" lon="121.61529100640769">
        <ele>5.062660924409375</ele>
        <time>2018-09-27T22:37:32Z</time>
      </trkpt>
      <trkpt lat="31.203546737835893" lon="121.61522812106622">
        <ele>4.693722447070417</ele>
        <time>2018-09-27T22:37:36Z</time>
      </trkpt>
      <trkpt lat="31.203758167890648" lon="121.61498415681123">
        <ele>4.623603088269682</ele>
        <time>2018-09-27T22:37:55Z</time>
      </trkpt>
      <trkpt lat="31.20398909059821" lon="121.61477108884046">
        <ele>4.845725354662864</ele>
        <time>2018-09-27T22:38:17Z</time>
      </trkpt>
      <trkpt lat="31.204222221731303" lon="121.61451058356423">
        <ele>5.272690050817971</ele>
        <time>2018-09-27T22:38:41Z</time>
      </trkpt>
      <trkpt lat="31.20430283151564" lon="121.61441462192256">
        <ele>5.60730111537562</ele>
        <time>2018-09-27T22:38:49Z</time>
      </trkpt>
      <trkpt lat="31.20447429979446" lon="121.61428531186769">
        <ele>5.468578595161674</ele>
        <time>2018-09-27T22:39:03Z</time>
      </trkpt>
      <trkpt lat="31.204511218844196" lon="121.61423299393178">
        <ele>5.190335612609648</ele>
        <time>2018-09-27T22:39:07Z</time>
      </trkpt>
      <trkpt lat="31.20475245633426" lon="121.61399931750287">
        <ele>5.4679301811808685</ele>
        <time>2018-09-27T22:39:23Z</time>
      </trkpt>
      <trkpt lat="31.20499533879735" lon="121.61374151363945">
        <ele>5.576492941384085</ele>
        <time>2018-09-27T22:39:37Z</time>
      </trkpt>
      <trkpt lat="31.205225733859525" lon="121.61349915900564">
        <ele>5.8791006340575755</ele>
        <time>2018-09-27T22:39:51Z</time>
      </trkpt>
      <trkpt lat="31.205484063906802" lon="121.61324433020283">
        <ele>6.400208653757915</ele>
        <time>2018-09-27T22:40:07Z</time>
      </trkpt>
      <trkpt lat="31.20560077469847" lon="121.61309360335953">
        <ele>6.26417422040754</ele>
        <time>2018-09-27T22:40:20Z</time>
      </trkpt>
      <trkpt lat="31.205519194490307" lon="121.61305457527884">
        <ele>6.485909277360378</ele>
        <time>2018-09-27T22:40:46Z</time>
      </trkpt>
      <trkpt lat="31.205297055615098" lon="121.61281550391233">
        <ele>6.17705431881102</ele>
        <time>2018-09-27T22:41:00Z</time>
      </trkpt>
      <trkpt lat="31.20506406085256" lon="121.61258700314812">
        <ele>5.861708916533047</ele>
        <time>2018-09-27T22:41:13Z</time>
      </trkpt>
      <trkpt lat="31.20498167786903" lon="121.6125336069725">
        <ele>5.7443164841128365</ele>
        <time>2018-09-27T22:41:17Z</time>
      </trkpt>
      <trkpt lat="31.20472104585605" lon="121.61227826837793">
        <ele>5.615838454811659</ele>
        <time>2018-09-27T22:41:32Z</time>
      </trkpt>
      <trkpt lat="31.204532533628697" lon="121.6120226499193">
        <ele>5.782273478284765</ele>
        <time>2018-09-27T22:41:47Z</time>
      </trkpt>
      <trkpt lat="31.204440441635043" lon="121.6119001256848">
        <ele>5.844248893682305</ele>
        <time>2018-09-27T22:41:55Z</time>
      </trkpt>
      <trkpt lat="31.204210691914383" lon="121.61167269998772">
        <ele>6.42930463293402</ele>
        <time>2018-09-27T22:42:21Z</time>
      </trkpt>
      <trkpt lat="31.204138339956952" lon="121.61161821650228">
        <ele>6.643339113063696</ele>
        <time>2018-09-27T22:42:28Z</time>
      </trkpt>
      <trkpt lat="31.204182417010042" lon="121.61141407952735">
        <ele>6.60478050116938</ele>
        <time>2018-09-27T22:42:39Z</time>
      </trkpt>
      <trkpt lat="31.20416734790332" lon="121.61126009852025">
        <ele>6.9425536772662255</ele>
        <time>2018-09-27T22:42:50Z</time>
      </trkpt>
      <trkpt lat="31.204187451598745" lon="121.61120641970298">
        <ele>6.835125070106621</ele>
        <time>2018-09-27T22:42:57Z</time>
      </trkpt>
      <trkpt lat="31.204303333829216" lon="121.61106028834021">
        <ele>6.642131793998775</ele>
        <time>2018-09-27T22:43:12Z</time>
      </trkpt>
      <trkpt lat="31.204444914630425" lon="121.61099439953402">
        <ele>6.995470423190131</ele>
        <time>2018-09-27T22:43:25Z</time>
      </trkpt>
      <trkpt lat="31.204537182739912" lon="121.61088161420474">
        <ele>6.8575357712159075</ele>
        <time>2018-09-27T22:43:35Z</time>
      </trkpt>
      <trkpt lat="31.204560817678537" lon="121.61081790344713">
        <ele>6.719082765765382</ele>
        <time>2018-09-27T22:43:42Z</time>
      </trkpt>
      <trkpt lat="31.20447794973251" lon="121.61067991912917">
        <ele>7.020456188785225</ele>
        <time>2018-09-27T22:43:54Z</time>
      </trkpt>
      <trkpt lat="31.204437673236374" lon="121.61050831341358">
        <ele>6.96746543655718</ele>
        <time>2018-09-27T22:44:09Z</time>
      </trkpt>
      <trkpt lat="31.20447810687535" lon="121.61045978215975">
        <ele>6.832135775729888</ele>
        <time>2018-09-27T22:44:15Z</time>
      </trkpt>
      <trkpt lat="31.204519824338213" lon="121.61051237320244">
        <ele>9.190041643432341</ele>
        <time>2018-09-27T22:44:33Z</time>
      </trkpt>
      <trkpt lat="31.204543363241317" lon="121.61058231631924">
        <ele>10.64431675847041</ele>
        <time>2018-09-27T22:44:40Z</time>
      </trkpt>
      <trkpt lat="31.204527146727738" lon="121.61050993264918">
        <ele>12.087465443518681</ele>
        <time>2018-09-27T22:44:47Z</time>
      </trkpt>
      <trkpt lat="31.204485417906234" lon="121.6104733368483">
        <ele>15.105867599245254</ele>
        <time>2018-09-27T22:45:01Z</time>
      </trkpt>
      <trkpt lat="31.204414592745938" lon="121.61055602981487">
        <ele>20.26413789231208</ele>
        <time>2018-09-27T22:45:32Z</time>
      </trkpt>
    </trkseg>
  </trk>
</gpx>