<?xml version="1.0" encoding="UTF-8"?>
<gpx xmlns="http://www.topografix.com/GPX/1/1" xmlns:gpxtpx="http://www.garmin.com/xmlschemas/TrackPointExtension/v1" xmlns:xsi="http://www.w3.org/2001/XMLSchema-instance" xsi:schemaLocation="http://www.topografix.com/GPX/1/1 http://www.topografix.com/GPX/1/1/gpx.xsd" version="1.1" creator="gpx.py -- https://github.com/tkrajina/gpxpy">
  <trk>
    <name>gpx from keep</name>
    <type>Run</type>
    <trkseg>
      <trkpt lat="31.204494395410073" lon="121.61080977588664">
        <ele>8.8864107131958</ele>
        <time>2020-04-15T23:06:56Z</time>
      </trkpt>
      <trkpt lat="31.204461895001256" lon="121.61076016689584">
        <ele>8.244583131346424</ele>
        <time>2020-04-15T23:07:04Z</time>
      </trkpt>
      <trkpt lat="31.20449898254021" lon="121.61084040998662">
        <ele>7.695678261900447</ele>
        <time>2020-04-15T23:07:08Z</time>
      </trkpt>
      <trkpt lat="31.204607684218633" lon="121.6108729331455">
        <ele>7.04614810552448</ele>
        <time>2020-04-15T23:07:15Z</time>
      </trkpt>
      <trkpt lat="31.204681765396174" lon="121.61078834334715">
        <ele>7.024501065723598</ele>
        <time>2020-04-15T23:07:18Z</time>
      </trkpt>
      <trkpt lat="31.2047493138848" lon="121.61073872603883">
        <ele>7.057896406389773</ele>
        <time>2020-04-15T23:07:22Z</time>
      </trkpt>
      <trkpt lat="31.204804633113675" lon="121.61072814846128">
        <ele>7.156010276637971</ele>
        <time>2020-04-15T23:07:25Z</time>
      </trkpt>
      <trkpt lat="31.2049237628531" lon="121.61058689364792">
        <ele>9.908680099062622</ele>
        <time>2020-04-15T23:07:29Z</time>
      </trkpt>
      <trkpt lat="31.204954203806253" lon="121.61048332900653">
        <ele>8.769076130352914</ele>
        <time>2020-04-15T23:07:32Z</time>
      </trkpt>
      <trkpt lat="31.205102662547326" lon="121.61027429330966">
        <ele>7.533141962252557</ele>
        <time>2020-04-15T23:07:41Z</time>
      </trkpt>
      <trkpt lat="31.20523940759468" lon="121.61014170972956">
        <ele>7.891730999574065</ele>
        <time>2020-04-15T23:07:48Z</time>
      </trkpt>
      <trkpt lat="31.205286576279768" lon="121.61015444798458">
        <ele>8.343785443343222</ele>
        <time>2020-04-15T23:07:52Z</time>
      </trkpt>
      <trkpt lat="31.205415538214137" lon="121.61029514276328">
        <ele>6.423196282237768</ele>
        <time>2020-04-15T23:07:59Z</time>
      </trkpt>
      <trkpt lat="31.205499282624462" lon="121.61034691739088">
        <ele>5.988159219734371</ele>
        <time>2020-04-15T23:08:02Z</time>
      </trkpt>
      <trkpt lat="31.205660499799155" lon="121.61050007916204">
        <ele>6.062374523840845</ele>
        <time>2020-04-15T23:08:09Z</time>
      </trkpt>
      <trkpt lat="31.20567537537947" lon="121.61055185901512">
        <ele>4.33885292429477</ele>
        <time>2020-04-15T23:08:13Z</time>
      </trkpt>
      <trkpt lat="31.205479667152616" lon="121.61085713719325">
        <ele>7.581055483780801</ele>
        <time>2020-04-15T23:08:24Z</time>
      </trkpt>
      <trkpt lat="31.205419425846603" lon="121.61092491737335">
        <ele>9.074335468001664</ele>
        <time>2020-04-15T23:08:27Z</time>
      </trkpt>
      <trkpt lat="31.205331446355608" lon="121.61110493460079">
        <ele>4.4791593020781875</ele>
        <time>2020-04-15T23:08:38Z</time>
      </trkpt>
      <trkpt lat="31.205111618834092" lon="121.61138580885019">
        <ele>5.549679298885167</ele>
        <time>2020-04-15T23:08:49Z</time>
      </trkpt>
      <trkpt lat="31.205023145614167" lon="121.61149696481975">
        <ele>8.295323193073273</ele>
        <time>2020-04-15T23:08:53Z</time>
      </trkpt>
      <trkpt lat="31.20489771576162" lon="121.6117162888861">
        <ele>6.081157618202269</ele>
        <time>2020-04-15T23:09:01Z</time>
      </trkpt>
      <trkpt lat="31.204865659610892" lon="121.61179816088502">
        <ele>5.7263676999136806</ele>
        <time>2020-04-15T23:09:04Z</time>
      </trkpt>
      <trkpt lat="31.20486342395427" lon="121.61188545190933">
        <ele>4.875387717969716</ele>
        <time>2020-04-15T23:09:07Z</time>
      </trkpt>
      <trkpt lat="31.204896171130624" lon="121.61196406489266">
        <ele>5.438379265367985</ele>
        <time>2020-04-15T23:09:11Z</time>
      </trkpt>
      <trkpt lat="31.20511912597587" lon="121.61220965099746">
        <ele>6.948166930116713</ele>
        <time>2020-04-15T23:09:25Z</time>
      </trkpt>
      <trkpt lat="31.205200688193504" lon="121.61227334919958">
        <ele>7.137456350028515</ele>
        <time>2020-04-15T23:09:29Z</time>
      </trkpt>
      <trkpt lat="31.205244293202867" lon="121.612334610611">
        <ele>7.241016464307904</ele>
        <time>2020-04-15T23:09:32Z</time>
      </trkpt>
      <trkpt lat="31.205478189666753" lon="121.61245386783126">
        <ele>8.09035315643996</ele>
        <time>2020-04-15T23:09:44Z</time>
      </trkpt>
      <trkpt lat="31.2055968660888" lon="121.61255659801864">
        <ele>7.141719916835427</ele>
        <time>2020-04-15T23:09:51Z</time>
      </trkpt>
      <trkpt lat="31.205652463430365" lon="121.61253815989289">
        <ele>7.141289444640279</ele>
        <time>2020-04-15T23:09:55Z</time>
      </trkpt>
      <trkpt lat="31.205861705710824" lon="121.6126322076505">
        <ele>4.888016292825341</ele>
        <time>2020-04-15T23:10:06Z</time>
      </trkpt>
      <trkpt lat="31.205943801687734" lon="121.61270539243196">
        <ele>5.63281580619514</ele>
        <time>2020-04-15T23:10:10Z</time>
      </trkpt>
      <trkpt lat="31.20596625411688" lon="121.61277044955557">
        <ele>5.0131973046809435</ele>
        <time>2020-04-15T23:10:13Z</time>
      </trkpt>
      <trkpt lat="31.205956180954573" lon="121.61282195528575">
        <ele>7.210883302614093</ele>
        <time>2020-04-15T23:10:35Z</time>
      </trkpt>
      <trkpt lat="31.205854697566014" lon="121.6129200937461">
        <ele>7.785396868363023</ele>
        <time>2020-04-15T23:10:51Z</time>
      </trkpt>
      <trkpt lat="31.205812881587814" lon="121.61299599863183">
        <ele>8.036260896362364</ele>
        <time>2020-04-15T23:10:55Z</time>
      </trkpt>
      <trkpt lat="31.2059948959454" lon="121.61322883678255">
        <ele>6.280419350601733</ele>
        <time>2020-04-15T23:11:09Z</time>
      </trkpt>
      <trkpt lat="31.206092971547903" lon="121.61332126451731">
        <ele>6.535970716737211</ele>
        <time>2020-04-15T23:11:16Z</time>
      </trkpt>
      <trkpt lat="31.20613357387189" lon="121.61340420914479">
        <ele>6.751498910598457</ele>
        <time>2020-04-15T23:11:19Z</time>
      </trkpt>
      <trkpt lat="31.206204014274782" lon="121.6134708867817">
        <ele>5.786890183575451</ele>
        <time>2020-04-15T23:11:23Z</time>
      </trkpt>
      <trkpt lat="31.20622966866039" lon="121.61359611894397">
        <ele>6.507844175212085</ele>
        <time>2020-04-15T23:11:27Z</time>
      </trkpt>
      <trkpt lat="31.206040804596352" lon="121.61378073193659">
        <ele>6.049336734227836</ele>
        <time>2020-04-15T23:11:38Z</time>
      </trkpt>
      <trkpt lat="31.20590096704758" lon="121.6140219919334">
        <ele>6.084338625892997</ele>
        <time>2020-04-15T23:11:48Z</time>
      </trkpt>
      <trkpt lat="31.20577588909066" lon="121.61412175372001">
        <ele>6.107763348147273</ele>
        <time>2020-04-15T23:11:55Z</time>
      </trkpt>
      <trkpt lat="31.20567007456409" lon="121.61420606295559">
        <ele>7.150045735761523</ele>
        <time>2020-04-15T23:12:02Z</time>
      </trkpt>
      <trkpt lat="31.20561393611128" lon="121.61422178919896">
        <ele>7.532114760950208</ele>
        <time>2020-04-15T23:12:05Z</time>
      </trkpt>
      <trkpt lat="31.2055409564848" lon="121.61427356801838">
        <ele>7.448692434467375</ele>
        <time>2020-04-15T23:12:09Z</time>
      </trkpt>
      <trkpt lat="31.205420174147132" lon="121.61442184813146">
        <ele>5.11795293726027</ele>
        <time>2020-04-15T23:12:16Z</time>
      </trkpt>
      <trkpt lat="31.205305453988924" lon="121.61445655323692">
        <ele>5.9394227638840675</ele>
        <time>2020-04-15T23:12:22Z</time>
      </trkpt>
      <trkpt lat="31.205002905886758" lon="121.61472465441756">
        <ele>5.372224225662649</ele>
        <time>2020-04-15T23:12:37Z</time>
      </trkpt>
      <trkpt lat="31.204854258450965" lon="121.61479947812592">
        <ele>7.860842069610953</ele>
        <time>2020-04-15T23:12:44Z</time>
      </trkpt>
      <trkpt lat="31.204763685501156" lon="121.61481520682622">
        <ele>6.453651492483914</ele>
        <time>2020-04-15T23:12:48Z</time>
      </trkpt>
      <trkpt lat="31.20460243212232" lon="121.61504182127956">
        <ele>5.942506114952266</ele>
        <time>2020-04-15T23:13:01Z</time>
      </trkpt>
      <trkpt lat="31.204529209079137" lon="121.61506052996366">
        <ele>7.896087568253279</ele>
        <time>2020-04-15T23:13:05Z</time>
      </trkpt>
      <trkpt lat="31.204491573143002" lon="121.61500171461682">
        <ele>8.409482278861105</ele>
        <time>2020-04-15T23:13:08Z</time>
      </trkpt>
      <trkpt lat="31.204426781594147" lon="121.61499060679402">
        <ele>7.165252214297652</ele>
        <time>2020-04-15T23:13:12Z</time>
      </trkpt>
      <trkpt lat="31.204248062129434" lon="121.61503751374421">
        <ele>5.8513449765741825</ele>
        <time>2020-04-15T23:13:20Z</time>
      </trkpt>
      <trkpt lat="31.20409342903857" lon="121.6151348342688">
        <ele>6.572944755665958</ele>
        <time>2020-04-15T23:13:28Z</time>
      </trkpt>
      <trkpt lat="31.204036780737635" lon="121.61511342586476">
        <ele>5.751943138428032</ele>
        <time>2020-04-15T23:13:31Z</time>
      </trkpt>
      <trkpt lat="31.20403795622887" lon="121.61501042583168">
        <ele>6.287759009748697</ele>
        <time>2020-04-15T23:13:35Z</time>
      </trkpt>
      <trkpt lat="31.204100116291382" lon="121.6149307309636">
        <ele>7.065633690916002</ele>
        <time>2020-04-15T23:13:39Z</time>
      </trkpt>
      <trkpt lat="31.20411942156986" lon="121.61486838687875">
        <ele>6.019679409451783</ele>
        <time>2020-04-15T23:13:42Z</time>
      </trkpt>
      <trkpt lat="31.20406332291846" lon="121.61483830443323">
        <ele>6.713432060554624</ele>
        <time>2020-04-15T23:13:46Z</time>
      </trkpt>
      <trkpt lat="31.203972467478348" lon="121.61486704375885">
        <ele>6.4648575177416205</ele>
        <time>2020-04-15T23:13:50Z</time>
      </trkpt>
      <trkpt lat="31.20383897928107" lon="121.61496924218953">
        <ele>6.345996140502393</ele>
        <time>2020-04-15T23:13:57Z</time>
      </trkpt>
      <trkpt lat="31.203800933874625" lon="121.61506736650603">
        <ele>6.129136578179896</ele>
        <time>2020-04-15T23:14:01Z</time>
      </trkpt>
      <trkpt lat="31.203747178618258" lon="121.61514706022591">
        <ele>7.259587650187314</ele>
        <time>2020-04-15T23:14:04Z</time>
      </trkpt>
      <trkpt lat="31.203597933875567" lon="121.61528259793926">
        <ele>5.830670620314777</ele>
        <time>2020-04-15T23:14:11Z</time>
      </trkpt>
      <trkpt lat="31.203633379752763" lon="121.6153641809129">
        <ele>6.8739507002756</ele>
        <time>2020-04-15T23:14:15Z</time>
      </trkpt>
      <trkpt lat="31.203695992811394" lon="121.6153855886007">
        <ele>6.487536019645631</ele>
        <time>2020-04-15T23:14:18Z</time>
      </trkpt>
      <trkpt lat="31.203799718642593" lon="121.61551812253066">
        <ele>6.964336377568543</ele>
        <time>2020-04-15T23:14:24Z</time>
      </trkpt>
      <trkpt lat="31.20386908334998" lon="121.61556907363824">
        <ele>7.08865178283304</ele>
        <time>2020-04-15T23:14:28Z</time>
      </trkpt>
      <trkpt lat="31.203913216964576" lon="121.61563710262908">
        <ele>5.670101267285645</ele>
        <time>2020-04-15T23:14:31Z</time>
      </trkpt>
      <trkpt lat="31.20397824354082" lon="121.61568778279928">
        <ele>6.970684327185154</ele>
        <time>2020-04-15T23:14:34Z</time>
      </trkpt>
      <trkpt lat="31.20409794269356" lon="121.61584470769493">
        <ele>5.5919818272814155</ele>
        <time>2020-04-15T23:14:42Z</time>
      </trkpt>
      <trkpt lat="31.20435691631528" lon="121.61609756870814">
        <ele>4.341677766293287</ele>
        <time>2020-04-15T23:14:56Z</time>
      </trkpt>
      <trkpt lat="31.204512080379402" lon="121.61631005097931">
        <ele>3.2695580134168267</ele>
        <time>2020-04-15T23:15:06Z</time>
      </trkpt>
      <trkpt lat="31.204573578223076" lon="121.61636371145559">
        <ele>2.4653328880667686</ele>
        <time>2020-04-15T23:15:10Z</time>
      </trkpt>
      <trkpt lat="31.204480188353003" lon="121.61620001174012">
        <ele>4.9364423071965575</ele>
        <time>2020-04-15T23:15:20Z</time>
      </trkpt>
      <trkpt lat="31.20430113993062" lon="121.61601327946926">
        <ele>5.728549171239138</ele>
        <time>2020-04-15T23:15:31Z</time>
      </trkpt>
      <trkpt lat="31.204255864819896" lon="121.61600840446134">
        <ele>5.461368906311691</ele>
        <time>2020-04-15T23:15:35Z</time>
      </trkpt>
      <trkpt lat="31.204172040722373" lon="121.6160555726309">
        <ele>6.1555196307599545</ele>
        <time>2020-04-15T23:15:38Z</time>
      </trkpt>
      <trkpt lat="31.20399876314037" lon="121.61607970962929">
        <ele>7.348636428825557</ele>
        <time>2020-04-15T23:15:46Z</time>
      </trkpt>
      <trkpt lat="31.20381044448263" lon="121.61624316241532">
        <ele>6.11738895252347</ele>
        <time>2020-04-15T23:15:56Z</time>
      </trkpt>
      <trkpt lat="31.20368865028595" lon="121.61630198793388">
        <ele>6.401461003348231</ele>
        <time>2020-04-15T23:16:03Z</time>
      </trkpt>
      <trkpt lat="31.20346726783233" lon="121.61644836664524">
        <ele>6.525767114944756</ele>
        <time>2020-04-15T23:16:13Z</time>
      </trkpt>
      <trkpt lat="31.20341433773601" lon="121.61651125151899">
        <ele>5.82902170624584</ele>
        <time>2020-04-15T23:16:16Z</time>
      </trkpt>
      <trkpt lat="31.20331696675907" lon="121.61654703633482">
        <ele>5.669509711675346</ele>
        <time>2020-04-15T23:16:20Z</time>
      </trkpt>
      <trkpt lat="31.203243664129985" lon="121.61664949374527">
        <ele>4.852366202510893</ele>
        <time>2020-04-15T23:16:26Z</time>
      </trkpt>
      <trkpt lat="31.202995738169445" lon="121.61676470374937">
        <ele>5.426770909689367</ele>
        <time>2020-04-15T23:16:48Z</time>
      </trkpt>
      <trkpt lat="31.20291293064128" lon="121.61688233884578">
        <ele>4.548834485933185</ele>
        <time>2020-04-15T23:16:55Z</time>
      </trkpt>
      <trkpt lat="31.202777809079326" lon="121.61698371584956">
        <ele>3.6948514487594366</ele>
        <time>2020-04-15T23:17:02Z</time>
      </trkpt>
      <trkpt lat="31.20270696116095" lon="121.6170693673781">
        <ele>4.664304760284722</ele>
        <time>2020-04-15T23:17:06Z</time>
      </trkpt>
      <trkpt lat="31.202614181180447" lon="121.61712358101843">
        <ele>4.123169147409499</ele>
        <time>2020-04-15T23:17:10Z</time>
      </trkpt>
      <trkpt lat="31.20256775918269" lon="121.61718402437002">
        <ele>4.692216846160591</ele>
        <time>2020-04-15T23:17:13Z</time>
      </trkpt>
      <trkpt lat="31.20243288367715" lon="121.61731033465777">
        <ele>4.901989932172</ele>
        <time>2020-04-15T23:17:21Z</time>
      </trkpt>
      <trkpt lat="31.20242169178567" lon="121.61738839137695">
        <ele>5.9458033591508865</ele>
        <time>2020-04-15T23:17:25Z</time>
      </trkpt>
      <trkpt lat="31.202504182984946" lon="121.61759951340359">
        <ele>4.799593649804592</ele>
        <time>2020-04-15T23:17:35Z</time>
      </trkpt>
      <trkpt lat="31.20256333585076" lon="121.61783014914893">
        <ele>3.2303411699831486</ele>
        <time>2020-04-15T23:17:43Z</time>
      </trkpt>
      <trkpt lat="31.202609327939633" lon="121.61793259138379">
        <ele>4.530734443105757</ele>
        <time>2020-04-15T23:17:47Z</time>
      </trkpt>
      <trkpt lat="31.202828096427574" lon="121.61824370313234">
        <ele>4.884462031535804</ele>
        <time>2020-04-15T23:18:02Z</time>
      </trkpt>
      <trkpt lat="31.202875185678412" lon="121.6183320507375">
        <ele>5.008205267600715</ele>
        <time>2020-04-15T23:18:06Z</time>
      </trkpt>
      <trkpt lat="31.202808387108174" lon="121.61843124807041">
        <ele>4.4265886172652245</ele>
        <time>2020-04-15T23:18:10Z</time>
      </trkpt>
      <trkpt lat="31.202795830460886" lon="121.61851526372197">
        <ele>5.656289272941649</ele>
        <time>2020-04-15T23:18:13Z</time>
      </trkpt>
      <trkpt lat="31.202531026329485" lon="121.61869008933247">
        <ele>5.423992704600096</ele>
        <time>2020-04-15T23:18:24Z</time>
      </trkpt>
      <trkpt lat="31.202535911596694" lon="121.61895188570371">
        <ele>4.083900506608188</ele>
        <time>2020-04-15T23:18:35Z</time>
      </trkpt>
      <trkpt lat="31.202638115703394" lon="121.6192293897246">
        <ele>3.992096871137619</ele>
        <time>2020-04-15T23:18:46Z</time>
      </trkpt>
      <trkpt lat="31.202683587567183" lon="121.61956678720492">
        <ele>3.701034728437662</ele>
        <time>2020-04-15T23:18:58Z</time>
      </trkpt>
      <trkpt lat="31.20270056941996" lon="121.61966217875909">
        <ele>4.206079846248031</ele>
        <time>2020-04-15T23:19:02Z</time>
      </trkpt>
      <trkpt lat="31.202693167017674" lon="121.61974022789312">
        <ele>5.491624551825225</ele>
        <time>2020-04-15T23:19:06Z</time>
      </trkpt>
      <trkpt lat="31.202723963065377" lon="121.61984808367579">
        <ele>5.503854040056467</ele>
        <time>2020-04-15T23:19:13Z</time>
      </trkpt>
      <trkpt lat="31.202797342351854" lon="121.61994130152596">
        <ele>3.6835792046040297</ele>
        <time>2020-04-15T23:19:20Z</time>
      </trkpt>
      <trkpt lat="31.202842386431197" lon="121.62016351625614">
        <ele>2.9662650106474757</ele>
        <time>2020-04-15T23:19:31Z</time>
      </trkpt>
      <trkpt lat="31.202882135319374" lon="121.6202648656298">
        <ele>4.381597159430385</ele>
        <time>2020-04-15T23:19:39Z</time>
      </trkpt>
      <trkpt lat="31.202938983338985" lon="121.62034941150702">
        <ele>3.3861812064424157</ele>
        <time>2020-04-15T23:19:46Z</time>
      </trkpt>
      <trkpt lat="31.203018605874956" lon="121.62043449721246">
        <ele>4.592934780754149</ele>
        <time>2020-04-15T23:19:57Z</time>
      </trkpt>
      <trkpt lat="31.203028863049767" lon="121.62047731340024">
        <ele>4.746252992190421</ele>
        <time>2020-04-15T23:20:18Z</time>
      </trkpt>
      <trkpt lat="31.202919641034068" lon="121.62043504739076">
        <ele>5.044011537916958</ele>
        <time>2020-04-15T23:20:28Z</time>
      </trkpt>
      <trkpt lat="31.202871981977474" lon="121.62037841350202">
        <ele>8.281166364438832</ele>
        <time>2020-04-15T23:20:40Z</time>
      </trkpt>
      <trkpt lat="31.202867415596696" lon="121.62033830663177">
        <ele>5.691049977205694</ele>
        <time>2020-04-15T23:20:46Z</time>
      </trkpt>
      <trkpt lat="31.202827611458744" lon="121.62028898876544">
        <ele>4.317661205306649</ele>
        <time>2020-04-15T23:21:01Z</time>
      </trkpt>
      <trkpt lat="31.20250269857233" lon="121.62037627610455">
        <ele>3.668581855483353</ele>
        <time>2020-04-15T23:21:14Z</time>
      </trkpt>
      <trkpt lat="31.202390997110026" lon="121.62037059445836">
        <ele>3.9577637538313866</ele>
        <time>2020-04-15T23:21:18Z</time>
      </trkpt>
      <trkpt lat="31.20231016962475" lon="121.62039797160705">
        <ele>2.591724540106952</ele>
        <time>2020-04-15T23:21:21Z</time>
      </trkpt>
      <trkpt lat="31.20206620082723" lon="121.620348941744">
        <ele>3.5107797840610147</ele>
        <time>2020-04-15T23:21:31Z</time>
      </trkpt>
      <trkpt lat="31.20196425329406" lon="121.62034976316556">
        <ele>2.6402999460697174</ele>
        <time>2020-04-15T23:21:35Z</time>
      </trkpt>
      <trkpt lat="31.20186641045364" lon="121.62031535487284">
        <ele>3.0495037036016583</ele>
        <time>2020-04-15T23:21:39Z</time>
      </trkpt>
      <trkpt lat="31.201781808897692" lon="121.62032240775257">
        <ele>3.208271125331521</ele>
        <time>2020-04-15T23:21:42Z</time>
      </trkpt>
      <trkpt lat="31.20162595074338" lon="121.62028095833621">
        <ele>3.727289811708033</ele>
        <time>2020-04-15T23:21:49Z</time>
      </trkpt>
      <trkpt lat="31.20155491288703" lon="121.62028150620615">
        <ele>2.7175356708467007</ele>
        <time>2020-04-15T23:21:52Z</time>
      </trkpt>
      <trkpt lat="31.20149285196816" lon="121.62025441175487">
        <ele>3.372689944691956</ele>
        <time>2020-04-15T23:21:55Z</time>
      </trkpt>
      <trkpt lat="31.201205482805076" lon="121.62022299997842">
        <ele>3.7270172582939267</ele>
        <time>2020-04-15T23:22:07Z</time>
      </trkpt>
      <trkpt lat="31.201016539540923" lon="121.62018778606517">
        <ele>3.403315495699644</ele>
        <time>2020-04-15T23:22:15Z</time>
      </trkpt>
      <trkpt lat="31.200660284691317" lon="121.62017291072125">
        <ele>3.500333852134645</ele>
        <time>2020-04-15T23:22:30Z</time>
      </trkpt>
      <trkpt lat="31.2003116807107" lon="121.62010248028594">
        <ele>4.275668499059975</ele>
        <time>2020-04-15T23:22:45Z</time>
      </trkpt>
      <trkpt lat="31.20013602819344" lon="121.62006238714376">
        <ele>4.102673523128033</ele>
        <time>2020-04-15T23:22:53Z</time>
      </trkpt>
      <trkpt lat="31.200078852441038" lon="121.62003068508636">
        <ele>5.247748370282352</ele>
        <time>2020-04-15T23:22:57Z</time>
      </trkpt>
      <trkpt lat="31.199974476063908" lon="121.62002093778015">
        <ele>4.45423817448318</ele>
        <time>2020-04-15T23:23:04Z</time>
      </trkpt>
      <trkpt lat="31.199932372450952" lon="121.61983774565492">
        <ele>5.0397780342027545</ele>
        <time>2020-04-15T23:23:18Z</time>
      </trkpt>
      <trkpt lat="31.20019829524719" lon="121.61963636957972">
        <ele>5.053323200903833</ele>
        <time>2020-04-15T23:23:43Z</time>
      </trkpt>
      <trkpt lat="31.200382375186667" lon="121.61939543199173">
        <ele>5.524859249591827</ele>
        <time>2020-04-15T23:24:02Z</time>
      </trkpt>
      <trkpt lat="31.200572919094558" lon="121.61919460069554">
        <ele>6.453612529672682</ele>
        <time>2020-04-15T23:24:21Z</time>
      </trkpt>
      <trkpt lat="31.200620662473806" lon="121.6191715611247">
        <ele>5.1222433764487505</ele>
        <time>2020-04-15T23:24:24Z</time>
      </trkpt>
      <trkpt lat="31.200697805480797" lon="121.6190344246162">
        <ele>4.314632919616997</ele>
        <time>2020-04-15T23:24:31Z</time>
      </trkpt>
      <trkpt lat="31.20088972686593" lon="121.61880974138015">
        <ele>4.693112040869892</ele>
        <time>2020-04-15T23:24:42Z</time>
      </trkpt>
      <trkpt lat="31.20105335898558" lon="121.61867367981439">
        <ele>4.061068291775882</ele>
        <time>2020-04-15T23:24:51Z</time>
      </trkpt>
      <trkpt lat="31.201289799421065" lon="121.61839343153066">
        <ele>5.311317102983594</ele>
        <time>2020-04-15T23:25:11Z</time>
      </trkpt>
      <trkpt lat="31.201486255558084" lon="121.61823866481295">
        <ele>3.6174559090286493</ele>
        <time>2020-04-15T23:25:26Z</time>
      </trkpt>
      <trkpt lat="31.20157912750611" lon="121.6180939334161">
        <ele>4.503392273560166</ele>
        <time>2020-04-15T23:25:36Z</time>
      </trkpt>
      <trkpt lat="31.2016938864615" lon="121.61802427194998">
        <ele>4.33138061594218</ele>
        <time>2020-04-15T23:25:46Z</time>
      </trkpt>
      <trkpt lat="31.20171833225326" lon="121.61798009367358">
        <ele>2.9365302631631494</ele>
        <time>2020-04-15T23:25:49Z</time>
      </trkpt>
      <trkpt lat="31.201763617366503" lon="121.61797439850241">
        <ele>2.575527616776526</ele>
        <time>2020-04-15T23:25:52Z</time>
      </trkpt>
      <trkpt lat="31.201847614735" lon="121.61802940860676">
        <ele>4.748676172457635</ele>
        <time>2020-04-15T23:25:59Z</time>
      </trkpt>
      <trkpt lat="31.201962689394552" lon="121.61818821610953">
        <ele>5.1059012450277805</ele>
        <time>2020-04-15T23:26:14Z</time>
      </trkpt>
      <trkpt lat="31.20208434300393" lon="121.6182743896061">
        <ele>3.210354686714709</ele>
        <time>2020-04-15T23:26:22Z</time>
      </trkpt>
      <trkpt lat="31.202146425560695" lon="121.61828170192852">
        <ele>4.800495111383498</ele>
        <time>2020-04-15T23:26:26Z</time>
      </trkpt>
      <trkpt lat="31.20214865545352" lon="121.61822072285783">
        <ele>4.525460051372647</ele>
        <time>2020-04-15T23:26:29Z</time>
      </trkpt>
      <trkpt lat="31.202208405097377" lon="121.6181201701836">
        <ele>4.68149930331856</ele>
        <time>2020-04-15T23:26:36Z</time>
      </trkpt>
      <trkpt lat="31.202294903284773" lon="121.61811392959713">
        <ele>4.37208454683423</ele>
        <time>2020-04-15T23:26:39Z</time>
      </trkpt>
      <trkpt lat="31.202349100104843" lon="121.61814427919543">
        <ele>4.357103837653995</ele>
        <time>2020-04-15T23:26:43Z</time>
      </trkpt>
      <trkpt lat="31.202396782055448" lon="121.61845350537145">
        <ele>3.3595897080376744</ele>
        <time>2020-04-15T23:26:57Z</time>
      </trkpt>
      <trkpt lat="31.202455148611758" lon="121.61865052774637">
        <ele>3.8818153524771333</ele>
        <time>2020-04-15T23:27:04Z</time>
      </trkpt>
      <trkpt lat="31.202543842303843" lon="121.61861826984322">
        <ele>4.773323957808316</ele>
        <time>2020-04-15T23:27:08Z</time>
      </trkpt>
      <trkpt lat="31.202600020829298" lon="121.61856514652793">
        <ele>4.282764193601906</ele>
        <time>2020-04-15T23:27:11Z</time>
      </trkpt>
      <trkpt lat="31.202734013610453" lon="121.61851337173532">
        <ele>5.987936335615814</ele>
        <time>2020-04-15T23:27:18Z</time>
      </trkpt>
      <trkpt lat="31.20281412442761" lon="121.61838788510546">
        <ele>4.575634569860995</ele>
        <time>2020-04-15T23:27:25Z</time>
      </trkpt>
      <trkpt lat="31.20280336959627" lon="121.61829736655615">
        <ele>4.340541559271514</ele>
        <time>2020-04-15T23:27:29Z</time>
      </trkpt>
      <trkpt lat="31.20276656527939" lon="121.61822717615911">
        <ele>5.6789370914921165</ele>
        <time>2020-04-15T23:27:32Z</time>
      </trkpt>
      <trkpt lat="31.202748538786267" lon="121.61808679017805">
        <ele>5.740543756633997</ele>
        <time>2020-04-15T23:27:43Z</time>
      </trkpt>
      <trkpt lat="31.202687416657422" lon="121.61793068777858">
        <ele>5.965618420392275</ele>
        <time>2020-04-15T23:27:56Z</time>
      </trkpt>
      <trkpt lat="31.202672040692196" lon="121.61785073780624">
        <ele>5.629266486503184</ele>
        <time>2020-04-15T23:28:00Z</time>
      </trkpt>
      <trkpt lat="31.20258352098661" lon="121.61770656122118">
        <ele>6.087573893368244</ele>
        <time>2020-04-15T23:28:11Z</time>
      </trkpt>
      <trkpt lat="31.202576805635648" lon="121.61764205817957">
        <ele>5.489622233435512</ele>
        <time>2020-04-15T23:28:14Z</time>
      </trkpt>
      <trkpt lat="31.202474751275837" lon="121.61747403125632">
        <ele>5.209860705770552</ele>
        <time>2020-04-15T23:28:25Z</time>
      </trkpt>
      <trkpt lat="31.202450188968385" lon="121.61735938915284">
        <ele>5.262756044976413</ele>
        <time>2020-04-15T23:28:33Z</time>
      </trkpt>
      <trkpt lat="31.202493950872583" lon="121.61724609600861">
        <ele>4.7500672759488225</ele>
        <time>2020-04-15T23:28:40Z</time>
      </trkpt>
      <trkpt lat="31.20258053786925" lon="121.61714716335936">
        <ele>4.409260030835867</ele>
        <time>2020-04-15T23:28:47Z</time>
      </trkpt>
      <trkpt lat="31.202643746816957" lon="121.6171111112112">
        <ele>4.506259682588279</ele>
        <time>2020-04-15T23:28:50Z</time>
      </trkpt>
      <trkpt lat="31.20278677717559" lon="121.61696203261297">
        <ele>4.073419692926109</ele>
        <time>2020-04-15T23:28:57Z</time>
      </trkpt>
      <trkpt lat="31.202847818877704" lon="121.61692381212029">
        <ele>3.943424087949097</ele>
        <time>2020-04-15T23:29:00Z</time>
      </trkpt>
      <trkpt lat="31.202931446903317" lon="121.61679885926145">
        <ele>5.256753054447472</ele>
        <time>2020-04-15T23:29:06Z</time>
      </trkpt>
      <trkpt lat="31.20315448899176" lon="121.6166194162465">
        <ele>3.572532769292593</ele>
        <time>2020-04-15T23:29:17Z</time>
      </trkpt>
      <trkpt lat="31.203221804966358" lon="121.61653999727243">
        <ele>4.065344737842679</ele>
        <time>2020-04-15T23:29:20Z</time>
      </trkpt>
      <trkpt lat="31.203321650088327" lon="121.61646789334392">
        <ele>3.6101818308234215</ele>
        <time>2020-04-15T23:29:24Z</time>
      </trkpt>
      <trkpt lat="31.203477068630438" lon="121.61640554195635">
        <ele>3.944832244887948</ele>
        <time>2020-04-15T23:29:30Z</time>
      </trkpt>
      <trkpt lat="31.203611952983223" lon="121.61626540404103">
        <ele>6.727329786866903</ele>
        <time>2020-04-15T23:29:38Z</time>
      </trkpt>
      <trkpt lat="31.203681391938154" lon="121.6162347708719">
        <ele>5.206778839230537</ele>
        <time>2020-04-15T23:29:41Z</time>
      </trkpt>
      <trkpt lat="31.20377255673008" lon="121.61616619028342">
        <ele>5.916391257196665</ele>
        <time>2020-04-15T23:29:45Z</time>
      </trkpt>
      <trkpt lat="31.203841771386738" lon="121.61608460135312">
        <ele>5.707377887330949</ele>
        <time>2020-04-15T23:29:49Z</time>
      </trkpt>
      <trkpt lat="31.20392153420826" lon="121.61603119961963">
        <ele>5.8670685375109315</ele>
        <time>2020-04-15T23:29:53Z</time>
      </trkpt>
      <trkpt lat="31.204042218219787" lon="121.61599974879196">
        <ele>6.390814411453903</ele>
        <time>2020-04-15T23:30:00Z</time>
      </trkpt>
      <trkpt lat="31.204143054650956" lon="121.6160279287976">
        <ele>3.804558290168643</ele>
        <time>2020-04-15T23:30:04Z</time>
      </trkpt>
      <trkpt lat="31.20431864978114" lon="121.6161371438063">
        <ele>3.2272621104493737</ele>
        <time>2020-04-15T23:30:10Z</time>
      </trkpt>
      <trkpt lat="31.20440532768786" lon="121.61622956124361">
        <ele>2.8195779342204332</ele>
        <time>2020-04-15T23:30:14Z</time>
      </trkpt>
      <trkpt lat="31.204477959566006" lon="121.61626451929196">
        <ele>2.437687142752111</ele>
        <time>2020-04-15T23:30:17Z</time>
      </trkpt>
      <trkpt lat="31.20454650223123" lon="121.6163233290147">
        <ele>2.2446522200480103</ele>
        <time>2020-04-15T23:30:20Z</time>
      </trkpt>
      <trkpt lat="31.20448942748896" lon="121.61617778570894">
        <ele>5.337165671400726</ele>
        <time>2020-04-15T23:30:31Z</time>
      </trkpt>
      <trkpt lat="31.204362129939565" lon="121.61603007901006">
        <ele>7.170036004856229</ele>
        <time>2020-04-15T23:30:38Z</time>
      </trkpt>
      <trkpt lat="31.20433508971773" lon="121.6159501238409">
        <ele>7.47093091532588</ele>
        <time>2020-04-15T23:30:42Z</time>
      </trkpt>
      <trkpt lat="31.204183117169794" lon="121.61580295988809">
        <ele>7.3162542609497905</ele>
        <time>2020-04-15T23:30:56Z</time>
      </trkpt>
      <trkpt lat="31.204135129441116" lon="121.6157994402831">
        <ele>7.997697964310646</ele>
        <time>2020-04-15T23:30:59Z</time>
      </trkpt>
      <trkpt lat="31.20393496333046" lon="121.61557557331078">
        <ele>8.205263887532055</ele>
        <time>2020-04-15T23:31:18Z</time>
      </trkpt>
      <trkpt lat="31.203714496356863" lon="121.61531131957948">
        <ele>6.302105592563748</ele>
        <time>2020-04-15T23:31:41Z</time>
      </trkpt>
      <trkpt lat="31.203579795099618" lon="121.61525197077246">
        <ele>7.71314740087837</ele>
        <time>2020-04-15T23:31:54Z</time>
      </trkpt>
      <trkpt lat="31.203585188352108" lon="121.61528503844305">
        <ele>7.120295557193458</ele>
        <time>2020-04-15T23:32:05Z</time>
      </trkpt>
      <trkpt lat="31.20357867096226" lon="121.6152964230773">
        <ele>6.791334086097777</ele>
        <time>2020-04-15T23:32:24Z</time>
      </trkpt>
      <trkpt lat="31.20364302354561" lon="121.61519125019443">
        <ele>5.463329816237092</ele>
        <time>2020-04-15T23:32:31Z</time>
      </trkpt>
      <trkpt lat="31.20374722468463" lon="121.61509501827707">
        <ele>6.669214949943125</ele>
        <time>2020-04-15T23:32:37Z</time>
      </trkpt>
      <trkpt lat="31.20385040340485" lon="121.61492777002185">
        <ele>4.747469284571707</ele>
        <time>2020-04-15T23:32:45Z</time>
      </trkpt>
      <trkpt lat="31.20387920694752" lon="121.614855667173">
        <ele>5.129906391724944</ele>
        <time>2020-04-15T23:32:48Z</time>
      </trkpt>
      <trkpt lat="31.20394757283796" lon="121.61481012427038">
        <ele>5.47188810352236</ele>
        <time>2020-04-15T23:32:52Z</time>
      </trkpt>
      <trkpt lat="31.204019715392555" lon="121.61478653648058">
        <ele>5.784896871075034</ele>
        <time>2020-04-15T23:32:56Z</time>
      </trkpt>
      <trkpt lat="31.20420214438819" lon="121.61483802189744">
        <ele>6.104408207349479</ele>
        <time>2020-04-15T23:33:09Z</time>
      </trkpt>
      <trkpt lat="31.204249291309242" lon="121.6148729840668">
        <ele>6.614181183278561</ele>
        <time>2020-04-15T23:33:13Z</time>
      </trkpt>
      <trkpt lat="31.20431072400079" lon="121.61500389799886">
        <ele>7.224463294260204</ele>
        <time>2020-04-15T23:33:21Z</time>
      </trkpt>
      <trkpt lat="31.204326630774652" lon="121.6151060834909">
        <ele>8.049964439123869</ele>
        <time>2020-04-15T23:33:28Z</time>
      </trkpt>
      <trkpt lat="31.20438573922271" lon="121.61510499439446">
        <ele>7.403454132378101</ele>
        <time>2020-04-15T23:33:32Z</time>
      </trkpt>
      <trkpt lat="31.204447308021614" lon="121.61508113671671">
        <ele>6.56563875451684</ele>
        <time>2020-04-15T23:33:38Z</time>
      </trkpt>
      <trkpt lat="31.20448530023225" lon="121.61504345728304">
        <ele>6.728365054354072</ele>
        <time>2020-04-15T23:33:42Z</time>
      </trkpt>
      <trkpt lat="31.20462223121814" lon="121.61503477227116">
        <ele>7.730597936548293</ele>
        <time>2020-04-15T23:33:56Z</time>
      </trkpt>
      <trkpt lat="31.204652392645677" lon="121.61496050120357">
        <ele>7.459889349527657</ele>
        <time>2020-04-15T23:34:00Z</time>
      </trkpt>
      <trkpt lat="31.20464349873735" lon="121.61489951480026">
        <ele>8.458547978661954</ele>
        <time>2020-04-15T23:34:04Z</time>
      </trkpt>
      <trkpt lat="31.20468153433163" lon="121.61481196095721">
        <ele>6.372497863136232</ele>
        <time>2020-04-15T23:34:08Z</time>
      </trkpt>
      <trkpt lat="31.204805980012477" lon="121.61481818493587">
        <ele>7.276144893839955</ele>
        <time>2020-04-15T23:34:16Z</time>
      </trkpt>
      <trkpt lat="31.205049279717333" lon="121.61471353727246">
        <ele>7.7271052012220025</ele>
        <time>2020-04-15T23:34:34Z</time>
      </trkpt>
      <trkpt lat="31.205130729506422" lon="121.61458776003583">
        <ele>7.551027802750468</ele>
        <time>2020-04-15T23:34:45Z</time>
      </trkpt>
      <trkpt lat="31.205393842293788" lon="121.61445871440147">
        <ele>6.821113218553364</ele>
        <time>2020-04-15T23:35:09Z</time>
      </trkpt>
      <trkpt lat="31.20546873208428" lon="121.61439311176882">
        <ele>7.83939565718174</ele>
        <time>2020-04-15T23:35:16Z</time>
      </trkpt>
      <trkpt lat="31.205716498895868" lon="121.61413531178438">
        <ele>6.39799539744854</ele>
        <time>2020-04-15T23:35:40Z</time>
      </trkpt>
      <trkpt lat="31.205770810505328" lon="121.61403555590708">
        <ele>7.098018839024007</ele>
        <time>2020-04-15T23:35:47Z</time>
      </trkpt>
      <trkpt lat="31.20600227023134" lon="121.61382031087759">
        <ele>6.9891700707376</ele>
        <time>2020-04-15T23:36:08Z</time>
      </trkpt>
      <trkpt lat="31.206076615332503" lon="121.61375579079454">
        <ele>7.761413974687457</ele>
        <time>2020-04-15T23:36:15Z</time>
      </trkpt>
      <trkpt lat="31.206111658692887" lon="121.61367555183249">
        <ele>6.43252363614738</ele>
        <time>2020-04-15T23:36:23Z</time>
      </trkpt>
      <trkpt lat="31.206280360249156" lon="121.61360912606791">
        <ele>7.014270807616413</ele>
        <time>2020-04-15T23:36:46Z</time>
      </trkpt>
      <trkpt lat="31.206208113897823" lon="121.61343131010187">
        <ele>7.715478169731796</ele>
        <time>2020-04-15T23:37:05Z</time>
      </trkpt>
      <trkpt lat="31.206030428629404" lon="121.61321175621427">
        <ele>6.705256286077201</ele>
        <time>2020-04-15T23:37:22Z</time>
      </trkpt>
      <trkpt lat="31.20594423286695" lon="121.6131805898584">
        <ele>5.649538555182517</ele>
        <time>2020-04-15T23:37:29Z</time>
      </trkpt>
      <trkpt lat="31.20588814105086" lon="121.61313966229439">
        <ele>6.033648454584181</ele>
        <time>2020-04-15T23:37:33Z</time>
      </trkpt>
      <trkpt lat="31.205833457921887" lon="121.61303313432501">
        <ele>6.889890304766595</ele>
        <time>2020-04-15T23:37:41Z</time>
      </trkpt>
      <trkpt lat="31.20583594974026" lon="121.61296916017616">
        <ele>7.321993386372924</ele>
        <time>2020-04-15T23:37:44Z</time>
      </trkpt>
      <trkpt lat="31.205857144101827" lon="121.61291223231038">
        <ele>7.422827833332121</ele>
        <time>2020-04-15T23:37:48Z</time>
      </trkpt>
      <trkpt lat="31.20598926882251" lon="121.61281029618821">
        <ele>5.778774476610124</ele>
        <time>2020-04-15T23:38:02Z</time>
      </trkpt>
      <trkpt lat="31.205971220635163" lon="121.61266228849036">
        <ele>8.115726017393172</ele>
        <time>2020-04-15T23:38:13Z</time>
      </trkpt>
      <trkpt lat="31.20596009008164" lon="121.61267990960171">
        <ele>9.137396791018546</ele>
        <time>2020-04-15T23:38:17Z</time>
      </trkpt>
      <trkpt lat="31.205935417169915" lon="121.61267936948235">
        <ele>7.377919055521488</ele>
        <time>2020-04-15T23:38:20Z</time>
      </trkpt>
      <trkpt lat="31.205847365149328" lon="121.61259479972286">
        <ele>6.618987043388188</ele>
        <time>2020-04-15T23:38:24Z</time>
      </trkpt>
      <trkpt lat="31.205785025824444" lon="121.6125671546246">
        <ele>7.018291770480573</ele>
        <time>2020-04-15T23:38:27Z</time>
      </trkpt>
      <trkpt lat="31.20565620597897" lon="121.61260565875672">
        <ele>5.596288917586207</ele>
        <time>2020-04-15T23:38:35Z</time>
      </trkpt>
      <trkpt lat="31.205582505322262" lon="121.6125446716304">
        <ele>5.307792737148702</ele>
        <time>2020-04-15T23:38:39Z</time>
      </trkpt>
      <trkpt lat="31.20547786967103" lon="121.61251594564304">
        <ele>4.852637631818652</ele>
        <time>2020-04-15T23:38:42Z</time>
      </trkpt>
      <trkpt lat="31.205249980691864" lon="121.61234274265293">
        <ele>4.85346594825387</ele>
        <time>2020-04-15T23:38:52Z</time>
      </trkpt>
      <trkpt lat="31.204987418452152" lon="121.61212670965249">
        <ele>4.869011371396482</ele>
        <time>2020-04-15T23:39:04Z</time>
      </trkpt>
      <trkpt lat="31.20483058629203" lon="121.61192503359179">
        <ele>7.870948553085327</ele>
        <time>2020-04-15T23:39:18Z</time>
      </trkpt>
      <trkpt lat="31.20486873383121" lon="121.61167725413942">
        <ele>5.367417387664318</ele>
        <time>2020-04-15T23:39:34Z</time>
      </trkpt>
      <trkpt lat="31.20489835326533" lon="121.61159023115472">
        <ele>8.749545458704233</ele>
        <time>2020-04-15T23:39:38Z</time>
      </trkpt>
      <trkpt lat="31.20510078412021" lon="121.61137144170979">
        <ele>3.021046878769994</ele>
        <time>2020-04-15T23:39:57Z</time>
      </trkpt>
      <trkpt lat="31.205287783782374" lon="121.61111822202145">
        <ele>7.468006717972457</ele>
        <time>2020-04-15T23:40:17Z</time>
      </trkpt>
      <trkpt lat="31.205330189090926" lon="121.610970469572">
        <ele>9.068765795789659</ele>
        <time>2020-04-15T23:40:32Z</time>
      </trkpt>
      <trkpt lat="31.205422466399217" lon="121.61084494236484">
        <ele>7.695534084923565</ele>
        <time>2020-04-15T23:40:42Z</time>
      </trkpt>
      <trkpt lat="31.205479212252545" lon="121.61073622577413">
        <ele>6.744295573793352</ele>
        <time>2020-04-15T23:40:46Z</time>
      </trkpt>
      <trkpt lat="31.205590981268276" lon="121.61065109014585">
        <ele>6.054469520226121</ele>
        <time>2020-04-15T23:40:56Z</time>
      </trkpt>
      <trkpt lat="31.205645486705137" lon="121.61064105480241">
        <ele>6.760456397198141</ele>
        <time>2020-04-15T23:41:00Z</time>
      </trkpt>
      <trkpt lat="31.205657291785286" lon="121.61043582734354">
        <ele>7.9624138586223125</ele>
        <time>2020-04-15T23:41:14Z</time>
      </trkpt>
      <trkpt lat="31.2055421737468" lon="121.6102734436518">
        <ele>9.326800362206995</ele>
        <time>2020-04-15T23:41:28Z</time>
      </trkpt>
      <trkpt lat="31.205493938822496" lon="121.61023467913867">
        <ele>8.151158532127738</ele>
        <time>2020-04-15T23:41:31Z</time>
      </trkpt>
      <trkpt lat="31.205423730673616" lon="121.6102119118064">
        <ele>6.575182252563536</ele>
        <time>2020-04-15T23:41:35Z</time>
      </trkpt>
      <trkpt lat="31.205382296185206" lon="121.61014142680767">
        <ele>7.502570097334683</ele>
        <time>2020-04-15T23:41:39Z</time>
      </trkpt>
      <trkpt lat="31.205297649820142" lon="121.61021598886232">
        <ele>7.199974162504077</ele>
        <time>2020-04-15T23:41:47Z</time>
      </trkpt>
      <trkpt lat="31.20518211418065" lon="121.61026154465476">
        <ele>7.738089362159371</ele>
        <time>2020-04-15T23:41:54Z</time>
      </trkpt>
      <trkpt lat="31.20508850643968" lon="121.61035535567329">
        <ele>8.294851726852357</ele>
        <time>2020-04-15T23:42:06Z</time>
      </trkpt>
      <trkpt lat="31.205051564130297" lon="121.61045133046788">
        <ele>8.00769469793886</ele>
        <time>2020-04-15T23:42:13Z</time>
      </trkpt>
      <trkpt lat="31.204952546524396" lon="121.61052616379693">
        <ele>8.95433041639626</ele>
        <time>2020-04-15T23:42:20Z</time>
      </trkpt>
      <trkpt lat="31.20481203627122" lon="121.61061319999787">
        <ele>7.987123993225396</ele>
        <time>2020-04-15T23:42:31Z</time>
      </trkpt>
      <trkpt lat="31.20468371045182" lon="121.61072300750524">
        <ele>8.891367625445127</ele>
        <time>2020-04-15T23:42:45Z</time>
      </trkpt>
      <trkpt lat="31.204603730795263" lon="121.6107156943403">
        <ele>11.328601531684399</ele>
        <time>2020-04-15T23:42:52Z</time>
      </trkpt>
      <trkpt lat="31.204526263888322" lon="121.610607259331">
        <ele>8.21111323311925</ele>
        <time>2020-04-15T23:43:02Z</time>
      </trkpt>
      <trkpt lat="31.204420617341373" lon="121.610472257782">
        <ele>9.4488962944597</ele>
        <time>2020-04-15T23:43:16Z</time>
      </trkpt>
      <trkpt lat="31.204300552836663" lon="121.61040394894518">
        <ele>8.97738289553672</ele>
        <time>2020-04-15T23:43:34Z</time>
      </trkpt>
      <trkpt lat="31.204185654231022" lon="121.61069620948562">
        <ele>8.977288297377527</ele>
        <time>2020-04-15T23:43:49Z</time>
      </trkpt>
      <trkpt lat="31.20428705549926" lon="121.6107008098556">
        <ele>9.041117038577795</ele>
        <time>2020-04-15T23:43:53Z</time>
      </trkpt>
      <trkpt lat="31.204316011507157" lon="121.61077780060232">
        <ele>8.949386271648109</ele>
        <time>2020-04-15T23:43:57Z</time>
      </trkpt>
      <trkpt lat="31.20434313391627" lon="121.61038578127524">
        <ele>9.216524166055024</ele>
        <time>2020-04-15T23:44:04Z</time>
      </trkpt>
      <trkpt lat="31.204417734379568" lon="121.61033155367875">
        <ele>8.237147994339466</ele>
        <time>2020-04-15T23:44:15Z</time>
      </trkpt>
      <trkpt lat="31.20460581064567" lon="121.61046112713255">
        <ele>9.51802424620837</ele>
        <time>2020-04-15T23:44:18Z</time>
      </trkpt>
      <trkpt lat="31.20467818414192" lon="121.61048877393694">
        <ele>9.638542802073061</ele>
        <time>2020-04-15T23:44:22Z</time>
      </trkpt>
      <trkpt lat="31.203965240972778" lon="121.61066884627483">
        <ele>10.378027060069144</ele>
        <time>2020-04-15T23:44:25Z</time>
      </trkpt>
      <trkpt lat="31.20396453569077" lon="121.61051757010642">
        <ele>9.06304026581347</ele>
        <time>2020-04-15T23:44:32Z</time>
      </trkpt>
      <trkpt lat="31.20418217751391" lon="121.6106292472037">
        <ele>8.941341640427709</ele>
        <time>2020-04-15T23:44:36Z</time>
      </trkpt>
      <trkpt lat="31.204290896143917" lon="121.61063845574759">
        <ele>7.225887041538954</ele>
        <time>2020-04-15T23:44:43Z</time>
      </trkpt>
      <trkpt lat="31.20417920434217" lon="121.61061623445767">
        <ele>7.936972126364708</ele>
        <time>2020-04-15T23:44:54Z</time>
      </trkpt>
      <trkpt lat="31.20421874091089" lon="121.61068482041651">
        <ele>7.9651698572561145</ele>
        <time>2020-04-15T23:44:58Z</time>
      </trkpt>
      <trkpt lat="31.20412976994379" lon="121.610738506153">
        <ele>7.674899812787771</ele>
        <time>2020-04-15T23:45:02Z</time>
      </trkpt>
      <trkpt lat="31.20407612514642" lon="121.61068293448328">
        <ele>7.616965623572469</ele>
        <time>2020-04-15T23:45:06Z</time>
      </trkpt>
      <trkpt lat="31.20412687155709" lon="121.61062138976067">
        <ele>7.300855899229646</ele>
        <time>2020-04-15T23:45:09Z</time>
      </trkpt>
      <trkpt lat="31.20423641484721" lon="121.61061487420784">
        <ele>8.372342127375305</ele>
        <time>2020-04-15T23:45:13Z</time>
      </trkpt>
      <trkpt lat="31.204122012259393" lon="121.61059183980582">
        <ele>7.7953687738627195</ele>
        <time>2020-04-15T23:45:17Z</time>
      </trkpt>
      <trkpt lat="31.204119310397846" lon="121.61057855591142">
        <ele>7.770268538966775</ele>
        <time>2020-04-15T23:45:18Z</time>
      </trkpt>
      <trkpt lat="31.204112849153006" lon="121.61051403347746">
        <ele>7.902031968347728</ele>
        <time>2020-04-15T23:45:21Z</time>
      </trkpt>
      <trkpt lat="31.204167329763198" lon="121.610538699542">
        <ele>5.990236597135663</ele>
        <time>2020-04-15T23:45:33Z</time>
      </trkpt>
      <trkpt lat="31.204196536804556" lon="121.61064442783103">
        <ele>5.93188850581646</ele>
        <time>2020-04-15T23:45:36Z</time>
      </trkpt>
      <trkpt lat="31.204183236013634" lon="121.61066557501228">
        <ele>8.476437305100262</ele>
        <time>2020-04-15T23:45:39Z</time>
      </trkpt>
      <trkpt lat="31.204183236013634" lon="121.61066557501228">
        <ele>8.476437305100262</ele>
        <time>2020-04-15T23:45:46Z</time>
      </trkpt>
    </trkseg>
  </trk>
</gpx>