<?xml version="1.0" encoding="UTF-8"?>
<gpx xmlns="http://www.topografix.com/GPX/1/1" xmlns:gpxtpx="http://www.garmin.com/xmlschemas/TrackPointExtension/v1" xmlns:xsi="http://www.w3.org/2001/XMLSchema-instance" xsi:schemaLocation="http://www.topografix.com/GPX/1/1 http://www.topografix.com/GPX/1/1/gpx.xsd" version="1.1" creator="gpx.py -- https://github.com/tkrajina/gpxpy">
  <trk>
    <name>gpx from keep</name>
    <type>Run</type>
    <trkseg>
      <trkpt lat="31.24083604829324" lon="121.34409569367897">
        <ele>4.347165338695049</ele>
        <time>7591-10-12T12:51:11Z</time>
      </trkpt>
      <trkpt lat="31.24083935831684" lon="121.34409261004531">
        <ele>4.3589410269632936</ele>
        <time>1970-01-01T00:00:01Z</time>
      </trkpt>
      <trkpt lat="31.240846059520592" lon="121.34408736376841">
        <ele>4.37106514070183</ele>
        <time>1970-01-01T00:00:02Z</time>
      </trkpt>
      <trkpt lat="31.240854678194587" lon="121.3440804391309">
        <ele>4.383578923530877</ele>
        <time>1970-01-01T00:00:03Z</time>
      </trkpt>
      <trkpt lat="31.240863636069186" lon="121.34407064686758">
        <ele>4.397228326648474</ele>
        <time>1970-01-01T00:00:04Z</time>
      </trkpt>
      <trkpt lat="31.240871635496898" lon="121.3440583227943">
        <ele>4.412237933836877</ele>
        <time>1970-01-01T00:00:05Z</time>
      </trkpt>
      <trkpt lat="31.24087734248791" lon="121.34404423442012">
        <ele>4.428767440840602</ele>
        <time>1970-01-01T00:00:06Z</time>
      </trkpt>
      <trkpt lat="31.240881107633374" lon="121.3440292742022">
        <ele>4.446820730343461</ele>
        <time>1970-01-01T00:00:07Z</time>
      </trkpt>
      <trkpt lat="31.24088422420729" lon="121.344014087063">
        <ele>4.46630372107029</ele>
        <time>1970-01-01T00:00:08Z</time>
      </trkpt>
      <trkpt lat="31.24088739841921" lon="121.34399896003639">
        <ele>4.487024696543813</ele>
        <time>1970-01-01T00:00:09Z</time>
      </trkpt>
      <trkpt lat="31.240891142427063" lon="121.34398442757676">
        <ele>4.508725149556994</ele>
        <time>1970-01-01T00:00:10Z</time>
      </trkpt>
      <trkpt lat="31.24089492230147" lon="121.34397014624743">
        <ele>4.531059208326042</ele>
        <time>1970-01-01T00:00:11Z</time>
      </trkpt>
      <trkpt lat="31.240898092234893" lon="121.34395569223453">
        <ele>4.5536577785387635</ele>
        <time>1970-01-01T00:00:12Z</time>
      </trkpt>
      <trkpt lat="31.24090010248231" lon="121.34394078232374">
        <ele>4.576150447130203</ele>
        <time>1970-01-01T00:00:13Z</time>
      </trkpt>
      <trkpt lat="31.24090119663883" lon="121.34392518984254">
        <ele>4.598248548805714</ele>
        <time>1970-01-01T00:00:14Z</time>
      </trkpt>
      <trkpt lat="31.240902085616096" lon="121.34390904283617">
        <ele>4.619725569151342</ele>
        <time>1970-01-01T00:00:14Z</time>
      </trkpt>
      <trkpt lat="31.240902764308096" lon="121.34389263324177">
        <ele>4.640418970957398</ele>
        <time>1970-01-01T00:00:15Z</time>
      </trkpt>
      <trkpt lat="31.240902977195226" lon="121.3438761440776">
        <ele>4.660217724740505</ele>
        <time>1970-01-01T00:00:16Z</time>
      </trkpt>
      <trkpt lat="31.240902511350352" lon="121.34385978089253">
        <ele>4.679029192775488</ele>
        <time>1970-01-01T00:00:17Z</time>
      </trkpt>
      <trkpt lat="31.240901364003054" lon="121.34384363325844">
        <ele>4.696735764853656</ele>
        <time>1970-01-01T00:00:18Z</time>
      </trkpt>
      <trkpt lat="31.24089943932941" lon="121.34382769932087">
        <ele>4.7131718741729856</ele>
        <time>1970-01-01T00:00:19Z</time>
      </trkpt>
      <trkpt lat="31.24089658615123" lon="121.34381198843319">
        <ele>4.728160077705979</ele>
        <time>1970-01-01T00:00:20Z</time>
      </trkpt>
      <trkpt lat="31.24089280444904" lon="121.34379669375075">
        <ele>4.741746005602181</ele>
        <time>1970-01-01T00:00:21Z</time>
      </trkpt>
      <trkpt lat="31.240888106540215" lon="121.34378221845749">
        <ele>4.753714291378856</ele>
        <time>1970-01-01T00:00:22Z</time>
      </trkpt>
      <trkpt lat="31.240882551612582" lon="121.34376870274414">
        <ele>4.76435951795429</ele>
        <time>1970-01-01T00:00:23Z</time>
      </trkpt>
      <trkpt lat="31.240876224425453" lon="121.3437561421019">
        <ele>4.773701947182417</ele>
        <time>1970-01-01T00:00:24Z</time>
      </trkpt>
      <trkpt lat="31.240869003115073" lon="121.3437447076672">
        <ele>4.7820471646264195</ele>
        <time>1970-01-01T00:00:25Z</time>
      </trkpt>
      <trkpt lat="31.24086063639772" lon="121.34373476543145">
        <ele>4.7897215615957975</ele>
        <time>1970-01-01T00:00:26Z</time>
      </trkpt>
      <trkpt lat="31.240851652958074" lon="121.3437255650074">
        <ele>4.797078870236874</ele>
        <time>1970-01-01T00:00:27Z</time>
      </trkpt>
      <trkpt lat="31.24084313731224" lon="121.34371562730365">
        <ele>4.804464237764478</ele>
        <time>1970-01-01T00:00:28Z</time>
      </trkpt>
      <trkpt lat="31.240835095705265" lon="121.34370496702859">
        <ele>4.812186589464545</ele>
        <time>1970-01-01T00:00:29Z</time>
        <extensions>
          <gpxtpx:TrackPointExtension>
            <gpxtpx:hr>123</gpxtpx:hr>
          </gpxtpx:TrackPointExtension>
        </extensions>
      </trkpt>
      <trkpt lat="31.240826918966466" lon="121.34369433163562">
        <ele>4.820496105588973</ele>
        <time>1970-01-01T00:00:30Z</time>
        <extensions>
          <gpxtpx:TrackPointExtension>
            <gpxtpx:hr>123</gpxtpx:hr>
          </gpxtpx:TrackPointExtension>
        </extensions>
      </trkpt>
      <trkpt lat="31.240818518591663" lon="121.34368404092201">
        <ele>4.829574726521969</ele>
        <time>1970-01-01T00:00:31Z</time>
        <extensions>
          <gpxtpx:TrackPointExtension>
            <gpxtpx:hr>123</gpxtpx:hr>
          </gpxtpx:TrackPointExtension>
        </extensions>
      </trkpt>
      <trkpt lat="31.24081039910674" lon="121.34367403249904">
        <ele>4.839541063643992</ele>
        <time>1970-01-01T00:00:32Z</time>
        <extensions>
          <gpxtpx:TrackPointExtension>
            <gpxtpx:hr>123</gpxtpx:hr>
          </gpxtpx:TrackPointExtension>
        </extensions>
      </trkpt>
      <trkpt lat="31.240803265514348" lon="121.34366413274408">
        <ele>4.850461093708873</ele>
        <time>1970-01-01T00:00:33Z</time>
        <extensions>
          <gpxtpx:TrackPointExtension>
            <gpxtpx:hr>123</gpxtpx:hr>
          </gpxtpx:TrackPointExtension>
        </extensions>
      </trkpt>
      <trkpt lat="31.240797777952654" lon="121.34365430407392">
        <ele>4.862360991537571</ele>
        <time>1970-01-01T00:00:34Z</time>
        <extensions>
          <gpxtpx:TrackPointExtension>
            <gpxtpx:hr>123</gpxtpx:hr>
          </gpxtpx:TrackPointExtension>
        </extensions>
      </trkpt>
      <trkpt lat="31.240794142126756" lon="121.34364483260616">
        <ele>4.875238464213908</ele>
        <time>1970-01-01T00:00:35Z</time>
        <extensions>
          <gpxtpx:TrackPointExtension>
            <gpxtpx:hr>123</gpxtpx:hr>
          </gpxtpx:TrackPointExtension>
        </extensions>
      </trkpt>
      <trkpt lat="31.240791852754054" lon="121.34363609611034">
        <ele>4.889064262621105</ele>
        <time>1970-01-01T00:00:36Z</time>
        <extensions>
          <gpxtpx:TrackPointExtension>
            <gpxtpx:hr>123</gpxtpx:hr>
          </gpxtpx:TrackPointExtension>
        </extensions>
      </trkpt>
      <trkpt lat="31.2407904215685" lon="121.34362842502507">
        <ele>4.903770752251148</ele>
        <time>1970-01-01T00:00:37Z</time>
        <extensions>
          <gpxtpx:TrackPointExtension>
            <gpxtpx:hr>123</gpxtpx:hr>
          </gpxtpx:TrackPointExtension>
        </extensions>
      </trkpt>
      <trkpt lat="31.240789611499295" lon="121.34362193581337">
        <ele>4.919238065369427</ele>
        <time>1970-01-01T00:00:38Z</time>
        <extensions>
          <gpxtpx:TrackPointExtension>
            <gpxtpx:hr>123</gpxtpx:hr>
          </gpxtpx:TrackPointExtension>
        </extensions>
      </trkpt>
      <trkpt lat="31.24078920949309" lon="121.34361621930572">
        <ele>4.9352876069024205</ele>
        <time>1970-01-01T00:00:39Z</time>
        <extensions>
          <gpxtpx:TrackPointExtension>
            <gpxtpx:hr>123</gpxtpx:hr>
          </gpxtpx:TrackPointExtension>
        </extensions>
      </trkpt>
      <trkpt lat="31.24078904392579" lon="121.3436107893439">
        <ele>4.951683218590915</ele>
        <time>1970-01-01T00:00:40Z</time>
        <extensions>
          <gpxtpx:TrackPointExtension>
            <gpxtpx:hr>123</gpxtpx:hr>
          </gpxtpx:TrackPointExtension>
        </extensions>
      </trkpt>
      <trkpt lat="31.240788987898753" lon="121.343605327697">
        <ele>4.968145617283881</ele>
        <time>1970-01-01T00:00:41Z</time>
        <extensions>
          <gpxtpx:TrackPointExtension>
            <gpxtpx:hr>123</gpxtpx:hr>
          </gpxtpx:TrackPointExtension>
        </extensions>
      </trkpt>
      <trkpt lat="31.240789023898515" lon="121.3435994200051">
        <ele>4.984386833384633</ele>
        <time>1970-01-01T00:00:42Z</time>
        <extensions>
          <gpxtpx:TrackPointExtension>
            <gpxtpx:hr>123</gpxtpx:hr>
          </gpxtpx:TrackPointExtension>
        </extensions>
      </trkpt>
      <trkpt lat="31.240789206076236" lon="121.34359221967394">
        <ele>5.001146395690739</ele>
        <time>1970-01-01T00:00:44Z</time>
        <extensions>
          <gpxtpx:TrackPointExtension>
            <gpxtpx:hr>124</gpxtpx:hr>
          </gpxtpx:TrackPointExtension>
        </extensions>
      </trkpt>
      <trkpt lat="31.2407895299149" lon="121.3435841350381">
        <ele>5.016156350262463</ele>
        <time>1970-01-01T00:00:45Z</time>
        <extensions>
          <gpxtpx:TrackPointExtension>
            <gpxtpx:hr>124</gpxtpx:hr>
          </gpxtpx:TrackPointExtension>
        </extensions>
      </trkpt>
      <trkpt lat="31.24079007841491" lon="121.34357404843287">
        <ele>5.030483205802739</ele>
        <time>1970-01-01T00:00:46Z</time>
        <extensions>
          <gpxtpx:TrackPointExtension>
            <gpxtpx:hr>124</gpxtpx:hr>
          </gpxtpx:TrackPointExtension>
        </extensions>
      </trkpt>
      <trkpt lat="31.2407909201814" lon="121.3435617923671">
        <ele>5.044198521412909</ele>
        <time>1970-01-01T00:00:47Z</time>
        <extensions>
          <gpxtpx:TrackPointExtension>
            <gpxtpx:hr>124</gpxtpx:hr>
          </gpxtpx:TrackPointExtension>
        </extensions>
      </trkpt>
      <trkpt lat="31.240792014149005" lon="121.34354762038356">
        <ele>5.057519207708538</ele>
        <time>1970-01-01T00:00:48Z</time>
        <extensions>
          <gpxtpx:TrackPointExtension>
            <gpxtpx:hr>124</gpxtpx:hr>
          </gpxtpx:TrackPointExtension>
        </extensions>
      </trkpt>
      <trkpt lat="31.240793167455436" lon="121.34353175667668">
        <ele>5.0708268182352185</ele>
        <time>1970-01-01T00:00:49Z</time>
        <extensions>
          <gpxtpx:TrackPointExtension>
            <gpxtpx:hr>124</gpxtpx:hr>
          </gpxtpx:TrackPointExtension>
        </extensions>
      </trkpt>
      <trkpt lat="31.24079398069623" lon="121.34351441167016">
        <ele>5.084686825051904</ele>
        <time>1970-01-01T00:00:50Z</time>
        <extensions>
          <gpxtpx:TrackPointExtension>
            <gpxtpx:hr>124</gpxtpx:hr>
          </gpxtpx:TrackPointExtension>
        </extensions>
      </trkpt>
      <trkpt lat="31.240794204250392" lon="121.34349654937638">
        <ele>5.0998648358508945</ele>
        <time>1970-01-01T00:00:51Z</time>
        <extensions>
          <gpxtpx:TrackPointExtension>
            <gpxtpx:hr>124</gpxtpx:hr>
          </gpxtpx:TrackPointExtension>
        </extensions>
      </trkpt>
      <trkpt lat="31.24079417686257" lon="121.3434787736916">
        <ele>5.117332763969898</ele>
        <time>1970-01-01T00:00:52Z</time>
        <extensions>
          <gpxtpx:TrackPointExtension>
            <gpxtpx:hr>124</gpxtpx:hr>
          </gpxtpx:TrackPointExtension>
        </extensions>
      </trkpt>
      <trkpt lat="31.240794350165967" lon="121.34346175546017">
        <ele>5.137398356571794</ele>
        <time>1970-01-01T00:00:52Z</time>
        <extensions>
          <gpxtpx:TrackPointExtension>
            <gpxtpx:hr>124</gpxtpx:hr>
          </gpxtpx:TrackPointExtension>
        </extensions>
      </trkpt>
      <trkpt lat="31.240794981578105" lon="121.34344441427622">
        <ele>5.162881582044065</ele>
        <time>1970-01-01T00:00:53Z</time>
        <extensions>
          <gpxtpx:TrackPointExtension>
            <gpxtpx:hr>127</gpxtpx:hr>
          </gpxtpx:TrackPointExtension>
        </extensions>
      </trkpt>
      <trkpt lat="31.240796307317783" lon="121.34342743719382">
        <ele>5.194076042622328</ele>
        <time>1970-01-01T00:00:54Z</time>
        <extensions>
          <gpxtpx:TrackPointExtension>
            <gpxtpx:hr>127</gpxtpx:hr>
          </gpxtpx:TrackPointExtension>
        </extensions>
      </trkpt>
      <trkpt lat="31.240798751092864" lon="121.3434106892741">
        <ele>5.231377985328436</ele>
        <time>1970-01-01T00:00:55Z</time>
        <extensions>
          <gpxtpx:TrackPointExtension>
            <gpxtpx:hr>127</gpxtpx:hr>
          </gpxtpx:TrackPointExtension>
        </extensions>
      </trkpt>
      <trkpt lat="31.240802284484705" lon="121.34339386280746">
        <ele>5.274564916267991</ele>
        <time>1970-01-01T00:00:56Z</time>
        <extensions>
          <gpxtpx:TrackPointExtension>
            <gpxtpx:hr>127</gpxtpx:hr>
          </gpxtpx:TrackPointExtension>
        </extensions>
      </trkpt>
      <trkpt lat="31.24080654434348" lon="121.34337645604575">
        <ele>5.322679947130382</ele>
        <time>1970-01-01T00:00:57Z</time>
        <extensions>
          <gpxtpx:TrackPointExtension>
            <gpxtpx:hr>127</gpxtpx:hr>
          </gpxtpx:TrackPointExtension>
        </extensions>
      </trkpt>
      <trkpt lat="31.240811104422658" lon="121.34335800271677">
        <ele>5.374204877763987</ele>
        <time>1970-01-01T00:00:58Z</time>
        <extensions>
          <gpxtpx:TrackPointExtension>
            <gpxtpx:hr>127</gpxtpx:hr>
          </gpxtpx:TrackPointExtension>
        </extensions>
      </trkpt>
      <trkpt lat="31.24081539259208" lon="121.34333879189448">
        <ele>5.427581982687116</ele>
        <time>1970-01-01T00:00:59Z</time>
        <extensions>
          <gpxtpx:TrackPointExtension>
            <gpxtpx:hr>125</gpxtpx:hr>
          </gpxtpx:TrackPointExtension>
        </extensions>
      </trkpt>
      <trkpt lat="31.24081935762597" lon="121.34331904497374">
        <ele>5.481503615155816</ele>
        <time>1970-01-01T00:01:00Z</time>
        <extensions>
          <gpxtpx:TrackPointExtension>
            <gpxtpx:hr>125</gpxtpx:hr>
          </gpxtpx:TrackPointExtension>
        </extensions>
      </trkpt>
      <trkpt lat="31.24082305077946" lon="121.34329904661344">
        <ele>5.534916649572551</ele>
        <time>1970-01-01T00:01:01Z</time>
        <extensions>
          <gpxtpx:TrackPointExtension>
            <gpxtpx:hr>125</gpxtpx:hr>
          </gpxtpx:TrackPointExtension>
        </extensions>
      </trkpt>
      <trkpt lat="31.240826466748214" lon="121.34327902079691">
        <ele>5.5870000291615725</ele>
        <time>1970-01-01T00:01:02Z</time>
        <extensions>
          <gpxtpx:TrackPointExtension>
            <gpxtpx:hr>125</gpxtpx:hr>
          </gpxtpx:TrackPointExtension>
        </extensions>
      </trkpt>
      <trkpt lat="31.240829815404002" lon="121.34325869705454">
        <ele>5.637090738862753</ele>
        <time>1970-01-01T00:01:03Z</time>
        <extensions>
          <gpxtpx:TrackPointExtension>
            <gpxtpx:hr>125</gpxtpx:hr>
          </gpxtpx:TrackPointExtension>
        </extensions>
      </trkpt>
      <trkpt lat="31.24083328143984" lon="121.34323796980313">
        <ele>5.684790886007249</ele>
        <time>1970-01-01T00:01:04Z</time>
        <extensions>
          <gpxtpx:TrackPointExtension>
            <gpxtpx:hr>125</gpxtpx:hr>
          </gpxtpx:TrackPointExtension>
        </extensions>
      </trkpt>
      <trkpt lat="31.24083695151641" lon="121.34321687129378">
        <ele>5.730018357746303</ele>
        <time>1970-01-01T00:01:05Z</time>
        <extensions>
          <gpxtpx:TrackPointExtension>
            <gpxtpx:hr>125</gpxtpx:hr>
          </gpxtpx:TrackPointExtension>
        </extensions>
      </trkpt>
      <trkpt lat="31.240840836492428" lon="121.34319548855974">
        <ele>5.7727617574855685</ele>
        <time>1970-01-01T00:01:06Z</time>
        <extensions>
          <gpxtpx:TrackPointExtension>
            <gpxtpx:hr>125</gpxtpx:hr>
          </gpxtpx:TrackPointExtension>
        </extensions>
      </trkpt>
      <trkpt lat="31.240844898896324" lon="121.34317388602143">
        <ele>5.813134090974927</ele>
        <time>1970-01-01T00:01:07Z</time>
        <extensions>
          <gpxtpx:TrackPointExtension>
            <gpxtpx:hr>125</gpxtpx:hr>
          </gpxtpx:TrackPointExtension>
        </extensions>
      </trkpt>
      <trkpt lat="31.24084938260495" lon="121.343151582114">
        <ele>5.851335440762341</ele>
        <time>1970-01-01T00:01:08Z</time>
        <extensions>
          <gpxtpx:TrackPointExtension>
            <gpxtpx:hr>125</gpxtpx:hr>
          </gpxtpx:TrackPointExtension>
        </extensions>
      </trkpt>
      <trkpt lat="31.24085453196447" lon="121.34312844659976">
        <ele>5.8876422038301826</ele>
        <time>1970-01-01T00:01:09Z</time>
        <extensions>
          <gpxtpx:TrackPointExtension>
            <gpxtpx:hr>125</gpxtpx:hr>
          </gpxtpx:TrackPointExtension>
        </extensions>
      </trkpt>
      <trkpt lat="31.240860294944927" lon="121.34310528471708">
        <ele>5.922499626874924</ele>
        <time>1970-01-01T00:01:10Z</time>
        <extensions>
          <gpxtpx:TrackPointExtension>
            <gpxtpx:hr>125</gpxtpx:hr>
          </gpxtpx:TrackPointExtension>
        </extensions>
      </trkpt>
      <trkpt lat="31.240866496118368" lon="121.34308254503713">
        <ele>5.956104225479066</ele>
        <time>1970-01-01T00:01:11Z</time>
        <extensions>
          <gpxtpx:TrackPointExtension>
            <gpxtpx:hr>125</gpxtpx:hr>
          </gpxtpx:TrackPointExtension>
        </extensions>
      </trkpt>
      <trkpt lat="31.24087297355832" lon="121.34306010358804">
        <ele>5.988723796792328</ele>
        <time>1970-01-01T00:01:12Z</time>
        <extensions>
          <gpxtpx:TrackPointExtension>
            <gpxtpx:hr>125</gpxtpx:hr>
          </gpxtpx:TrackPointExtension>
        </extensions>
      </trkpt>
      <trkpt lat="31.240879628028406" lon="121.34303789218677">
        <ele>6.020583553239703</ele>
        <time>1970-01-01T00:01:13Z</time>
        <extensions>
          <gpxtpx:TrackPointExtension>
            <gpxtpx:hr>125</gpxtpx:hr>
          </gpxtpx:TrackPointExtension>
        </extensions>
      </trkpt>
      <trkpt lat="31.240886338602053" lon="121.34301600722625">
        <ele>6.051875460892916</ele>
        <time>1970-01-01T00:01:14Z</time>
        <extensions>
          <gpxtpx:TrackPointExtension>
            <gpxtpx:hr>125</gpxtpx:hr>
          </gpxtpx:TrackPointExtension>
        </extensions>
      </trkpt>
      <trkpt lat="31.240886481658492" lon="121.34301554471392">
        <ele>6.052538431249559</ele>
        <time>1970-01-01T00:01:15Z</time>
        <extensions>
          <gpxtpx:TrackPointExtension>
            <gpxtpx:hr>125</gpxtpx:hr>
          </gpxtpx:TrackPointExtension>
        </extensions>
      </trkpt>
    </trkseg>
  </trk>
</gpx>