<?xml version="1.0" encoding="UTF-8"?>
<gpx xmlns="http://www.topografix.com/GPX/1/1" xmlns:gpxtpx="http://www.garmin.com/xmlschemas/TrackPointExtension/v1" xmlns:xsi="http://www.w3.org/2001/XMLSchema-instance" xsi:schemaLocation="http://www.topografix.com/GPX/1/1 http://www.topografix.com/GPX/1/1/gpx.xsd" version="1.1" creator="gpx.py -- https://github.com/tkrajina/gpxpy">
  <trk>
    <name>gpx from keep</name>
    <type>Run</type>
    <trkseg>
      <trkpt lat="31.203681822319325" lon="121.6151614313565">
        <ele>2.3353071496965043</ele>
        <time>2018-10-11T22:32:13Z</time>
      </trkpt>
      <trkpt lat="31.203536370988022" lon="121.61529967917335">
        <ele>2.9199704965979834</ele>
        <time>2018-10-11T22:32:20Z</time>
      </trkpt>
      <trkpt lat="31.203385517412595" lon="121.61541434543652">
        <ele>3.6039355489562155</ele>
        <time>2018-10-11T22:32:27Z</time>
      </trkpt>
      <trkpt lat="31.20317625145103" lon="121.61565966038937">
        <ele>4.617557178714293</ele>
        <time>2018-10-11T22:32:38Z</time>
      </trkpt>
      <trkpt lat="31.202951553401622" lon="121.61587786981879">
        <ele>5.138390984535718</ele>
        <time>2018-10-11T22:32:49Z</time>
      </trkpt>
      <trkpt lat="31.20266932336467" lon="121.6161500191227">
        <ele>5.974898048640824</ele>
        <time>2018-10-11T22:33:03Z</time>
      </trkpt>
      <trkpt lat="31.202462777490084" lon="121.61637906416816">
        <ele>6.473221809998094</ele>
        <time>2018-10-11T22:33:14Z</time>
      </trkpt>
      <trkpt lat="31.202257875909943" lon="121.61658750824965">
        <ele>6.745172181678683</ele>
        <time>2018-10-11T22:33:24Z</time>
      </trkpt>
      <trkpt lat="31.20205593528752" lon="121.61681709089146">
        <ele>6.238382689200037</ele>
        <time>2018-10-11T22:33:35Z</time>
      </trkpt>
      <trkpt lat="31.20186215789001" lon="121.6170141470509">
        <ele>6.153058706383334</ele>
        <time>2018-10-11T22:33:45Z</time>
      </trkpt>
      <trkpt lat="31.201774534819062" lon="121.6170629397828">
        <ele>6.17192702602199</ele>
        <time>2018-10-11T22:33:49Z</time>
      </trkpt>
      <trkpt lat="31.2015234415352" lon="121.61736868072849">
        <ele>6.426293781970983</ele>
        <time>2018-10-11T22:34:03Z</time>
      </trkpt>
      <trkpt lat="31.20126586951714" lon="121.61764189560051">
        <ele>6.329473279850632</ele>
        <time>2018-10-11T22:34:17Z</time>
      </trkpt>
      <trkpt lat="31.20100284497168" lon="121.61794275204615">
        <ele>6.8543847068637405</ele>
        <time>2018-10-11T22:34:31Z</time>
      </trkpt>
      <trkpt lat="31.200806579540096" lon="121.61818018121153">
        <ele>7.41870952521181</ele>
        <time>2018-10-11T22:34:43Z</time>
      </trkpt>
      <trkpt lat="31.200616000823004" lon="121.61842275695642">
        <ele>7.667669151394904</ele>
        <time>2018-10-11T22:34:53Z</time>
      </trkpt>
      <trkpt lat="31.200376580225715" lon="121.61870056605161">
        <ele>7.288822207192041</ele>
        <time>2018-10-11T22:35:07Z</time>
      </trkpt>
      <trkpt lat="31.200170269450805" lon="121.61894503517179">
        <ele>7.467131807163327</ele>
        <time>2018-10-11T22:35:18Z</time>
      </trkpt>
      <trkpt lat="31.19992434143545" lon="121.61921823196963">
        <ele>7.483461284008669</ele>
        <time>2018-10-11T22:35:31Z</time>
      </trkpt>
      <trkpt lat="31.1996955213785" lon="121.61946351099759">
        <ele>8.11209403004321</ele>
        <time>2018-10-11T22:35:43Z</time>
      </trkpt>
      <trkpt lat="31.19944935096997" lon="121.61970472408736">
        <ele>8.573634575562764</ele>
        <time>2018-10-11T22:35:56Z</time>
      </trkpt>
      <trkpt lat="31.199209396385875" lon="121.61996327834775">
        <ele>8.800388736303603</ele>
        <time>2018-10-11T22:36:10Z</time>
      </trkpt>
      <trkpt lat="31.199142125050074" lon="121.61999173880031">
        <ele>8.970188773165802</ele>
        <time>2018-10-11T22:36:13Z</time>
      </trkpt>
      <trkpt lat="31.199075422623608" lon="121.61999499630434">
        <ele>8.718622615825893</ele>
        <time>2018-10-11T22:36:16Z</time>
      </trkpt>
      <trkpt lat="31.19898342179006" lon="121.62007657440735">
        <ele>8.746138475231987</ele>
        <time>2018-10-11T22:36:20Z</time>
      </trkpt>
      <trkpt lat="31.198780891526415" lon="121.62032482403488">
        <ele>8.48253260929512</ele>
        <time>2018-10-11T22:36:31Z</time>
      </trkpt>
      <trkpt lat="31.198654632409585" lon="121.62049447697783">
        <ele>8.11778226509061</ele>
        <time>2018-10-11T22:36:38Z</time>
      </trkpt>
      <trkpt lat="31.198366423592464" lon="121.6207397488079">
        <ele>8.11024302022652</ele>
        <time>2018-10-11T22:36:53Z</time>
      </trkpt>
      <trkpt lat="31.198093943017426" lon="121.62098095221101">
        <ele>8.078519613971295</ele>
        <time>2018-10-11T22:37:08Z</time>
      </trkpt>
      <trkpt lat="31.197839653907057" lon="121.6211972211712">
        <ele>8.149668404713594</ele>
        <time>2018-10-11T22:37:22Z</time>
      </trkpt>
      <trkpt lat="31.197585363885892" lon="121.62141294638992">
        <ele>8.370063625776524</ele>
        <time>2018-10-11T22:37:36Z</time>
      </trkpt>
      <trkpt lat="31.197354679688125" lon="121.62161186701803">
        <ele>8.355031653099985</ele>
        <time>2018-10-11T22:37:49Z</time>
      </trkpt>
      <trkpt lat="31.197075127972226" lon="121.62186634103823">
        <ele>8.89190605065032</ele>
        <time>2018-10-11T22:38:04Z</time>
      </trkpt>
      <trkpt lat="31.19685799817478" lon="121.62206471520155">
        <ele>9.169972018715342</ele>
        <time>2018-10-11T22:38:16Z</time>
      </trkpt>
      <trkpt lat="31.196674259832808" lon="121.62222487757323">
        <ele>9.89219959461741</ele>
        <time>2018-10-11T22:38:26Z</time>
      </trkpt>
      <trkpt lat="31.196641084463263" lon="121.6223105085294">
        <ele>10.633544215675826</ele>
        <time>2018-10-11T22:38:30Z</time>
      </trkpt>
      <trkpt lat="31.19671952554102" lon="121.62271235484144">
        <ele>10.208748824323436</ele>
        <time>2018-10-11T22:38:45Z</time>
      </trkpt>
      <trkpt lat="31.19676828556023" lon="121.62298575904234">
        <ele>9.116562289949897</ele>
        <time>2018-10-11T22:38:55Z</time>
      </trkpt>
      <trkpt lat="31.19679181161895" lon="121.6232729818154">
        <ele>8.277847926900293</ele>
        <time>2018-10-11T22:39:06Z</time>
      </trkpt>
      <trkpt lat="31.196843870574277" lon="121.62350356799722">
        <ele>7.534661000333585</ele>
        <time>2018-10-11T22:39:15Z</time>
      </trkpt>
      <trkpt lat="31.196848345407734" lon="121.62361791377865">
        <ele>7.139714035736077</ele>
        <time>2018-10-11T22:39:19Z</time>
      </trkpt>
      <trkpt lat="31.19692560792762" lon="121.62385635280624">
        <ele>6.815484066655813</ele>
        <time>2018-10-11T22:39:29Z</time>
      </trkpt>
      <trkpt lat="31.196929296408324" lon="121.62394685283813">
        <ele>6.958442242158043</ele>
        <time>2018-10-11T22:39:33Z</time>
      </trkpt>
      <trkpt lat="31.196943193702257" lon="121.62388832455733">
        <ele>6.849195139689257</ele>
        <time>2018-10-11T22:39:43Z</time>
      </trkpt>
      <trkpt lat="31.196929908416372" lon="121.62365882224061">
        <ele>7.629408937262255</ele>
        <time>2018-10-11T22:39:54Z</time>
      </trkpt>
      <trkpt lat="31.19695130146226" lon="121.6234507212668">
        <ele>7.5469801753993835</ele>
        <time>2018-10-11T22:40:02Z</time>
      </trkpt>
      <trkpt lat="31.19685651363159" lon="121.62312502901025">
        <ele>7.5728808905709</ele>
        <time>2018-10-11T22:40:16Z</time>
      </trkpt>
      <trkpt lat="31.196841371661097" lon="121.6228548750632">
        <ele>6.729444611890585</ele>
        <time>2018-10-11T22:40:26Z</time>
      </trkpt>
      <trkpt lat="31.19688919880986" lon="121.62276138648254">
        <ele>6.323402950607104</ele>
        <time>2018-10-11T22:40:30Z</time>
      </trkpt>
      <trkpt lat="31.197017855180025" lon="121.62264025180025">
        <ele>6.3922408436259985</ele>
        <time>2018-10-11T22:40:37Z</time>
      </trkpt>
      <trkpt lat="31.19714465551959" lon="121.6224819934277">
        <ele>6.330369634669438</ele>
        <time>2018-10-11T22:40:44Z</time>
      </trkpt>
      <trkpt lat="31.197388592196617" lon="121.62231722103601">
        <ele>5.997209435849044</ele>
        <time>2018-10-11T22:40:56Z</time>
      </trkpt>
      <trkpt lat="31.197615225345846" lon="121.62210827985925">
        <ele>6.1262492106633175</ele>
        <time>2018-10-11T22:41:08Z</time>
      </trkpt>
      <trkpt lat="31.19774546911682" lon="121.62201993044626">
        <ele>6.3221983127505865</ele>
        <time>2018-10-11T22:41:14Z</time>
      </trkpt>
      <trkpt lat="31.197886082292715" lon="121.62187223547153">
        <ele>6.9397452167004445</ele>
        <time>2018-10-11T22:41:22Z</time>
      </trkpt>
      <trkpt lat="31.19808954335755" lon="121.62177331098678">
        <ele>6.743464149781772</ele>
        <time>2018-10-11T22:41:32Z</time>
      </trkpt>
      <trkpt lat="31.198224156643732" lon="121.62165596509334">
        <ele>6.114099046503938</ele>
        <time>2018-10-11T22:41:39Z</time>
      </trkpt>
      <trkpt lat="31.19842394432269" lon="121.6214459370257">
        <ele>5.803410897200692</ele>
        <time>2018-10-11T22:41:50Z</time>
      </trkpt>
      <trkpt lat="31.19851982780881" lon="121.62128902906424">
        <ele>6.444942602040314</ele>
        <time>2018-10-11T22:41:57Z</time>
      </trkpt>
      <trkpt lat="31.198754322866133" lon="121.62107465941035">
        <ele>6.340281692479024</ele>
        <time>2018-10-11T22:42:09Z</time>
      </trkpt>
      <trkpt lat="31.198875870281753" lon="121.62100202459892">
        <ele>6.386554836479618</ele>
        <time>2018-10-11T22:42:15Z</time>
      </trkpt>
      <trkpt lat="31.19912178563883" lon="121.62075567476535">
        <ele>5.824370139652558</ele>
        <time>2018-10-11T22:42:29Z</time>
      </trkpt>
      <trkpt lat="31.19929674046368" lon="121.62068791249894">
        <ele>6.32249794448731</ele>
        <time>2018-10-11T22:42:37Z</time>
      </trkpt>
      <trkpt lat="31.199382967274005" lon="121.62068221454146">
        <ele>6.257380346412802</ele>
        <time>2018-10-11T22:42:41Z</time>
      </trkpt>
      <trkpt lat="31.19965269947752" lon="121.62072500885328">
        <ele>6.379234650007163</ele>
        <time>2018-10-11T22:42:52Z</time>
      </trkpt>
      <trkpt lat="31.199889677843935" lon="121.62071848545536">
        <ele>6.012800452580606</ele>
        <time>2018-10-11T22:43:03Z</time>
      </trkpt>
      <trkpt lat="31.200201702364748" lon="121.62076561205865">
        <ele>6.072632083028367</ele>
        <time>2018-10-11T22:43:18Z</time>
      </trkpt>
      <trkpt lat="31.200545398993928" lon="121.62085934622966">
        <ele>5.683070060940182</ele>
        <time>2018-10-11T22:43:33Z</time>
      </trkpt>
      <trkpt lat="31.20087747679139" lon="121.62091622652888">
        <ele>5.321206451519956</ele>
        <time>2018-10-11T22:43:47Z</time>
      </trkpt>
      <trkpt lat="31.201183535110093" lon="121.62096443722218">
        <ele>5.324987402042382</ele>
        <time>2018-10-11T22:44:00Z</time>
      </trkpt>
      <trkpt lat="31.201522138756072" lon="121.62100424449913">
        <ele>6.000049998535815</ele>
        <time>2018-10-11T22:44:14Z</time>
      </trkpt>
      <trkpt lat="31.20186479731739" lon="121.62105516187744">
        <ele>6.294004509534048</ele>
        <time>2018-10-11T22:44:28Z</time>
      </trkpt>
      <trkpt lat="31.20215295839149" lon="121.62110554169224">
        <ele>6.394047803286497</ele>
        <time>2018-10-11T22:44:41Z</time>
      </trkpt>
      <trkpt lat="31.20246199594038" lon="121.62115673264202">
        <ele>6.9953228798376585</ele>
        <time>2018-10-11T22:44:55Z</time>
      </trkpt>
      <trkpt lat="31.202515740631952" lon="121.62110198883364">
        <ele>6.898081724815995</ele>
        <time>2018-10-11T22:45:01Z</time>
      </trkpt>
      <trkpt lat="31.20244346692275" lon="121.62074347628341">
        <ele>7.283102827574936</ele>
        <time>2018-10-11T22:45:12Z</time>
      </trkpt>
      <trkpt lat="31.20241700255032" lon="121.62039254287535">
        <ele>7.321273790910098</ele>
        <time>2018-10-11T22:45:23Z</time>
      </trkpt>
      <trkpt lat="31.20243468953371" lon="121.62033346452928">
        <ele>7.255427365013858</ele>
        <time>2018-10-11T22:45:26Z</time>
      </trkpt>
      <trkpt lat="31.20247430504908" lon="121.62030554873226">
        <ele>7.211868910543103</ele>
        <time>2018-10-11T22:45:33Z</time>
      </trkpt>
      <trkpt lat="31.202558877986345" lon="121.62032532439541">
        <ele>6.377112874706043</ele>
        <time>2018-10-11T22:45:53Z</time>
      </trkpt>
      <trkpt lat="31.2027844775635" lon="121.62031094297288">
        <ele>6.207889297922691</ele>
        <time>2018-10-11T22:46:03Z</time>
      </trkpt>
      <trkpt lat="31.202869920946227" lon="121.62027733244881">
        <ele>5.498254507759341</ele>
        <time>2018-10-11T22:46:07Z</time>
      </trkpt>
      <trkpt lat="31.202904714599836" lon="121.62019440473271">
        <ele>5.258339204062366</ele>
        <time>2018-10-11T22:46:11Z</time>
      </trkpt>
      <trkpt lat="31.20277061395449" lon="121.61983317479661">
        <ele>4.725313269360242</ele>
        <time>2018-10-11T22:46:24Z</time>
      </trkpt>
      <trkpt lat="31.20268828633097" lon="121.6194808786486">
        <ele>5.3116477060657985</ele>
        <time>2018-10-11T22:46:38Z</time>
      </trkpt>
      <trkpt lat="31.202588614628947" lon="121.61911611272522">
        <ele>4.895251464227883</ele>
        <time>2018-10-11T22:46:52Z</time>
      </trkpt>
      <trkpt lat="31.202495934720382" lon="121.61880364624164">
        <ele>5.0191629266339675</ele>
        <time>2018-10-11T22:47:04Z</time>
      </trkpt>
      <trkpt lat="31.20246753957995" lon="121.6187307464357">
        <ele>5.034947739675786</ele>
        <time>2018-10-11T22:47:07Z</time>
      </trkpt>
      <trkpt lat="31.202484983583357" lon="121.61864049779575">
        <ele>5.0422182569082</ele>
        <time>2018-10-11T22:47:11Z</time>
      </trkpt>
      <trkpt lat="31.202754319527518" lon="121.61854236858468">
        <ele>5.367546297739395</ele>
        <time>2018-10-11T22:47:22Z</time>
      </trkpt>
      <trkpt lat="31.202839237679342" lon="121.61848978476155">
        <ele>5.255217097835455</ele>
        <time>2018-10-11T22:47:26Z</time>
      </trkpt>
      <trkpt lat="31.20287241762267" lon="121.61838869333">
        <ele>5.1779546243054995</ele>
        <time>2018-10-11T22:47:30Z</time>
      </trkpt>
      <trkpt lat="31.202800869168264" lon="121.6180854307535">
        <ele>5.3782879363378555</ele>
        <time>2018-10-11T22:47:41Z</time>
      </trkpt>
      <trkpt lat="31.20276164903309" lon="121.61799003510775">
        <ele>5.352525425634099</ele>
        <time>2018-10-11T22:47:45Z</time>
      </trkpt>
      <trkpt lat="31.202580847256215" lon="121.61766807612298">
        <ele>5.466815239568319</ele>
        <time>2018-10-11T22:47:59Z</time>
      </trkpt>
      <trkpt lat="31.202430891757775" lon="121.61740763349947">
        <ele>5.827265338278153</ele>
        <time>2018-10-11T22:48:11Z</time>
      </trkpt>
      <trkpt lat="31.202411711370704" lon="121.6173349998982">
        <ele>5.820392498684683</ele>
        <time>2018-10-11T22:48:14Z</time>
      </trkpt>
      <trkpt lat="31.202424524967817" lon="121.61726209240959">
        <ele>5.607399364485573</ele>
        <time>2018-10-11T22:48:17Z</time>
      </trkpt>
      <trkpt lat="31.202482598377586" lon="121.6172095081151">
        <ele>5.317904752179288</ele>
        <time>2018-10-11T22:48:20Z</time>
      </trkpt>
      <trkpt lat="31.202563436105493" lon="121.61716830504825">
        <ele>5.757723150870547</ele>
        <time>2018-10-11T22:48:24Z</time>
      </trkpt>
      <trkpt lat="31.202820974201604" lon="121.61692625362623">
        <ele>4.594536250514736</ele>
        <time>2018-10-11T22:48:42Z</time>
      </trkpt>
      <trkpt lat="31.20298648499184" lon="121.61680129400659">
        <ele>4.796391425045158</ele>
        <time>2018-10-11T22:48:51Z</time>
      </trkpt>
      <trkpt lat="31.20304919959139" lon="121.61671401601525">
        <ele>4.613101887714805</ele>
        <time>2018-10-11T22:48:55Z</time>
      </trkpt>
      <trkpt lat="31.20321901734088" lon="121.61662130815441">
        <ele>4.810492858430592</ele>
        <time>2018-10-11T22:49:03Z</time>
      </trkpt>
      <trkpt lat="31.20346186738166" lon="121.61642451582725">
        <ele>4.824736687638733</ele>
        <time>2018-10-11T22:49:16Z</time>
      </trkpt>
      <trkpt lat="31.203732354802" lon="121.61624615030591">
        <ele>4.632584467721159</ele>
        <time>2018-10-11T22:49:30Z</time>
      </trkpt>
      <trkpt lat="31.20387827791063" lon="121.6161894909759">
        <ele>4.481388671041458</ele>
        <time>2018-10-11T22:49:37Z</time>
      </trkpt>
      <trkpt lat="31.203969250763684" lon="121.61603471921336">
        <ele>4.637595667106908</ele>
        <time>2018-10-11T22:49:44Z</time>
      </trkpt>
      <trkpt lat="31.204051719135485" lon="121.61598755111544">
        <ele>4.797344425275213</ele>
        <time>2018-10-11T22:49:48Z</time>
      </trkpt>
      <trkpt lat="31.204130346358717" lon="121.61598971294853">
        <ele>4.538088400441993</ele>
        <time>2018-10-11T22:49:52Z</time>
      </trkpt>
      <trkpt lat="31.204203579691374" lon="121.61596043433127">
        <ele>4.3853938127668926</ele>
        <time>2018-10-11T22:49:56Z</time>
      </trkpt>
      <trkpt lat="31.20429520801106" lon="121.61597723137444">
        <ele>4.501600916123252</ele>
        <time>2018-10-11T22:50:00Z</time>
      </trkpt>
      <trkpt lat="31.204487230353244" lon="121.61620814234779">
        <ele>5.101314178042401</ele>
        <time>2018-10-11T22:50:11Z</time>
      </trkpt>
      <trkpt lat="31.204614263897437" lon="121.61634717477264">
        <ele>4.968943178624897</ele>
        <time>2018-10-11T22:50:18Z</time>
      </trkpt>
      <trkpt lat="31.204571767609977" lon="121.61626966127292">
        <ele>5.803263943227108</ele>
        <time>2018-10-11T22:50:25Z</time>
      </trkpt>
      <trkpt lat="31.204319848761" lon="121.6160127358382">
        <ele>6.3404954963108935</ele>
        <time>2018-10-11T22:50:38Z</time>
      </trkpt>
      <trkpt lat="31.204119408776897" lon="121.6157937496549">
        <ele>7.322219339854811</ele>
        <time>2018-10-11T22:50:50Z</time>
      </trkpt>
      <trkpt lat="31.203871810579066" lon="121.61555145536686">
        <ele>7.026381037456289</ele>
        <time>2018-10-11T22:51:04Z</time>
      </trkpt>
      <trkpt lat="31.203677856571296" lon="121.61535225107284">
        <ele>5.885361431767265</ele>
        <time>2018-10-11T22:51:15Z</time>
      </trkpt>
      <trkpt lat="31.203567560222595" lon="121.61528991879959">
        <ele>5.451820602303613</ele>
        <time>2018-10-11T22:51:21Z</time>
      </trkpt>
      <trkpt lat="31.203556520858744" lon="121.61520318358984">
        <ele>4.965246488890472</ele>
        <time>2018-10-11T22:51:25Z</time>
      </trkpt>
      <trkpt lat="31.203706312978813" lon="121.61506141117788">
        <ele>5.337823379691017</ele>
        <time>2018-10-11T22:51:32Z</time>
      </trkpt>
      <trkpt lat="31.203768164313697" lon="121.61502454289844">
        <ele>5.003188163370112</ele>
        <time>2018-10-11T22:51:35Z</time>
      </trkpt>
      <trkpt lat="31.203832485146616" lon="121.61495433477893">
        <ele>5.251092092123216</ele>
        <time>2018-10-11T22:51:39Z</time>
      </trkpt>
      <trkpt lat="31.203868876029432" lon="121.61488738141729">
        <ele>5.337405674860676</ele>
        <time>2018-10-11T22:51:42Z</time>
      </trkpt>
      <trkpt lat="31.204103064807423" lon="121.61465913312749">
        <ele>5.475843553027488</ele>
        <time>2018-10-11T22:51:56Z</time>
      </trkpt>
      <trkpt lat="31.204330486846512" lon="121.6144151617551">
        <ele>5.484284682679302</ele>
        <time>2018-10-11T22:52:10Z</time>
      </trkpt>
      <trkpt lat="31.204534578722566" lon="121.61418338762651">
        <ele>5.31099409230535</ele>
        <time>2018-10-11T22:52:22Z</time>
      </trkpt>
      <trkpt lat="31.20460187623245" lon="121.61411751379858">
        <ele>5.592536715723696</ele>
        <time>2018-10-11T22:52:26Z</time>
      </trkpt>
      <trkpt lat="31.20475349713802" lon="121.61405109068667">
        <ele>5.765157845373281</ele>
        <time>2018-10-11T22:52:33Z</time>
      </trkpt>
      <trkpt lat="31.204924193597417" lon="121.61387027623006">
        <ele>5.632260427858299</ele>
        <time>2018-10-11T22:52:43Z</time>
      </trkpt>
      <trkpt lat="31.204992376197247" lon="121.6137176599332">
        <ele>6.001142785109266</ele>
        <time>2018-10-11T22:52:50Z</time>
      </trkpt>
      <trkpt lat="31.20504556949705" lon="121.61365666520855">
        <ele>6.09301926045589</ele>
        <time>2018-10-11T22:52:53Z</time>
      </trkpt>
      <trkpt lat="31.205116102743332" lon="121.61361084876076">
        <ele>5.959486280873165</ele>
        <time>2018-10-11T22:52:57Z</time>
      </trkpt>
      <trkpt lat="31.205337295821494" lon="121.61334680779134">
        <ele>5.985541200988422</ele>
        <time>2018-10-11T22:53:12Z</time>
      </trkpt>
      <trkpt lat="31.205576620563914" lon="121.61312206821022">
        <ele>6.002755106739485</ele>
        <time>2018-10-11T22:53:26Z</time>
      </trkpt>
      <trkpt lat="31.205546857108295" lon="121.61304616965218">
        <ele>5.896144425632571</ele>
        <time>2018-10-11T22:53:34Z</time>
      </trkpt>
      <trkpt lat="31.20532010386527" lon="121.61281333338096">
        <ele>5.718543533298515</ele>
        <time>2018-10-11T22:53:51Z</time>
      </trkpt>
      <trkpt lat="31.205366188445026" lon="121.61282390161811">
        <ele>6.232422797164816</ele>
        <time>2018-10-11T22:54:12Z</time>
      </trkpt>
      <trkpt lat="31.205512754444523" lon="121.61263196542396">
        <ele>6.398066971026225</ele>
        <time>2018-10-11T22:54:28Z</time>
      </trkpt>
      <trkpt lat="31.205714316317003" lon="121.61249505279432">
        <ele>7.063221425446656</ele>
        <time>2018-10-11T22:54:41Z</time>
      </trkpt>
      <trkpt lat="31.20582475897525" lon="121.61237983356374">
        <ele>7.183132651640932</ele>
        <time>2018-10-11T22:54:48Z</time>
      </trkpt>
      <trkpt lat="31.206127002185863" lon="121.61212525999763">
        <ele>7.230761473178262</ele>
        <time>2018-10-11T22:55:03Z</time>
      </trkpt>
      <trkpt lat="31.206181273082063" lon="121.6120685984181">
        <ele>7.191847913058311</ele>
        <time>2018-10-11T22:55:06Z</time>
      </trkpt>
      <trkpt lat="31.20621467308114" lon="121.61200326362189">
        <ele>7.1200276517914745</ele>
        <time>2018-10-11T22:55:10Z</time>
      </trkpt>
      <trkpt lat="31.206482746146687" lon="121.61175329727833">
        <ele>7.268105659084071</ele>
        <time>2018-10-11T22:55:24Z</time>
      </trkpt>
      <trkpt lat="31.206630631605055" lon="121.61159930507569">
        <ele>7.267736755197134</ele>
        <time>2018-10-11T22:55:32Z</time>
      </trkpt>
      <trkpt lat="31.20662391049263" lon="121.61152312853731">
        <ele>7.370531092800164</ele>
        <time>2018-10-11T22:55:35Z</time>
      </trkpt>
      <trkpt lat="31.20638115462581" lon="121.61127943442801">
        <ele>7.1331713672722685</ele>
        <time>2018-10-11T22:55:48Z</time>
      </trkpt>
      <trkpt lat="31.206177733012062" lon="121.6110059135553">
        <ele>7.093006927878463</ele>
        <time>2018-10-11T22:56:01Z</time>
      </trkpt>
      <trkpt lat="31.205966918017978" lon="121.6108291734699">
        <ele>7.214314110529514</ele>
        <time>2018-10-11T22:56:12Z</time>
      </trkpt>
      <trkpt lat="31.205756985835208" lon="121.61055375000208">
        <ele>7.450046555909637</ele>
        <time>2018-10-11T22:56:26Z</time>
      </trkpt>
      <trkpt lat="31.20555815016193" lon="121.61030272199383">
        <ele>7.357146041818467</ele>
        <time>2018-10-11T22:56:40Z</time>
      </trkpt>
      <trkpt lat="31.205425916446575" lon="121.61018805402986">
        <ele>7.632536998656505</ele>
        <time>2018-10-11T22:56:47Z</time>
      </trkpt>
      <trkpt lat="31.20529985813451" lon="121.61015986907776">
        <ele>7.264071278758763</ele>
        <time>2018-10-11T22:56:58Z</time>
      </trkpt>
      <trkpt lat="31.20523471959744" lon="121.61025422038053">
        <ele>7.201435529116708</ele>
        <time>2018-10-11T22:57:09Z</time>
      </trkpt>
      <trkpt lat="31.20518592871209" lon="121.61023497570972">
        <ele>7.549181125357478</ele>
        <time>2018-10-11T22:57:13Z</time>
      </trkpt>
      <trkpt lat="31.20508933628537" lon="121.61033204037476">
        <ele>7.64580468828558</ele>
        <time>2018-10-11T22:57:27Z</time>
      </trkpt>
      <trkpt lat="31.205065440019524" lon="121.6103835527099">
        <ele>7.547904722655375</ele>
        <time>2018-10-11T22:57:31Z</time>
      </trkpt>
      <trkpt lat="31.204925158952403" lon="121.61053023263784">
        <ele>7.518423281187651</ele>
        <time>2018-10-11T22:57:45Z</time>
      </trkpt>
      <trkpt lat="31.20487847083941" lon="121.61060424806848">
        <ele>7.267466491963475</ele>
        <time>2018-10-11T22:57:53Z</time>
      </trkpt>
      <trkpt lat="31.204731191879656" lon="121.61067745826405">
        <ele>7.2129200150486525</ele>
        <time>2018-10-11T22:58:07Z</time>
      </trkpt>
    </trkseg>
  </trk>
</gpx>