<?xml version="1.0" encoding="UTF-8"?>
<gpx xmlns="http://www.topografix.com/GPX/1/1" xmlns:gpxtpx="http://www.garmin.com/xmlschemas/TrackPointExtension/v1" xmlns:xsi="http://www.w3.org/2001/XMLSchema-instance" xsi:schemaLocation="http://www.topografix.com/GPX/1/1 http://www.topografix.com/GPX/1/1/gpx.xsd" version="1.1" creator="gpx.py -- https://github.com/tkrajina/gpxpy">
  <trk>
    <name>gpx from keep</name>
    <type>Run</type>
    <trkseg>
      <trkpt lat="31.20463117404576" lon="121.61063408995624">
        <ele>10.1447545341844</ele>
        <time>2019-05-29T22:38:51Z</time>
      </trkpt>
      <trkpt lat="31.20462435423385" lon="121.6106918355688">
        <ele>11.169748702366938</ele>
        <time>2019-05-29T22:38:54Z</time>
      </trkpt>
      <trkpt lat="31.204561322635325" lon="121.61086941266471">
        <ele>10.924642177157942</ele>
        <time>2019-05-29T22:38:58Z</time>
      </trkpt>
      <trkpt lat="31.20437434940081" lon="121.61109010331707">
        <ele>10.855134266864702</ele>
        <time>2019-05-29T22:39:08Z</time>
      </trkpt>
      <trkpt lat="31.204241706242723" lon="121.61116900379263">
        <ele>10.496119654519465</ele>
        <time>2019-05-29T22:39:15Z</time>
      </trkpt>
      <trkpt lat="31.204219967194874" lon="121.61123433999516">
        <ele>10.635521493411055</ele>
        <time>2019-05-29T22:39:18Z</time>
      </trkpt>
      <trkpt lat="31.204214749723672" lon="121.6113232599817">
        <ele>10.497948596435602</ele>
        <time>2019-05-29T22:39:22Z</time>
      </trkpt>
      <trkpt lat="31.204214749723672" lon="121.6113232599817">
        <ele>10.497948596435602</ele>
        <time>2019-05-29T22:39:27Z</time>
      </trkpt>
      <trkpt lat="31.20424557228713" lon="121.61143982827919">
        <ele>10.420280593554413</ele>
        <time>2019-05-29T22:39:29Z</time>
      </trkpt>
      <trkpt lat="31.204254926676633" lon="121.61162010450884">
        <ele>9.57022948126992</ele>
        <time>2019-05-29T22:39:36Z</time>
      </trkpt>
      <trkpt lat="31.204313139982045" lon="121.61172690976495">
        <ele>9.621675550693773</ele>
        <time>2019-05-29T22:39:40Z</time>
      </trkpt>
      <trkpt lat="31.20456264278569" lon="121.6120055689148">
        <ele>9.432101045604977</ele>
        <time>2019-05-29T22:39:54Z</time>
      </trkpt>
      <trkpt lat="31.20474685138474" lon="121.61221700107824">
        <ele>9.072901216015904</ele>
        <time>2019-05-29T22:40:04Z</time>
      </trkpt>
      <trkpt lat="31.204990459511034" lon="121.61239969161659">
        <ele>9.41613533811455</ele>
        <time>2019-05-29T22:40:15Z</time>
      </trkpt>
      <trkpt lat="31.205043017229023" lon="121.61245390381323">
        <ele>9.605454540163038</ele>
        <time>2019-05-29T22:40:18Z</time>
      </trkpt>
      <trkpt lat="31.205065453152933" lon="121.61254064816264">
        <ele>9.651583260409975</ele>
        <time>2019-05-29T22:40:22Z</time>
      </trkpt>
      <trkpt lat="31.20520333546953" lon="121.61269921883067">
        <ele>9.836970147402887</ele>
        <time>2019-05-29T22:40:29Z</time>
      </trkpt>
      <trkpt lat="31.205264525858563" lon="121.61280737425518">
        <ele>10.077353878866962</ele>
        <time>2019-05-29T22:40:33Z</time>
      </trkpt>
      <trkpt lat="31.205266374771156" lon="121.61286863771296">
        <ele>10.054992137086806</ele>
        <time>2019-05-29T22:40:36Z</time>
      </trkpt>
      <trkpt lat="31.205127661907213" lon="121.61307060109834">
        <ele>10.585067943766276</ele>
        <time>2019-05-29T22:40:44Z</time>
      </trkpt>
      <trkpt lat="31.204890510095346" lon="121.613291274904">
        <ele>10.378890945328095</ele>
        <time>2019-05-29T22:40:55Z</time>
      </trkpt>
      <trkpt lat="31.204624871176478" lon="121.61353146603335">
        <ele>10.235169862790784</ele>
        <time>2019-05-29T22:41:07Z</time>
      </trkpt>
      <trkpt lat="31.204333733709802" lon="121.61378331270689">
        <ele>10.242481570749046</ele>
        <time>2019-05-29T22:41:22Z</time>
      </trkpt>
      <trkpt lat="31.204096047640224" lon="121.61398771600669">
        <ele>9.494656557022875</ele>
        <time>2019-05-29T22:41:39Z</time>
      </trkpt>
      <trkpt lat="31.2039554619492" lon="121.61415036587726">
        <ele>9.55013927110334</ele>
        <time>2019-05-29T22:41:46Z</time>
      </trkpt>
      <trkpt lat="31.203835726017882" lon="121.6143441848991">
        <ele>9.66886451965</ele>
        <time>2019-05-29T22:41:53Z</time>
      </trkpt>
      <trkpt lat="31.20357251933558" lon="121.61458300985879">
        <ele>10.046257553669719</ele>
        <time>2019-05-29T22:42:06Z</time>
      </trkpt>
      <trkpt lat="31.203508731153494" lon="121.61466541658916">
        <ele>9.81566661819464</ele>
        <time>2019-05-29T22:42:10Z</time>
      </trkpt>
      <trkpt lat="31.203508121212206" lon="121.61474320985792">
        <ele>10.076020651001755</ele>
        <time>2019-05-29T22:42:14Z</time>
      </trkpt>
      <trkpt lat="31.203657784242203" lon="121.61474726332155">
        <ele>10.080121353819386</ele>
        <time>2019-05-29T22:42:22Z</time>
      </trkpt>
      <trkpt lat="31.203736890399366" lon="121.61482206812465">
        <ele>10.00001167286419</ele>
        <time>2019-05-29T22:42:26Z</time>
      </trkpt>
      <trkpt lat="31.203793212207152" lon="121.61490690358622">
        <ele>9.400634192184004</ele>
        <time>2019-05-29T22:42:30Z</time>
      </trkpt>
      <trkpt lat="31.203787974616713" lon="121.61500475439128">
        <ele>9.129357260763964</ele>
        <time>2019-05-29T22:42:34Z</time>
      </trkpt>
      <trkpt lat="31.203629152540373" lon="121.61523976942279">
        <ele>8.619260549584066</ele>
        <time>2019-05-29T22:42:44Z</time>
      </trkpt>
      <trkpt lat="31.203379005800013" lon="121.61541922484751">
        <ele>7.668389472690993</ele>
        <time>2019-05-29T22:42:58Z</time>
      </trkpt>
      <trkpt lat="31.203172983602183" lon="121.61567538130792">
        <ele>6.868467759249938</ele>
        <time>2019-05-29T22:43:10Z</time>
      </trkpt>
      <trkpt lat="31.202891839550077" lon="121.61594807487349">
        <ele>6.313023933690175</ele>
        <time>2019-05-29T22:43:25Z</time>
      </trkpt>
      <trkpt lat="31.202683670748005" lon="121.61617468258898">
        <ele>5.876728391373199</ele>
        <time>2019-05-29T22:43:38Z</time>
      </trkpt>
      <trkpt lat="31.20243589347718" lon="121.61642378757769">
        <ele>5.656771343503518</ele>
        <time>2019-05-29T22:43:52Z</time>
      </trkpt>
      <trkpt lat="31.20220327970982" lon="121.61669186118517">
        <ele>5.081183377196897</ele>
        <time>2019-05-29T22:44:06Z</time>
      </trkpt>
      <trkpt lat="31.202064358929178" lon="121.61679757581811">
        <ele>4.492302359752937</ele>
        <time>2019-05-29T22:44:13Z</time>
      </trkpt>
      <trkpt lat="31.201825500890994" lon="121.61707052441146">
        <ele>4.310349985904907</ele>
        <time>2019-05-29T22:44:28Z</time>
      </trkpt>
      <trkpt lat="31.201797221689777" lon="121.61715535903127">
        <ele>4.243690671184773</ele>
        <time>2019-05-29T22:44:32Z</time>
      </trkpt>
      <trkpt lat="31.201520138118735" lon="121.6174201760503">
        <ele>4.217466194757815</ele>
        <time>2019-05-29T22:44:47Z</time>
      </trkpt>
      <trkpt lat="31.20128618450237" lon="121.61766249172601">
        <ele>3.914246629584124</ele>
        <time>2019-05-29T22:45:00Z</time>
      </trkpt>
      <trkpt lat="31.20103621696635" lon="121.61791998354393">
        <ele>4.077859147203402</ele>
        <time>2019-05-29T22:45:14Z</time>
      </trkpt>
      <trkpt lat="31.200844021699478" lon="121.61815443138678">
        <ele>4.049319799635207</ele>
        <time>2019-05-29T22:45:26Z</time>
      </trkpt>
      <trkpt lat="31.200643128402238" lon="121.61840866190589">
        <ele>3.8669085656106184</ele>
        <time>2019-05-29T22:45:39Z</time>
      </trkpt>
      <trkpt lat="31.200417805277535" lon="121.61868809606526">
        <ele>4.000346882563349</ele>
        <time>2019-05-29T22:45:54Z</time>
      </trkpt>
      <trkpt lat="31.20017838658933" lon="121.61896156609504">
        <ele>4.18926459767742</ele>
        <time>2019-05-29T22:46:09Z</time>
      </trkpt>
      <trkpt lat="31.199960398383034" lon="121.61922202308322">
        <ele>4.352180859936215</ele>
        <time>2019-05-29T22:46:22Z</time>
      </trkpt>
      <trkpt lat="31.199727215902936" lon="121.61949060879421">
        <ele>4.2299602602879816</ele>
        <time>2019-05-29T22:46:38Z</time>
      </trkpt>
      <trkpt lat="31.19945988571369" lon="121.61974239243645">
        <ele>4.106333212621109</ele>
        <time>2019-05-29T22:46:53Z</time>
      </trkpt>
      <trkpt lat="31.199263366388895" lon="121.61994972392529">
        <ele>3.992827577709374</ele>
        <time>2019-05-29T22:47:05Z</time>
      </trkpt>
      <trkpt lat="31.199185760155643" lon="121.62000826610956">
        <ele>3.7483351660852584</ele>
        <time>2019-05-29T22:47:09Z</time>
      </trkpt>
      <trkpt lat="31.199130917582096" lon="121.62007764619482">
        <ele>3.8982681308765947</ele>
        <time>2019-05-29T22:47:17Z</time>
      </trkpt>
      <trkpt lat="31.199053603534704" lon="121.62011613426074">
        <ele>3.7290755392284822</ele>
        <time>2019-05-29T22:47:20Z</time>
      </trkpt>
      <trkpt lat="31.198909232216593" lon="121.620236468802">
        <ele>3.9217016144993693</ele>
        <time>2019-05-29T22:47:27Z</time>
      </trkpt>
      <trkpt lat="31.1986652150791" lon="121.62048661728893">
        <ele>3.6074438414320866</ele>
        <time>2019-05-29T22:47:40Z</time>
      </trkpt>
      <trkpt lat="31.198529006402214" lon="121.6205790372136">
        <ele>3.670004299716517</ele>
        <time>2019-05-29T22:47:47Z</time>
      </trkpt>
      <trkpt lat="31.198256505908113" lon="121.62083975338142">
        <ele>3.741587160976575</ele>
        <time>2019-05-29T22:48:02Z</time>
      </trkpt>
      <trkpt lat="31.19810102500308" lon="121.6209511428753">
        <ele>3.476293522393707</ele>
        <time>2019-05-29T22:48:11Z</time>
      </trkpt>
      <trkpt lat="31.197862433908888" lon="121.62119288350571">
        <ele>3.26335582170222</ele>
        <time>2019-05-29T22:48:26Z</time>
      </trkpt>
      <trkpt lat="31.197674093757968" lon="121.62135034166012">
        <ele>3.416186272070611</ele>
        <time>2019-05-29T22:48:37Z</time>
      </trkpt>
      <trkpt lat="31.197507414658983" lon="121.62153381144617">
        <ele>3.610317194100981</ele>
        <time>2019-05-29T22:48:47Z</time>
      </trkpt>
      <trkpt lat="31.197220552952185" lon="121.6217793444695">
        <ele>4.110778333016729</ele>
        <time>2019-05-29T22:49:02Z</time>
      </trkpt>
      <trkpt lat="31.19696245113281" lon="121.62200563341838">
        <ele>4.241474783642095</ele>
        <time>2019-05-29T22:49:16Z</time>
      </trkpt>
      <trkpt lat="31.196723642022825" lon="121.62219316930111">
        <ele>4.552456173137738</ele>
        <time>2019-05-29T22:49:28Z</time>
      </trkpt>
      <trkpt lat="31.196647643001295" lon="121.62226525513721">
        <ele>4.788990085856966</ele>
        <time>2019-05-29T22:49:32Z</time>
      </trkpt>
      <trkpt lat="31.196615819183318" lon="121.6223544085212">
        <ele>5.310589415016949</ele>
        <time>2019-05-29T22:49:36Z</time>
      </trkpt>
      <trkpt lat="31.1966948782032" lon="121.62268986628915">
        <ele>4.874381399336073</ele>
        <time>2019-05-29T22:49:57Z</time>
      </trkpt>
      <trkpt lat="31.19676903494751" lon="121.62304103642596">
        <ele>3.8926391774824936</ele>
        <time>2019-05-29T22:50:16Z</time>
      </trkpt>
      <trkpt lat="31.19683320868396" lon="121.62334695181312">
        <ele>2.571462984685253</ele>
        <time>2019-05-29T22:50:28Z</time>
      </trkpt>
      <trkpt lat="31.196876437561173" lon="121.62370759968978">
        <ele>2.721329041155016</ele>
        <time>2019-05-29T22:50:41Z</time>
      </trkpt>
      <trkpt lat="31.196929223272843" lon="121.62400836038942">
        <ele>2.564211058065897</ele>
        <time>2019-05-29T22:50:53Z</time>
      </trkpt>
      <trkpt lat="31.196944615383156" lon="121.62360300290207">
        <ele>3.61077196182897</ele>
        <time>2019-05-29T22:51:11Z</time>
      </trkpt>
      <trkpt lat="31.196935626183535" lon="121.62340763932909">
        <ele>3.6837539266194135</ele>
        <time>2019-05-29T22:51:18Z</time>
      </trkpt>
      <trkpt lat="31.19684864383177" lon="121.6231309909297">
        <ele>3.674703238867071</ele>
        <time>2019-05-29T22:51:29Z</time>
      </trkpt>
      <trkpt lat="31.19680610710889" lon="121.62286978129777">
        <ele>3.732977294164982</ele>
        <time>2019-05-29T22:51:40Z</time>
      </trkpt>
      <trkpt lat="31.196832235197103" lon="121.62278361075987">
        <ele>3.3249087459538487</ele>
        <time>2019-05-29T22:51:44Z</time>
      </trkpt>
      <trkpt lat="31.196973328360016" lon="121.62269336586694">
        <ele>3.4743055524000432</ele>
        <time>2019-05-29T22:51:51Z</time>
      </trkpt>
      <trkpt lat="31.19714895562005" lon="121.62251532275337">
        <ele>4.073709781023192</ele>
        <time>2019-05-29T22:52:02Z</time>
      </trkpt>
      <trkpt lat="31.197411336036673" lon="121.62234485857381">
        <ele>4.228068409526111</ele>
        <time>2019-05-29T22:52:16Z</time>
      </trkpt>
      <trkpt lat="31.19766645647746" lon="121.6221199276259">
        <ele>5.35481056699135</ele>
        <time>2019-05-29T22:52:31Z</time>
      </trkpt>
      <trkpt lat="31.197777988394023" lon="121.62203483153263">
        <ele>5.528932355941681</ele>
        <time>2019-05-29T22:52:37Z</time>
      </trkpt>
      <trkpt lat="31.197886865922378" lon="121.62189879136983">
        <ele>6.2702062200410325</ele>
        <time>2019-05-29T22:52:48Z</time>
      </trkpt>
      <trkpt lat="31.19814050653268" lon="121.62178224911938">
        <ele>6.695144823703245</ele>
        <time>2019-05-29T22:53:07Z</time>
      </trkpt>
      <trkpt lat="31.19835816161406" lon="121.62159769290587">
        <ele>5.807374416887136</ele>
        <time>2019-05-29T22:53:25Z</time>
      </trkpt>
      <trkpt lat="31.19851079792848" lon="121.6213638216502">
        <ele>6.785838017928047</ele>
        <time>2019-05-29T22:53:36Z</time>
      </trkpt>
      <trkpt lat="31.1987124809549" lon="121.6211543330804">
        <ele>6.726760781552631</ele>
        <time>2019-05-29T22:53:47Z</time>
      </trkpt>
      <trkpt lat="31.19888531112823" lon="121.62104673684236">
        <ele>6.720708492771987</ele>
        <time>2019-05-29T22:53:55Z</time>
      </trkpt>
      <trkpt lat="31.19913825958204" lon="121.62081583329169">
        <ele>6.671341105284892</ele>
        <time>2019-05-29T22:54:09Z</time>
      </trkpt>
      <trkpt lat="31.19919929827166" lon="121.62078493534175">
        <ele>6.752984493822321</ele>
        <time>2019-05-29T22:54:12Z</time>
      </trkpt>
      <trkpt lat="31.1992500056412" lon="121.62078005331621">
        <ele>6.795957562646226</ele>
        <time>2019-05-29T22:54:16Z</time>
      </trkpt>
      <trkpt lat="31.19941600431582" lon="121.62072042159046">
        <ele>7.3704107513445365</ele>
        <time>2019-05-29T22:54:23Z</time>
      </trkpt>
      <trkpt lat="31.199718300464838" lon="121.62073746901332">
        <ele>7.57231042793979</ele>
        <time>2019-05-29T22:54:37Z</time>
      </trkpt>
      <trkpt lat="31.199926504860215" lon="121.62076211195262">
        <ele>7.398928861766056</ele>
        <time>2019-05-29T22:54:47Z</time>
      </trkpt>
      <trkpt lat="31.1999891010367" lon="121.62079516762141">
        <ele>7.239939708392221</ele>
        <time>2019-05-29T22:54:50Z</time>
      </trkpt>
      <trkpt lat="31.20028409106535" lon="121.62079893707529">
        <ele>7.0177753127209</ele>
        <time>2019-05-29T22:55:02Z</time>
      </trkpt>
      <trkpt lat="31.20049718210351" lon="121.6208178887589">
        <ele>6.8086170807826</ele>
        <time>2019-05-29T22:55:11Z</time>
      </trkpt>
      <trkpt lat="31.200801046950165" lon="121.6208885919474">
        <ele>6.52563107739503</ele>
        <time>2019-05-29T22:55:26Z</time>
      </trkpt>
      <trkpt lat="31.200801046950165" lon="121.6208885919474">
        <ele>6.52563107739503</ele>
        <time>2019-05-29T22:55:30Z</time>
      </trkpt>
      <trkpt lat="31.20160967587584" lon="121.6210402786638">
        <ele>5.790529507635931</ele>
        <time>2019-05-29T22:56:28Z</time>
      </trkpt>
      <trkpt lat="31.201938210764997" lon="121.6211136890794">
        <ele>6.132907363888471</ele>
        <time>2019-05-29T22:56:44Z</time>
      </trkpt>
      <trkpt lat="31.20222286216475" lon="121.62115024875324">
        <ele>5.923397963504293</ele>
        <time>2019-05-29T22:56:55Z</time>
      </trkpt>
      <trkpt lat="31.202437847695776" lon="121.62117245186165">
        <ele>6.017155817025131</ele>
        <time>2019-05-29T22:57:05Z</time>
      </trkpt>
      <trkpt lat="31.20248558169955" lon="121.62115944055633">
        <ele>5.797237623502234</ele>
        <time>2019-05-29T22:57:11Z</time>
      </trkpt>
      <trkpt lat="31.20245577144203" lon="121.62089793963257">
        <ele>6.458866047557205</ele>
        <time>2019-05-29T22:57:26Z</time>
      </trkpt>
      <trkpt lat="31.202412858901326" lon="121.62071556673705">
        <ele>6.131307844436538</ele>
        <time>2019-05-29T22:57:33Z</time>
      </trkpt>
      <trkpt lat="31.2024034251935" lon="121.62041178460596">
        <ele>5.733279404839305</ele>
        <time>2019-05-29T22:57:43Z</time>
      </trkpt>
      <trkpt lat="31.20241977943545" lon="121.62033129780163">
        <ele>6.130627248121328</ele>
        <time>2019-05-29T22:57:47Z</time>
      </trkpt>
      <trkpt lat="31.202457429785397" lon="121.62036625304367">
        <ele>6.005211217823138</ele>
        <time>2019-05-29T22:57:57Z</time>
      </trkpt>
      <trkpt lat="31.202457429785397" lon="121.62036625304367">
        <ele>6.005211217823138</ele>
        <time>2019-05-29T22:58:02Z</time>
      </trkpt>
      <trkpt lat="31.202457429785397" lon="121.62036625304367">
        <ele>6.500675969822524</ele>
        <time>2019-05-29T22:58:06Z</time>
      </trkpt>
      <trkpt lat="31.202457429785397" lon="121.62036625304367">
        <ele>6.500675969822524</ele>
        <time>2019-05-29T22:58:14Z</time>
      </trkpt>
      <trkpt lat="31.202518411045858" lon="121.62038874055906">
        <ele>5.875637561986249</ele>
        <time>2019-05-29T22:58:34Z</time>
      </trkpt>
      <trkpt lat="31.20272097578144" lon="121.6203635212853">
        <ele>6.357465740507923</ele>
        <time>2019-05-29T22:58:43Z</time>
      </trkpt>
      <trkpt lat="31.20286690721282" lon="121.62030660022438">
        <ele>6.096606000685139</ele>
        <time>2019-05-29T22:58:50Z</time>
      </trkpt>
      <trkpt lat="31.202905199130537" lon="121.62024860396232">
        <ele>6.196123965885725</ele>
        <time>2019-05-29T22:58:53Z</time>
      </trkpt>
      <trkpt lat="31.202807579320098" lon="121.62000390143766">
        <ele>5.871949856741104</ele>
        <time>2019-05-29T22:59:07Z</time>
      </trkpt>
      <trkpt lat="31.202745604737483" lon="121.61963642980854">
        <ele>5.413608398870959</ele>
        <time>2019-05-29T22:59:30Z</time>
      </trkpt>
      <trkpt lat="31.202678028548878" lon="121.61943724779412">
        <ele>5.0744036350071156</ele>
        <time>2019-05-29T22:59:43Z</time>
      </trkpt>
      <trkpt lat="31.20258380623134" lon="121.6190459219525">
        <ele>4.66583332939301</ele>
        <time>2019-05-29T23:00:01Z</time>
      </trkpt>
      <trkpt lat="31.202517368145898" lon="121.61879009389769">
        <ele>4.479106440549135</ele>
        <time>2019-05-29T23:00:11Z</time>
      </trkpt>
      <trkpt lat="31.202520965235156" lon="121.61871881747939">
        <ele>4.580438238169197</ele>
        <time>2019-05-29T23:00:14Z</time>
      </trkpt>
      <trkpt lat="31.20276163498181" lon="121.61854751724753">
        <ele>4.424145390102204</ele>
        <time>2019-05-29T23:00:29Z</time>
      </trkpt>
      <trkpt lat="31.20282744912023" lon="121.61834885769798">
        <ele>4.189231813742001</ele>
        <time>2019-05-29T23:00:36Z</time>
      </trkpt>
      <trkpt lat="31.202811819683873" lon="121.61825237703266">
        <ele>4.612454019052137</ele>
        <time>2019-05-29T23:00:40Z</time>
      </trkpt>
      <trkpt lat="31.202769313063172" lon="121.61819058853874">
        <ele>4.401884281191993</ele>
        <time>2019-05-29T23:00:43Z</time>
      </trkpt>
      <trkpt lat="31.202746890470443" lon="121.61810847182862">
        <ele>4.5888282948738635</ele>
        <time>2019-05-29T23:00:47Z</time>
      </trkpt>
      <trkpt lat="31.202658091565254" lon="121.61797378246422">
        <ele>4.651827099260785</ele>
        <time>2019-05-29T23:00:55Z</time>
      </trkpt>
      <trkpt lat="31.20252147480925" lon="121.61766184749135">
        <ele>4.843283542194968</ele>
        <time>2019-05-29T23:01:12Z</time>
      </trkpt>
      <trkpt lat="31.20242300418571" lon="121.61743311062271">
        <ele>4.870874194864971</ele>
        <time>2019-05-29T23:01:27Z</time>
      </trkpt>
      <trkpt lat="31.20241439105365" lon="121.61736779394816">
        <ele>4.570649545261389</ele>
        <time>2019-05-29T23:01:31Z</time>
      </trkpt>
      <trkpt lat="31.20245868378379" lon="121.61726642603179">
        <ele>4.1248698304853235</ele>
        <time>2019-05-29T23:01:38Z</time>
      </trkpt>
      <trkpt lat="31.20256096207797" lon="121.61720353900313">
        <ele>4.538814149127553</ele>
        <time>2019-05-29T23:01:45Z</time>
      </trkpt>
      <trkpt lat="31.20274358120114" lon="121.6170517473845">
        <ele>4.354589969782754</ele>
        <time>2019-05-29T23:02:00Z</time>
      </trkpt>
      <trkpt lat="31.202817682171027" lon="121.61696663758828">
        <ele>3.992645517850802</ele>
        <time>2019-05-29T23:02:08Z</time>
      </trkpt>
      <trkpt lat="31.202970415879726" lon="121.616877455511">
        <ele>4.058864332492627</ele>
        <time>2019-05-29T23:02:22Z</time>
      </trkpt>
      <trkpt lat="31.203146803586346" lon="121.61671888655384">
        <ele>4.286554583026659</ele>
        <time>2019-05-29T23:02:40Z</time>
      </trkpt>
      <trkpt lat="31.20330090521026" lon="121.6166158806792">
        <ele>3.965717056376999</ele>
        <time>2019-05-29T23:02:55Z</time>
      </trkpt>
      <trkpt lat="31.20340566673872" lon="121.61650556047387">
        <ele>3.8982734246417383</ele>
        <time>2019-05-29T23:03:06Z</time>
      </trkpt>
      <trkpt lat="31.203641953592037" lon="121.61636812512245">
        <ele>3.4839204493914906</ele>
        <time>2019-05-29T23:03:27Z</time>
      </trkpt>
      <trkpt lat="31.203724719053863" lon="121.61629358275279">
        <ele>3.332766776571164</ele>
        <time>2019-05-29T23:03:35Z</time>
      </trkpt>
      <trkpt lat="31.203848134778205" lon="121.61624044890522">
        <ele>3.2913459403371803</ele>
        <time>2019-05-29T23:03:46Z</time>
      </trkpt>
      <trkpt lat="31.20394152916587" lon="121.6161062763724">
        <ele>3.5640007873510164</ele>
        <time>2019-05-29T23:03:57Z</time>
      </trkpt>
      <trkpt lat="31.203990645537253" lon="121.61606182158441">
        <ele>3.2899812266223556</ele>
        <time>2019-05-29T23:04:01Z</time>
      </trkpt>
      <trkpt lat="31.204069850133983" lon="121.61602576651943">
        <ele>3.3726349170939223</ele>
        <time>2019-05-29T23:04:08Z</time>
      </trkpt>
      <trkpt lat="31.20414629757011" lon="121.61603958331679">
        <ele>3.3444448673218634</ele>
        <time>2019-05-29T23:04:15Z</time>
      </trkpt>
      <trkpt lat="31.204257203082673" lon="121.61602737727272">
        <ele>3.357549625116974</ele>
        <time>2019-05-29T23:04:29Z</time>
      </trkpt>
      <trkpt lat="31.204371798041354" lon="121.61613090547976">
        <ele>3.7150483947689565</ele>
        <time>2019-05-29T23:04:41Z</time>
      </trkpt>
      <trkpt lat="31.20445283923884" lon="121.61616152633206">
        <ele>3.7208745519870945</ele>
        <time>2019-05-29T23:04:48Z</time>
      </trkpt>
      <trkpt lat="31.204620767617357" lon="121.61635096876753">
        <ele>3.1547591070423913</ele>
        <time>2019-05-29T23:05:07Z</time>
      </trkpt>
      <trkpt lat="31.204648223249944" lon="121.61627453364923">
        <ele>4.199659256765582</ele>
        <time>2019-05-29T23:05:14Z</time>
      </trkpt>
      <trkpt lat="31.204427419471738" lon="121.61608888956752">
        <ele>5.176330924755476</ele>
        <time>2019-05-29T23:05:33Z</time>
      </trkpt>
      <trkpt lat="31.20430553374113" lon="121.61595256566794">
        <ele>5.9303624940818835</ele>
        <time>2019-05-29T23:05:45Z</time>
      </trkpt>
      <trkpt lat="31.204274676864575" lon="121.61589510714825">
        <ele>6.461656324564508</ele>
        <time>2019-05-29T23:05:49Z</time>
      </trkpt>
      <trkpt lat="31.204056604557955" lon="121.61568452377269">
        <ele>8.80126599680857</ele>
        <time>2019-05-29T23:06:12Z</time>
      </trkpt>
      <trkpt lat="31.203869122656638" lon="121.61552543506725">
        <ele>7.96801783160387</ele>
        <time>2019-05-29T23:06:30Z</time>
      </trkpt>
      <trkpt lat="31.203678695878494" lon="121.61532324872219">
        <ele>6.430334685625763</ele>
        <time>2019-05-29T23:06:52Z</time>
      </trkpt>
      <trkpt lat="31.203626381312944" lon="121.61530699007217">
        <ele>5.890139864728855</ele>
        <time>2019-05-29T23:06:58Z</time>
      </trkpt>
      <trkpt lat="31.203663354347317" lon="121.61519612743062">
        <ele>5.859883184952576</ele>
        <time>2019-05-29T23:07:05Z</time>
      </trkpt>
      <trkpt lat="31.203837060343318" lon="121.61499309504525">
        <ele>6.092130166596942</ele>
        <time>2019-05-29T23:07:17Z</time>
      </trkpt>
      <trkpt lat="31.203909298679214" lon="121.61486054367016">
        <ele>6.18745362906072</ele>
        <time>2019-05-29T23:07:23Z</time>
      </trkpt>
      <trkpt lat="31.204120159500683" lon="121.61464395251579">
        <ele>6.874128937982206</ele>
        <time>2019-05-29T23:07:37Z</time>
      </trkpt>
      <trkpt lat="31.204336434813257" lon="121.6144349486198">
        <ele>7.383116838959911</ele>
        <time>2019-05-29T23:07:52Z</time>
      </trkpt>
      <trkpt lat="31.20457145012761" lon="121.61418690838873">
        <ele>7.225819366408459</ele>
        <time>2019-05-29T23:08:12Z</time>
      </trkpt>
      <trkpt lat="31.204802389108014" lon="121.61394726892544">
        <ele>7.589136019852003</ele>
        <time>2019-05-29T23:08:26Z</time>
      </trkpt>
      <trkpt lat="31.205076195631488" lon="121.61367130036854">
        <ele>8.531791494511822</ele>
        <time>2019-05-29T23:08:41Z</time>
      </trkpt>
      <trkpt lat="31.205338577595096" lon="121.61343680342799">
        <ele>8.875378999394925</ele>
        <time>2019-05-29T23:08:56Z</time>
      </trkpt>
      <trkpt lat="31.205507374264233" lon="121.61325327368968">
        <ele>9.193939961412944</ele>
        <time>2019-05-29T23:09:06Z</time>
      </trkpt>
      <trkpt lat="31.205580354129467" lon="121.613198781896">
        <ele>9.287155051559484</ele>
        <time>2019-05-29T23:09:10Z</time>
      </trkpt>
      <trkpt lat="31.205617814249166" lon="121.61314537721039">
        <ele>9.602223258465003</ele>
        <time>2019-05-29T23:09:17Z</time>
      </trkpt>
      <trkpt lat="31.205603172709118" lon="121.61314564949546">
        <ele>9.85242612536019</ele>
        <time>2019-05-29T23:09:47Z</time>
      </trkpt>
      <trkpt lat="31.205603172709118" lon="121.61314564949546">
        <ele>10.48070601815251</ele>
        <time>2019-05-29T23:09:58Z</time>
      </trkpt>
      <trkpt lat="31.20556767133189" lon="121.61312423754718">
        <ele>10.64637816146886</ele>
        <time>2019-05-29T23:10:12Z</time>
      </trkpt>
      <trkpt lat="31.205518652876766" lon="121.6130537620974">
        <ele>10.23905798329529</ele>
        <time>2019-05-29T23:10:26Z</time>
      </trkpt>
      <trkpt lat="31.20529055551452" lon="121.612806558868">
        <ele>9.556868947651026</ele>
        <time>2019-05-29T23:10:42Z</time>
      </trkpt>
      <trkpt lat="31.20520521465396" lon="121.61272280258304">
        <ele>9.281834406656248</ele>
        <time>2019-05-29T23:10:50Z</time>
      </trkpt>
      <trkpt lat="31.20517192724201" lon="121.61264446329696">
        <ele>9.062543868138377</ele>
        <time>2019-05-29T23:10:56Z</time>
      </trkpt>
      <trkpt lat="31.20516048118735" lon="121.61271792685466">
        <ele>9.143151895913046</ele>
        <time>2019-05-29T23:11:07Z</time>
      </trkpt>
      <trkpt lat="31.20523582985557" lon="121.61275180551458">
        <ele>9.401870007449173</ele>
        <time>2019-05-29T23:11:14Z</time>
      </trkpt>
      <trkpt lat="31.205317107499106" lon="121.61283068262769">
        <ele>9.354793234349739</ele>
        <time>2019-05-29T23:11:24Z</time>
      </trkpt>
      <trkpt lat="31.205447826882043" lon="121.61279055223913">
        <ele>9.284121170589348</ele>
        <time>2019-05-29T23:11:31Z</time>
      </trkpt>
      <trkpt lat="31.205494220041064" lon="121.61275422385923">
        <ele>9.317782289488068</ele>
        <time>2019-05-29T23:11:37Z</time>
      </trkpt>
      <trkpt lat="31.20550300881407" lon="121.61261271951923">
        <ele>9.620947674674962</ele>
        <time>2019-05-29T23:11:45Z</time>
      </trkpt>
      <trkpt lat="31.205432324672163" lon="121.6125086302027">
        <ele>9.852678547103675</ele>
        <time>2019-05-29T23:11:52Z</time>
      </trkpt>
      <trkpt lat="31.205220430739544" lon="121.61233786558925">
        <ele>9.437081460176987</ele>
        <time>2019-05-29T23:12:10Z</time>
      </trkpt>
      <trkpt lat="31.205111827410146" lon="121.6121811876323">
        <ele>9.245372567078562</ele>
        <time>2019-05-29T23:12:24Z</time>
      </trkpt>
      <trkpt lat="31.20491454330205" lon="121.61204864271465">
        <ele>9.102905580908477</ele>
        <time>2019-05-29T23:12:42Z</time>
      </trkpt>
      <trkpt lat="31.204777980215752" lon="121.61193262842036">
        <ele>9.011113880205734</ele>
        <time>2019-05-29T23:12:56Z</time>
      </trkpt>
      <trkpt lat="31.204539854032568" lon="121.61166752203398">
        <ele>9.31851202774077</ele>
        <time>2019-05-29T23:13:24Z</time>
      </trkpt>
      <trkpt lat="31.204286539011814" lon="121.61140593807967">
        <ele>9.74903891201635</ele>
        <time>2019-05-29T23:13:52Z</time>
      </trkpt>
      <trkpt lat="31.20419230017069" lon="121.61124952369435">
        <ele>9.298674671740656</ele>
        <time>2019-05-29T23:14:06Z</time>
      </trkpt>
      <trkpt lat="31.204301154214885" lon="121.61107465675192">
        <ele>9.266145353969723</ele>
        <time>2019-05-29T23:14:24Z</time>
      </trkpt>
      <trkpt lat="31.204348366695218" lon="121.61102693944146">
        <ele>9.132613775003211</ele>
        <time>2019-05-29T23:14:28Z</time>
      </trkpt>
      <trkpt lat="31.20450216430593" lon="121.61093936152128">
        <ele>9.273861754228854</ele>
        <time>2019-05-29T23:14:39Z</time>
      </trkpt>
      <trkpt lat="31.204543136298504" lon="121.61089733756015">
        <ele>9.377125787615263</ele>
        <time>2019-05-29T23:14:43Z</time>
      </trkpt>
      <trkpt lat="31.204565413636242" lon="121.61083633797338">
        <ele>9.202391821790236</ele>
        <time>2019-05-29T23:14:47Z</time>
      </trkpt>
      <trkpt lat="31.20463756250118" lon="121.61079919107969">
        <ele>9.515020053609824</ele>
        <time>2019-05-29T23:14:54Z</time>
      </trkpt>
      <trkpt lat="31.204609419174567" lon="121.61072328474964">
        <ele>9.41725383629434</ele>
        <time>2019-05-29T23:15:01Z</time>
      </trkpt>
      <trkpt lat="31.204422750954933" lon="121.61052214101633">
        <ele>9.330348361714574</ele>
        <time>2019-05-29T23:15:23Z</time>
      </trkpt>
      <trkpt lat="31.20446530258478" lon="121.61054545253353">
        <ele>10.68228980188126</ele>
        <time>2019-05-29T23:15:45Z</time>
      </trkpt>
      <trkpt lat="31.204420019512003" lon="121.61055033616492">
        <ele>12.542574307098434</ele>
        <time>2019-05-29T23:15:56Z</time>
      </trkpt>
      <trkpt lat="31.204394047431176" lon="121.61047036223783">
        <ele>13.840302561470867</ele>
        <time>2019-05-29T23:16:02Z</time>
      </trkpt>
      <trkpt lat="31.204413885270032" lon="121.61040692174893">
        <ele>17.58936046188588</ele>
        <time>2019-05-29T23:16:20Z</time>
      </trkpt>
      <trkpt lat="31.20447188748917" lon="121.6104361964449">
        <ele>20.135991320632844</ele>
        <time>2019-05-29T23:16:34Z</time>
      </trkpt>
      <trkpt lat="31.204439577546932" lon="121.6104993667775">
        <ele>22.212154797164573</ele>
        <time>2019-05-29T23:16:45Z</time>
      </trkpt>
      <trkpt lat="31.204309917696072" lon="121.61057962457262">
        <ele>23.451471426534177</ele>
        <time>2019-05-29T23:16:58Z</time>
      </trkpt>
      <trkpt lat="31.204309917696072" lon="121.61057962457262">
        <ele>23.451471426534177</ele>
        <time>2019-05-29T23:17:11Z</time>
      </trkpt>
      <trkpt lat="31.204292032253406" lon="121.61056634192629">
        <ele>23.51908307323024</ele>
        <time>2019-05-29T23:17:14Z</time>
      </trkpt>
      <trkpt lat="31.20423776683697" lon="121.6106200250732">
        <ele>23.659980749154826</ele>
        <time>2019-05-29T23:17:21Z</time>
      </trkpt>
      <trkpt lat="31.2042588977158" lon="121.61064469377958">
        <ele>23.5408630722336</ele>
        <time>2019-05-29T23:17:31Z</time>
      </trkpt>
    </trkseg>
  </trk>
</gpx>