<?xml version="1.0" encoding="UTF-8"?>
<gpx xmlns="http://www.topografix.com/GPX/1/1" xmlns:gpxtpx="http://www.garmin.com/xmlschemas/TrackPointExtension/v1" xmlns:xsi="http://www.w3.org/2001/XMLSchema-instance" xsi:schemaLocation="http://www.topografix.com/GPX/1/1 http://www.topografix.com/GPX/1/1/gpx.xsd" version="1.1" creator="gpx.py -- https://github.com/tkrajina/gpxpy">
  <trk>
    <name>gpx from keep</name>
    <type>Run</type>
    <trkseg>
      <trkpt lat="31.204445026637963" lon="121.61046222484771">
        <ele>8.74445864685002</ele>
        <time>2020-05-10T22:55:36Z</time>
      </trkpt>
      <trkpt lat="31.20454040725718" lon="121.61054517521991">
        <ele>8.670468663909087</ele>
        <time>2020-05-10T22:55:40Z</time>
      </trkpt>
      <trkpt lat="31.204578852887433" lon="121.61062297902058">
        <ele>8.449296914593543</ele>
        <time>2020-05-10T22:55:44Z</time>
      </trkpt>
      <trkpt lat="31.20462194456492" lon="121.61064927253028">
        <ele>8.368802559562027</ele>
        <time>2020-05-10T22:55:48Z</time>
      </trkpt>
      <trkpt lat="31.20464115234632" lon="121.61070891367352">
        <ele>8.420708547346294</ele>
        <time>2020-05-10T22:55:51Z</time>
      </trkpt>
      <trkpt lat="31.204684245305586" lon="121.6107333093651">
        <ele>8.503376044332981</ele>
        <time>2020-05-10T22:55:55Z</time>
      </trkpt>
      <trkpt lat="31.20488987499588" lon="121.61058120325582">
        <ele>8.54181828442961</ele>
        <time>2020-05-10T22:56:06Z</time>
      </trkpt>
      <trkpt lat="31.2048977941528" lon="121.61050231105786">
        <ele>8.39087226986885</ele>
        <time>2020-05-10T22:56:09Z</time>
      </trkpt>
      <trkpt lat="31.20518316976506" lon="121.61030275299274">
        <ele>10.051953649500863</ele>
        <time>2020-05-10T22:56:20Z</time>
      </trkpt>
      <trkpt lat="31.205241488850543" lon="121.61026723302015">
        <ele>14.2041392642967</ele>
        <time>2020-05-10T22:56:24Z</time>
      </trkpt>
      <trkpt lat="31.205345325552635" lon="121.6102788820875">
        <ele>17.37200861997018</ele>
        <time>2020-05-10T22:56:27Z</time>
      </trkpt>
      <trkpt lat="31.205419867037236" lon="121.61030842668886">
        <ele>16.04894072934985</ele>
        <time>2020-05-10T22:56:33Z</time>
      </trkpt>
      <trkpt lat="31.20551417230694" lon="121.61037917790395">
        <ele>15.78569870069623</ele>
        <time>2020-05-10T22:56:37Z</time>
      </trkpt>
      <trkpt lat="31.2057058181342" lon="121.61044558315376">
        <ele>29.27396602462977</ele>
        <time>2020-05-10T22:56:41Z</time>
      </trkpt>
      <trkpt lat="31.20576347412655" lon="121.61058031772194">
        <ele>24.68536918051541</ele>
        <time>2020-05-10T22:56:48Z</time>
      </trkpt>
      <trkpt lat="31.20600436492351" lon="121.61078742069974">
        <ele>0.9249737299978733</ele>
        <time>2020-05-10T22:57:05Z</time>
      </trkpt>
      <trkpt lat="31.20608314306165" lon="121.61095603902548">
        <ele>3.2109456062316895</ele>
        <time>2020-05-10T22:57:13Z</time>
      </trkpt>
      <trkpt lat="31.206187500827873" lon="121.61099642426565">
        <ele>3.5348588693886995</ele>
        <time>2020-05-10T22:57:17Z</time>
      </trkpt>
      <trkpt lat="31.20620226981057" lon="121.6111918849808">
        <ele>0.9589679287746549</ele>
        <time>2020-05-10T22:57:24Z</time>
      </trkpt>
      <trkpt lat="31.206338213353412" lon="121.61141634114588">
        <ele>3.3982495265081525</ele>
        <time>2020-05-10T22:57:33Z</time>
      </trkpt>
      <trkpt lat="31.206410819132145" lon="121.61149468134053">
        <ele>5.361623863689601</ele>
        <time>2020-05-10T22:57:37Z</time>
      </trkpt>
      <trkpt lat="31.206513251041628" lon="121.61157112115268">
        <ele>2.8121138233691454</ele>
        <time>2020-05-10T22:57:48Z</time>
      </trkpt>
      <trkpt lat="31.206527838021778" lon="121.61164323050373">
        <ele>2.655184034258127</ele>
        <time>2020-05-10T22:57:52Z</time>
      </trkpt>
      <trkpt lat="31.2063155692896" lon="121.61195933903623">
        <ele>1.7195791695266962</ele>
        <time>2020-05-10T22:58:09Z</time>
      </trkpt>
      <trkpt lat="31.206203478165378" lon="121.61210492219782">
        <ele>2.410061923786998</ele>
        <time>2020-05-10T22:58:16Z</time>
      </trkpt>
      <trkpt lat="31.20611801545127" lon="121.61217595381086">
        <ele>3.3991709956899285</ele>
        <time>2020-05-10T22:58:20Z</time>
      </trkpt>
      <trkpt lat="31.206077808988052" lon="121.61227680077396">
        <ele>14.131197155453265</ele>
        <time>2020-05-10T22:58:24Z</time>
      </trkpt>
      <trkpt lat="31.206011861014574" lon="121.61235623383776">
        <ele>16.157858754508197</ele>
        <time>2020-05-10T22:58:28Z</time>
      </trkpt>
      <trkpt lat="31.205755759238254" lon="121.61254682595525">
        <ele>19.349072257988155</ele>
        <time>2020-05-10T22:58:39Z</time>
      </trkpt>
      <trkpt lat="31.20553625857883" lon="121.61273849780189">
        <ele>18.914969315752387</ele>
        <time>2020-05-10T22:58:46Z</time>
      </trkpt>
      <trkpt lat="31.205461344428304" lon="121.61283961627358">
        <ele>18.251151088625193</ele>
        <time>2020-05-10T22:58:50Z</time>
      </trkpt>
      <trkpt lat="31.20540979501398" lon="121.61288163757341">
        <ele>19.43785001989454</ele>
        <time>2020-05-10T22:58:54Z</time>
      </trkpt>
      <trkpt lat="31.205298997353232" lon="121.61309796551254">
        <ele>23.656887602061033</ele>
        <time>2020-05-10T22:59:02Z</time>
      </trkpt>
      <trkpt lat="31.20511560868454" lon="121.61322240372999">
        <ele>23.653196612372994</ele>
        <time>2020-05-10T22:59:10Z</time>
      </trkpt>
      <trkpt lat="31.204885475888894" lon="121.61347858579235">
        <ele>21.19291157182306</ele>
        <time>2020-05-10T22:59:21Z</time>
      </trkpt>
      <trkpt lat="31.20471608856415" lon="121.61371849598379">
        <ele>26.60627504903823</ele>
        <time>2020-05-10T22:59:32Z</time>
      </trkpt>
      <trkpt lat="31.20447188768329" lon="121.61393238766938">
        <ele>24.55279367417097</ele>
        <time>2020-05-10T22:59:43Z</time>
      </trkpt>
      <trkpt lat="31.204344890258195" lon="121.61405817213836">
        <ele>20.290150187909603</ele>
        <time>2020-05-10T22:59:49Z</time>
      </trkpt>
      <trkpt lat="31.20426133100111" lon="121.61411672877081">
        <ele>20.994755475781858</ele>
        <time>2020-05-10T22:59:53Z</time>
      </trkpt>
      <trkpt lat="31.20419020785252" lon="121.61421756994696">
        <ele>21.09904943406582</ele>
        <time>2020-05-10T22:59:57Z</time>
      </trkpt>
      <trkpt lat="31.203956600223165" lon="121.61440489240046">
        <ele>19.23366705235094</ele>
        <time>2020-05-10T23:00:08Z</time>
      </trkpt>
      <trkpt lat="31.203708011450992" lon="121.61467000807663">
        <ele>13.44526220858097</ele>
        <time>2020-05-10T23:00:21Z</time>
      </trkpt>
      <trkpt lat="31.20354172164141" lon="121.61476651788975">
        <ele>9.23276910930872</ele>
        <time>2020-05-10T23:00:28Z</time>
      </trkpt>
      <trkpt lat="31.203451911054174" lon="121.61484079449232">
        <ele>7.708711865358055</ele>
        <time>2020-05-10T23:00:32Z</time>
      </trkpt>
      <trkpt lat="31.203363056918516" lon="121.61506035535602">
        <ele>11.7588458256796</ele>
        <time>2020-05-10T23:00:47Z</time>
      </trkpt>
      <trkpt lat="31.203387944307085" lon="121.61512486370206">
        <ele>11.68522607628256</ele>
        <time>2020-05-10T23:00:51Z</time>
      </trkpt>
      <trkpt lat="31.203495439498145" lon="121.61528856951477">
        <ele>10.013364162296057</ele>
        <time>2020-05-10T23:00:58Z</time>
      </trkpt>
      <trkpt lat="31.203501883836804" lon="121.6153590418556">
        <ele>8.651411318220198</ele>
        <time>2020-05-10T23:01:01Z</time>
      </trkpt>
      <trkpt lat="31.203347205629285" lon="121.61550542072854">
        <ele>6.806562286801636</ele>
        <time>2020-05-10T23:01:09Z</time>
      </trkpt>
      <trkpt lat="31.203252194255914" lon="121.61563200742634">
        <ele>9.321558870375156</ele>
        <time>2020-05-10T23:01:15Z</time>
      </trkpt>
      <trkpt lat="31.20309505863781" lon="121.61579573168802">
        <ele>6.931698773056269</ele>
        <time>2020-05-10T23:01:23Z</time>
      </trkpt>
      <trkpt lat="31.202876609556412" lon="121.61599876103286">
        <ele>1.376784160733223</ele>
        <time>2020-05-10T23:01:34Z</time>
      </trkpt>
      <trkpt lat="31.202765035234965" lon="121.61614865600491">
        <ele>5.052198473364115</ele>
        <time>2020-05-10T23:01:41Z</time>
      </trkpt>
      <trkpt lat="31.202611199763698" lon="121.6162589818792">
        <ele>6.89216878451407</ele>
        <time>2020-05-10T23:01:49Z</time>
      </trkpt>
      <trkpt lat="31.202425260768738" lon="121.61648639798015">
        <ele>4.617906304076314</ele>
        <time>2020-05-10T23:01:59Z</time>
      </trkpt>
      <trkpt lat="31.20220325467489" lon="121.61671842253237">
        <ele>1.7806202927604318</ele>
        <time>2020-05-10T23:02:10Z</time>
      </trkpt>
      <trkpt lat="31.202052382556953" lon="121.61684663375377">
        <ele>1.2805916741490364</ele>
        <time>2020-05-10T23:02:17Z</time>
      </trkpt>
      <trkpt lat="31.201997786173063" lon="121.61695017249603">
        <ele>2.8246974172070622</ele>
        <time>2020-05-10T23:02:21Z</time>
      </trkpt>
      <trkpt lat="31.201874327660583" lon="121.61704694074133">
        <ele>3.7775003919377923</ele>
        <time>2020-05-10T23:02:28Z</time>
      </trkpt>
      <trkpt lat="31.20189190272297" lon="121.6170978929454">
        <ele>7.899081791751087</ele>
        <time>2020-05-10T23:02:39Z</time>
      </trkpt>
      <trkpt lat="31.20183062472317" lon="121.61709952419298">
        <ele>8.141535615548491</ele>
        <time>2020-05-10T23:02:46Z</time>
      </trkpt>
      <trkpt lat="31.201772833074116" lon="121.61714126752696">
        <ele>11.826416545547545</ele>
        <time>2020-05-10T23:03:00Z</time>
      </trkpt>
      <trkpt lat="31.20173616645333" lon="121.61720740163055">
        <ele>12.254489181563258</ele>
        <time>2020-05-10T23:03:04Z</time>
      </trkpt>
      <trkpt lat="31.20152744668266" lon="121.61743264265196">
        <ele>13.03423946350813</ele>
        <time>2020-05-10T23:03:14Z</time>
      </trkpt>
      <trkpt lat="31.201295719170663" lon="121.61761641687406">
        <ele>11.740499869920313</ele>
        <time>2020-05-10T23:03:25Z</time>
      </trkpt>
      <trkpt lat="31.20106524358342" lon="121.61790453294917">
        <ele>12.172802624292672</ele>
        <time>2020-05-10T23:03:38Z</time>
      </trkpt>
      <trkpt lat="31.20087817386785" lon="121.61816526929204">
        <ele>9.884539919905365</ele>
        <time>2020-05-10T23:03:49Z</time>
      </trkpt>
      <trkpt lat="31.20068759526596" lon="121.61840784518049">
        <ele>8.001888734288514</ele>
        <time>2020-05-10T23:04:00Z</time>
      </trkpt>
      <trkpt lat="31.20047073624586" lon="121.61862901087399">
        <ele>5.833748162724078</ele>
        <time>2020-05-10T23:04:11Z</time>
      </trkpt>
      <trkpt lat="31.200238071024124" lon="121.6189274139168">
        <ele>6.390897610224783</ele>
        <time>2020-05-10T23:04:24Z</time>
      </trkpt>
      <trkpt lat="31.20004315463929" lon="121.61916347868075">
        <ele>5.20803230907768</ele>
        <time>2020-05-10T23:04:35Z</time>
      </trkpt>
      <trkpt lat="31.199816771294042" lon="121.61941255210063">
        <ele>5.167561427690089</ele>
        <time>2020-05-10T23:04:48Z</time>
      </trkpt>
      <trkpt lat="31.199707399130993" lon="121.61951364576734">
        <ele>4.978926337324083</ele>
        <time>2020-05-10T23:04:54Z</time>
      </trkpt>
      <trkpt lat="31.19964846410019" lon="121.61960850179895">
        <ele>7.9207317885011435</ele>
        <time>2020-05-10T23:04:58Z</time>
      </trkpt>
      <trkpt lat="31.199369183598872" lon="121.61987871327926">
        <ele>9.340909981168807</ele>
        <time>2020-05-10T23:05:13Z</time>
      </trkpt>
      <trkpt lat="31.199305682768717" lon="121.61993129247115">
        <ele>9.587606347166002</ele>
        <time>2020-05-10T23:05:16Z</time>
      </trkpt>
      <trkpt lat="31.199219417180196" lon="121.61997384648011">
        <ele>9.291099510155618</ele>
        <time>2020-05-10T23:05:20Z</time>
      </trkpt>
      <trkpt lat="31.19918080855637" lon="121.6200754740837">
        <ele>12.0006819749251</ele>
        <time>2020-05-10T23:05:24Z</time>
      </trkpt>
      <trkpt lat="31.198960242946004" lon="121.62020123505025">
        <ele>11.187356377020478</ele>
        <time>2020-05-10T23:05:34Z</time>
      </trkpt>
      <trkpt lat="31.198810142125538" lon="121.62035463107894">
        <ele>10.230793214403093</ele>
        <time>2020-05-10T23:05:41Z</time>
      </trkpt>
      <trkpt lat="31.198705149709763" lon="121.62041398759828">
        <ele>9.093719327822328</ele>
        <time>2020-05-10T23:05:45Z</time>
      </trkpt>
      <trkpt lat="31.198453573887814" lon="121.62063215795878">
        <ele>8.051087197847664</ele>
        <time>2020-05-10T23:05:56Z</time>
      </trkpt>
      <trkpt lat="31.198355604634834" lon="121.62071536050419">
        <ele>5.844438038766384</ele>
        <time>2020-05-10T23:06:00Z</time>
      </trkpt>
      <trkpt lat="31.198117811370633" lon="121.62097309156883">
        <ele>9.311013505794108</ele>
        <time>2020-05-10T23:06:14Z</time>
      </trkpt>
      <trkpt lat="31.197990803190542" lon="121.62108068431714">
        <ele>8.643299556337297</ele>
        <time>2020-05-10T23:06:21Z</time>
      </trkpt>
      <trkpt lat="31.197922117553457" lon="121.62116171512423">
        <ele>6.77421413268894</ele>
        <time>2020-05-10T23:06:25Z</time>
      </trkpt>
      <trkpt lat="31.19783718601559" lon="121.62122242308487">
        <ele>7.7687499364838</ele>
        <time>2020-05-10T23:06:29Z</time>
      </trkpt>
      <trkpt lat="31.19778180704938" lon="121.6212839414164">
        <ele>7.916132770478725</ele>
        <time>2020-05-10T23:06:32Z</time>
      </trkpt>
      <trkpt lat="31.197563354392866" lon="121.62145603463844">
        <ele>4.702525637112558</ele>
        <time>2020-05-10T23:06:42Z</time>
      </trkpt>
      <trkpt lat="31.19729004606306" lon="121.62170509001315">
        <ele>3.2896903483197093</ele>
        <time>2020-05-10T23:06:56Z</time>
      </trkpt>
      <trkpt lat="31.19699312793092" lon="121.62197121665146">
        <ele>7.18548025842756</ele>
        <time>2020-05-10T23:07:11Z</time>
      </trkpt>
      <trkpt lat="31.19678309377562" lon="121.62212813003747">
        <ele>7.1757021294906735</ele>
        <time>2020-05-10T23:07:21Z</time>
      </trkpt>
      <trkpt lat="31.196669326619784" lon="121.62227148577554">
        <ele>7.4109301175922155</ele>
        <time>2020-05-10T23:07:28Z</time>
      </trkpt>
      <trkpt lat="31.19668708416769" lon="121.62239233902292">
        <ele>6.6841476280242205</ele>
        <time>2020-05-10T23:07:32Z</time>
      </trkpt>
      <trkpt lat="31.196680454064577" lon="121.6225001870445">
        <ele>3.751568933017552</ele>
        <time>2020-05-10T23:07:36Z</time>
      </trkpt>
      <trkpt lat="31.196697476365294" lon="121.6225519414304">
        <ele>6.135403325781226</ele>
        <time>2020-05-10T23:07:39Z</time>
      </trkpt>
      <trkpt lat="31.196687633706354" lon="121.62262347888685">
        <ele>1.6713478323072195</ele>
        <time>2020-05-10T23:07:43Z</time>
      </trkpt>
      <trkpt lat="31.196725087831304" lon="121.62282670385012">
        <ele>2.078661033883691</ele>
        <time>2020-05-10T23:07:57Z</time>
      </trkpt>
      <trkpt lat="31.196751581122" lon="121.62289417303714">
        <ele>1.7024486009031534</ele>
        <time>2020-05-10T23:08:01Z</time>
      </trkpt>
      <trkpt lat="31.196783027614426" lon="121.62313262216105">
        <ele>1.1647029761224985</ele>
        <time>2020-05-10T23:08:15Z</time>
      </trkpt>
      <trkpt lat="31.196750957276862" lon="121.6231984696404">
        <ele>-1.9974866416305304</ele>
        <time>2020-05-10T23:08:19Z</time>
      </trkpt>
      <trkpt lat="31.19686526594788" lon="121.62352415940715">
        <ele>-0.6543410113081336</ele>
        <time>2020-05-10T23:08:36Z</time>
      </trkpt>
      <trkpt lat="31.196933627877357" lon="121.62372358164986">
        <ele>-1.984918724745512</ele>
        <time>2020-05-10T23:08:44Z</time>
      </trkpt>
      <trkpt lat="31.196949963042233" lon="121.62389591085417">
        <ele>-3.7423179699108005</ele>
        <time>2020-05-10T23:08:55Z</time>
      </trkpt>
      <trkpt lat="31.196954127988196" lon="121.62381326784534">
        <ele>-3.1318767620250583</ele>
        <time>2020-05-10T23:08:58Z</time>
      </trkpt>
      <trkpt lat="31.19690696734148" lon="121.62356940670651">
        <ele>-3.2463824627920985</ele>
        <time>2020-05-10T23:09:06Z</time>
      </trkpt>
      <trkpt lat="31.19690005308029" lon="121.62345424803465">
        <ele>-3.3049102621152997</ele>
        <time>2020-05-10T23:09:10Z</time>
      </trkpt>
      <trkpt lat="31.19684917990467" lon="121.62336889861149">
        <ele>-4.036168779246509</ele>
        <time>2020-05-10T23:09:13Z</time>
      </trkpt>
      <trkpt lat="31.19683327387619" lon="121.62329113305186">
        <ele>-4.4352803574875</ele>
        <time>2020-05-10T23:09:16Z</time>
      </trkpt>
      <trkpt lat="31.196840736228783" lon="121.62316946882854">
        <ele>-4.805362832732499</ele>
        <time>2020-05-10T23:09:20Z</time>
      </trkpt>
      <trkpt lat="31.196786994717876" lon="121.62298494458933">
        <ele>-4.897215456701815</ele>
        <time>2020-05-10T23:09:27Z</time>
      </trkpt>
      <trkpt lat="31.196706600149202" lon="121.62287060244171">
        <ele>-9.361334294080734</ele>
        <time>2020-05-10T23:09:31Z</time>
      </trkpt>
      <trkpt lat="31.196873535016906" lon="121.62270746461836">
        <ele>-8.19839320704341</ele>
        <time>2020-05-10T23:09:41Z</time>
      </trkpt>
      <trkpt lat="31.19698213844367" lon="121.62257657635541">
        <ele>-7.845254065468907</ele>
        <time>2020-05-10T23:09:48Z</time>
      </trkpt>
      <trkpt lat="31.197092022502527" lon="121.62251099189943">
        <ele>-11.559654525481164</ele>
        <time>2020-05-10T23:09:55Z</time>
      </trkpt>
      <trkpt lat="31.197239396608207" lon="121.62238064142342">
        <ele>-13.20347617007792</ele>
        <time>2020-05-10T23:10:02Z</time>
      </trkpt>
      <trkpt lat="31.197362279918924" lon="121.6223280622054">
        <ele>-11.460105072706938</ele>
        <time>2020-05-10T23:10:06Z</time>
      </trkpt>
      <trkpt lat="31.19742826652798" lon="121.62223890590751">
        <ele>-12.049257516860962</ele>
        <time>2020-05-10T23:10:10Z</time>
      </trkpt>
      <trkpt lat="31.197499087949744" lon="121.622189853411">
        <ele>-11.487303354777396</ele>
        <time>2020-05-10T23:10:13Z</time>
      </trkpt>
      <trkpt lat="31.19760677491669" lon="121.62214838511827">
        <ele>-10.654697495512664</ele>
        <time>2020-05-10T23:10:17Z</time>
      </trkpt>
      <trkpt lat="31.197774771996123" lon="121.62200177249888">
        <ele>-9.560608865693212</ele>
        <time>2020-05-10T23:10:24Z</time>
      </trkpt>
      <trkpt lat="31.197839458206552" lon="121.6218624840717">
        <ele>3.9834080217406154</ele>
        <time>2020-05-10T23:10:31Z</time>
      </trkpt>
      <trkpt lat="31.19800410923386" lon="121.621797435298">
        <ele>6.962181469425559</ele>
        <time>2020-05-10T23:10:41Z</time>
      </trkpt>
      <trkpt lat="31.198237206960247" lon="121.62162371718907">
        <ele>5.693009625189006</ele>
        <time>2020-05-10T23:10:57Z</time>
      </trkpt>
      <trkpt lat="31.198300486818336" lon="121.62152859714152">
        <ele>3.1097775530070066</ele>
        <time>2020-05-10T23:11:04Z</time>
      </trkpt>
      <trkpt lat="31.198368837207237" lon="121.62150637088185">
        <ele>4.912196210585535</ele>
        <time>2020-05-10T23:11:08Z</time>
      </trkpt>
      <trkpt lat="31.198410477768245" lon="121.62136437192126">
        <ele>6.544132295064628</ele>
        <time>2020-05-10T23:11:18Z</time>
      </trkpt>
      <trkpt lat="31.19847969043175" lon="121.62129770391417">
        <ele>6.496319845318794</ele>
        <time>2020-05-10T23:11:25Z</time>
      </trkpt>
      <trkpt lat="31.19850065480603" lon="121.6212185743771">
        <ele>5.714570037089288</ele>
        <time>2020-05-10T23:11:31Z</time>
      </trkpt>
      <trkpt lat="31.198605699011345" lon="121.62111342289484">
        <ele>5.810030771419406</ele>
        <time>2020-05-10T23:11:41Z</time>
      </trkpt>
      <trkpt lat="31.198848290556032" lon="121.62093238280619">
        <ele>6.603654261678457</ele>
        <time>2020-05-10T23:11:58Z</time>
      </trkpt>
      <trkpt lat="31.19891260035636" lon="121.6208854963494">
        <ele>5.922247214242816</ele>
        <time>2020-05-10T23:12:02Z</time>
      </trkpt>
      <trkpt lat="31.19896472876868" lon="121.62082045448409">
        <ele>6.352873641066253</ele>
        <time>2020-05-10T23:12:06Z</time>
      </trkpt>
      <trkpt lat="31.19919828389535" lon="121.6207201686156">
        <ele>6.38680462911725</ele>
        <time>2020-05-10T23:12:17Z</time>
      </trkpt>
      <trkpt lat="31.199571848354914" lon="121.62077406489067">
        <ele>6.417290752753615</ele>
        <time>2020-05-10T23:12:31Z</time>
      </trkpt>
      <trkpt lat="31.199851942642717" lon="121.62076238911352">
        <ele>5.12197077088058</ele>
        <time>2020-05-10T23:12:41Z</time>
      </trkpt>
      <trkpt lat="31.200180749464263" lon="121.62083525830924">
        <ele>4.383157254196703</ele>
        <time>2020-05-10T23:12:53Z</time>
      </trkpt>
      <trkpt lat="31.200508197279127" lon="121.6209111082949">
        <ele>4.677783251740038</ele>
        <time>2020-05-10T23:13:05Z</time>
      </trkpt>
      <trkpt lat="31.20058982083126" lon="121.62089999098092">
        <ele>4.961503361351788</ele>
        <time>2020-05-10T23:13:08Z</time>
      </trkpt>
      <trkpt lat="31.200878785519784" lon="121.62095931365793">
        <ele>4.160819796845317</ele>
        <time>2020-05-10T23:13:18Z</time>
      </trkpt>
      <trkpt lat="31.20121681219255" lon="121.62103082660049">
        <ele>4.700788759626448</ele>
        <time>2020-05-10T23:13:33Z</time>
      </trkpt>
      <trkpt lat="31.20152313620824" lon="121.62108391483409">
        <ele>4.992739617824554</ele>
        <time>2020-05-10T23:13:45Z</time>
      </trkpt>
      <trkpt lat="31.201827303603515" lon="121.62112562168781">
        <ele>4.300781158730388</ele>
        <time>2020-05-10T23:13:57Z</time>
      </trkpt>
      <trkpt lat="31.202163180105657" lon="121.62117979122846">
        <ele>3.199779856018722</ele>
        <time>2020-05-10T23:14:11Z</time>
      </trkpt>
      <trkpt lat="31.20225566382802" lon="121.6211553947856">
        <ele>3.067843809723854</ele>
        <time>2020-05-10T23:14:15Z</time>
      </trkpt>
      <trkpt lat="31.202427578457" lon="121.62114156023377">
        <ele>3.6541737718507648</ele>
        <time>2020-05-10T23:14:26Z</time>
      </trkpt>
      <trkpt lat="31.202440389172132" lon="121.6210800450965">
        <ele>4.244799085892737</ele>
        <time>2020-05-10T23:14:29Z</time>
      </trkpt>
      <trkpt lat="31.202410240246394" lon="121.62088005809959">
        <ele>4.30383041780442</ele>
        <time>2020-05-10T23:14:36Z</time>
      </trkpt>
      <trkpt lat="31.202414662593288" lon="121.62080255462068">
        <ele>4.561787371523678</ele>
        <time>2020-05-10T23:14:39Z</time>
      </trkpt>
      <trkpt lat="31.20243505587271" lon="121.62074889679731">
        <ele>6.1614026902243495</ele>
        <time>2020-05-10T23:14:43Z</time>
      </trkpt>
      <trkpt lat="31.202409852659013" lon="121.62073751726443">
        <ele>4.754033178091049</ele>
        <time>2020-05-10T23:14:53Z</time>
      </trkpt>
      <trkpt lat="31.202405247767945" lon="121.62073345278051">
        <ele>4.722175739705563</ele>
        <time>2020-05-10T23:14:57Z</time>
      </trkpt>
      <trkpt lat="31.202401184852647" lon="121.62072965924217">
        <ele>4.1204890524968505</ele>
        <time>2020-05-10T23:15:09Z</time>
      </trkpt>
      <trkpt lat="31.202368140415942" lon="121.62069822699486">
        <ele>5.350318672135472</ele>
        <time>2020-05-10T23:15:26Z</time>
      </trkpt>
      <trkpt lat="31.20240609049867" lon="121.62070635359451">
        <ele>3.7785424068570137</ele>
        <time>2020-05-10T23:15:41Z</time>
      </trkpt>
      <trkpt lat="31.202397408320834" lon="121.62071177413854">
        <ele>4.054280269891024</ele>
        <time>2020-05-10T23:15:43Z</time>
      </trkpt>
      <trkpt lat="31.202393061366816" lon="121.62071990423442">
        <ele>4.4140875758603215</ele>
        <time>2020-05-10T23:16:05Z</time>
      </trkpt>
      <trkpt lat="31.202397943260017" lon="121.62071854887456">
        <ele>3.3891122192144394</ele>
        <time>2020-05-10T23:16:06Z</time>
      </trkpt>
      <trkpt lat="31.20237789276969" lon="121.62070608493683">
        <ele>3.7907527554780245</ele>
        <time>2020-05-10T23:16:13Z</time>
      </trkpt>
      <trkpt lat="31.20237409219165" lon="121.6207104211119">
        <ele>3.9539551911875606</ele>
        <time>2020-05-10T23:16:14Z</time>
      </trkpt>
      <trkpt lat="31.202376880267014" lon="121.62063942107432">
        <ele>4.482815460301936</ele>
        <time>2020-05-10T23:16:28Z</time>
      </trkpt>
      <trkpt lat="31.20235608907345" lon="121.6205594800332">
        <ele>5.203761225566268</ele>
        <time>2020-05-10T23:16:35Z</time>
      </trkpt>
      <trkpt lat="31.202350610781824" lon="121.62035867402683">
        <ele>6.62770882062614</ele>
        <time>2020-05-10T23:16:46Z</time>
      </trkpt>
      <trkpt lat="31.202371007308145" lon="121.62030122135265">
        <ele>5.742489209398627</ele>
        <time>2020-05-10T23:16:50Z</time>
      </trkpt>
      <trkpt lat="31.202409470227444" lon="121.62033698955342">
        <ele>11.474185092374682</ele>
        <time>2020-05-10T23:16:57Z</time>
      </trkpt>
      <trkpt lat="31.202409470227444" lon="121.62033698955342">
        <ele>11.474185092374682</ele>
        <time>2020-05-10T23:16:59Z</time>
      </trkpt>
      <trkpt lat="31.20243930722692" lon="121.62032560528571">
        <ele>7.8205329133197665</ele>
        <time>2020-05-10T23:17:06Z</time>
      </trkpt>
      <trkpt lat="31.20243930722692" lon="121.62032560528571">
        <ele>7.8205329133197665</ele>
        <time>2020-05-10T23:17:12Z</time>
      </trkpt>
      <trkpt lat="31.202457168799924" lon="121.62035676824416">
        <ele>5.132644736208022</ele>
        <time>2020-05-10T23:17:18Z</time>
      </trkpt>
      <trkpt lat="31.20249645985957" lon="121.62037871557334">
        <ele>7.078643932938576</ele>
        <time>2020-05-10T23:18:24Z</time>
      </trkpt>
      <trkpt lat="31.202614420349676" lon="121.62036298811361">
        <ele>4.560818433761597</ele>
        <time>2020-05-10T23:18:31Z</time>
      </trkpt>
      <trkpt lat="31.20267107535849" lon="121.62037436520727">
        <ele>3.0998614178970456</ele>
        <time>2020-05-10T23:18:34Z</time>
      </trkpt>
      <trkpt lat="31.20275681224691" lon="121.62031988810949">
        <ele>5.05431117862463</ele>
        <time>2020-05-10T23:18:46Z</time>
      </trkpt>
      <trkpt lat="31.20281511725698" lon="121.62030958546018">
        <ele>3.2006750591099262</ele>
        <time>2020-05-10T23:18:49Z</time>
      </trkpt>
      <trkpt lat="31.20286589149836" lon="121.62024210330884">
        <ele>5.72936000674963</ele>
        <time>2020-05-10T23:18:53Z</time>
      </trkpt>
      <trkpt lat="31.20279523301525" lon="121.6198846627879">
        <ele>2.5215285597369075</ele>
        <time>2020-05-10T23:19:04Z</time>
      </trkpt>
      <trkpt lat="31.202722794258403" lon="121.61967003598328">
        <ele>4.941978397779167</ele>
        <time>2020-05-10T23:19:11Z</time>
      </trkpt>
      <trkpt lat="31.202715827737777" lon="121.61959063281022">
        <ele>4.148996735922992</ele>
        <time>2020-05-10T23:19:14Z</time>
      </trkpt>
      <trkpt lat="31.202625547202263" lon="121.61932261693453">
        <ele>4.983861079439521</ele>
        <time>2020-05-10T23:19:25Z</time>
      </trkpt>
      <trkpt lat="31.20259594111714" lon="121.61911042095022">
        <ele>4.7892275378108025</ele>
        <time>2020-05-10T23:19:32Z</time>
      </trkpt>
      <trkpt lat="31.202537762986005" lon="121.61899741514885">
        <ele>5.331711928360164</ele>
        <time>2020-05-10T23:19:35Z</time>
      </trkpt>
      <trkpt lat="31.202475624667116" lon="121.61877898587812">
        <ele>4.410942974500358</ele>
        <time>2020-05-10T23:19:43Z</time>
      </trkpt>
      <trkpt lat="31.202498240410222" lon="121.61866895305695">
        <ele>5.055808128789067</ele>
        <time>2020-05-10T23:19:47Z</time>
      </trkpt>
      <trkpt lat="31.202627886995415" lon="121.61862530923517">
        <ele>3.5760282231494784</ele>
        <time>2020-05-10T23:19:55Z</time>
      </trkpt>
      <trkpt lat="31.202675373090646" lon="121.61858817646409">
        <ele>4.409212559461594</ele>
        <time>2020-05-10T23:19:58Z</time>
      </trkpt>
      <trkpt lat="31.202666553890083" lon="121.61846080045866">
        <ele>3.434685750864446</ele>
        <time>2020-05-10T23:20:04Z</time>
      </trkpt>
      <trkpt lat="31.202604770300763" lon="121.61815428572349">
        <ele>4.206916726194322</ele>
        <time>2020-05-10T23:20:15Z</time>
      </trkpt>
      <trkpt lat="31.202590671966416" lon="121.61787947281086">
        <ele>4.706118669360876</ele>
        <time>2020-05-10T23:20:25Z</time>
      </trkpt>
      <trkpt lat="31.202555824904714" lon="121.61774775899968">
        <ele>5.980924573726952</ele>
        <time>2020-05-10T23:20:29Z</time>
      </trkpt>
      <trkpt lat="31.20254158559551" lon="121.61761387459491">
        <ele>5.179772349074483</ele>
        <time>2020-05-10T23:20:33Z</time>
      </trkpt>
      <trkpt lat="31.202496379689432" lon="121.61753826247482">
        <ele>7.03315370157361</ele>
        <time>2020-05-10T23:20:36Z</time>
      </trkpt>
      <trkpt lat="31.202436665189285" lon="121.61732524085225">
        <ele>5.428677278570831</ele>
        <time>2020-05-10T23:20:44Z</time>
      </trkpt>
      <trkpt lat="31.20246466387703" lon="121.61725070591004">
        <ele>4.5635361624881625</ele>
        <time>2020-05-10T23:20:48Z</time>
      </trkpt>
      <trkpt lat="31.202546575788084" lon="121.61722034396408">
        <ele>3.3676303075626493</ele>
        <time>2020-05-10T23:20:52Z</time>
      </trkpt>
      <trkpt lat="31.202741973795252" lon="121.61703142023521">
        <ele>3.999210993759334</ele>
        <time>2020-05-10T23:21:03Z</time>
      </trkpt>
      <trkpt lat="31.202811208707143" lon="121.61693113300407">
        <ele>5.127084438689053</ele>
        <time>2020-05-10T23:21:11Z</time>
      </trkpt>
      <trkpt lat="31.202949510445592" lon="121.61690699973593">
        <ele>5.908138474449515</ele>
        <time>2020-05-10T23:21:21Z</time>
      </trkpt>
      <trkpt lat="31.203052382580516" lon="121.61678882103126">
        <ele>5.814263311214745</ele>
        <time>2020-05-10T23:21:32Z</time>
      </trkpt>
      <trkpt lat="31.203177452829525" lon="121.61670722955476">
        <ele>5.943227495998144</ele>
        <time>2020-05-10T23:21:43Z</time>
      </trkpt>
      <trkpt lat="31.203255833065167" lon="121.61668364309271">
        <ele>5.3676645662635565</ele>
        <time>2020-05-10T23:21:49Z</time>
      </trkpt>
      <trkpt lat="31.203327507738795" lon="121.61658254113694">
        <ele>5.318340922705829</ele>
        <time>2020-05-10T23:21:56Z</time>
      </trkpt>
      <trkpt lat="31.203563275186895" lon="121.61642098395501">
        <ele>5.323325970210135</ele>
        <time>2020-05-10T23:22:14Z</time>
      </trkpt>
      <trkpt lat="31.203621664816136" lon="121.61631825578445">
        <ele>4.726664227433503</ele>
        <time>2020-05-10T23:22:21Z</time>
      </trkpt>
      <trkpt lat="31.203676203211216" lon="121.61627488508958">
        <ele>5.001810883171856</ele>
        <time>2020-05-10T23:22:25Z</time>
      </trkpt>
      <trkpt lat="31.20387185017321" lon="121.61610330068723">
        <ele>6.386170991696417</ele>
        <time>2020-05-10T23:22:42Z</time>
      </trkpt>
      <trkpt lat="31.203933770110183" lon="121.61599325275438">
        <ele>5.262045286595821</ele>
        <time>2020-05-10T23:22:50Z</time>
      </trkpt>
      <trkpt lat="31.204110800507294" lon="121.6160160056307">
        <ele>6.320535705424845</ele>
        <time>2020-05-10T23:23:02Z</time>
      </trkpt>
      <trkpt lat="31.204221176412165" lon="121.61598997647775">
        <ele>4.8278424795717</ele>
        <time>2020-05-10T23:23:09Z</time>
      </trkpt>
      <trkpt lat="31.204304371905156" lon="121.6160368598267">
        <ele>7.270592232234776</ele>
        <time>2020-05-10T23:23:15Z</time>
      </trkpt>
      <trkpt lat="31.20450473656607" lon="121.61633498711568">
        <ele>6.952035970985889</ele>
        <time>2020-05-10T23:23:41Z</time>
      </trkpt>
      <trkpt lat="31.20456516470608" lon="121.61637265640061">
        <ele>6.621016019955277</ele>
        <time>2020-05-10T23:23:45Z</time>
      </trkpt>
      <trkpt lat="31.20453731608413" lon="121.6162883658026">
        <ele>7.807687167078257</ele>
        <time>2020-05-10T23:23:49Z</time>
      </trkpt>
      <trkpt lat="31.20428785828221" lon="121.61600894389873">
        <ele>7.373459216207266</ele>
        <time>2020-05-10T23:24:04Z</time>
      </trkpt>
      <trkpt lat="31.2040890524793" lon="121.61578182621598">
        <ele>9.037835263647139</ele>
        <time>2020-05-10T23:24:14Z</time>
      </trkpt>
      <trkpt lat="31.203853947867344" lon="121.61551567861939">
        <ele>7.238852011039853</ele>
        <time>2020-05-10T23:24:26Z</time>
      </trkpt>
      <trkpt lat="31.203728829974427" lon="121.61535224685706">
        <ele>6.04973526392132</ele>
        <time>2020-05-10T23:24:34Z</time>
      </trkpt>
      <trkpt lat="31.20356105563784" lon="121.61528693778851">
        <ele>5.303760443814099</ele>
        <time>2020-05-10T23:24:42Z</time>
      </trkpt>
      <trkpt lat="31.20364820348769" lon="121.61515926572608">
        <ele>5.49321115296334</ele>
        <time>2020-05-10T23:24:49Z</time>
      </trkpt>
      <trkpt lat="31.203766264216874" lon="121.61502698253143">
        <ele>4.167467814870179</ele>
        <time>2020-05-10T23:24:57Z</time>
      </trkpt>
      <trkpt lat="31.203837440027645" lon="121.6148694944177">
        <ele>5.757845468819141</ele>
        <time>2020-05-10T23:25:07Z</time>
      </trkpt>
      <trkpt lat="31.203967944418167" lon="121.61476838003159">
        <ele>6.877242619171739</ele>
        <time>2020-05-10T23:25:14Z</time>
      </trkpt>
      <trkpt lat="31.204183993066135" lon="121.61450896037341">
        <ele>6.053827539086342</ele>
        <time>2020-05-10T23:25:28Z</time>
      </trkpt>
      <trkpt lat="31.20440271498223" lon="121.6142912811348">
        <ele>7.046575899235904</ele>
        <time>2020-05-10T23:25:39Z</time>
      </trkpt>
      <trkpt lat="31.204467319173776" lon="121.61420453604907">
        <ele>7.03480854164809</ele>
        <time>2020-05-10T23:25:43Z</time>
      </trkpt>
      <trkpt lat="31.204552507289076" lon="121.61414381099564">
        <ele>8.321145683526993</ele>
        <time>2020-05-10T23:25:47Z</time>
      </trkpt>
      <trkpt lat="31.204611946827733" lon="121.61407197430692">
        <ele>7.701967800036073</ele>
        <time>2020-05-10T23:25:50Z</time>
      </trkpt>
      <trkpt lat="31.204680026792342" lon="121.61404242271462">
        <ele>4.629846695810556</ele>
        <time>2020-05-10T23:25:54Z</time>
      </trkpt>
      <trkpt lat="31.204719942494222" lon="121.61397275585216">
        <ele>6.098704766482115</ele>
        <time>2020-05-10T23:25:57Z</time>
      </trkpt>
      <trkpt lat="31.20477500603322" lon="121.61394537373393">
        <ele>6.20936213620007</ele>
        <time>2020-05-10T23:26:01Z</time>
      </trkpt>
      <trkpt lat="31.204879501462838" lon="121.61381633772758">
        <ele>6.34288876503706</ele>
        <time>2020-05-10T23:26:11Z</time>
      </trkpt>
      <trkpt lat="31.204911822080867" lon="121.61374992363655">
        <ele>7.639075922779739</ele>
        <time>2020-05-10T23:26:15Z</time>
      </trkpt>
      <trkpt lat="31.20507077089386" lon="121.61367374043168">
        <ele>7.606484340503812</ele>
        <time>2020-05-10T23:26:29Z</time>
      </trkpt>
      <trkpt lat="31.205288652941082" lon="121.61348017887563">
        <ele>7.898446482606232</ele>
        <time>2020-05-10T23:26:46Z</time>
      </trkpt>
      <trkpt lat="31.205346697825053" lon="121.61345360915217">
        <ele>4.516240662895143</ele>
        <time>2020-05-10T23:26:49Z</time>
      </trkpt>
      <trkpt lat="31.205393953363696" lon="121.61335873027262">
        <ele>4.264941975474358</ele>
        <time>2020-05-10T23:26:53Z</time>
      </trkpt>
      <trkpt lat="31.20568240647249" lon="121.61306892877512">
        <ele>5.7093100771307945</ele>
        <time>2020-05-10T23:27:09Z</time>
      </trkpt>
      <trkpt lat="31.20578413312505" lon="121.61300603082219">
        <ele>6.453392933122814</ele>
        <time>2020-05-10T23:27:13Z</time>
      </trkpt>
      <trkpt lat="31.20593553753182" lon="121.6128683113031">
        <ele>7.719092823565006</ele>
        <time>2020-05-10T23:27:20Z</time>
      </trkpt>
      <trkpt lat="31.20597164912262" lon="121.612805147158">
        <ele>5.081559400074184</ele>
        <time>2020-05-10T23:27:24Z</time>
      </trkpt>
      <trkpt lat="31.205981481992563" lon="121.61271487709548">
        <ele>5.735819564200938</ele>
        <time>2020-05-10T23:27:28Z</time>
      </trkpt>
      <trkpt lat="31.206036579811048" lon="121.61264276532037">
        <ele>5.484000256285071</ele>
        <time>2020-05-10T23:27:32Z</time>
      </trkpt>
      <trkpt lat="31.20617244885007" lon="121.61260480282797">
        <ele>6.8594660041853786</ele>
        <time>2020-05-10T23:27:39Z</time>
      </trkpt>
      <trkpt lat="31.206231582161255" lon="121.61257226823973">
        <ele>6.758278097957373</ele>
        <time>2020-05-10T23:27:42Z</time>
      </trkpt>
      <trkpt lat="31.20629075453735" lon="121.61249012565551">
        <ele>4.250413816422224</ele>
        <time>2020-05-10T23:27:45Z</time>
      </trkpt>
      <trkpt lat="31.206348343366784" lon="121.61235241084553">
        <ele>5.9572820495814085</ele>
        <time>2020-05-10T23:27:49Z</time>
      </trkpt>
      <trkpt lat="31.2065051304794" lon="121.6122618557904">
        <ele>6.097481311298907</ele>
        <time>2020-05-10T23:27:56Z</time>
      </trkpt>
      <trkpt lat="31.206611245561383" lon="121.61213172602665">
        <ele>5.791345834732056</ele>
        <time>2020-05-10T23:28:04Z</time>
      </trkpt>
      <trkpt lat="31.206690197797112" lon="121.61206476112095">
        <ele>8.228369193151593</ele>
        <time>2020-05-10T23:28:08Z</time>
      </trkpt>
      <trkpt lat="31.206738590496123" lon="121.61189478498268">
        <ele>7.104722611606121</ele>
        <time>2020-05-10T23:28:18Z</time>
      </trkpt>
      <trkpt lat="31.206770090681978" lon="121.61183134748009">
        <ele>8.054782268591225</ele>
        <time>2020-05-10T23:28:22Z</time>
      </trkpt>
      <trkpt lat="31.206827588412274" lon="121.61180911336145">
        <ele>7.119807798415422</ele>
        <time>2020-05-10T23:28:34Z</time>
      </trkpt>
      <trkpt lat="31.206827588412274" lon="121.61180911336145">
        <ele>7.119807798415422</ele>
        <time>2020-05-10T23:28:43Z</time>
      </trkpt>
      <trkpt lat="31.206831752155388" lon="121.6116817003923">
        <ele>7.791000249795616</ele>
        <time>2020-05-10T23:30:14Z</time>
      </trkpt>
      <trkpt lat="31.206712788814592" lon="121.61159523189625">
        <ele>8.50637861713767</ele>
        <time>2020-05-10T23:30:22Z</time>
      </trkpt>
      <trkpt lat="31.206663504860618" lon="121.61151173934174">
        <ele>6.7678756304085255</ele>
        <time>2020-05-10T23:30:26Z</time>
      </trkpt>
      <trkpt lat="31.20665246879724" lon="121.61140411590435">
        <ele>9.596165781840682</ele>
        <time>2020-05-10T23:30:30Z</time>
      </trkpt>
      <trkpt lat="31.20641374526205" lon="121.61120596454802">
        <ele>6.499824869446456</ele>
        <time>2020-05-10T23:30:43Z</time>
      </trkpt>
      <trkpt lat="31.206340313442947" lon="121.6111436182104">
        <ele>7.053015600889921</ele>
        <time>2020-05-10T23:30:46Z</time>
      </trkpt>
      <trkpt lat="31.206166148260028" lon="121.61090425199959">
        <ele>7.6283026384189725</ele>
        <time>2020-05-10T23:30:56Z</time>
      </trkpt>
      <trkpt lat="31.206011421888743" lon="121.61077711823687">
        <ele>7.21837651822716</ele>
        <time>2020-05-10T23:31:03Z</time>
      </trkpt>
      <trkpt lat="31.205780856011202" lon="121.61053937946903">
        <ele>9.635009206831455</ele>
        <time>2020-05-10T23:31:16Z</time>
      </trkpt>
      <trkpt lat="31.205686906131085" lon="121.61035015516742">
        <ele>7.871061034500599</ele>
        <time>2020-05-10T23:31:27Z</time>
      </trkpt>
      <trkpt lat="31.205596926931122" lon="121.61029648330765">
        <ele>6.85056243557483</ele>
        <time>2020-05-10T23:31:34Z</time>
      </trkpt>
      <trkpt lat="31.205568765388392" lon="121.6102444328614">
        <ele>8.48836662992835</ele>
        <time>2020-05-10T23:31:38Z</time>
      </trkpt>
      <trkpt lat="31.20549073298843" lon="121.61016635992634">
        <ele>8.870433524250984</ele>
        <time>2020-05-10T23:31:45Z</time>
      </trkpt>
      <trkpt lat="31.205387747972118" lon="121.61009967541769">
        <ele>6.453859338536859</ele>
        <time>2020-05-10T23:31:52Z</time>
      </trkpt>
      <trkpt lat="31.205326816755985" lon="121.6099925916538">
        <ele>8.136436714790761</ele>
        <time>2020-05-10T23:31:59Z</time>
      </trkpt>
      <trkpt lat="31.205198115941492" lon="121.60986409506147">
        <ele>7.1625180169939995</ele>
        <time>2020-05-10T23:32:10Z</time>
      </trkpt>
      <trkpt lat="31.205150995002064" lon="121.60978140931725">
        <ele>8.759812478907406</ele>
        <time>2020-05-10T23:32:17Z</time>
      </trkpt>
    </trkseg>
  </trk>
</gpx>