<?xml version="1.0" encoding="UTF-8"?>
<gpx xmlns="http://www.topografix.com/GPX/1/1" xmlns:gpxtpx="http://www.garmin.com/xmlschemas/TrackPointExtension/v1" xmlns:xsi="http://www.w3.org/2001/XMLSchema-instance" xsi:schemaLocation="http://www.topografix.com/GPX/1/1 http://www.topografix.com/GPX/1/1/gpx.xsd" version="1.1" creator="gpx.py -- https://github.com/tkrajina/gpxpy">
  <trk>
    <name>gpx from keep</name>
    <type>Run</type>
    <trkseg>
      <trkpt lat="31.204455503778668" lon="121.61059858984518">
        <ele>8.927716255187988</ele>
        <time>2020-08-17T22:48:54Z</time>
      </trkpt>
      <trkpt lat="31.20451429139881" lon="121.6106666320586">
        <ele>8.833325538766015</ele>
        <time>2020-08-17T22:48:56Z</time>
      </trkpt>
      <trkpt lat="31.204628397671975" lon="121.61072463869465">
        <ele>8.887500879238761</ele>
        <time>2020-08-17T22:48:59Z</time>
      </trkpt>
      <trkpt lat="31.20470486583665" lon="121.61071351715637">
        <ele>8.810746900644556</ele>
        <time>2020-08-17T22:49:03Z</time>
      </trkpt>
      <trkpt lat="31.204764030754557" lon="121.61063353676545">
        <ele>8.671548776328564</ele>
        <time>2020-08-17T22:49:07Z</time>
      </trkpt>
      <trkpt lat="31.20485732576877" lon="121.61059936994015">
        <ele>8.151339387521148</ele>
        <time>2020-08-17T22:49:11Z</time>
      </trkpt>
      <trkpt lat="31.204953140243333" lon="121.61045377855861">
        <ele>8.21859828568995</ele>
        <time>2020-08-17T22:49:18Z</time>
      </trkpt>
      <trkpt lat="31.20516504177773" lon="121.6102485328636">
        <ele>9.005348664708436</ele>
        <time>2020-08-17T22:49:27Z</time>
      </trkpt>
      <trkpt lat="31.205201142663583" lon="121.61019159703041">
        <ele>9.11747429985553</ele>
        <time>2020-08-17T22:49:30Z</time>
      </trkpt>
      <trkpt lat="31.205273824586104" lon="121.61016637785752">
        <ele>6.863251112401485</ele>
        <time>2020-08-17T22:49:33Z</time>
      </trkpt>
      <trkpt lat="31.20531506894044" lon="121.61012082801511">
        <ele>6.755479000508785</ele>
        <time>2020-08-17T22:49:36Z</time>
      </trkpt>
      <trkpt lat="31.205388293260217" lon="121.61009533760826">
        <ele>7.036300511099398</ele>
        <time>2020-08-17T22:49:39Z</time>
      </trkpt>
      <trkpt lat="31.20563701355311" lon="121.61035531032908">
        <ele>8.415135184302926</ele>
        <time>2020-08-17T22:49:51Z</time>
      </trkpt>
      <trkpt lat="31.20649144969567" lon="121.61135641649776">
        <ele>7.5403698571026325</ele>
        <time>2020-08-17T22:50:36Z</time>
      </trkpt>
      <trkpt lat="31.206546707834235" lon="121.61142825206569">
        <ele>7.193010114133358</ele>
        <time>2020-08-17T22:50:39Z</time>
      </trkpt>
      <trkpt lat="31.206609305331156" lon="121.61147487508488">
        <ele>6.723939469084144</ele>
        <time>2020-08-17T22:50:42Z</time>
      </trkpt>
      <trkpt lat="31.206624425679603" lon="121.61155918387676">
        <ele>7.681788943707943</ele>
        <time>2020-08-17T22:50:45Z</time>
      </trkpt>
      <trkpt lat="31.2051471502877" lon="121.61311180288503">
        <ele>8.423131260089576</ele>
        <time>2020-08-17T22:52:02Z</time>
      </trkpt>
      <trkpt lat="31.20508474843316" lon="121.61316195682">
        <ele>7.0741982236504555</ele>
        <time>2020-08-17T22:52:05Z</time>
      </trkpt>
      <trkpt lat="31.205023134043874" lon="121.61324382617116">
        <ele>8.916385448537767</ele>
        <time>2020-08-17T22:52:08Z</time>
      </trkpt>
      <trkpt lat="31.204739622927494" lon="121.61345691220194">
        <ele>9.840805904008448</ele>
        <time>2020-08-17T22:52:20Z</time>
      </trkpt>
      <trkpt lat="31.204666572400356" lon="121.61359624820365">
        <ele>8.713973207399249</ele>
        <time>2020-08-17T22:52:26Z</time>
      </trkpt>
      <trkpt lat="31.204595491305724" lon="121.61364884144017">
        <ele>5.989782043732703</ele>
        <time>2020-08-17T22:52:29Z</time>
      </trkpt>
      <trkpt lat="31.203929804578497" lon="121.61435041151212">
        <ele>6.113299218937755</ele>
        <time>2020-08-17T22:52:59Z</time>
      </trkpt>
      <trkpt lat="31.203676603993152" lon="121.61461905192279">
        <ele>6.363687016069889</ele>
        <time>2020-08-17T22:53:11Z</time>
      </trkpt>
      <trkpt lat="31.203630989762544" lon="121.61469224110158">
        <ele>6.579633625224233</ele>
        <time>2020-08-17T22:53:15Z</time>
      </trkpt>
      <trkpt lat="31.20377642131927" lon="121.61488467851893">
        <ele>6.773973157629371</ele>
        <time>2020-08-17T22:53:27Z</time>
      </trkpt>
      <trkpt lat="31.20379256767116" lon="121.61502318561575">
        <ele>7.540188713930547</ele>
        <time>2020-08-17T22:53:33Z</time>
      </trkpt>
      <trkpt lat="31.202685855590524" lon="121.61615760688196">
        <ele>6.184785360470414</ele>
        <time>2020-08-17T22:55:12Z</time>
      </trkpt>
      <trkpt lat="31.202418276030148" lon="121.61641701310286">
        <ele>7.047576668672264</ele>
        <time>2020-08-17T22:55:25Z</time>
      </trkpt>
      <trkpt lat="31.20234229477859" lon="121.6164850496597">
        <ele>5.158122517168522</ele>
        <time>2020-08-17T22:55:28Z</time>
      </trkpt>
      <trkpt lat="31.202163148698073" lon="121.61669511691574">
        <ele>5.386866261251271</ele>
        <time>2020-08-17T22:55:37Z</time>
      </trkpt>
      <trkpt lat="31.202095327950826" lon="121.61673442245954">
        <ele>2.6791566042229533</ele>
        <time>2020-08-17T22:55:40Z</time>
      </trkpt>
      <trkpt lat="31.199603194874424" lon="121.61959874944175">
        <ele>5.313735222443938</ele>
        <time>2020-08-17T22:57:48Z</time>
      </trkpt>
      <trkpt lat="31.199477540405354" lon="121.61971285180731">
        <ele>4.463487549684942</ele>
        <time>2020-08-17T22:57:54Z</time>
      </trkpt>
      <trkpt lat="31.199318468661936" lon="121.61989091247054">
        <ele>5.18472611811012</ele>
        <time>2020-08-17T22:58:03Z</time>
      </trkpt>
      <trkpt lat="31.199238986918427" lon="121.61992831699598">
        <ele>5.294454683549702</ele>
        <time>2020-08-17T22:58:06Z</time>
      </trkpt>
      <trkpt lat="31.19914263291131" lon="121.62002425859018">
        <ele>5.451085340231657</ele>
        <time>2020-08-17T22:58:12Z</time>
      </trkpt>
      <trkpt lat="31.19911296837459" lon="121.62012886622654">
        <ele>6.720219665206969</ele>
        <time>2020-08-17T22:58:15Z</time>
      </trkpt>
      <trkpt lat="31.197781555901656" lon="121.6212657854117">
        <ele>7.8952955910936</ele>
        <time>2020-08-17T22:59:15Z</time>
      </trkpt>
      <trkpt lat="31.197520463034905" lon="121.62150318929197">
        <ele>5.393184566870332</ele>
        <time>2020-08-17T22:59:27Z</time>
      </trkpt>
      <trkpt lat="31.19744694191398" lon="121.6215427588815">
        <ele>5.063035733066499</ele>
        <time>2020-08-17T22:59:30Z</time>
      </trkpt>
      <trkpt lat="31.19717635180334" lon="121.62178503871307">
        <ele>5.429614438675344</ele>
        <time>2020-08-17T22:59:42Z</time>
      </trkpt>
      <trkpt lat="31.196676725492726" lon="121.62220238636982">
        <ele>6.375392383895814</ele>
        <time>2020-08-17T23:00:05Z</time>
      </trkpt>
      <trkpt lat="31.196633526236162" lon="121.62228097287263">
        <ele>3.9853222304955125</ele>
        <time>2020-08-17T23:00:08Z</time>
      </trkpt>
      <trkpt lat="31.19684317472103" lon="121.62363417191474">
        <ele>4.797802402637899</ele>
        <time>2020-08-17T23:00:53Z</time>
      </trkpt>
      <trkpt lat="31.196930607307287" lon="121.62398451595634">
        <ele>6.1041891276836395</ele>
        <time>2020-08-17T23:01:05Z</time>
      </trkpt>
      <trkpt lat="31.19698023281491" lon="121.62397773789033">
        <ele>5.19137229770422</ele>
        <time>2020-08-17T23:01:08Z</time>
      </trkpt>
      <trkpt lat="31.196930471951692" lon="121.62387017133652">
        <ele>5.4377140970900655</ele>
        <time>2020-08-17T23:01:14Z</time>
      </trkpt>
      <trkpt lat="31.196862363874597" lon="121.6236861949276">
        <ele>7.771258693188429</ele>
        <time>2020-08-17T23:01:26Z</time>
      </trkpt>
      <trkpt lat="31.19689528851687" lon="121.62358647829657">
        <ele>5.156426256522536</ele>
        <time>2020-08-17T23:01:32Z</time>
      </trkpt>
      <trkpt lat="31.19680041761252" lon="121.62310037566714">
        <ele>5.720759397372603</ele>
        <time>2020-08-17T23:02:01Z</time>
      </trkpt>
      <trkpt lat="31.1967375661774" lon="121.62305594224433">
        <ele>4.546356986276805</ele>
        <time>2020-08-17T23:02:04Z</time>
      </trkpt>
      <trkpt lat="31.19669051848414" lon="121.6229440363525">
        <ele>3.968955125659704</ele>
        <time>2020-08-17T23:02:10Z</time>
      </trkpt>
      <trkpt lat="31.196738877230874" lon="121.62286003196562">
        <ele>3.886294108815491</ele>
        <time>2020-08-17T23:02:16Z</time>
      </trkpt>
      <trkpt lat="31.19675169230766" lon="121.6227977078711">
        <ele>4.34069140907377</ele>
        <time>2020-08-17T23:02:19Z</time>
      </trkpt>
      <trkpt lat="31.197426276399284" lon="121.62232019864028">
        <ele>4.833927238360047</ele>
        <time>2020-08-17T23:02:46Z</time>
      </trkpt>
      <trkpt lat="31.19756228233698" lon="121.62217196375019">
        <ele>6.33283528778702</ele>
        <time>2020-08-17T23:02:52Z</time>
      </trkpt>
      <trkpt lat="31.197662131182216" lon="121.6221085469542">
        <ele>6.167787192389369</ele>
        <time>2020-08-17T23:02:55Z</time>
      </trkpt>
      <trkpt lat="31.197795417163928" lon="121.62196708557917">
        <ele>5.871901234611869</ele>
        <time>2020-08-17T23:03:01Z</time>
      </trkpt>
      <trkpt lat="31.197941942542062" lon="121.6218662693022">
        <ele>6.386180107481778</ele>
        <time>2020-08-17T23:03:07Z</time>
      </trkpt>
      <trkpt lat="31.19801951110378" lon="121.62184458452096">
        <ele>6.841570082120597</ele>
        <time>2020-08-17T23:03:10Z</time>
      </trkpt>
      <trkpt lat="31.200985101547168" lon="121.62093058004248">
        <ele>5.923433400690556</ele>
        <time>2020-08-17T23:05:44Z</time>
      </trkpt>
      <trkpt lat="31.20131475064786" lon="121.62097689183734">
        <ele>6.146559931337833</ele>
        <time>2020-08-17T23:05:54Z</time>
      </trkpt>
      <trkpt lat="31.201604804040226" lon="121.62103242041808">
        <ele>6.2450753059238195</ele>
        <time>2020-08-17T23:06:04Z</time>
      </trkpt>
      <trkpt lat="31.2017289671312" lon="121.62104758546221">
        <ele>5.5922680320218205</ele>
        <time>2020-08-17T23:06:08Z</time>
      </trkpt>
      <trkpt lat="31.202006814085873" lon="121.621107992672">
        <ele>4.729064943268895</ele>
        <time>2020-08-17T23:06:17Z</time>
      </trkpt>
      <trkpt lat="31.20227870909711" lon="121.62115647682494">
        <ele>5.277981893159449</ele>
        <time>2020-08-17T23:06:26Z</time>
      </trkpt>
      <trkpt lat="31.202438126264276" lon="121.62116567717553">
        <ele>4.541263614781201</ele>
        <time>2020-08-17T23:06:32Z</time>
      </trkpt>
      <trkpt lat="31.202458559061288" lon="121.62107652075575">
        <ele>4.746979643590748</ele>
        <time>2020-08-17T23:06:35Z</time>
      </trkpt>
      <trkpt lat="31.20239671877624" lon="121.62034457847162">
        <ele>4.133890334516764</ele>
        <time>2020-08-17T23:07:02Z</time>
      </trkpt>
      <trkpt lat="31.202425432103833" lon="121.62036977862431">
        <ele>3.7361784568056464</ele>
        <time>2020-08-17T23:07:26Z</time>
      </trkpt>
      <trkpt lat="31.202446034290457" lon="121.62037357084634">
        <ele>5.330967556685209</ele>
        <time>2020-08-17T23:07:37Z</time>
      </trkpt>
      <trkpt lat="31.202848481903906" lon="121.62029549093295">
        <ele>4.606809789314866</ele>
        <time>2020-08-17T23:07:52Z</time>
      </trkpt>
      <trkpt lat="31.202882739975564" lon="121.62020633040026">
        <ele>6.0533033004030585</ele>
        <time>2020-08-17T23:07:56Z</time>
      </trkpt>
      <trkpt lat="31.20250514118067" lon="121.61881556997606">
        <ele>5.606556539423764</ele>
        <time>2020-08-17T23:08:52Z</time>
      </trkpt>
      <trkpt lat="31.202460781263834" lon="121.6187109631024">
        <ele>6.570852453820407</ele>
        <time>2020-08-17T23:08:58Z</time>
      </trkpt>
      <trkpt lat="31.20245785502663" lon="121.61865540575559">
        <ele>5.683273542672396</ele>
        <time>2020-08-17T23:09:01Z</time>
      </trkpt>
      <trkpt lat="31.2025772047562" lon="121.61860552945352">
        <ele>5.009016264230013</ele>
        <time>2020-08-17T23:09:10Z</time>
      </trkpt>
      <trkpt lat="31.202862568090275" lon="121.61847704513711">
        <ele>3.6243502628058195</ele>
        <time>2020-08-17T23:09:31Z</time>
      </trkpt>
      <trkpt lat="31.202442309037195" lon="121.61737700655023">
        <ele>6.440485889092088</ele>
        <time>2020-08-17T23:10:14Z</time>
      </trkpt>
      <trkpt lat="31.20248144789054" lon="121.61727807834858">
        <ele>4.1132153160870075</ele>
        <time>2020-08-17T23:10:18Z</time>
      </trkpt>
      <trkpt lat="31.202546555726702" lon="121.6172412131492">
        <ele>6.8067403100430965</ele>
        <time>2020-08-17T23:10:21Z</time>
      </trkpt>
      <trkpt lat="31.202752818415703" lon="121.61703223242976">
        <ele>4.858099899254739</ele>
        <time>2020-08-17T23:10:30Z</time>
      </trkpt>
      <trkpt lat="31.2040007322976" lon="121.61600219160077">
        <ele>5.806841558776796</ele>
        <time>2020-08-17T23:11:39Z</time>
      </trkpt>
      <trkpt lat="31.204176170447955" lon="121.61598726977964">
        <ele>3.7930052457377315</ele>
        <time>2020-08-17T23:11:51Z</time>
      </trkpt>
      <trkpt lat="31.204219575677577" lon="121.61596151717772">
        <ele>5.6784426076337695</ele>
        <time>2020-08-17T23:11:54Z</time>
      </trkpt>
      <trkpt lat="31.20426783154507" lon="121.61596828924469">
        <ele>6.80825724452734</ele>
        <time>2020-08-17T23:11:57Z</time>
      </trkpt>
      <trkpt lat="31.20446094325831" lon="121.61619405045748">
        <ele>7.2657577861100435</ele>
        <time>2020-08-17T23:12:14Z</time>
      </trkpt>
      <trkpt lat="31.204498853053884" lon="121.61624717106149">
        <ele>7.225024749524891</ele>
        <time>2020-08-17T23:12:18Z</time>
      </trkpt>
      <trkpt lat="31.20455060825016" lon="121.61628131769496">
        <ele>6.521626262925565</ele>
        <time>2020-08-17T23:12:22Z</time>
      </trkpt>
      <trkpt lat="31.20458933430971" lon="121.61633118558258">
        <ele>7.225955484434962</ele>
        <time>2020-08-17T23:12:26Z</time>
      </trkpt>
      <trkpt lat="31.20389400945081" lon="121.6155894000751">
        <ele>6.765673092566431</ele>
        <time>2020-08-17T23:13:23Z</time>
      </trkpt>
      <trkpt lat="31.203697890029595" lon="121.61538640159023">
        <ele>5.903234798461199</ele>
        <time>2020-08-17T23:13:32Z</time>
      </trkpt>
      <trkpt lat="31.2036317776463" lon="121.6153365340254">
        <ele>4.369712041690946</ele>
        <time>2020-08-17T23:13:35Z</time>
      </trkpt>
      <trkpt lat="31.203598486046168" lon="121.61527148484194">
        <ele>6.867049088701606</ele>
        <time>2020-08-17T23:13:38Z</time>
      </trkpt>
      <trkpt lat="31.203829749477006" lon="121.61498198246444">
        <ele>4.592879647389054</ele>
        <time>2020-08-17T23:13:50Z</time>
      </trkpt>
      <trkpt lat="31.203869400471415" lon="121.61490771044795">
        <ele>4.534649039618671</ele>
        <time>2020-08-17T23:13:53Z</time>
      </trkpt>
      <trkpt lat="31.205954888682793" lon="121.61274252937194">
        <ele>7.370864801108837</ele>
        <time>2020-08-17T23:15:57Z</time>
      </trkpt>
      <trkpt lat="31.20600862120738" lon="121.61268261638618">
        <ele>7.260546350851655</ele>
        <time>2020-08-17T23:16:00Z</time>
      </trkpt>
      <trkpt lat="31.206155913221217" lon="121.61260019582407">
        <ele>6.699912737123668</ele>
        <time>2020-08-17T23:16:06Z</time>
      </trkpt>
      <trkpt lat="31.20628589265142" lon="121.6124665419143">
        <ele>6.905828557908535</ele>
        <time>2020-08-17T23:16:12Z</time>
      </trkpt>
      <trkpt lat="31.206361088865723" lon="121.61234969895573">
        <ele>7.582693767733872</ele>
        <time>2020-08-17T23:16:15Z</time>
      </trkpt>
      <trkpt lat="31.206592256195965" lon="121.61214446864264">
        <ele>8.230480876751244</ele>
        <time>2020-08-17T23:16:25Z</time>
      </trkpt>
      <trkpt lat="31.206675529892117" lon="121.61209919034962">
        <ele>6.647918201051652</ele>
        <time>2020-08-17T23:16:28Z</time>
      </trkpt>
      <trkpt lat="31.206745534984986" lon="121.61203168391494">
        <ele>5.671009984798729</ele>
        <time>2020-08-17T23:16:32Z</time>
      </trkpt>
      <trkpt lat="31.206792017720634" lon="121.61187715977758">
        <ele>8.139196172356606</ele>
        <time>2020-08-17T23:16:48Z</time>
      </trkpt>
      <trkpt lat="31.20682976492804" lon="121.61179935394152">
        <ele>7.854614161886275</ele>
        <time>2020-08-17T23:16:50Z</time>
      </trkpt>
      <trkpt lat="31.206795038276876" lon="121.61182727907176">
        <ele>4.855018482543528</ele>
        <time>2020-08-17T23:16:59Z</time>
      </trkpt>
      <trkpt lat="31.20679585622892" lon="121.61182131502933">
        <ele>5.074666166678071</ele>
        <time>2020-08-17T23:17:01Z</time>
      </trkpt>
      <trkpt lat="31.20678661756332" lon="121.61184761148867">
        <ele>7.31560293585062</ele>
        <time>2020-08-17T23:17:16Z</time>
      </trkpt>
      <trkpt lat="31.20677960851339" lon="121.61179447846709">
        <ele>7.631880231201649</ele>
        <time>2020-08-17T23:17:19Z</time>
      </trkpt>
      <trkpt lat="31.206092856449082" lon="121.61102110213571">
        <ele>7.764071609824896</ele>
        <time>2020-08-17T23:17:55Z</time>
      </trkpt>
      <trkpt lat="31.205945482005376" lon="121.61085167665821">
        <ele>7.010753383859992</ele>
        <time>2020-08-17T23:18:04Z</time>
      </trkpt>
    </trkseg>
  </trk>
</gpx>