<?xml version="1.0" encoding="UTF-8"?>
<gpx xmlns="http://www.topografix.com/GPX/1/1" xmlns:gpxtpx="http://www.garmin.com/xmlschemas/TrackPointExtension/v1" xmlns:xsi="http://www.w3.org/2001/XMLSchema-instance" xsi:schemaLocation="http://www.topografix.com/GPX/1/1 http://www.topografix.com/GPX/1/1/gpx.xsd" version="1.1" creator="gpx.py -- https://github.com/tkrajina/gpxpy">
  <trk>
    <name>gpx from keep</name>
    <type>Run</type>
    <trkseg>
      <trkpt lat="31.204544036870818" lon="121.61077696844528">
        <ele>8.962672185152769</ele>
        <time>2020-05-21T22:50:19Z</time>
      </trkpt>
      <trkpt lat="31.20465594847135" lon="121.61086994704411">
        <ele>8.834989266470075</ele>
        <time>2020-05-21T22:50:30Z</time>
      </trkpt>
      <trkpt lat="31.20479379199217" lon="121.61072218509646">
        <ele>7.086726521141827</ele>
        <time>2020-05-21T22:50:37Z</time>
      </trkpt>
      <trkpt lat="31.204876779890096" lon="121.61069371242313">
        <ele>6.261580307036638</ele>
        <time>2020-05-21T22:50:40Z</time>
      </trkpt>
      <trkpt lat="31.204999742992992" lon="121.61049959157546">
        <ele>5.8054455341771245</ele>
        <time>2020-05-21T22:50:47Z</time>
      </trkpt>
      <trkpt lat="31.20508545298235" lon="121.61045566536257">
        <ele>4.914657945744693</ele>
        <time>2020-05-21T22:50:50Z</time>
      </trkpt>
      <trkpt lat="31.205187236034007" lon="121.61030383708783">
        <ele>4.969369907863438</ele>
        <time>2020-05-21T22:50:57Z</time>
      </trkpt>
      <trkpt lat="31.205278931597718" lon="121.61023008806565">
        <ele>6.2287119291722775</ele>
        <time>2020-05-21T22:51:01Z</time>
      </trkpt>
      <trkpt lat="31.205325846392178" lon="121.61021815540212">
        <ele>6.467403537593782</ele>
        <time>2020-05-21T22:51:04Z</time>
      </trkpt>
      <trkpt lat="31.205414745571115" lon="121.61026559204794">
        <ele>7.0706084119156</ele>
        <time>2020-05-21T22:51:08Z</time>
      </trkpt>
      <trkpt lat="31.205533677967043" lon="121.61040194925955">
        <ele>5.841248191893101</ele>
        <time>2020-05-21T22:51:15Z</time>
      </trkpt>
      <trkpt lat="31.205708477871575" lon="121.61051823925388">
        <ele>4.5781027134507895</ele>
        <time>2020-05-21T22:51:22Z</time>
      </trkpt>
      <trkpt lat="31.205791969865388" lon="121.61054317401971">
        <ele>5.501575515605509</ele>
        <time>2020-05-21T22:51:25Z</time>
      </trkpt>
      <trkpt lat="31.205914423846057" lon="121.61068196920179">
        <ele>6.718002907931805</ele>
        <time>2020-05-21T22:51:32Z</time>
      </trkpt>
      <trkpt lat="31.205978061828954" lon="121.61079148940438">
        <ele>7.17332177143544</ele>
        <time>2020-05-21T22:51:36Z</time>
      </trkpt>
      <trkpt lat="31.20605933813359" lon="121.61088040396127">
        <ele>7.220229827798903</ele>
        <time>2020-05-21T22:51:40Z</time>
      </trkpt>
      <trkpt lat="31.206110490373998" lon="121.61100727461175">
        <ele>8.466399474069476</ele>
        <time>2020-05-21T22:51:44Z</time>
      </trkpt>
      <trkpt lat="31.206207227448978" lon="121.61108696970334">
        <ele>7.48926851991564</ele>
        <time>2020-05-21T22:51:48Z</time>
      </trkpt>
      <trkpt lat="31.20626763290197" lon="121.6111655831306">
        <ele>8.527657157741487</ele>
        <time>2020-05-21T22:51:52Z</time>
      </trkpt>
      <trkpt lat="31.206261057167435" lon="121.6112582988448">
        <ele>5.8474547024816275</ele>
        <time>2020-05-21T22:51:55Z</time>
      </trkpt>
      <trkpt lat="31.20632901859665" lon="121.61138435272426">
        <ele>7.354816576465964</ele>
        <time>2020-05-21T22:51:59Z</time>
      </trkpt>
      <trkpt lat="31.206558508058226" lon="121.61160120868577">
        <ele>6.579779169522226</ele>
        <time>2020-05-21T22:52:09Z</time>
      </trkpt>
      <trkpt lat="31.206589884859028" lon="121.61170042569235">
        <ele>6.77218818385154</ele>
        <time>2020-05-21T22:52:13Z</time>
      </trkpt>
      <trkpt lat="31.206530462334612" lon="121.6117581729633">
        <ele>7.163710379041731</ele>
        <time>2020-05-21T22:52:19Z</time>
      </trkpt>
      <trkpt lat="31.20641628182457" lon="121.61180074357982">
        <ele>9.622830373235047</ele>
        <time>2020-05-21T22:52:22Z</time>
      </trkpt>
      <trkpt lat="31.20624074539804" lon="121.61194687516334">
        <ele>7.495289840735495</ele>
        <time>2020-05-21T22:52:30Z</time>
      </trkpt>
      <trkpt lat="31.206201378676358" lon="121.61201465040018">
        <ele>7.348601205274463</ele>
        <time>2020-05-21T22:52:33Z</time>
      </trkpt>
      <trkpt lat="31.20607329214329" lon="121.61215779476377">
        <ele>7.674769007600844</ele>
        <time>2020-05-21T22:52:40Z</time>
      </trkpt>
      <trkpt lat="31.20599380249683" lon="121.61221825340262">
        <ele>7.85067025385797</ele>
        <time>2020-05-21T22:52:44Z</time>
      </trkpt>
      <trkpt lat="31.20587869605698" lon="121.61240395550126">
        <ele>6.3622604832053185</ele>
        <time>2020-05-21T22:52:52Z</time>
      </trkpt>
      <trkpt lat="31.2057337936175" lon="121.61255143615331">
        <ele>6.022412850521505</ele>
        <time>2020-05-21T22:52:59Z</time>
      </trkpt>
      <trkpt lat="31.205648632414114" lon="121.6125826175185">
        <ele>8.439445104449987</ele>
        <time>2020-05-21T22:53:02Z</time>
      </trkpt>
      <trkpt lat="31.20541987869491" lon="121.61281712022543">
        <ele>8.492704378440976</ele>
        <time>2020-05-21T22:53:12Z</time>
      </trkpt>
      <trkpt lat="31.205183732244233" lon="121.61313809409602">
        <ele>8.724154536612332</ele>
        <time>2020-05-21T22:53:27Z</time>
      </trkpt>
      <trkpt lat="31.2051185947082" lon="121.61321806630716">
        <ele>6.343915869481862</ele>
        <time>2020-05-21T22:53:31Z</time>
      </trkpt>
      <trkpt lat="31.204947989470146" lon="121.613292896587">
        <ele>7.813317482359707</ele>
        <time>2020-05-21T22:53:38Z</time>
      </trkpt>
      <trkpt lat="31.204860083004448" lon="121.61336446692836">
        <ele>8.040656438097358</ele>
        <time>2020-05-21T22:53:42Z</time>
      </trkpt>
      <trkpt lat="31.204635889568934" lon="121.61364992237372">
        <ele>7.568029879592359</ele>
        <time>2020-05-21T22:53:53Z</time>
      </trkpt>
      <trkpt lat="31.204516732574845" lon="121.61380416972487">
        <ele>8.876766945235431</ele>
        <time>2020-05-21T22:54:00Z</time>
      </trkpt>
      <trkpt lat="31.20424866703105" lon="121.61402294176695">
        <ele>4.744561838917434</ele>
        <time>2020-05-21T22:54:11Z</time>
      </trkpt>
      <trkpt lat="31.204022329841855" lon="121.61427071193117">
        <ele>9.415036785416305</ele>
        <time>2020-05-21T22:54:21Z</time>
      </trkpt>
      <trkpt lat="31.203852197579696" lon="121.61442306204134">
        <ele>9.796126002445817</ele>
        <time>2020-05-21T22:54:29Z</time>
      </trkpt>
      <trkpt lat="31.203666274058236" lon="121.61464995330938">
        <ele>7.155477569438517</ele>
        <time>2020-05-21T22:54:39Z</time>
      </trkpt>
      <trkpt lat="31.203606306567657" lon="121.61470362751929">
        <ele>7.396201268769801</ele>
        <time>2020-05-21T22:54:42Z</time>
      </trkpt>
      <trkpt lat="31.203449252047044" lon="121.61478089149027">
        <ele>5.813480467535555</ele>
        <time>2020-05-21T22:54:49Z</time>
      </trkpt>
      <trkpt lat="31.20337896077795" lon="121.61485787698194">
        <ele>7.23304854799062</ele>
        <time>2020-05-21T22:54:52Z</time>
      </trkpt>
      <trkpt lat="31.203349879202403" lon="121.61493784041097">
        <ele>7.249222199432552</ele>
        <time>2020-05-21T22:54:56Z</time>
      </trkpt>
      <trkpt lat="31.203365238201073" lon="121.61504653149503">
        <ele>7.140362943522632</ele>
        <time>2020-05-21T22:55:04Z</time>
      </trkpt>
      <trkpt lat="31.203390381882762" lon="121.6151278450696">
        <ele>9.292936058714986</ele>
        <time>2020-05-21T22:55:44Z</time>
      </trkpt>
      <trkpt lat="31.203501679953046" lon="121.61528369009979">
        <ele>7.270596019923687</ele>
        <time>2020-05-21T22:55:51Z</time>
      </trkpt>
      <trkpt lat="31.203463912081748" lon="121.61537341059507">
        <ele>8.076006128452718</ele>
        <time>2020-05-21T22:55:55Z</time>
      </trkpt>
      <trkpt lat="31.203394468268677" lon="121.61541055001697">
        <ele>6.910378472879529</ele>
        <time>2020-05-21T22:55:58Z</time>
      </trkpt>
      <trkpt lat="31.20316841770141" lon="121.6156274065718">
        <ele>5.434480180963874</ele>
        <time>2020-05-21T22:56:10Z</time>
      </trkpt>
      <trkpt lat="31.203028627608873" lon="121.6157989897129">
        <ele>6.742639685980976</ele>
        <time>2020-05-21T22:56:17Z</time>
      </trkpt>
      <trkpt lat="31.202749366600177" lon="121.61608658899442">
        <ele>5.16964849922806</ele>
        <time>2020-05-21T22:56:31Z</time>
      </trkpt>
      <trkpt lat="31.202556169678523" lon="121.6162478738264">
        <ele>5.675522728823125</ele>
        <time>2020-05-21T22:56:41Z</time>
      </trkpt>
      <trkpt lat="31.20231405593914" lon="121.61652868884352">
        <ele>5.705319239757955</ele>
        <time>2020-05-21T22:56:53Z</time>
      </trkpt>
      <trkpt lat="31.202095550190904" lon="121.61678618984465">
        <ele>5.252085652202368</ele>
        <time>2020-05-21T22:57:04Z</time>
      </trkpt>
      <trkpt lat="31.201871078960107" lon="121.61704179143241">
        <ele>5.803357352502644</ele>
        <time>2020-05-21T22:57:18Z</time>
      </trkpt>
      <trkpt lat="31.201918246567693" lon="121.61705208668506">
        <ele>6.032323245890439</ele>
        <time>2020-05-21T22:57:32Z</time>
      </trkpt>
      <trkpt lat="31.20184032093272" lon="121.61716700971841">
        <ele>5.039651799947023</ele>
        <time>2020-05-21T22:57:49Z</time>
      </trkpt>
      <trkpt lat="31.201793375091402" lon="121.6172082099842">
        <ele>3.7479524025693536</ele>
        <time>2020-05-21T22:57:52Z</time>
      </trkpt>
      <trkpt lat="31.201685435097804" lon="121.61723776101331">
        <ele>5.139234609901905</ele>
        <time>2020-05-21T22:57:56Z</time>
      </trkpt>
      <trkpt lat="31.20162491023167" lon="121.61730199963979">
        <ele>6.484854803420603</ele>
        <time>2020-05-21T22:57:59Z</time>
      </trkpt>
      <trkpt lat="31.20153456433917" lon="121.61736217516311">
        <ele>7.26999693736434</ele>
        <time>2020-05-21T22:58:03Z</time>
      </trkpt>
      <trkpt lat="31.201324209696903" lon="121.6175944615513">
        <ele>5.386497220955789</ele>
        <time>2020-05-21T22:58:14Z</time>
      </trkpt>
      <trkpt lat="31.201091629203834" lon="121.61781753286651">
        <ele>4.63396929576993</ele>
        <time>2020-05-21T22:58:24Z</time>
      </trkpt>
      <trkpt lat="31.200909717208724" lon="121.61807284930485">
        <ele>7.174645196646452</ele>
        <time>2020-05-21T22:58:34Z</time>
      </trkpt>
      <trkpt lat="31.20083291407352" lon="121.61814548869947">
        <ele>5.997017087414861</ele>
        <time>2020-05-21T22:58:38Z</time>
      </trkpt>
      <trkpt lat="31.200662945122733" lon="121.61838481088397">
        <ele>7.1809679213911295</ele>
        <time>2020-05-21T22:58:48Z</time>
      </trkpt>
      <trkpt lat="31.20057826496943" lon="121.61847072976386">
        <ele>7.309691330417991</ele>
        <time>2020-05-21T22:58:52Z</time>
      </trkpt>
      <trkpt lat="31.200528569643417" lon="121.61854797300772">
        <ele>6.9882751340046525</ele>
        <time>2020-05-21T22:58:55Z</time>
      </trkpt>
      <trkpt lat="31.200441719114025" lon="121.61863470455147">
        <ele>7.203221269883215</ele>
        <time>2020-05-21T22:58:59Z</time>
      </trkpt>
      <trkpt lat="31.200369487598827" lon="121.6187431155574">
        <ele>7.235819593071938</ele>
        <time>2020-05-21T22:59:03Z</time>
      </trkpt>
      <trkpt lat="31.200305719014274" lon="121.61879434204836">
        <ele>7.923303727991879</ele>
        <time>2020-05-21T22:59:06Z</time>
      </trkpt>
      <trkpt lat="31.20006981157532" lon="121.61908000602456">
        <ele>5.453144086524844</ele>
        <time>2020-05-21T22:59:18Z</time>
      </trkpt>
      <trkpt lat="31.199998654851683" lon="121.61919627425043">
        <ele>5.531718283891678</ele>
        <time>2020-05-21T22:59:22Z</time>
      </trkpt>
      <trkpt lat="31.199845834638698" lon="121.61936241374569">
        <ele>5.685069021768868</ele>
        <time>2020-05-21T22:59:30Z</time>
      </trkpt>
      <trkpt lat="31.19976497171493" lon="121.61942502260739">
        <ele>6.493852326646447</ele>
        <time>2020-05-21T22:59:34Z</time>
      </trkpt>
      <trkpt lat="31.19951717395494" lon="121.6196670491999">
        <ele>4.850151879712939</ele>
        <time>2020-05-21T22:59:46Z</time>
      </trkpt>
      <trkpt lat="31.19928241724649" lon="121.61988197245758">
        <ele>4.678472340106964</ele>
        <time>2020-05-21T22:59:58Z</time>
      </trkpt>
      <trkpt lat="31.199113377383764" lon="121.61999878714597">
        <ele>5.599803671240807</ele>
        <time>2020-05-21T23:00:05Z</time>
      </trkpt>
      <trkpt lat="31.19893291692128" lon="121.62014622494787">
        <ele>5.614818835631013</ele>
        <time>2020-05-21T23:00:14Z</time>
      </trkpt>
      <trkpt lat="31.198752801451537" lon="121.62022374492058">
        <ele>6.3283288246020675</ele>
        <time>2020-05-21T23:00:22Z</time>
      </trkpt>
      <trkpt lat="31.198670563147672" lon="121.62030315353186">
        <ele>7.374191602692008</ele>
        <time>2020-05-21T23:00:26Z</time>
      </trkpt>
      <trkpt lat="31.19853419529964" lon="121.62054434970324">
        <ele>6.516038275323808</ele>
        <time>2020-05-21T23:00:34Z</time>
      </trkpt>
      <trkpt lat="31.198371604468747" lon="121.62071264926784">
        <ele>7.839568137191236</ele>
        <time>2020-05-21T23:00:42Z</time>
      </trkpt>
      <trkpt lat="31.19812328042136" lon="121.62093054587775">
        <ele>6.316666611470282</ele>
        <time>2020-05-21T23:00:54Z</time>
      </trkpt>
      <trkpt lat="31.197848057567306" lon="121.62119857540702">
        <ele>5.0290831765159965</ele>
        <time>2020-05-21T23:01:08Z</time>
      </trkpt>
      <trkpt lat="31.19762090726265" lon="121.62139045176377">
        <ele>6.745502443052828</ele>
        <time>2020-05-21T23:01:19Z</time>
      </trkpt>
      <trkpt lat="31.19732618924806" lon="121.62163110909117">
        <ele>5.576794200576842</ele>
        <time>2020-05-21T23:01:33Z</time>
      </trkpt>
      <trkpt lat="31.197095213413164" lon="121.62184709983066">
        <ele>4.912717291153967</ele>
        <time>2020-05-21T23:01:44Z</time>
      </trkpt>
      <trkpt lat="31.196793452190953" lon="121.62207908234174">
        <ele>5.386067666113377</ele>
        <time>2020-05-21T23:01:58Z</time>
      </trkpt>
      <trkpt lat="31.19669028431697" lon="121.62220048841557">
        <ele>4.323171985335648</ele>
        <time>2020-05-21T23:02:04Z</time>
      </trkpt>
      <trkpt lat="31.196657670949172" lon="121.62226877698691">
        <ele>6.11341508384794</ele>
        <time>2020-05-21T23:02:07Z</time>
      </trkpt>
      <trkpt lat="31.196701477032846" lon="121.62260992914925">
        <ele>5.994971309788525</ele>
        <time>2020-05-21T23:02:18Z</time>
      </trkpt>
      <trkpt lat="31.19675613374711" lon="121.62294321801588">
        <ele>4.603585543110967</ele>
        <time>2020-05-21T23:02:30Z</time>
      </trkpt>
      <trkpt lat="31.19676997698067" lon="121.62316378439216">
        <ele>5.5956468703225255</ele>
        <time>2020-05-21T23:02:38Z</time>
      </trkpt>
      <trkpt lat="31.196830762146945" lon="121.62335237130625">
        <ele>6.469749770127237</ele>
        <time>2020-05-21T23:02:45Z</time>
      </trkpt>
      <trkpt lat="31.196877399755724" lon="121.62358133149526">
        <ele>6.770507792010903</ele>
        <time>2020-05-21T23:02:53Z</time>
      </trkpt>
      <trkpt lat="31.19691684510352" lon="121.62370028039693">
        <ele>5.400420411489904</ele>
        <time>2020-05-21T23:02:57Z</time>
      </trkpt>
      <trkpt lat="31.196944205859797" lon="121.62394929023162">
        <ele>5.534108811058104</ele>
        <time>2020-05-21T23:03:05Z</time>
      </trkpt>
      <trkpt lat="31.196969009854264" lon="121.62383900779756">
        <ele>5.648289080709219</ele>
        <time>2020-05-21T23:03:13Z</time>
      </trkpt>
      <trkpt lat="31.196904939202476" lon="121.62344937028682">
        <ele>5.805754139088094</ele>
        <time>2020-05-21T23:03:27Z</time>
      </trkpt>
      <trkpt lat="31.196892295217264" lon="121.62336455961281">
        <ele>5.795572959817946</ele>
        <time>2020-05-21T23:03:30Z</time>
      </trkpt>
      <trkpt lat="31.19680371051628" lon="121.62306650449788">
        <ele>5.829430460929871</ele>
        <time>2020-05-21T23:03:40Z</time>
      </trkpt>
      <trkpt lat="31.196801537509916" lon="121.62283536855264">
        <ele>4.734678183682263</ele>
        <time>2020-05-21T23:03:48Z</time>
      </trkpt>
      <trkpt lat="31.196951624918405" lon="121.62270447747474">
        <ele>3.9910120721906424</ele>
        <time>2020-05-21T23:03:56Z</time>
      </trkpt>
      <trkpt lat="31.1970132073872" lon="121.6226738526424">
        <ele>4.268163797445595</ele>
        <time>2020-05-21T23:03:59Z</time>
      </trkpt>
      <trkpt lat="31.19721732428818" lon="121.62247765184193">
        <ele>5.998812067322433</ele>
        <time>2020-05-21T23:04:10Z</time>
      </trkpt>
      <trkpt lat="31.197439292048706" lon="121.62231911366378">
        <ele>5.677580791525543</ele>
        <time>2020-05-21T23:04:20Z</time>
      </trkpt>
      <trkpt lat="31.19751422267351" lon="121.62223293732887">
        <ele>5.1001917365938425</ele>
        <time>2020-05-21T23:04:24Z</time>
      </trkpt>
      <trkpt lat="31.197775048921322" lon="121.62199662389278">
        <ele>2.792737969197333</ele>
        <time>2020-05-21T23:04:36Z</time>
      </trkpt>
      <trkpt lat="31.197938682255764" lon="121.62187223111839">
        <ele>6.0338631477206945</ele>
        <time>2020-05-21T23:04:44Z</time>
      </trkpt>
      <trkpt lat="31.198080010954776" lon="121.62181151997851">
        <ele>5.8217650623992085</ele>
        <time>2020-05-21T23:04:51Z</time>
      </trkpt>
      <trkpt lat="31.198196452677486" lon="121.621699324399">
        <ele>5.946802643127739</ele>
        <time>2020-05-21T23:04:57Z</time>
      </trkpt>
      <trkpt lat="31.198297655349677" lon="121.6216367193136">
        <ele>5.8874129224568605</ele>
        <time>2020-05-21T23:05:01Z</time>
      </trkpt>
      <trkpt lat="31.19835629649417" lon="121.62156815598983">
        <ele>3.7948929527774453</ele>
        <time>2020-05-21T23:05:05Z</time>
      </trkpt>
      <trkpt lat="31.19848818507383" lon="121.62146219072628">
        <ele>6.143182938918471</ele>
        <time>2020-05-21T23:05:12Z</time>
      </trkpt>
      <trkpt lat="31.198589781865767" lon="121.62128766834869">
        <ele>5.2135977344587445</ele>
        <time>2020-05-21T23:05:19Z</time>
      </trkpt>
      <trkpt lat="31.198672859112666" lon="121.62118739671472">
        <ele>5.643142485059798</ele>
        <time>2020-05-21T23:05:23Z</time>
      </trkpt>
      <trkpt lat="31.19882887582722" lon="121.62108278286496">
        <ele>5.772899428382516</ele>
        <time>2020-05-21T23:05:30Z</time>
      </trkpt>
      <trkpt lat="31.198983025873193" lon="121.62094917296794">
        <ele>5.12058543972671</ele>
        <time>2020-05-21T23:05:37Z</time>
      </trkpt>
      <trkpt lat="31.199111699615678" lon="121.6208055378606">
        <ele>4.539371929131448</ele>
        <time>2020-05-21T23:05:44Z</time>
      </trkpt>
      <trkpt lat="31.199196635382528" lon="121.62074022209111">
        <ele>5.6644744500517845</ele>
        <time>2020-05-21T23:05:48Z</time>
      </trkpt>
      <trkpt lat="31.19926010540762" lon="121.62071745358804">
        <ele>6.471337786875665</ele>
        <time>2020-05-21T23:05:51Z</time>
      </trkpt>
      <trkpt lat="31.199626865090142" lon="121.620795739578">
        <ele>5.564008737914264</ele>
        <time>2020-05-21T23:06:06Z</time>
      </trkpt>
      <trkpt lat="31.199892041136792" lon="121.6207894848545">
        <ele>6.640248524025083</ele>
        <time>2020-05-21T23:06:16Z</time>
      </trkpt>
      <trkpt lat="31.199952205603164" lon="121.62081468197562">
        <ele>5.746553188189864</ele>
        <time>2020-05-21T23:06:19Z</time>
      </trkpt>
      <trkpt lat="31.200053621298043" lon="121.62080410496361">
        <ele>5.168288215063512</ele>
        <time>2020-05-21T23:06:23Z</time>
      </trkpt>
      <trkpt lat="31.200308968629074" lon="121.62086044975429">
        <ele>5.325219883583486</ele>
        <time>2020-05-21T23:06:33Z</time>
      </trkpt>
      <trkpt lat="31.20051583768442" lon="121.62086639440795">
        <ele>5.689051318913698</ele>
        <time>2020-05-21T23:06:41Z</time>
      </trkpt>
      <trkpt lat="31.20069986571152" lon="121.62093277155951">
        <ele>4.696953249163926</ele>
        <time>2020-05-21T23:06:47Z</time>
      </trkpt>
      <trkpt lat="31.20097501846716" lon="121.62097746193">
        <ele>5.020087969489396</ele>
        <time>2020-05-21T23:06:58Z</time>
      </trkpt>
      <trkpt lat="31.20134506624998" lon="121.6210240412866">
        <ele>5.030349597334862</ele>
        <time>2020-05-21T23:07:12Z</time>
      </trkpt>
      <trkpt lat="31.201415261681493" lon="121.62105005031447">
        <ele>4.48612897656858</ele>
        <time>2020-05-21T23:07:15Z</time>
      </trkpt>
      <trkpt lat="31.2015126046387" lon="121.62104489349055">
        <ele>3.9805409256368876</ele>
        <time>2020-05-21T23:07:19Z</time>
      </trkpt>
      <trkpt lat="31.201687730063895" lon="121.62107008085094">
        <ele>3.984227436594665</ele>
        <time>2020-05-21T23:07:25Z</time>
      </trkpt>
      <trkpt lat="31.201781779393546" lon="121.62110150760383">
        <ele>4.216320092789829</ele>
        <time>2020-05-21T23:07:29Z</time>
      </trkpt>
      <trkpt lat="31.20211713356578" lon="121.62113752112485">
        <ele>2.5451601976528764</ele>
        <time>2020-05-21T23:07:42Z</time>
      </trkpt>
      <trkpt lat="31.202294410831904" lon="121.62117842543519">
        <ele>4.306703606620431</ele>
        <time>2020-05-21T23:07:50Z</time>
      </trkpt>
      <trkpt lat="31.202364639804717" lon="121.62117381285307">
        <ele>3.090259365737438</ele>
        <time>2020-05-21T23:07:58Z</time>
      </trkpt>
      <trkpt lat="31.202446020676295" lon="121.62113695193129">
        <ele>4.534538223408163</ele>
        <time>2020-05-21T23:08:05Z</time>
      </trkpt>
      <trkpt lat="31.202423050477204" lon="121.62106731011875">
        <ele>2.8521597301587462</ele>
        <time>2020-05-21T23:08:09Z</time>
      </trkpt>
      <trkpt lat="31.202419282762367" lon="121.62079252759507">
        <ele>6.667576564475894</ele>
        <time>2020-05-21T23:08:20Z</time>
      </trkpt>
      <trkpt lat="31.202468901025888" lon="121.62079198150784">
        <ele>4.030257529579103</ele>
        <time>2020-05-21T23:09:10Z</time>
      </trkpt>
      <trkpt lat="31.20243298352322" lon="121.62065946983141">
        <ele>3.732967121526599</ele>
        <time>2020-05-21T23:09:38Z</time>
      </trkpt>
      <trkpt lat="31.20240129443172" lon="121.62037601350153">
        <ele>4.333336163312197</ele>
        <time>2020-05-21T23:09:50Z</time>
      </trkpt>
      <trkpt lat="31.20244605314123" lon="121.62035595617921">
        <ele>5.319074966944754</ele>
        <time>2020-05-21T23:10:17Z</time>
      </trkpt>
      <trkpt lat="31.202411301751706" lon="121.62039904721588">
        <ele>5.4786291075870395</ele>
        <time>2020-05-21T23:11:01Z</time>
      </trkpt>
      <trkpt lat="31.202486981163332" lon="121.62036841855677">
        <ele>5.915846357122064</ele>
        <time>2020-05-21T23:11:41Z</time>
      </trkpt>
      <trkpt lat="31.202587280172043" lon="121.62038792187596">
        <ele>4.241563620977104</ele>
        <time>2020-05-21T23:11:45Z</time>
      </trkpt>
      <trkpt lat="31.202762222200302" lon="121.6203318114532">
        <ele>4.2207221472635865</ele>
        <time>2020-05-21T23:11:56Z</time>
      </trkpt>
      <trkpt lat="31.202857668065842" lon="121.6203258416595">
        <ele>5.992939782328904</ele>
        <time>2020-05-21T23:11:59Z</time>
      </trkpt>
      <trkpt lat="31.202875952078415" lon="121.62021527384519">
        <ele>5.165648776106536</ele>
        <time>2020-05-21T23:12:03Z</time>
      </trkpt>
      <trkpt lat="31.202766853685134" lon="121.61979930003288">
        <ele>5.74362210649997</ele>
        <time>2020-05-21T23:12:17Z</time>
      </trkpt>
      <trkpt lat="31.202683394345236" lon="121.6194919902206">
        <ele>5.579137080349028</ele>
        <time>2020-05-21T23:12:27Z</time>
      </trkpt>
      <trkpt lat="31.20265015929656" lon="121.61938169409709">
        <ele>4.915315165184438</ele>
        <time>2020-05-21T23:12:31Z</time>
      </trkpt>
      <trkpt lat="31.20256021527547" lon="121.61904809197438">
        <ele>4.446681356988847</ele>
        <time>2020-05-21T23:12:42Z</time>
      </trkpt>
      <trkpt lat="31.20247617794569" lon="121.61876814536589">
        <ele>4.977549792267382</ele>
        <time>2020-05-21T23:12:52Z</time>
      </trkpt>
      <trkpt lat="31.20252073033936" lon="121.61868304385692">
        <ele>4.72541104350239</ele>
        <time>2020-05-21T23:12:56Z</time>
      </trkpt>
      <trkpt lat="31.20258446074771" lon="121.61866948794899">
        <ele>3.1386146740987897</ele>
        <time>2020-05-21T23:13:00Z</time>
      </trkpt>
      <trkpt lat="31.202670459279574" lon="121.61862124051386">
        <ele>5.155057435855269</ele>
        <time>2020-05-21T23:13:04Z</time>
      </trkpt>
      <trkpt lat="31.202701678370996" lon="121.6185830250279">
        <ele>5.249180472455919</ele>
        <time>2020-05-21T23:13:07Z</time>
      </trkpt>
      <trkpt lat="31.20275919285591" lon="121.61854941454808">
        <ele>4.28722332790494</ele>
        <time>2020-05-21T23:13:10Z</time>
      </trkpt>
      <trkpt lat="31.202661402990955" lon="121.61818897135869">
        <ele>5.897247943095863</ele>
        <time>2020-05-21T23:13:25Z</time>
      </trkpt>
      <trkpt lat="31.202700537426196" lon="121.61809736388975">
        <ele>5.242243999615312</ele>
        <time>2020-05-21T23:13:29Z</time>
      </trkpt>
      <trkpt lat="31.202655409909777" lon="121.61794369941829">
        <ele>5.30976199451834</ele>
        <time>2020-05-21T23:13:35Z</time>
      </trkpt>
      <trkpt lat="31.202524770213664" lon="121.61761902544474">
        <ele>6.102081294171512</ele>
        <time>2020-05-21T23:13:47Z</time>
      </trkpt>
      <trkpt lat="31.202462016874357" lon="121.61746481743427">
        <ele>5.582124141044915</ele>
        <time>2020-05-21T23:13:54Z</time>
      </trkpt>
      <trkpt lat="31.20246133924412" lon="121.61732442572921">
        <ele>5.79362731706351</ele>
        <time>2020-05-21T23:14:02Z</time>
      </trkpt>
      <trkpt lat="31.202528878475196" lon="121.61729677533891">
        <ele>5.431030943058431</ele>
        <time>2020-05-21T23:14:05Z</time>
      </trkpt>
      <trkpt lat="31.202800001838455" lon="121.61702599482373">
        <ele>3.741140989586711</ele>
        <time>2020-05-21T23:14:20Z</time>
      </trkpt>
      <trkpt lat="31.202867814512977" lon="121.61699563376837">
        <ele>4.264355261810124</ele>
        <time>2020-05-21T23:14:23Z</time>
      </trkpt>
      <trkpt lat="31.203032013863524" lon="121.6168243280408">
        <ele>5.138933244161308</ele>
        <time>2020-05-21T23:14:34Z</time>
      </trkpt>
      <trkpt lat="31.20312534964871" lon="121.6167552068548">
        <ele>5.1116338316351175</ele>
        <time>2020-05-21T23:14:38Z</time>
      </trkpt>
      <trkpt lat="31.203213229617774" lon="121.61672104933098">
        <ele>3.858648124150932</ele>
        <time>2020-05-21T23:14:42Z</time>
      </trkpt>
      <trkpt lat="31.203323681316956" lon="121.61661506568987">
        <ele>3.555790627375245</ele>
        <time>2020-05-21T23:14:48Z</time>
      </trkpt>
      <trkpt lat="31.203578212873683" lon="121.61639387897745">
        <ele>5.361604326404631</ele>
        <time>2020-05-21T23:15:00Z</time>
      </trkpt>
      <trkpt lat="31.203690548734865" lon="121.61630144569968">
        <ele>5.008999942801893</ele>
        <time>2020-05-21T23:15:06Z</time>
      </trkpt>
      <trkpt lat="31.20378277288187" lon="121.61626024017035">
        <ele>5.765235704369843</ele>
        <time>2020-05-21T23:15:10Z</time>
      </trkpt>
      <trkpt lat="31.203892979488973" lon="121.6161241690718">
        <ele>6.032256000675261</ele>
        <time>2020-05-21T23:15:17Z</time>
      </trkpt>
      <trkpt lat="31.203957284443902" lon="121.61607429223838">
        <ele>5.1397461630403996</ele>
        <time>2020-05-21T23:15:20Z</time>
      </trkpt>
      <trkpt lat="31.204074434784264" lon="121.61605259924947">
        <ele>7.272926643490791</ele>
        <time>2020-05-21T23:15:27Z</time>
      </trkpt>
      <trkpt lat="31.204166658342462" lon="121.61601166434188">
        <ele>5.119330827146769</ele>
        <time>2020-05-21T23:15:31Z</time>
      </trkpt>
      <trkpt lat="31.204244713932944" lon="121.61604580913018">
        <ele>7.099225507117808</ele>
        <time>2020-05-21T23:15:35Z</time>
      </trkpt>
      <trkpt lat="31.204387204728306" lon="121.61618294392315">
        <ele>2.5821618996560574</ele>
        <time>2020-05-21T23:15:42Z</time>
      </trkpt>
      <trkpt lat="31.204417789624486" lon="121.61624067282524">
        <ele>3.0285426480695605</ele>
        <time>2020-05-21T23:15:45Z</time>
      </trkpt>
      <trkpt lat="31.20458685351377" lon="121.61637482290888">
        <ele>4.495192691683769</ele>
        <time>2020-05-21T23:15:55Z</time>
      </trkpt>
      <trkpt lat="31.204589638411413" lon="121.61629567951944">
        <ele>6.496823596768081</ele>
        <time>2020-05-21T23:16:06Z</time>
      </trkpt>
      <trkpt lat="31.204429323903774" lon="121.6160818423442">
        <ele>7.274252691306174</ele>
        <time>2020-05-21T23:16:25Z</time>
      </trkpt>
      <trkpt lat="31.204261328022945" lon="121.61596422414783">
        <ele>7.344428795389831</ele>
        <time>2020-05-21T23:16:37Z</time>
      </trkpt>
      <trkpt lat="31.204167623456804" lon="121.6158457861062">
        <ele>6.820489248260856</ele>
        <time>2020-05-21T23:16:48Z</time>
      </trkpt>
      <trkpt lat="31.203947633237735" lon="121.61565688613229">
        <ele>7.967884121462703</ele>
        <time>2020-05-21T23:17:03Z</time>
      </trkpt>
      <trkpt lat="31.20373932489655" lon="121.61544087891266">
        <ele>5.626004262827337</ele>
        <time>2020-05-21T23:17:14Z</time>
      </trkpt>
      <trkpt lat="31.20357918832676" lon="121.61532434115003">
        <ele>6.488821443170309</ele>
        <time>2020-05-21T23:17:22Z</time>
      </trkpt>
      <trkpt lat="31.20363403634749" lon="121.61523597431214">
        <ele>6.770641969516873</ele>
        <time>2020-05-21T23:17:26Z</time>
      </trkpt>
      <trkpt lat="31.203861214509573" lon="121.61496680086891">
        <ele>5.601390728726983</ele>
        <time>2020-05-21T23:17:37Z</time>
      </trkpt>
      <trkpt lat="31.20406202572941" lon="121.6147713538644">
        <ele>5.270705865696073</ele>
        <time>2020-05-21T23:17:47Z</time>
      </trkpt>
      <trkpt lat="31.204242527621336" lon="121.61454446419921">
        <ele>6.950104096904397</ele>
        <time>2020-05-21T23:17:58Z</time>
      </trkpt>
      <trkpt lat="31.20430437126813" lon="121.61451572688537">
        <ele>5.910596580244601</ele>
        <time>2020-05-21T23:18:01Z</time>
      </trkpt>
      <trkpt lat="31.204530178664236" lon="121.6142560326114">
        <ele>7.520664223469794</ele>
        <time>2020-05-21T23:18:12Z</time>
      </trkpt>
      <trkpt lat="31.204698123068205" lon="121.61412482454413">
        <ele>6.495412013493478</ele>
        <time>2020-05-21T23:18:20Z</time>
      </trkpt>
      <trkpt lat="31.204939351462322" lon="121.61390090541629">
        <ele>5.78086700104177</ele>
        <time>2020-05-21T23:18:31Z</time>
      </trkpt>
      <trkpt lat="31.205149680999174" lon="121.61366207796783">
        <ele>7.1436670161783695</ele>
        <time>2020-05-21T23:18:42Z</time>
      </trkpt>
      <trkpt lat="31.205363780477448" lon="121.61345225238551">
        <ele>6.285353574901819</ele>
        <time>2020-05-21T23:18:53Z</time>
      </trkpt>
      <trkpt lat="31.20555834885113" lon="121.61325191410889">
        <ele>6.556049512699246</ele>
        <time>2020-05-21T23:19:03Z</time>
      </trkpt>
      <trkpt lat="31.20566528584816" lon="121.61311718153458">
        <ele>6.735737256705761</ele>
        <time>2020-05-21T23:19:13Z</time>
      </trkpt>
      <trkpt lat="31.20571167463306" lon="121.61308681731417">
        <ele>7.823412264697254</ele>
        <time>2020-05-21T23:19:17Z</time>
      </trkpt>
      <trkpt lat="31.205935856185924" lon="121.61280894521362">
        <ele>7.728901831433177</ele>
        <time>2020-05-21T23:19:30Z</time>
      </trkpt>
      <trkpt lat="31.206067774379168" lon="121.61262514252188">
        <ele>6.75199169293046</ele>
        <time>2020-05-21T23:19:41Z</time>
      </trkpt>
      <trkpt lat="31.206141029268835" lon="121.61256414329563">
        <ele>6.61233099270612</ele>
        <time>2020-05-21T23:19:45Z</time>
      </trkpt>
      <trkpt lat="31.20620802353884" lon="121.61253404773377">
        <ele>8.646077425219119</ele>
        <time>2020-05-21T23:19:48Z</time>
      </trkpt>
      <trkpt lat="31.206435166264928" lon="121.61227622905662">
        <ele>7.411568534560502</ele>
        <time>2020-05-21T23:20:01Z</time>
      </trkpt>
      <trkpt lat="31.20650707963911" lon="121.61219598196962">
        <ele>6.919491880573332</ele>
        <time>2020-05-21T23:20:05Z</time>
      </trkpt>
      <trkpt lat="31.206675587164227" lon="121.61202491251439">
        <ele>7.039280443452299</ele>
        <time>2020-05-21T23:20:15Z</time>
      </trkpt>
      <trkpt lat="31.2068253864703" lon="121.61185221680395">
        <ele>5.1944570345804095</ele>
        <time>2020-05-21T23:20:26Z</time>
      </trkpt>
      <trkpt lat="31.206875337396216" lon="121.61177088569991">
        <ele>7.031872800551355</ele>
        <time>2020-05-21T23:20:36Z</time>
      </trkpt>
      <trkpt lat="31.206869669274166" lon="121.61173699984475">
        <ele>8.395894806832075</ele>
        <time>2020-05-21T23:21:00Z</time>
      </trkpt>
      <trkpt lat="31.20683880189215" lon="121.61168142871797">
        <ele>8.804902400821447</ele>
        <time>2020-05-21T23:21:04Z</time>
      </trkpt>
      <trkpt lat="31.206771580088287" lon="121.61165513839092">
        <ele>8.974924209527671</ele>
        <time>2020-05-21T23:21:07Z</time>
      </trkpt>
      <trkpt lat="31.20671228223563" lon="121.61154779070866">
        <ele>8.437722125090659</ele>
        <time>2020-05-21T23:21:11Z</time>
      </trkpt>
      <trkpt lat="31.206518855976025" lon="121.61132740701852">
        <ele>9.418383322656155</ele>
        <time>2020-05-21T23:21:23Z</time>
      </trkpt>
      <trkpt lat="31.206223249298624" lon="121.61105308104474">
        <ele>7.880319804884493</ele>
        <time>2020-05-21T23:21:37Z</time>
      </trkpt>
      <trkpt lat="31.206195909399476" lon="121.61099181487772">
        <ele>7.108724278397858</ele>
        <time>2020-05-21T23:21:40Z</time>
      </trkpt>
      <trkpt lat="31.206134144395442" lon="121.61091780967347">
        <ele>6.8157939007505774</ele>
        <time>2020-05-21T23:21:43Z</time>
      </trkpt>
      <trkpt lat="31.206035771941973" lon="121.61084922928208">
        <ele>8.058828243985772</ele>
        <time>2020-05-21T23:21:47Z</time>
      </trkpt>
      <trkpt lat="31.205822290591247" lon="121.61060823660556">
        <ele>8.653887989930809</ele>
        <time>2020-05-21T23:22:04Z</time>
      </trkpt>
      <trkpt lat="31.205654869612182" lon="121.61041034354459">
        <ele>7.640485605224967</ele>
        <time>2020-05-21T23:22:14Z</time>
      </trkpt>
      <trkpt lat="31.205613178657007" lon="121.61031979723052">
        <ele>8.27024732157588</ele>
        <time>2020-05-21T23:22:17Z</time>
      </trkpt>
      <trkpt lat="31.205412940922812" lon="121.61013220654115">
        <ele>8.026415881700814</ele>
        <time>2020-05-21T23:22:32Z</time>
      </trkpt>
    </trkseg>
  </trk>
</gpx>