<?xml version="1.0" encoding="UTF-8"?>
<gpx xmlns="http://www.topografix.com/GPX/1/1" xmlns:gpxtpx="http://www.garmin.com/xmlschemas/TrackPointExtension/v1" xmlns:xsi="http://www.w3.org/2001/XMLSchema-instance" xsi:schemaLocation="http://www.topografix.com/GPX/1/1 http://www.topografix.com/GPX/1/1/gpx.xsd" version="1.1" creator="gpx.py -- https://github.com/tkrajina/gpxpy">
  <trk>
    <name>gpx from keep</name>
    <type>Run</type>
    <trkseg>
      <trkpt lat="31.204348474165133" lon="121.61050208536324">
        <ele>7.964015960693359</ele>
        <time>2018-10-16T22:37:47Z</time>
      </trkpt>
      <trkpt lat="31.204408308200453" lon="121.61062380643108">
        <ele>7.365200042724609</ele>
        <time>2018-10-16T22:37:51Z</time>
      </trkpt>
      <trkpt lat="31.20447604477519" lon="121.61068967900384">
        <ele>7.388820648193359</ele>
        <time>2018-10-16T22:37:54Z</time>
      </trkpt>
      <trkpt lat="31.2044998476851" lon="121.61076883903216">
        <ele>7.975795745849609</ele>
        <time>2018-10-16T22:37:58Z</time>
      </trkpt>
      <trkpt lat="31.204354064699547" lon="121.61102124588675">
        <ele>7.001857757568359</ele>
        <time>2018-10-16T22:38:09Z</time>
      </trkpt>
      <trkpt lat="31.20419234983668" lon="121.61118229164684">
        <ele>6.743556976318359</ele>
        <time>2018-10-16T22:38:17Z</time>
      </trkpt>
      <trkpt lat="31.204152969504218" lon="121.61127121465972">
        <ele>6.510158538818359</ele>
        <time>2018-10-16T22:38:21Z</time>
      </trkpt>
      <trkpt lat="31.204140689473256" lon="121.61137748517612">
        <ele>6.326808929443359</ele>
        <time>2018-10-16T22:38:24Z</time>
      </trkpt>
      <trkpt lat="31.2042031304374" lon="121.61163257902773">
        <ele>6.299892425537109</ele>
        <time>2018-10-16T22:38:31Z</time>
      </trkpt>
      <trkpt lat="31.204416056452647" lon="121.61187789840207">
        <ele>6.93939516935572</ele>
        <time>2018-10-16T22:38:42Z</time>
      </trkpt>
      <trkpt lat="31.204617057177433" lon="121.61211427030456">
        <ele>7.8432562277942495</ele>
        <time>2018-10-16T22:38:52Z</time>
      </trkpt>
      <trkpt lat="31.204763083028485" lon="121.61226389742208">
        <ele>8.341236552908434</ele>
        <time>2018-10-16T22:38:59Z</time>
      </trkpt>
      <trkpt lat="31.204868159373923" lon="121.6124227437747">
        <ele>8.40658665404235</ele>
        <time>2018-10-16T22:39:06Z</time>
      </trkpt>
      <trkpt lat="31.20501662865433" lon="121.61256613383574">
        <ele>8.53725211833439</ele>
        <time>2018-10-16T22:39:13Z</time>
      </trkpt>
      <trkpt lat="31.205125850117632" lon="121.61262440716537">
        <ele>8.959558263869827</ele>
        <time>2018-10-16T22:39:17Z</time>
      </trkpt>
      <trkpt lat="31.205305446504067" lon="121.61283339437183">
        <ele>8.916785313961718</ele>
        <time>2018-10-16T22:39:27Z</time>
      </trkpt>
      <trkpt lat="31.205305898513025" lon="121.6129458914238">
        <ele>8.999640657983022</ele>
        <time>2018-10-16T22:39:30Z</time>
      </trkpt>
      <trkpt lat="31.205088569422124" lon="121.61313105402836">
        <ele>9.086103468169181</ele>
        <time>2018-10-16T22:39:40Z</time>
      </trkpt>
      <trkpt lat="31.204958830232183" lon="121.61329858821566">
        <ele>8.863619616531423</ele>
        <time>2018-10-16T22:39:48Z</time>
      </trkpt>
      <trkpt lat="31.204864149145898" lon="121.61336555087942">
        <ele>8.862724461660495</ele>
        <time>2018-10-16T22:39:51Z</time>
      </trkpt>
      <trkpt lat="31.204718421379983" lon="121.61352115763881">
        <ele>8.849872126435326</ele>
        <time>2018-10-16T22:39:58Z</time>
      </trkpt>
      <trkpt lat="31.204653001698606" lon="121.61361305560786">
        <ele>8.766867520425485</ele>
        <time>2018-10-16T22:40:02Z</time>
      </trkpt>
      <trkpt lat="31.204443241524896" lon="121.61382016873632">
        <ele>8.729501851053474</ele>
        <time>2018-10-16T22:40:12Z</time>
      </trkpt>
      <trkpt lat="31.204252452159913" lon="121.61403568147111">
        <ele>8.83317034322381</ele>
        <time>2018-10-16T22:40:22Z</time>
      </trkpt>
      <trkpt lat="31.204044629705404" lon="121.61419237320219">
        <ele>8.810642716899508</ele>
        <time>2018-10-16T22:40:32Z</time>
      </trkpt>
      <trkpt lat="31.20383294162445" lon="121.61442929800613">
        <ele>8.984764319582627</ele>
        <time>2018-10-16T22:40:42Z</time>
      </trkpt>
      <trkpt lat="31.2036413458535" lon="121.61463125242192">
        <ele>8.644499852169762</ele>
        <time>2018-10-16T22:40:52Z</time>
      </trkpt>
      <trkpt lat="31.203604920217774" lon="121.61473886495521">
        <ele>8.616776912344697</ele>
        <time>2018-10-16T22:40:56Z</time>
      </trkpt>
      <trkpt lat="31.20353523046882" lon="121.61474808662474">
        <ele>8.449520183122072</ele>
        <time>2018-10-16T22:40:59Z</time>
      </trkpt>
      <trkpt lat="31.203485085119816" lon="121.61473128529299">
        <ele>8.45138548239023</ele>
        <time>2018-10-16T22:41:02Z</time>
      </trkpt>
      <trkpt lat="31.203357810108287" lon="121.61486031822392">
        <ele>7.823218714842795</ele>
        <time>2018-10-16T22:41:09Z</time>
      </trkpt>
      <trkpt lat="31.203317339187517" lon="121.61494217996352">
        <ele>8.033385659858517</ele>
        <time>2018-10-16T22:41:13Z</time>
      </trkpt>
      <trkpt lat="31.20331314316648" lon="121.61508854892566">
        <ele>7.383405048336378</ele>
        <time>2018-10-16T22:41:20Z</time>
      </trkpt>
      <trkpt lat="31.203307969545648" lon="121.61511348613976">
        <ele>6.24620764566243</ele>
        <time>2018-10-16T22:42:19Z</time>
      </trkpt>
      <trkpt lat="31.203327472311422" lon="121.6151348976161">
        <ele>6.272192147919803</ele>
        <time>2018-10-16T22:42:25Z</time>
      </trkpt>
      <trkpt lat="31.20339762173897" lon="121.6152189176768">
        <ele>6.590535947028833</ele>
        <time>2018-10-16T22:42:29Z</time>
      </trkpt>
      <trkpt lat="31.20343470113525" lon="121.61529318238614">
        <ele>6.338884672248891</ele>
        <time>2018-10-16T22:42:32Z</time>
      </trkpt>
      <trkpt lat="31.203398554466702" lon="121.61538913683486">
        <ele>6.4100966918122815</ele>
        <time>2018-10-16T22:42:35Z</time>
      </trkpt>
      <trkpt lat="31.2031635355568" lon="121.61562930429828">
        <ele>6.7585150909631935</ele>
        <time>2018-10-16T22:42:46Z</time>
      </trkpt>
      <trkpt lat="31.20295782065563" lon="121.6158437178194">
        <ele>7.033960821489277</ele>
        <time>2018-10-16T22:42:57Z</time>
      </trkpt>
      <trkpt lat="31.202762409245008" lon="121.61605596026514">
        <ele>6.609448771775575</ele>
        <time>2018-10-16T22:43:12Z</time>
      </trkpt>
      <trkpt lat="31.202483424322736" lon="121.61633542534567">
        <ele>6.648874727972274</ele>
        <time>2018-10-16T22:43:26Z</time>
      </trkpt>
      <trkpt lat="31.202412858891336" lon="121.6164110507292">
        <ele>6.825784154827563</ele>
        <time>2018-10-16T22:43:37Z</time>
      </trkpt>
      <trkpt lat="31.202394396196723" lon="121.61643842701676">
        <ele>6.517587889025965</ele>
        <time>2018-10-16T22:43:40Z</time>
      </trkpt>
      <trkpt lat="31.202184587235145" lon="121.61667505860017">
        <ele>6.98707850217237</ele>
        <time>2018-10-16T22:43:50Z</time>
      </trkpt>
      <trkpt lat="31.2019332700258" lon="121.61693554213062">
        <ele>6.517795889601434</ele>
        <time>2018-10-16T22:44:04Z</time>
      </trkpt>
      <trkpt lat="31.201788337042494" lon="121.61708977061626">
        <ele>6.201205868370362</ele>
        <time>2018-10-16T22:44:10Z</time>
      </trkpt>
      <trkpt lat="31.20150229539065" lon="121.61736624323588">
        <ele>6.3262946335610515</ele>
        <time>2018-10-16T22:44:25Z</time>
      </trkpt>
      <trkpt lat="31.20123525510334" lon="121.61761750597229">
        <ele>5.550051099866209</ele>
        <time>2018-10-16T22:44:38Z</time>
      </trkpt>
      <trkpt lat="31.201017801181553" lon="121.61789830338944">
        <ele>6.093734368184268</ele>
        <time>2018-10-16T22:44:51Z</time>
      </trkpt>
      <trkpt lat="31.200774826864393" lon="121.61821026682308">
        <ele>6.211672772194461</ele>
        <time>2018-10-16T22:45:05Z</time>
      </trkpt>
      <trkpt lat="31.20057988060688" lon="121.61848184123927">
        <ele>6.5803677465379735</ele>
        <time>2018-10-16T22:45:16Z</time>
      </trkpt>
      <trkpt lat="31.20036162772608" lon="121.61874013507551">
        <ele>6.748518805130839</ele>
        <time>2018-10-16T22:45:29Z</time>
      </trkpt>
      <trkpt lat="31.200121106809906" lon="121.61903040719504">
        <ele>6.831090791854606</ele>
        <time>2018-10-16T22:45:44Z</time>
      </trkpt>
      <trkpt lat="31.199885500148092" lon="121.61928517380757">
        <ele>6.746487406743114</ele>
        <time>2018-10-16T22:45:58Z</time>
      </trkpt>
      <trkpt lat="31.199655342771006" lon="121.61951229505527">
        <ele>6.866774105701733</ele>
        <time>2018-10-16T22:46:11Z</time>
      </trkpt>
      <trkpt lat="31.199404008187944" lon="121.61976516116636">
        <ele>7.49466908535787</ele>
        <time>2018-10-16T22:46:25Z</time>
      </trkpt>
      <trkpt lat="31.199203704859837" lon="121.61996111082604">
        <ele>7.353189284796187</ele>
        <time>2018-10-16T22:46:37Z</time>
      </trkpt>
      <trkpt lat="31.199110942049412" lon="121.61999418036923">
        <ele>7.7102613990481075</ele>
        <time>2018-10-16T22:46:41Z</time>
      </trkpt>
      <trkpt lat="31.1989203634398" lon="121.62022264707068">
        <ele>7.584933071249786</ele>
        <time>2018-10-16T22:46:52Z</time>
      </trkpt>
      <trkpt lat="31.19866871244428" lon="121.62051209038555">
        <ele>7.366616389822084</ele>
        <time>2018-10-16T22:47:07Z</time>
      </trkpt>
      <trkpt lat="31.198494540841565" lon="121.62060830725422">
        <ele>7.147947682496188</ele>
        <time>2018-10-16T22:47:14Z</time>
      </trkpt>
      <trkpt lat="31.198280928264257" lon="121.62082105304812">
        <ele>6.832233791497206</ele>
        <time>2018-10-16T22:47:25Z</time>
      </trkpt>
      <trkpt lat="31.198008467197585" lon="121.62104382853617">
        <ele>7.079803410297512</ele>
        <time>2018-10-16T22:47:39Z</time>
      </trkpt>
      <trkpt lat="31.197774255860224" lon="121.62124708800633">
        <ele>7.137274958844301</ele>
        <time>2018-10-16T22:47:53Z</time>
      </trkpt>
      <trkpt lat="31.197509912839966" lon="121.6214815115069">
        <ele>7.4256226573732675</ele>
        <time>2018-10-16T22:48:07Z</time>
      </trkpt>
      <trkpt lat="31.197269449268873" lon="121.62169669130361">
        <ele>7.829674572441132</ele>
        <time>2018-10-16T22:48:21Z</time>
      </trkpt>
      <trkpt lat="31.197051237533515" lon="121.6218937119221">
        <ele>8.06008838771763</ele>
        <time>2018-10-16T22:48:32Z</time>
      </trkpt>
      <trkpt lat="31.196792051279193" lon="121.62211918706157">
        <ele>8.186676863143823</ele>
        <time>2018-10-16T22:48:46Z</time>
      </trkpt>
      <trkpt lat="31.19662485242114" lon="121.62227880578867">
        <ele>8.835435473794998</ele>
        <time>2018-10-16T22:48:56Z</time>
      </trkpt>
      <trkpt lat="31.196587345233624" lon="121.62235874646902">
        <ele>9.233455841098301</ele>
        <time>2018-10-16T22:49:00Z</time>
      </trkpt>
      <trkpt lat="31.19653252448027" lon="121.62240427467206">
        <ele>8.627809761812262</ele>
        <time>2018-10-16T22:49:03Z</time>
      </trkpt>
      <trkpt lat="31.196397151679246" lon="121.62247202928391">
        <ele>8.761209296789723</ele>
        <time>2018-10-16T22:49:10Z</time>
      </trkpt>
      <trkpt lat="31.196331737990295" lon="121.62253381653744">
        <ele>8.332803424938408</ele>
        <time>2018-10-16T22:49:14Z</time>
      </trkpt>
      <trkpt lat="31.196221057294384" lon="121.62258476851179">
        <ele>7.647955579549119</ele>
        <time>2018-10-16T22:49:21Z</time>
      </trkpt>
      <trkpt lat="31.195934224852618" lon="121.62279777552988">
        <ele>6.754900559503419</ele>
        <time>2018-10-16T22:49:35Z</time>
      </trkpt>
      <trkpt lat="31.195690029786842" lon="121.62294953853146">
        <ele>6.588427263160476</ele>
        <time>2018-10-16T22:49:48Z</time>
      </trkpt>
      <trkpt lat="31.195563024274303" lon="121.62304899430536">
        <ele>6.439249033526227</ele>
        <time>2018-10-16T22:49:54Z</time>
      </trkpt>
      <trkpt lat="31.195280315767402" lon="121.623210513869">
        <ele>6.605759731155551</ele>
        <time>2018-10-16T22:50:09Z</time>
      </trkpt>
      <trkpt lat="31.195033361822603" lon="121.62340129364938">
        <ele>6.865727462554055</ele>
        <time>2018-10-16T22:50:23Z</time>
      </trkpt>
      <trkpt lat="31.19488634478997" lon="121.62345495664302">
        <ele>7.079238686602739</ele>
        <time>2018-10-16T22:50:30Z</time>
      </trkpt>
      <trkpt lat="31.19483558217489" lon="121.62350671482395">
        <ele>7.018819222163362</ele>
        <time>2018-10-16T22:50:33Z</time>
      </trkpt>
      <trkpt lat="31.19481203252231" lon="121.6237039771196">
        <ele>6.705232547007178</ele>
        <time>2018-10-16T22:50:40Z</time>
      </trkpt>
      <trkpt lat="31.194769654763654" lon="121.623772533686">
        <ele>6.726111445963845</ele>
        <time>2018-10-16T22:50:44Z</time>
      </trkpt>
      <trkpt lat="31.19469284680105" lon="121.62383784141548">
        <ele>6.770836539678722</ele>
        <time>2018-10-16T22:50:47Z</time>
      </trkpt>
      <trkpt lat="31.194625302225084" lon="121.62386521392548">
        <ele>6.8647493964946165</ele>
        <time>2018-10-16T22:50:50Z</time>
      </trkpt>
      <trkpt lat="31.19452417054358" lon="121.62386440941826">
        <ele>6.950816673961594</ele>
        <time>2018-10-16T22:50:54Z</time>
      </trkpt>
      <trkpt lat="31.194468882194816" lon="121.62384517586574">
        <ele>6.880372840237783</ele>
        <time>2018-10-16T22:50:57Z</time>
      </trkpt>
      <trkpt lat="31.194581843143716" lon="121.62415839410622">
        <ele>7.356713524083258</ele>
        <time>2018-10-16T22:51:11Z</time>
      </trkpt>
      <trkpt lat="31.19470450429567" lon="121.6245192957947">
        <ele>7.436568023625895</ele>
        <time>2018-10-16T22:51:26Z</time>
      </trkpt>
      <trkpt lat="31.19481841615087" lon="121.6244894815095">
        <ele>6.322715326669524</ele>
        <time>2018-10-16T22:51:33Z</time>
      </trkpt>
      <trkpt lat="31.1950225577736" lon="121.62428191355532">
        <ele>6.7304556365339</ele>
        <time>2018-10-16T22:51:44Z</time>
      </trkpt>
      <trkpt lat="31.195173669176548" lon="121.62420657534649">
        <ele>7.1222234638688455</ele>
        <time>2018-10-16T22:51:51Z</time>
      </trkpt>
      <trkpt lat="31.195402586127887" lon="121.62391148361337">
        <ele>7.992269015450592</ele>
        <time>2018-10-16T22:52:05Z</time>
      </trkpt>
      <trkpt lat="31.1956308545821" lon="121.623704180303">
        <ele>7.597003507573206</ele>
        <time>2018-10-16T22:52:18Z</time>
      </trkpt>
      <trkpt lat="31.195836529133796" lon="121.62357220493685">
        <ele>7.7394075813006715</ele>
        <time>2018-10-16T22:52:28Z</time>
      </trkpt>
      <trkpt lat="31.19608162722917" lon="121.62334647209512">
        <ele>8.278425378300007</ele>
        <time>2018-10-16T22:52:41Z</time>
      </trkpt>
      <trkpt lat="31.196339664427303" lon="121.62318414248047">
        <ele>8.315005081585777</ele>
        <time>2018-10-16T22:52:55Z</time>
      </trkpt>
      <trkpt lat="31.196425352068633" lon="121.62317600640156">
        <ele>8.638961055938584</ele>
        <time>2018-10-16T22:52:59Z</time>
      </trkpt>
      <trkpt lat="31.196461598763637" lon="121.62324916419207">
        <ele>8.962661969376661</ele>
        <time>2018-10-16T22:53:02Z</time>
      </trkpt>
      <trkpt lat="31.19652024379798" lon="121.62364341134334">
        <ele>8.946846557714867</ele>
        <time>2018-10-16T22:53:17Z</time>
      </trkpt>
      <trkpt lat="31.19659543881159" lon="121.62402437454143">
        <ele>9.16477760558941</ele>
        <time>2018-10-16T22:53:31Z</time>
      </trkpt>
      <trkpt lat="31.196619496086633" lon="121.62408615088066">
        <ele>9.312296804466158</ele>
        <time>2018-10-16T22:53:34Z</time>
      </trkpt>
      <trkpt lat="31.196753061414505" lon="121.62417284602057">
        <ele>9.16311432025633</ele>
        <time>2018-10-16T22:53:43Z</time>
      </trkpt>
      <trkpt lat="31.196842040489464" lon="121.62413327898567">
        <ele>9.029710842226631</ele>
        <time>2018-10-16T22:53:47Z</time>
      </trkpt>
      <trkpt lat="31.196910160650752" lon="121.62407826905577">
        <ele>8.570517079458131</ele>
        <time>2018-10-16T22:53:50Z</time>
      </trkpt>
      <trkpt lat="31.196927877277165" lon="121.62400023175822">
        <ele>8.823502943970531</ele>
        <time>2018-10-16T22:53:53Z</time>
      </trkpt>
      <trkpt lat="31.19693584204098" lon="121.6236853759615">
        <ele>9.213366642992426</ele>
        <time>2018-10-16T22:54:05Z</time>
      </trkpt>
      <trkpt lat="31.196899952498516" lon="121.62330846929419">
        <ele>8.921592496210938</ele>
        <time>2018-10-16T22:54:20Z</time>
      </trkpt>
      <trkpt lat="31.196858124376796" lon="121.62313884817816">
        <ele>9.046019816237827</ele>
        <time>2018-10-16T22:54:27Z</time>
      </trkpt>
      <trkpt lat="31.196865378967992" lon="121.6229619057986">
        <ele>8.872408437363347</ele>
        <time>2018-10-16T22:54:33Z</time>
      </trkpt>
      <trkpt lat="31.196836749267188" lon="121.62286625616039">
        <ele>8.454424903927201</ele>
        <time>2018-10-16T22:54:37Z</time>
      </trkpt>
      <trkpt lat="31.196847135695748" lon="121.62279390639088">
        <ele>8.102849413078879</ele>
        <time>2018-10-16T22:54:40Z</time>
      </trkpt>
      <trkpt lat="31.19702546772026" lon="121.62262209606692">
        <ele>8.341185704515013</ele>
        <time>2018-10-16T22:54:52Z</time>
      </trkpt>
      <trkpt lat="31.19711913957991" lon="121.62250773798014">
        <ele>8.432566550199471</ele>
        <time>2018-10-16T22:54:58Z</time>
      </trkpt>
      <trkpt lat="31.19732614860067" lon="121.62239011833908">
        <ele>7.977085385501123</ele>
        <time>2018-10-16T22:55:09Z</time>
      </trkpt>
      <trkpt lat="31.197446102068124" lon="121.62229120267841">
        <ele>8.142831324910848</ele>
        <time>2018-10-16T22:55:16Z</time>
      </trkpt>
      <trkpt lat="31.197623918135154" lon="121.62209364638014">
        <ele>8.567137512508815</ele>
        <time>2018-10-16T22:55:27Z</time>
      </trkpt>
      <trkpt lat="31.197760142048207" lon="121.62199174752047">
        <ele>8.673243150078488</ele>
        <time>2018-10-16T22:55:34Z</time>
      </trkpt>
      <trkpt lat="31.197855432629545" lon="121.62188253522143">
        <ele>8.881881144084367</ele>
        <time>2018-10-16T22:55:40Z</time>
      </trkpt>
      <trkpt lat="31.19811234886952" lon="121.62174621104998">
        <ele>8.54884389727701</ele>
        <time>2018-10-16T22:55:54Z</time>
      </trkpt>
      <trkpt lat="31.198355811362035" lon="121.62151666931486">
        <ele>7.883180587527892</ele>
        <time>2018-10-16T22:56:08Z</time>
      </trkpt>
      <trkpt lat="31.198528825629083" lon="121.6212432317631">
        <ele>8.588187025997986</ele>
        <time>2018-10-16T22:56:21Z</time>
      </trkpt>
      <trkpt lat="31.198781985947537" lon="121.62106788243251">
        <ele>8.285438607623796</ele>
        <time>2018-10-16T22:56:35Z</time>
      </trkpt>
      <trkpt lat="31.198853072828314" lon="121.62102235059702">
        <ele>8.548580598215239</ele>
        <time>2018-10-16T22:56:39Z</time>
      </trkpt>
      <trkpt lat="31.199023558095096" lon="121.62082668238833">
        <ele>7.764606444921121</ele>
        <time>2018-10-16T22:56:50Z</time>
      </trkpt>
      <trkpt lat="31.199073484995523" lon="121.62079144952405">
        <ele>7.758154867255978</ele>
        <time>2018-10-16T22:56:54Z</time>
      </trkpt>
      <trkpt lat="31.199156467015328" lon="121.62077762214146">
        <ele>7.844565283094376</ele>
        <time>2018-10-16T22:56:57Z</time>
      </trkpt>
      <trkpt lat="31.199265538645136" lon="121.6207076974534">
        <ele>8.295966075392801</ele>
        <time>2018-10-16T22:57:03Z</time>
      </trkpt>
      <trkpt lat="31.199550757122633" lon="121.62072122341311">
        <ele>8.339788372445781</ele>
        <time>2018-10-16T22:57:15Z</time>
      </trkpt>
      <trkpt lat="31.19986743779546" lon="121.62072499108343">
        <ele>8.457614211878386</ele>
        <time>2018-10-16T22:57:28Z</time>
      </trkpt>
      <trkpt lat="31.200164272902466" lon="121.62077753874402">
        <ele>8.094121481894675</ele>
        <time>2018-10-16T22:57:42Z</time>
      </trkpt>
      <trkpt lat="31.200451887065253" lon="121.62083225498158">
        <ele>8.163687416275849</ele>
        <time>2018-10-16T22:57:56Z</time>
      </trkpt>
      <trkpt lat="31.200663328035073" lon="121.62087261496362">
        <ele>7.860206806953229</ele>
        <time>2018-10-16T22:58:05Z</time>
      </trkpt>
      <trkpt lat="31.20093819586769" lon="121.62093004194628">
        <ele>7.884805522115229</ele>
        <time>2018-10-16T22:58:26Z</time>
      </trkpt>
      <trkpt lat="31.201276787963295" lon="121.62098041782947">
        <ele>7.860831255010712</ele>
        <time>2018-10-16T22:58:41Z</time>
      </trkpt>
      <trkpt lat="31.201615644096023" lon="121.62103729730332">
        <ele>8.141666699443189</ele>
        <time>2018-10-16T22:58:56Z</time>
      </trkpt>
      <trkpt lat="31.20194637002968" lon="121.62109065449091">
        <ele>8.748149204159851</ele>
        <time>2018-10-16T22:59:11Z</time>
      </trkpt>
      <trkpt lat="31.20228549668022" lon="121.62114807567555">
        <ele>9.102649818558529</ele>
        <time>2018-10-16T22:59:26Z</time>
      </trkpt>
      <trkpt lat="31.20243351845858" lon="121.62116432262405">
        <ele>9.279270552422496</ele>
        <time>2018-10-16T22:59:33Z</time>
      </trkpt>
      <trkpt lat="31.202491825231807" lon="121.62115266537315">
        <ele>9.081435037449282</ele>
        <time>2018-10-16T22:59:40Z</time>
      </trkpt>
      <trkpt lat="31.202444363257513" lon="121.62116486369963">
        <ele>8.49309198989711</ele>
        <time>2018-10-16T22:59:58Z</time>
      </trkpt>
      <trkpt lat="31.202454141054375" lon="121.62114941665155">
        <ele>7.608420645998944</ele>
        <time>2018-10-16T23:00:44Z</time>
      </trkpt>
      <trkpt lat="31.20242921447485" lon="121.621133159506">
        <ele>7.524615381370687</ele>
        <time>2018-10-16T23:00:48Z</time>
      </trkpt>
      <trkpt lat="31.202401676335533" lon="121.62077654061311">
        <ele>7.453823181046271</ele>
        <time>2018-10-16T23:00:58Z</time>
      </trkpt>
      <trkpt lat="31.202368510757378" lon="121.6206063607223">
        <ele>7.145487040747295</ele>
        <time>2018-10-16T23:01:06Z</time>
      </trkpt>
      <trkpt lat="31.202364367253253" lon="121.62042533755294">
        <ele>6.931685420787144</ele>
        <time>2018-10-16T23:01:13Z</time>
      </trkpt>
      <trkpt lat="31.202382343413102" lon="121.62034945757195">
        <ele>7.190380448031206</ele>
        <time>2018-10-16T23:01:17Z</time>
      </trkpt>
      <trkpt lat="31.20240537276678" lon="121.62036544436711">
        <ele>6.647659506286985</ele>
        <time>2018-10-16T23:01:50Z</time>
      </trkpt>
      <trkpt lat="31.202418674610687" lon="121.6203502675504">
        <ele>6.458567184205972</ele>
        <time>2018-10-16T23:01:54Z</time>
      </trkpt>
      <trkpt lat="31.20246775088627" lon="121.62034945050408">
        <ele>6.4242037676875725</ele>
        <time>2018-10-16T23:02:03Z</time>
      </trkpt>
      <trkpt lat="31.202744057609905" lon="121.6203304579804">
        <ele>7.116744209579661</ele>
        <time>2018-10-16T23:02:28Z</time>
      </trkpt>
      <trkpt lat="31.202835468584794" lon="121.62029440802753">
        <ele>6.42794819646716</ele>
        <time>2018-10-16T23:02:32Z</time>
      </trkpt>
      <trkpt lat="31.202889743283063" lon="121.62024968922562">
        <ele>7.080958573568054</ele>
        <time>2018-10-16T23:02:35Z</time>
      </trkpt>
      <trkpt lat="31.202863013715177" lon="121.62014373176387">
        <ele>6.645111622716033</ele>
        <time>2018-10-16T23:02:39Z</time>
      </trkpt>
      <trkpt lat="31.202746972143036" lon="121.61988358278197">
        <ele>6.591471019036241</ele>
        <time>2018-10-16T23:02:49Z</time>
      </trkpt>
      <trkpt lat="31.202678971489895" lon="121.61957329166356">
        <ele>6.428769359781235</ele>
        <time>2018-10-16T23:03:00Z</time>
      </trkpt>
      <trkpt lat="31.202593372578495" lon="121.61923508456897">
        <ele>5.774207186528923</ele>
        <time>2018-10-16T23:03:13Z</time>
      </trkpt>
      <trkpt lat="31.202504188818455" lon="121.61895188832843">
        <ele>5.644874225785653</ele>
        <time>2018-10-16T23:03:24Z</time>
      </trkpt>
      <trkpt lat="31.202451293741333" lon="121.61870879578862">
        <ele>5.483224861107111</ele>
        <time>2018-10-16T23:03:35Z</time>
      </trkpt>
      <trkpt lat="31.202506937560145" lon="121.61864835535765">
        <ele>5.69708486229775</ele>
        <time>2018-10-16T23:03:39Z</time>
      </trkpt>
      <trkpt lat="31.202677561306796" lon="121.61856920532068">
        <ele>5.593398452038809</ele>
        <time>2018-10-16T23:03:47Z</time>
      </trkpt>
      <trkpt lat="31.202796414709585" lon="121.61847352741715">
        <ele>5.420208531042434</ele>
        <time>2018-10-16T23:03:53Z</time>
      </trkpt>
      <trkpt lat="31.202810323921423" lon="121.61839249268802">
        <ele>5.153971908744154</ele>
        <time>2018-10-16T23:03:56Z</time>
      </trkpt>
      <trkpt lat="31.202766850453944" lon="121.61821308322007">
        <ele>5.047692653497656</ele>
        <time>2018-10-16T23:04:03Z</time>
      </trkpt>
      <trkpt lat="31.20265458982019" lon="121.61795047500006">
        <ele>5.151697409836309</ele>
        <time>2018-10-16T23:04:15Z</time>
      </trkpt>
      <trkpt lat="31.202514680817565" lon="121.61767783844378">
        <ele>5.195065703728229</ele>
        <time>2018-10-16T23:04:27Z</time>
      </trkpt>
      <trkpt lat="31.202394910947845" lon="121.61732470225157">
        <ele>5.378992181550338</ele>
        <time>2018-10-16T23:04:41Z</time>
      </trkpt>
      <trkpt lat="31.202416395095874" lon="121.61725775663348">
        <ele>5.319987640240377</ele>
        <time>2018-10-16T23:04:44Z</time>
      </trkpt>
      <trkpt lat="31.202557200003575" lon="121.61716830556409">
        <ele>5.945990353080401</ele>
        <time>2018-10-16T23:04:51Z</time>
      </trkpt>
      <trkpt lat="31.202798738046624" lon="121.61692950784571">
        <ele>5.802500942071454</ele>
        <time>2018-10-16T23:05:03Z</time>
      </trkpt>
      <trkpt lat="31.202880408589" lon="121.61686743476159">
        <ele>6.20231355285096</ele>
        <time>2018-10-16T23:05:07Z</time>
      </trkpt>
      <trkpt lat="31.202936011549795" lon="121.61684601859777">
        <ele>6.514744860812762</ele>
        <time>2018-10-16T23:05:10Z</time>
      </trkpt>
      <trkpt lat="31.20300710509039" lon="121.61678665651075">
        <ele>6.561007832100909</ele>
        <time>2018-10-16T23:05:14Z</time>
      </trkpt>
      <trkpt lat="31.20306276093964" lon="121.61670913628043">
        <ele>6.394556094557029</ele>
        <time>2018-10-16T23:05:19Z</time>
      </trkpt>
      <trkpt lat="31.203213042692145" lon="121.61663160797855">
        <ele>6.826602617877551</ele>
        <time>2018-10-16T23:05:26Z</time>
      </trkpt>
      <trkpt lat="31.20347707443835" lon="121.61639930809395">
        <ele>7.061087782907418</ele>
        <time>2018-10-16T23:05:39Z</time>
      </trkpt>
      <trkpt lat="31.203738906930752" lon="121.61619763369757">
        <ele>7.3727095912154255</ele>
        <time>2018-10-16T23:05:53Z</time>
      </trkpt>
      <trkpt lat="31.203865052817026" lon="121.61612390034115">
        <ele>7.56026469511038</ele>
        <time>2018-10-16T23:06:01Z</time>
      </trkpt>
      <trkpt lat="31.20395058570953" lon="121.61598755948044">
        <ele>7.759861388161475</ele>
        <time>2018-10-16T23:06:07Z</time>
      </trkpt>
      <trkpt lat="31.204037351951293" lon="121.61598429979858">
        <ele>7.893401484329367</ele>
        <time>2018-10-16T23:06:11Z</time>
      </trkpt>
      <trkpt lat="31.204090479291903" lon="121.61600082896793">
        <ele>8.013295595010899</ele>
        <time>2018-10-16T23:06:14Z</time>
      </trkpt>
      <trkpt lat="31.204206835796086" lon="121.61595772363796">
        <ele>7.742073706862882</ele>
        <time>2018-10-16T23:06:21Z</time>
      </trkpt>
      <trkpt lat="31.204258876632306" lon="121.61597642125292">
        <ele>7.894403053624448</ele>
        <time>2018-10-16T23:06:24Z</time>
      </trkpt>
      <trkpt lat="31.204491260261392" lon="121.6162482558463">
        <ele>8.051891665407389</ele>
        <time>2018-10-16T23:06:38Z</time>
      </trkpt>
      <trkpt lat="31.204566568006765" lon="121.61632143008642">
        <ele>8.069696608157507</ele>
        <time>2018-10-16T23:06:41Z</time>
      </trkpt>
      <trkpt lat="31.204600948009702" lon="121.61637970042251">
        <ele>7.946095001693408</ele>
        <time>2018-10-16T23:06:45Z</time>
      </trkpt>
      <trkpt lat="31.204681952800158" lon="121.61644907928064">
        <ele>8.004155409557182</ele>
        <time>2018-10-16T23:06:48Z</time>
      </trkpt>
      <trkpt lat="31.204890318653593" lon="121.61659569259803">
        <ele>8.08309993561182</ele>
        <time>2018-10-16T23:07:00Z</time>
      </trkpt>
      <trkpt lat="31.204945029422515" lon="121.61665802611951">
        <ele>7.963899940666419</ele>
        <time>2018-10-16T23:07:04Z</time>
      </trkpt>
      <trkpt lat="31.204950508422268" lon="121.6165981269369">
        <ele>8.338496839288098</ele>
        <time>2018-10-16T23:07:25Z</time>
      </trkpt>
      <trkpt lat="31.204956799684314" lon="121.61653931168475">
        <ele>8.697622598035547</ele>
        <time>2018-10-16T23:07:49Z</time>
      </trkpt>
      <trkpt lat="31.20498124346729" lon="121.61649485972578">
        <ele>8.693895269927996</ele>
        <time>2018-10-16T23:07:54Z</time>
      </trkpt>
      <trkpt lat="31.20498938209079" lon="121.61648998039603">
        <ele>8.39654562942242</ele>
        <time>2018-10-16T23:08:04Z</time>
      </trkpt>
      <trkpt lat="31.20497774884513" lon="121.61646260665646">
        <ele>8.274756012679237</ele>
        <time>2018-10-16T23:08:12Z</time>
      </trkpt>
      <trkpt lat="31.20511958549296" lon="121.61671655509302">
        <ele>8.724442487189243</ele>
        <time>2018-10-16T23:08:25Z</time>
      </trkpt>
      <trkpt lat="31.20515250558804" lon="121.6165967550508">
        <ele>8.791156265609459</ele>
        <time>2018-10-16T23:08:39Z</time>
      </trkpt>
      <trkpt lat="31.20509322163735" lon="121.61649566357221">
        <ele>9.286732448981919</ele>
        <time>2018-10-16T23:08:43Z</time>
      </trkpt>
      <trkpt lat="31.204867032250288" lon="121.61627153412192">
        <ele>9.872341825025387</ele>
        <time>2018-10-16T23:08:55Z</time>
      </trkpt>
      <trkpt lat="31.20462756467919" lon="121.61603737517706">
        <ele>10.772933715826106</ele>
        <time>2018-10-16T23:09:08Z</time>
      </trkpt>
      <trkpt lat="31.20443363257956" lon="121.61581784659073">
        <ele>11.417607089244179</ele>
        <time>2018-10-16T23:09:19Z</time>
      </trkpt>
      <trkpt lat="31.204180348997895" lon="121.61556633742616">
        <ele>12.400046528914622</ele>
        <time>2018-10-16T23:09:33Z</time>
      </trkpt>
      <trkpt lat="31.203933026209278" lon="121.61531699354792">
        <ele>11.18009257414414</ele>
        <time>2018-10-16T23:09:47Z</time>
      </trkpt>
      <trkpt lat="31.203813852387917" lon="121.61517578615393">
        <ele>9.880547580535072</ele>
        <time>2018-10-16T23:09:54Z</time>
      </trkpt>
      <trkpt lat="31.203787074118733" lon="121.61510341759472">
        <ele>9.015180600110252</ele>
        <time>2018-10-16T23:09:57Z</time>
      </trkpt>
      <trkpt lat="31.203794225762543" lon="121.61498767752235">
        <ele>8.40167178543772</ele>
        <time>2018-10-16T23:10:01Z</time>
      </trkpt>
      <trkpt lat="31.204034717544243" lon="121.6146835338992">
        <ele>8.543619210842461</ele>
        <time>2018-10-16T23:10:16Z</time>
      </trkpt>
      <trkpt lat="31.204163054294575" lon="121.61457997938535">
        <ele>8.60622169002534</ele>
        <time>2018-10-16T23:10:23Z</time>
      </trkpt>
      <trkpt lat="31.20435820867874" lon="121.61433817835723">
        <ele>8.761903207993331</ele>
        <time>2018-10-16T23:10:38Z</time>
      </trkpt>
      <trkpt lat="31.20443392794609" lon="121.61425332995489">
        <ele>8.485907971889546</ele>
        <time>2018-10-16T23:10:41Z</time>
      </trkpt>
      <trkpt lat="31.204662938160354" lon="121.61405082711165">
        <ele>8.150251912878979</ele>
        <time>2018-10-16T23:10:53Z</time>
      </trkpt>
      <trkpt lat="31.204883280106674" lon="121.61383693847019">
        <ele>7.835937987296941</ele>
        <time>2018-10-16T23:11:03Z</time>
      </trkpt>
      <trkpt lat="31.20510928902713" lon="121.61365340711751">
        <ele>7.936377563338343</ele>
        <time>2018-10-16T23:11:14Z</time>
      </trkpt>
      <trkpt lat="31.20535407220165" lon="121.61338828038849">
        <ele>7.875808290542793</ele>
        <time>2018-10-16T23:11:28Z</time>
      </trkpt>
      <trkpt lat="31.20554648269451" lon="121.61317357482532">
        <ele>7.596266021912786</ele>
        <time>2018-10-16T23:11:39Z</time>
      </trkpt>
      <trkpt lat="31.20554086340156" lon="121.61308168101242">
        <ele>7.798571673688677</ele>
        <time>2018-10-16T23:11:43Z</time>
      </trkpt>
      <trkpt lat="31.20531682052272" lon="121.61285047133761">
        <ele>7.578626826079173</ele>
        <time>2018-10-16T23:11:58Z</time>
      </trkpt>
      <trkpt lat="31.205375950190323" lon="121.61282281649856">
        <ele>7.534009657308637</ele>
        <time>2018-10-16T23:12:05Z</time>
      </trkpt>
      <trkpt lat="31.205536874115236" lon="121.61264633068201">
        <ele>7.945611110283554</ele>
        <time>2018-10-16T23:12:40Z</time>
      </trkpt>
      <trkpt lat="31.2055203970854" lon="121.61256771866795">
        <ele>7.728673236843626</ele>
        <time>2018-10-16T23:12:47Z</time>
      </trkpt>
      <trkpt lat="31.205704614460178" lon="121.61241996378534">
        <ele>7.613547663891058</ele>
        <time>2018-10-16T23:12:59Z</time>
      </trkpt>
      <trkpt lat="31.205958067681614" lon="121.61214723194034">
        <ele>7.544308059544772</ele>
        <time>2018-10-16T23:13:14Z</time>
      </trkpt>
      <trkpt lat="31.206174870228953" lon="121.61193278401288">
        <ele>7.667582423182598</ele>
        <time>2018-10-16T23:13:25Z</time>
      </trkpt>
      <trkpt lat="31.20630245775395" lon="121.61173108274504">
        <ele>7.313577398240334</ele>
        <time>2018-10-16T23:13:35Z</time>
      </trkpt>
      <trkpt lat="31.20644712997391" lon="121.61152314315365">
        <ele>7.571036301683417</ele>
        <time>2018-10-16T23:13:46Z</time>
      </trkpt>
      <trkpt lat="31.206458841209365" lon="121.61145320000462">
        <ele>7.52105906772039</ele>
        <time>2018-10-16T23:13:50Z</time>
      </trkpt>
      <trkpt lat="31.206267879847882" lon="121.61119838588887">
        <ele>7.551437529023868</ele>
        <time>2018-10-16T23:14:03Z</time>
      </trkpt>
      <trkpt lat="31.206156278585542" lon="121.6110533576805">
        <ele>7.372758528272204</ele>
        <time>2018-10-16T23:14:11Z</time>
      </trkpt>
      <trkpt lat="31.2060123849511" lon="121.61094465867153">
        <ele>6.994802182524225</ele>
        <time>2018-10-16T23:14:18Z</time>
      </trkpt>
      <trkpt lat="31.205816797296023" lon="121.6107066476584">
        <ele>6.39366798733716</ele>
        <time>2018-10-16T23:14:29Z</time>
      </trkpt>
      <trkpt lat="31.20567621080835" lon="121.61052095297362">
        <ele>6.555509391316249</ele>
        <time>2018-10-16T23:14:39Z</time>
      </trkpt>
      <trkpt lat="31.20562883330569" lon="121.61042064774267">
        <ele>6.636033097273241</ele>
        <time>2018-10-16T23:14:43Z</time>
      </trkpt>
      <trkpt lat="31.205378180287948" lon="121.61021137335413">
        <ele>6.384054895056803</ele>
        <time>2018-10-16T23:15:07Z</time>
      </trkpt>
      <trkpt lat="31.205346212270317" lon="121.61017423404606">
        <ele>6.282338982224065</ele>
        <time>2018-10-16T23:15:10Z</time>
      </trkpt>
      <trkpt lat="31.20528277546373" lon="121.61016149714702">
        <ele>5.8514233543206124</ele>
        <time>2018-10-16T23:15:14Z</time>
      </trkpt>
      <trkpt lat="31.205118357707306" lon="121.61031794038311">
        <ele>5.213993059695895</ele>
        <time>2018-10-16T23:15:31Z</time>
      </trkpt>
      <trkpt lat="31.205037742183013" lon="121.61044292732176">
        <ele>5.494158635616635</ele>
        <time>2018-10-16T23:15:44Z</time>
      </trkpt>
      <trkpt lat="31.204977007465" lon="121.61044347455486">
        <ele>5.64945456501232</ele>
        <time>2018-10-16T23:15:51Z</time>
      </trkpt>
      <trkpt lat="31.20492872304823" lon="121.61047492683605">
        <ele>5.5897470217515135</ele>
        <time>2018-10-16T23:15:58Z</time>
      </trkpt>
      <trkpt lat="31.204881539327065" lon="121.6104836061192">
        <ele>5.549870099624176</ele>
        <time>2018-10-16T23:16:02Z</time>
      </trkpt>
      <trkpt lat="31.204825919151236" lon="121.61053620515317">
        <ele>5.528491873242938</ele>
        <time>2018-10-16T23:16:05Z</time>
      </trkpt>
    </trkseg>
  </trk>
</gpx>