<?xml version="1.0" encoding="UTF-8"?>
<gpx xmlns="http://www.topografix.com/GPX/1/1" xmlns:gpxtpx="http://www.garmin.com/xmlschemas/TrackPointExtension/v1" xmlns:xsi="http://www.w3.org/2001/XMLSchema-instance" xsi:schemaLocation="http://www.topografix.com/GPX/1/1 http://www.topografix.com/GPX/1/1/gpx.xsd" version="1.1" creator="gpx.py -- https://github.com/tkrajina/gpxpy">
  <trk>
    <name>gpx from keep</name>
    <type>Run</type>
    <trkseg>
      <trkpt lat="31.20442645900823" lon="121.61101961330627">
        <ele>11.43968559524391</ele>
        <time>2019-10-12T23:36:25Z</time>
      </trkpt>
      <trkpt lat="31.20434500777646" lon="121.61117035074003">
        <ele>11.057531913892966</ele>
        <time>2019-10-12T23:36:32Z</time>
      </trkpt>
      <trkpt lat="31.204261481524327" lon="121.61119285872573">
        <ele>10.930342903991736</ele>
        <time>2019-10-12T23:36:35Z</time>
      </trkpt>
      <trkpt lat="31.204130402884836" lon="121.61135525622264">
        <ele>10.873832849673699</ele>
        <time>2019-10-12T23:36:46Z</time>
      </trkpt>
      <trkpt lat="31.204143057416978" lon="121.61147426570489">
        <ele>10.875195263890198</ele>
        <time>2019-10-12T23:36:53Z</time>
      </trkpt>
      <trkpt lat="31.20418420060294" lon="121.61156670513564">
        <ele>11.243360855994162</ele>
        <time>2019-10-12T23:36:57Z</time>
      </trkpt>
      <trkpt lat="31.204387618078307" lon="121.61183750843591">
        <ele>11.281850188256461</ele>
        <time>2019-10-12T23:37:10Z</time>
      </trkpt>
      <trkpt lat="31.204609491979546" lon="121.61207984293581">
        <ele>10.600480594196444</ele>
        <time>2019-10-12T23:37:21Z</time>
      </trkpt>
      <trkpt lat="31.204686430478368" lon="121.61216251789182">
        <ele>10.485348161474986</ele>
        <time>2019-10-12T23:37:25Z</time>
      </trkpt>
      <trkpt lat="31.20481919728034" lon="121.61227771809372">
        <ele>10.99033264298146</ele>
        <time>2019-10-12T23:37:32Z</time>
      </trkpt>
      <trkpt lat="31.20495947446539" lon="121.61249592845411">
        <ele>10.296667230988623</ele>
        <time>2019-10-12T23:37:43Z</time>
      </trkpt>
      <trkpt lat="31.205187066910792" lon="121.61269976233491">
        <ele>10.930296545919731</ele>
        <time>2019-10-12T23:37:54Z</time>
      </trkpt>
      <trkpt lat="31.205189920000482" lon="121.61286186709465">
        <ele>10.626743862666373</ele>
        <time>2019-10-12T23:38:01Z</time>
      </trkpt>
      <trkpt lat="31.205142406007045" lon="121.61294319417586">
        <ele>10.5146811425316</ele>
        <time>2019-10-12T23:38:05Z</time>
      </trkpt>
      <trkpt lat="31.204974474776833" lon="121.61306519226005">
        <ele>10.535060825239237</ele>
        <time>2019-10-12T23:38:15Z</time>
      </trkpt>
      <trkpt lat="31.204837409610846" lon="121.61323977543">
        <ele>10.619674524453192</ele>
        <time>2019-10-12T23:38:22Z</time>
      </trkpt>
      <trkpt lat="31.20478609170378" lon="121.61332950475455">
        <ele>10.65284077220403</ele>
        <time>2019-10-12T23:38:25Z</time>
      </trkpt>
      <trkpt lat="31.204651263365278" lon="121.6134197827843">
        <ele>10.69187758735408</ele>
        <time>2019-10-12T23:38:32Z</time>
      </trkpt>
      <trkpt lat="31.204448800797405" lon="121.61365644348874">
        <ele>10.902346712352282</ele>
        <time>2019-10-12T23:38:44Z</time>
      </trkpt>
      <trkpt lat="31.204360031111943" lon="121.61378656333619">
        <ele>10.93493405094388</ele>
        <time>2019-10-12T23:38:50Z</time>
      </trkpt>
      <trkpt lat="31.20426534840027" lon="121.61385406674643">
        <ele>10.905967325712236</ele>
        <time>2019-10-12T23:38:54Z</time>
      </trkpt>
      <trkpt lat="31.204154312427036" lon="121.61402240744104">
        <ele>10.716549663828259</ele>
        <time>2019-10-12T23:39:02Z</time>
      </trkpt>
      <trkpt lat="31.203996111262935" lon="121.61417502921886">
        <ele>10.661352633377867</ele>
        <time>2019-10-12T23:39:10Z</time>
      </trkpt>
      <trkpt lat="31.203853685382516" lon="121.61426882844727">
        <ele>10.740857817528298</ele>
        <time>2019-10-12T23:39:17Z</time>
      </trkpt>
      <trkpt lat="31.203787169128827" lon="121.6143718370799">
        <ele>10.763269531390712</ele>
        <time>2019-10-12T23:39:21Z</time>
      </trkpt>
      <trkpt lat="31.203588023237824" lon="121.6145260863527">
        <ele>10.719448528038194</ele>
        <time>2019-10-12T23:39:32Z</time>
      </trkpt>
      <trkpt lat="31.20350733636443" lon="121.614710412116">
        <ele>10.15190503017086</ele>
        <time>2019-10-12T23:39:39Z</time>
      </trkpt>
      <trkpt lat="31.203547964130436" lon="121.61475919886566">
        <ele>9.719939680290514</ele>
        <time>2019-10-12T23:39:43Z</time>
      </trkpt>
      <trkpt lat="31.20367621245186" lon="121.61475756192418">
        <ele>9.375319555278036</ele>
        <time>2019-10-12T23:39:50Z</time>
      </trkpt>
      <trkpt lat="31.20380813034665" lon="121.61490039705043">
        <ele>9.413995999053428</ele>
        <time>2019-10-12T23:39:57Z</time>
      </trkpt>
      <trkpt lat="31.203835975564044" lon="121.6149933661882">
        <ele>9.496025752231397</ele>
        <time>2019-10-12T23:40:01Z</time>
      </trkpt>
      <trkpt lat="31.203835099297223" lon="121.61506465315627">
        <ele>9.810372058423047</ele>
        <time>2019-10-12T23:40:05Z</time>
      </trkpt>
      <trkpt lat="31.203794408668827" lon="121.61508769596726">
        <ele>10.316763361469738</ele>
        <time>2019-10-12T23:40:20Z</time>
      </trkpt>
      <trkpt lat="31.20377951994311" lon="121.61506086301851">
        <ele>10.255012023112865</ele>
        <time>2019-10-12T23:40:27Z</time>
      </trkpt>
      <trkpt lat="31.203777891217527" lon="121.61506303157292">
        <ele>10.255256120320492</ele>
        <time>2019-10-12T23:40:29Z</time>
      </trkpt>
      <trkpt lat="31.203777891217527" lon="121.61506303157292">
        <ele>10.255256120320492</ele>
        <time>2019-10-12T23:40:34Z</time>
      </trkpt>
      <trkpt lat="31.203782506497923" lon="121.61505625487897">
        <ele>10.409800930000825</ele>
        <time>2019-10-12T23:40:45Z</time>
      </trkpt>
      <trkpt lat="31.203782506497923" lon="121.61505625487897">
        <ele>10.409800930000825</ele>
        <time>2019-10-12T23:40:53Z</time>
      </trkpt>
      <trkpt lat="31.203759729710534" lon="121.6150578830778">
        <ele>10.17342730299126</ele>
        <time>2019-10-12T23:41:00Z</time>
      </trkpt>
      <trkpt lat="31.20374341608643" lon="121.61510938434856">
        <ele>10.29871364216139</ele>
        <time>2019-10-12T23:41:04Z</time>
      </trkpt>
      <trkpt lat="31.20362749532928" lon="121.61527392189355">
        <ele>10.358896450307224</ele>
        <time>2019-10-12T23:41:12Z</time>
      </trkpt>
      <trkpt lat="31.203568076384308" lon="121.61531919212783">
        <ele>10.178509423020795</ele>
        <time>2019-10-12T23:41:15Z</time>
      </trkpt>
      <trkpt lat="31.203486981096827" lon="121.61534820112097">
        <ele>10.002870980302328</ele>
        <time>2019-10-12T23:41:19Z</time>
      </trkpt>
      <trkpt lat="31.203234326275716" lon="121.61560219381948">
        <ele>10.019987032962263</ele>
        <time>2019-10-12T23:41:34Z</time>
      </trkpt>
      <trkpt lat="31.202958071770396" lon="121.61586567232767">
        <ele>10.02068215739416</ele>
        <time>2019-10-12T23:41:49Z</time>
      </trkpt>
      <trkpt lat="31.202867987860714" lon="121.6159391324412">
        <ele>9.561808399686964</ele>
        <time>2019-10-12T23:41:53Z</time>
      </trkpt>
      <trkpt lat="31.202800384570292" lon="121.61603806839017">
        <ele>9.24872109420259</ele>
        <time>2019-10-12T23:41:57Z</time>
      </trkpt>
      <trkpt lat="31.20268259521736" lon="121.6161649252358">
        <ele>8.996467021839665</ele>
        <time>2019-10-12T23:42:04Z</time>
      </trkpt>
      <trkpt lat="31.202614168934353" lon="121.61627334670005">
        <ele>8.809826078226326</ele>
        <time>2019-10-12T23:42:10Z</time>
      </trkpt>
      <trkpt lat="31.202396515916085" lon="121.61649127901512">
        <ele>8.900635124327604</ele>
        <time>2019-10-12T23:42:21Z</time>
      </trkpt>
      <trkpt lat="31.20220521439353" lon="121.61665283205775">
        <ele>9.314492218931003</ele>
        <time>2019-10-12T23:42:32Z</time>
      </trkpt>
      <trkpt lat="31.202081953446918" lon="121.61682847211856">
        <ele>9.376893539797923</ele>
        <time>2019-10-12T23:42:39Z</time>
      </trkpt>
      <trkpt lat="31.20184826713975" lon="121.61708000858052">
        <ele>8.792622141028993</ele>
        <time>2019-10-12T23:42:53Z</time>
      </trkpt>
      <trkpt lat="31.201697367629226" lon="121.6172350497433">
        <ele>8.865398862722364</ele>
        <time>2019-10-12T23:43:01Z</time>
      </trkpt>
      <trkpt lat="31.20141624813224" lon="121.61746707214803">
        <ele>8.848808122853383</ele>
        <time>2019-10-12T23:43:15Z</time>
      </trkpt>
      <trkpt lat="31.201238476989687" lon="121.61765002858138">
        <ele>8.975473697568301</ele>
        <time>2019-10-12T23:43:25Z</time>
      </trkpt>
      <trkpt lat="31.201178978143265" lon="121.61777307799866">
        <ele>8.777925251288224</ele>
        <time>2019-10-12T23:43:29Z</time>
      </trkpt>
      <trkpt lat="31.200987577094224" lon="121.61802812465568">
        <ele>7.626753081745994</ele>
        <time>2019-10-12T23:43:41Z</time>
      </trkpt>
      <trkpt lat="31.200765521793755" lon="121.61829699311326">
        <ele>7.780431975325987</ele>
        <time>2019-10-12T23:43:54Z</time>
      </trkpt>
      <trkpt lat="31.200573594064558" lon="121.61853197944677">
        <ele>7.60647980780338</ele>
        <time>2019-10-12T23:44:05Z</time>
      </trkpt>
      <trkpt lat="31.200332840712026" lon="121.61878620945984">
        <ele>8.081473085203662</ele>
        <time>2019-10-12T23:44:19Z</time>
      </trkpt>
      <trkpt lat="31.20013032343334" lon="121.61903230349496">
        <ele>8.469419114392393</ele>
        <time>2019-10-12T23:44:30Z</time>
      </trkpt>
      <trkpt lat="31.199965294723278" lon="121.61920657528064">
        <ele>8.953402035220188</ele>
        <time>2019-10-12T23:44:40Z</time>
      </trkpt>
      <trkpt lat="31.199910985929463" lon="121.61928598471764">
        <ele>9.09295877362567</ele>
        <time>2019-10-12T23:44:43Z</time>
      </trkpt>
      <trkpt lat="31.199642550051312" lon="121.61955972173782">
        <ele>9.37532346173154</ele>
        <time>2019-10-12T23:44:58Z</time>
      </trkpt>
      <trkpt lat="31.199595580473847" lon="121.61962043029489">
        <ele>9.358312453738144</ele>
        <time>2019-10-12T23:45:01Z</time>
      </trkpt>
      <trkpt lat="31.199328821138096" lon="121.6198440286012">
        <ele>9.437834835702363</ele>
        <time>2019-10-12T23:45:14Z</time>
      </trkpt>
      <trkpt lat="31.19914208576587" lon="121.62002886560832">
        <ele>9.116633252574848</ele>
        <time>2019-10-12T23:45:27Z</time>
      </trkpt>
      <trkpt lat="31.199053575901882" lon="121.62014215000671">
        <ele>9.073465101968196</ele>
        <time>2019-10-12T23:45:31Z</time>
      </trkpt>
      <trkpt lat="31.19897248549781" lon="121.62016221050091">
        <ele>9.056179867825588</ele>
        <time>2019-10-12T23:45:35Z</time>
      </trkpt>
      <trkpt lat="31.198736969553394" lon="121.62032320169736">
        <ele>9.171016606705845</ele>
        <time>2019-10-12T23:45:46Z</time>
      </trkpt>
      <trkpt lat="31.19860200153492" lon="121.62052320662995">
        <ele>9.59290841116253</ele>
        <time>2019-10-12T23:45:53Z</time>
      </trkpt>
      <trkpt lat="31.198386749539605" lon="121.62074814784482">
        <ele>10.23956150487593</ele>
        <time>2019-10-12T23:46:05Z</time>
      </trkpt>
      <trkpt lat="31.198256492954275" lon="121.62085167693706">
        <ele>10.088334745033789</ele>
        <time>2019-10-12T23:46:11Z</time>
      </trkpt>
      <trkpt lat="31.198116435597207" lon="121.62099151889835">
        <ele>9.624195680938723</ele>
        <time>2019-10-12T23:46:19Z</time>
      </trkpt>
      <trkpt lat="31.197874918857345" lon="121.62118123005922">
        <ele>9.614669095358622</ele>
        <time>2019-10-12T23:46:33Z</time>
      </trkpt>
      <trkpt lat="31.19775116654309" lon="121.62128611183476">
        <ele>9.645953573228418</ele>
        <time>2019-10-12T23:46:40Z</time>
      </trkpt>
      <trkpt lat="31.19769767641671" lon="121.62135575940164">
        <ele>9.57621863287977</ele>
        <time>2019-10-12T23:46:43Z</time>
      </trkpt>
      <trkpt lat="31.19754299715965" lon="121.62147608910175">
        <ele>9.271658908092913</ele>
        <time>2019-10-12T23:46:51Z</time>
      </trkpt>
      <trkpt lat="31.19731174763543" lon="121.62169533289745">
        <ele>8.499416758311595</ele>
        <time>2019-10-12T23:47:03Z</time>
      </trkpt>
      <trkpt lat="31.19707943057023" lon="121.62189804525474">
        <ele>8.230433713274408</ele>
        <time>2019-10-12T23:47:14Z</time>
      </trkpt>
      <trkpt lat="31.196802343342128" lon="121.62212894137465">
        <ele>8.557463059879327</ele>
        <time>2019-10-12T23:47:29Z</time>
      </trkpt>
      <trkpt lat="31.19669537909149" lon="121.62225061851234">
        <ele>8.778077388180217</ele>
        <time>2019-10-12T23:47:36Z</time>
      </trkpt>
      <trkpt lat="31.196671952142648" lon="121.62234708756372">
        <ele>8.718202084154349</ele>
        <time>2019-10-12T23:47:40Z</time>
      </trkpt>
      <trkpt lat="31.196709672109993" lon="121.62255654695292">
        <ele>8.794397802334256</ele>
        <time>2019-10-12T23:47:54Z</time>
      </trkpt>
      <trkpt lat="31.19670391258109" lon="121.62261399352595">
        <ele>8.65500727389419</ele>
        <time>2019-10-12T23:48:01Z</time>
      </trkpt>
      <trkpt lat="31.196736856614955" lon="121.62273105039112">
        <ele>8.51461361811203</ele>
        <time>2019-10-12T23:48:12Z</time>
      </trkpt>
      <trkpt lat="31.196758690398394" lon="121.62307680498131">
        <ele>8.894855679721058</ele>
        <time>2019-10-12T23:48:29Z</time>
      </trkpt>
      <trkpt lat="31.196780374673597" lon="121.62331525331479">
        <ele>9.280592644878999</ele>
        <time>2019-10-12T23:48:43Z</time>
      </trkpt>
      <trkpt lat="31.196816120616322" lon="121.62335264348269">
        <ele>9.200401067013436</ele>
        <time>2019-10-12T23:48:50Z</time>
      </trkpt>
      <trkpt lat="31.196856142140728" lon="121.62344341312743">
        <ele>9.159839997177993</ele>
        <time>2019-10-12T23:48:57Z</time>
      </trkpt>
      <trkpt lat="31.196871366549736" lon="121.62363931785329">
        <ele>9.209893809259833</ele>
        <time>2019-10-12T23:49:07Z</time>
      </trkpt>
      <trkpt lat="31.19692434785388" lon="121.62377560685043">
        <ele>9.226731940521331</ele>
        <time>2019-10-12T23:49:15Z</time>
      </trkpt>
      <trkpt lat="31.19694521531915" lon="121.62401242343597">
        <ele>9.287859669645563</ele>
        <time>2019-10-12T23:49:29Z</time>
      </trkpt>
      <trkpt lat="31.196991656497133" lon="121.62394738959308">
        <ele>9.11912819012296</ele>
        <time>2019-10-12T23:49:37Z</time>
      </trkpt>
      <trkpt lat="31.196985457895178" lon="121.62368672666035">
        <ele>9.43447432687576</ele>
        <time>2019-10-12T23:49:54Z</time>
      </trkpt>
      <trkpt lat="31.196957903213693" lon="121.62336997346922">
        <ele>9.460035509688563</ele>
        <time>2019-10-12T23:50:14Z</time>
      </trkpt>
      <trkpt lat="31.19691492744282" lon="121.62325481694414">
        <ele>9.524340152247825</ele>
        <time>2019-10-12T23:50:25Z</time>
      </trkpt>
      <trkpt lat="31.19692512081974" lon="121.62311608142697">
        <ele>9.534696831591743</ele>
        <time>2019-10-12T23:50:32Z</time>
      </trkpt>
      <trkpt lat="31.196908391647405" lon="121.62304617327511">
        <ele>9.547020391188004</ele>
        <time>2019-10-12T23:50:36Z</time>
      </trkpt>
      <trkpt lat="31.196911583078577" lon="121.62286543705845">
        <ele>8.899038773725149</ele>
        <time>2019-10-12T23:50:46Z</time>
      </trkpt>
      <trkpt lat="31.196956188436424" lon="121.62274430979825">
        <ele>8.512084888049545</ele>
        <time>2019-10-12T23:50:59Z</time>
      </trkpt>
      <trkpt lat="31.197095921480827" lon="121.62265785848719">
        <ele>8.957019759555147</ele>
        <time>2019-10-12T23:51:07Z</time>
      </trkpt>
      <trkpt lat="31.197120379389773" lon="121.62260908156281">
        <ele>9.016597818042584</ele>
        <time>2019-10-12T23:51:11Z</time>
      </trkpt>
      <trkpt lat="31.197384461457112" lon="121.62237331311267">
        <ele>8.798783843910066</ele>
        <time>2019-10-12T23:51:35Z</time>
      </trkpt>
      <trkpt lat="31.197433891519516" lon="121.62229960391606">
        <ele>8.84638068928287</ele>
        <time>2019-10-12T23:51:39Z</time>
      </trkpt>
      <trkpt lat="31.197651844607755" lon="121.622093915046">
        <ele>8.960451307904568</ele>
        <time>2019-10-12T23:51:50Z</time>
      </trkpt>
      <trkpt lat="31.197793493638777" lon="121.62198984791323">
        <ele>9.165950983049921</ele>
        <time>2019-10-12T23:51:57Z</time>
      </trkpt>
      <trkpt lat="31.197855134146845" lon="121.62190692336713">
        <ele>9.16517405094517</ele>
        <time>2019-10-12T23:52:01Z</time>
      </trkpt>
      <trkpt lat="31.197929772476268" lon="121.6218386303951">
        <ele>9.164948546316463</ele>
        <time>2019-10-12T23:52:05Z</time>
      </trkpt>
      <trkpt lat="31.19803855262534" lon="121.62178903206274">
        <ele>9.26102827676588</ele>
        <time>2019-10-12T23:52:11Z</time>
      </trkpt>
      <trkpt lat="31.19824749798879" lon="121.62163455561044">
        <ele>9.32649426240636</ele>
        <time>2019-10-12T23:52:21Z</time>
      </trkpt>
      <trkpt lat="31.19848527931811" lon="121.62139281909178">
        <ele>9.107672466270953</ele>
        <time>2019-10-12T23:52:35Z</time>
      </trkpt>
      <trkpt lat="31.198714931264668" lon="121.62114511932855">
        <ele>8.939450004003707</ele>
        <time>2019-10-12T23:52:49Z</time>
      </trkpt>
      <trkpt lat="31.198875049779044" lon="121.62100852838424">
        <ele>8.94880481162698</ele>
        <time>2019-10-12T23:53:00Z</time>
      </trkpt>
      <trkpt lat="31.199103430334432" lon="121.62068006974029">
        <ele>9.305909334439905</ele>
        <time>2019-10-12T23:53:14Z</time>
      </trkpt>
      <trkpt lat="31.1994054983469" lon="121.62065728144111">
        <ele>9.181537481650352</ele>
        <time>2019-10-12T23:53:25Z</time>
      </trkpt>
      <trkpt lat="31.199748385213052" lon="121.6207477641794">
        <ele>9.259723399556464</ele>
        <time>2019-10-12T23:53:39Z</time>
      </trkpt>
      <trkpt lat="31.199846024054448" lon="121.62071957303249">
        <ele>8.930728479170009</ele>
        <time>2019-10-12T23:53:43Z</time>
      </trkpt>
      <trkpt lat="31.199970701216344" lon="121.62076075334156">
        <ele>8.354059362936564</ele>
        <time>2019-10-12T23:53:50Z</time>
      </trkpt>
      <trkpt lat="31.20008947125068" lon="121.62074854892653">
        <ele>8.077095949448953</ele>
        <time>2019-10-12T23:53:54Z</time>
      </trkpt>
      <trkpt lat="31.200414467576493" lon="121.62083496797813">
        <ele>8.000159751404922</ele>
        <time>2019-10-12T23:54:08Z</time>
      </trkpt>
      <trkpt lat="31.20048873602576" lon="121.62085555706237">
        <ele>8.11490724638861</ele>
        <time>2019-10-12T23:54:12Z</time>
      </trkpt>
      <trkpt lat="31.20055267806966" lon="121.62089755515083">
        <ele>8.23602965536393</ele>
        <time>2019-10-12T23:54:15Z</time>
      </trkpt>
      <trkpt lat="31.20084683888958" lon="121.62091595807523">
        <ele>8.595770539101377</ele>
        <time>2019-10-12T23:54:28Z</time>
      </trkpt>
      <trkpt lat="31.200969371317537" lon="121.62093464617878">
        <ele>8.573690837740667</ele>
        <time>2019-10-12T23:54:39Z</time>
      </trkpt>
      <trkpt lat="31.201086512942872" lon="121.62092406791344">
        <ele>8.828765476622394</ele>
        <time>2019-10-12T23:54:49Z</time>
      </trkpt>
      <trkpt lat="31.201217094576815" lon="121.62102052903292">
        <ele>8.716887834143412</ele>
        <time>2019-10-12T23:54:57Z</time>
      </trkpt>
      <trkpt lat="31.201259331727865" lon="121.62107526506821">
        <ele>8.721530725142964</ele>
        <time>2019-10-12T23:55:01Z</time>
      </trkpt>
      <trkpt lat="31.201305406218957" lon="121.62109206247437">
        <ele>8.786695164147096</ele>
        <time>2019-10-12T23:55:07Z</time>
      </trkpt>
      <trkpt lat="31.201400591366784" lon="121.62107660831502">
        <ele>8.711908365312231</ele>
        <time>2019-10-12T23:55:15Z</time>
      </trkpt>
      <trkpt lat="31.201444540960555" lon="121.62105302875644">
        <ele>8.587251643949024</ele>
        <time>2019-10-12T23:55:19Z</time>
      </trkpt>
      <trkpt lat="31.201497957443838" lon="121.62105031445832">
        <ele>8.437598405198116</ele>
        <time>2019-10-12T23:55:22Z</time>
      </trkpt>
      <trkpt lat="31.201539122473466" lon="121.62109366905578">
        <ele>8.531939103266668</ele>
        <time>2019-10-12T23:55:26Z</time>
      </trkpt>
      <trkpt lat="31.20167409765623" lon="121.62113918371261">
        <ele>8.753749633976405</ele>
        <time>2019-10-12T23:55:33Z</time>
      </trkpt>
      <trkpt lat="31.20188916030677" lon="121.62109093021303">
        <ele>7.986822653329996</ele>
        <time>2019-10-12T23:55:52Z</time>
      </trkpt>
      <trkpt lat="31.202018688471412" lon="121.62115866623826">
        <ele>7.922345574946668</ele>
        <time>2019-10-12T23:56:00Z</time>
      </trkpt>
      <trkpt lat="31.202181075298494" lon="121.62117951876097">
        <ele>8.453178202123112</ele>
        <time>2019-10-12T23:56:11Z</time>
      </trkpt>
      <trkpt lat="31.202297950750182" lon="121.62116460483077">
        <ele>8.213051690765854</ele>
        <time>2019-10-12T23:56:22Z</time>
      </trkpt>
      <trkpt lat="31.202463327530527" lon="121.62117868244134">
        <ele>8.154685538756738</ele>
        <time>2019-10-12T23:56:36Z</time>
      </trkpt>
      <trkpt lat="31.202476655051697" lon="121.62114047222474">
        <ele>8.107023689882936</ele>
        <time>2019-10-12T23:56:43Z</time>
      </trkpt>
      <trkpt lat="31.202449275482582" lon="121.62113586771447">
        <ele>8.363639240610661</ele>
        <time>2019-10-12T23:56:54Z</time>
      </trkpt>
      <trkpt lat="31.202456207618884" lon="121.62074591414715">
        <ele>8.039220695722879</ele>
        <time>2019-10-12T23:57:08Z</time>
      </trkpt>
      <trkpt lat="31.202404205471307" lon="121.62044267788065">
        <ele>8.23891783020886</ele>
        <time>2019-10-12T23:57:18Z</time>
      </trkpt>
      <trkpt lat="31.202445537824385" lon="121.6203307536796">
        <ele>8.144145071110136</ele>
        <time>2019-10-12T23:57:25Z</time>
      </trkpt>
      <trkpt lat="31.202452288662705" lon="121.62035649765308">
        <ele>8.163534686655495</ele>
        <time>2019-10-12T23:57:42Z</time>
      </trkpt>
      <trkpt lat="31.202466398110637" lon="121.62034674066575">
        <ele>8.18534182426901</ele>
        <time>2019-10-12T23:57:45Z</time>
      </trkpt>
      <trkpt lat="31.202466398110637" lon="121.62034674066575">
        <ele>8.18534182426901</ele>
        <time>2019-10-12T23:57:51Z</time>
      </trkpt>
      <trkpt lat="31.202483205572538" lon="121.62034944922513">
        <ele>8.015075264385446</ele>
        <time>2019-10-12T23:57:54Z</time>
      </trkpt>
      <trkpt lat="31.20250137305685" lon="121.62034809274658">
        <ele>7.758368187425091</ele>
        <time>2019-10-12T23:58:01Z</time>
      </trkpt>
      <trkpt lat="31.202507345269318" lon="121.62034131737576">
        <ele>7.769329392437946</ele>
        <time>2019-10-12T23:58:02Z</time>
      </trkpt>
      <trkpt lat="31.202635087444836" lon="121.62030607741772">
        <ele>9.040056277817648</ele>
        <time>2019-10-12T23:58:14Z</time>
      </trkpt>
      <trkpt lat="31.20272237463845" lon="121.62032314290303">
        <ele>8.840293242363359</ele>
        <time>2019-10-12T23:58:20Z</time>
      </trkpt>
      <trkpt lat="31.202856090172386" lon="121.6202800435509">
        <ele>8.454424436515538</ele>
        <time>2019-10-12T23:58:28Z</time>
      </trkpt>
      <trkpt lat="31.202871632964147" lon="121.62019738843313">
        <ele>8.317214282708145</ele>
        <time>2019-10-12T23:58:32Z</time>
      </trkpt>
      <trkpt lat="31.202806989712286" lon="121.62004861622128">
        <ele>8.281943369476386</ele>
        <time>2019-10-12T23:58:38Z</time>
      </trkpt>
      <trkpt lat="31.202749574729474" lon="121.61972911216569">
        <ele>8.70191668746045</ele>
        <time>2019-10-12T23:58:49Z</time>
      </trkpt>
      <trkpt lat="31.202647395371873" lon="121.61943237224561">
        <ele>8.877953516783025</ele>
        <time>2019-10-12T23:59:00Z</time>
      </trkpt>
      <trkpt lat="31.202604564215566" lon="121.61916218272506">
        <ele>8.517998402131902</ele>
        <time>2019-10-12T23:59:10Z</time>
      </trkpt>
      <trkpt lat="31.20251919274927" lon="121.61886218269913">
        <ele>9.401647607553915</ele>
        <time>2019-10-12T23:59:21Z</time>
      </trkpt>
      <trkpt lat="31.202504395775808" lon="121.61874863017994">
        <ele>9.329728562269205</ele>
        <time>2019-10-12T23:59:25Z</time>
      </trkpt>
      <trkpt lat="31.202538889240426" lon="121.61869008868193">
        <ele>8.789568170967978</ele>
        <time>2019-10-12T23:59:28Z</time>
      </trkpt>
      <trkpt lat="31.202613247902452" lon="121.61862314234027">
        <ele>8.649288295961991</ele>
        <time>2019-10-12T23:59:32Z</time>
      </trkpt>
      <trkpt lat="31.202708974120817" lon="121.61860768665909">
        <ele>8.515537825718704</ele>
        <time>2019-10-12T23:59:36Z</time>
      </trkpt>
      <trkpt lat="31.202851954026396" lon="121.61851661415068">
        <ele>8.548856960613616</ele>
        <time>2019-10-12T23:59:43Z</time>
      </trkpt>
      <trkpt lat="31.20287804565635" lon="121.61845427859987">
        <ele>8.615940228551358</ele>
        <time>2019-10-12T23:59:46Z</time>
      </trkpt>
      <trkpt lat="31.20288656575528" lon="121.61833963825399">
        <ele>8.901085552129905</ele>
        <time>2019-10-12T23:59:53Z</time>
      </trkpt>
      <trkpt lat="31.20281183319561" lon="121.61823882616504">
        <ele>9.149506014041783</ele>
        <time>2019-10-13T00:00:08Z</time>
      </trkpt>
      <trkpt lat="31.202787248934158" lon="121.61814939229671">
        <ele>9.11583288047015</ele>
        <time>2019-10-13T00:00:16Z</time>
      </trkpt>
      <trkpt lat="31.202791655417457" lon="121.6180805531722">
        <ele>9.112024834741161</ele>
        <time>2019-10-13T00:00:19Z</time>
      </trkpt>
      <trkpt lat="31.20270362830589" lon="121.61798787174695">
        <ele>9.111360234505945</ele>
        <time>2019-10-13T00:00:30Z</time>
      </trkpt>
      <trkpt lat="31.2026181673342" lon="121.61776672542543">
        <ele>9.080429783754864</ele>
        <time>2019-10-13T00:00:41Z</time>
      </trkpt>
      <trkpt lat="31.202571052228713" lon="121.61770303895125">
        <ele>9.029889322896011</ele>
        <time>2019-10-13T00:00:48Z</time>
      </trkpt>
      <trkpt lat="31.20248750092194" lon="121.617467525584">
        <ele>9.06484874481263</ele>
        <time>2019-10-13T00:01:03Z</time>
      </trkpt>
      <trkpt lat="31.202476269954897" lon="121.61730545257356">
        <ele>9.041297650039928</ele>
        <time>2019-10-13T00:01:14Z</time>
      </trkpt>
      <trkpt lat="31.202498559643686" lon="121.61724663768375">
        <ele>9.174930940374193</ele>
        <time>2019-10-13T00:01:22Z</time>
      </trkpt>
      <trkpt lat="31.202654848039028" lon="121.61712710103812">
        <ele>9.067593858559142</ele>
        <time>2019-10-13T00:01:33Z</time>
      </trkpt>
      <trkpt lat="31.202708010454796" lon="121.61710622736084">
        <ele>8.902831115543988</ele>
        <time>2019-10-13T00:01:36Z</time>
      </trkpt>
      <trkpt lat="31.202835329149714" lon="121.61694224330373">
        <ele>8.965383912877117</ele>
        <time>2019-10-13T00:01:53Z</time>
      </trkpt>
      <trkpt lat="31.202915587410633" lon="121.61693979738105">
        <ele>9.038945420290936</ele>
        <time>2019-10-13T00:02:00Z</time>
      </trkpt>
      <trkpt lat="31.203014343600344" lon="121.61687338639355">
        <ele>9.086650666039048</ele>
        <time>2019-10-13T00:02:07Z</time>
      </trkpt>
      <trkpt lat="31.203095251617242" lon="121.61675737761297">
        <ele>9.027175990120071</ele>
        <time>2019-10-13T00:02:14Z</time>
      </trkpt>
      <trkpt lat="31.20315654475787" lon="121.6167397553556">
        <ele>8.949618816452224</ele>
        <time>2019-10-13T00:02:21Z</time>
      </trkpt>
      <trkpt lat="31.203378516445117" lon="121.61654486295657">
        <ele>8.94937353429007</ele>
        <time>2019-10-13T00:02:39Z</time>
      </trkpt>
      <trkpt lat="31.203506882374054" lon="121.6164174651348">
        <ele>9.351324482383095</ele>
        <time>2019-10-13T00:02:54Z</time>
      </trkpt>
      <trkpt lat="31.203638172574767" lon="121.61635213419653">
        <ele>9.80713103895541</ele>
        <time>2019-10-13T00:03:05Z</time>
      </trkpt>
      <trkpt lat="31.20368323060185" lon="121.6162987359189">
        <ele>9.985945127009145</ele>
        <time>2019-10-13T00:03:12Z</time>
      </trkpt>
      <trkpt lat="31.203845449509995" lon="121.61621226102692">
        <ele>10.033527537172736</ele>
        <time>2019-10-13T00:03:26Z</time>
      </trkpt>
      <trkpt lat="31.20389239971837" lon="121.61616482517024">
        <ele>10.061237500325138</ele>
        <time>2019-10-13T00:03:30Z</time>
      </trkpt>
      <trkpt lat="31.20393913060023" lon="121.61606101272159">
        <ele>10.071536155487532</ele>
        <time>2019-10-13T00:03:37Z</time>
      </trkpt>
      <trkpt lat="31.204010491672783" lon="121.61600381704501">
        <ele>10.097384671429824</ele>
        <time>2019-10-13T00:03:43Z</time>
      </trkpt>
      <trkpt lat="31.204074773080645" lon="121.61597941794476">
        <ele>10.088686645230469</ele>
        <time>2019-10-13T00:03:47Z</time>
      </trkpt>
      <trkpt lat="31.204252391479667" lon="121.61595229902102">
        <ele>9.97243404498456</ele>
        <time>2019-10-13T00:04:01Z</time>
      </trkpt>
      <trkpt lat="31.204364537032088" lon="121.6160661273181">
        <ele>10.09219741269595</ele>
        <time>2019-10-13T00:04:12Z</time>
      </trkpt>
      <trkpt lat="31.204419212708487" lon="121.61616776303606">
        <ele>10.089945396037178</ele>
        <time>2019-10-13T00:04:19Z</time>
      </trkpt>
      <trkpt lat="31.20455003680648" lon="121.61631275822448">
        <ele>9.99072936945599</ele>
        <time>2019-10-13T00:04:33Z</time>
      </trkpt>
      <trkpt lat="31.20460505008345" lon="121.61634202581065">
        <ele>9.942933844620482</ele>
        <time>2019-10-13T00:04:36Z</time>
      </trkpt>
      <trkpt lat="31.20465277116152" lon="121.61634066667253">
        <ele>9.90567749021596</ele>
        <time>2019-10-13T00:04:40Z</time>
      </trkpt>
      <trkpt lat="31.204653097152036" lon="121.61628158025619">
        <ele>9.961540807346841</ele>
        <time>2019-10-13T00:04:44Z</time>
      </trkpt>
      <trkpt lat="31.204537100445233" lon="121.61622846618627">
        <ele>10.055288653214504</ele>
        <time>2019-10-13T00:04:51Z</time>
      </trkpt>
      <trkpt lat="31.204444444049443" lon="121.61615068541828">
        <ele>10.085865345196947</ele>
        <time>2019-10-13T00:04:58Z</time>
      </trkpt>
      <trkpt lat="31.204399159455015" lon="121.61615610996871">
        <ele>10.153053970793673</ele>
        <time>2019-10-13T00:05:01Z</time>
      </trkpt>
      <trkpt lat="31.204354983156406" lon="121.61613578559886">
        <ele>10.186760072828394</ele>
        <time>2019-10-13T00:05:04Z</time>
      </trkpt>
      <trkpt lat="31.204316525893038" lon="121.61608808561718">
        <ele>10.15928094178576</ele>
        <time>2019-10-13T00:05:08Z</time>
      </trkpt>
      <trkpt lat="31.20422372100838" lon="121.61587586729429">
        <ele>10.047170056979986</ele>
        <time>2019-10-13T00:05:22Z</time>
      </trkpt>
      <trkpt lat="31.204104268313085" lon="121.61574631811794">
        <ele>10.353092741392803</ele>
        <time>2019-10-13T00:05:33Z</time>
      </trkpt>
      <trkpt lat="31.203870733606788" lon="121.61554305299879">
        <ele>10.407727927071438</ele>
        <time>2019-10-13T00:05:57Z</time>
      </trkpt>
      <trkpt lat="31.203707107896097" lon="121.61538721397427">
        <ele>9.97987580420091</ele>
        <time>2019-10-13T00:06:12Z</time>
      </trkpt>
      <trkpt lat="31.203594088898765" lon="121.61533762133993">
        <ele>10.016915207475066</ele>
        <time>2019-10-13T00:06:22Z</time>
      </trkpt>
      <trkpt lat="31.203643549447172" lon="121.6152096816123">
        <ele>10.223826630445576</ele>
        <time>2019-10-13T00:06:30Z</time>
      </trkpt>
      <trkpt lat="31.203717649854042" lon="121.61511887329513">
        <ele>9.767325460752062</ele>
        <time>2019-10-13T00:06:34Z</time>
      </trkpt>
      <trkpt lat="31.203799593514805" lon="121.61505001925688">
        <ele>9.812677966603855</ele>
        <time>2019-10-13T00:06:38Z</time>
      </trkpt>
      <trkpt lat="31.203900891115417" lon="121.61486325491272">
        <ele>9.82736539847806</ele>
        <time>2019-10-13T00:06:46Z</time>
      </trkpt>
      <trkpt lat="31.203958971170653" lon="121.6147979258357">
        <ele>9.770450519423846</ele>
        <time>2019-10-13T00:06:49Z</time>
      </trkpt>
      <trkpt lat="31.204040090244256" lon="121.61474099741544">
        <ele>9.527333366913302</ele>
        <time>2019-10-13T00:06:53Z</time>
      </trkpt>
      <trkpt lat="31.204268061352998" lon="121.61448997930272">
        <ele>10.42777138588195</ele>
        <time>2019-10-13T00:07:06Z</time>
      </trkpt>
      <trkpt lat="31.204490341425856" lon="121.6142329956583">
        <ele>10.622047380540701</ele>
        <time>2019-10-13T00:07:21Z</time>
      </trkpt>
      <trkpt lat="31.204688397123327" lon="121.61408362372123">
        <ele>11.087722409912457</ele>
        <time>2019-10-13T00:07:39Z</time>
      </trkpt>
      <trkpt lat="31.204821143491436" lon="121.61389251215454">
        <ele>11.048543890119788</ele>
        <time>2019-10-13T00:07:53Z</time>
      </trkpt>
      <trkpt lat="31.204884085108322" lon="121.61384696785815">
        <ele>11.00753074448102</ele>
        <time>2019-10-13T00:07:56Z</time>
      </trkpt>
      <trkpt lat="31.204910155864553" lon="121.61379708945387">
        <ele>10.943356130152816</ele>
        <time>2019-10-13T00:08:00Z</time>
      </trkpt>
      <trkpt lat="31.204955739454274" lon="121.61375778095795">
        <ele>11.046438598439089</ele>
        <time>2019-10-13T00:08:07Z</time>
      </trkpt>
      <trkpt lat="31.20501378075399" lon="121.61373581969642">
        <ele>11.01288617934358</ele>
        <time>2019-10-13T00:08:11Z</time>
      </trkpt>
      <trkpt lat="31.20506583830345" lon="121.61373635752663">
        <ele>11.075352723771227</ele>
        <time>2019-10-13T00:08:15Z</time>
      </trkpt>
      <trkpt lat="31.205257344297532" lon="121.61363496220883">
        <ele>10.95747294056686</ele>
        <time>2019-10-13T00:08:32Z</time>
      </trkpt>
      <trkpt lat="31.20528178785547" lon="121.61358508349132">
        <ele>10.948486963854485</ele>
        <time>2019-10-13T00:08:36Z</time>
      </trkpt>
      <trkpt lat="31.205408729722965" lon="121.61352408232533">
        <ele>10.81975818310277</ele>
        <time>2019-10-13T00:08:46Z</time>
      </trkpt>
      <trkpt lat="31.205445659829042" lon="121.61345658274732">
        <ele>10.733798280722766</ele>
        <time>2019-10-13T00:08:50Z</time>
      </trkpt>
      <trkpt lat="31.205460095085893" lon="121.61337742875652">
        <ele>10.793338740889507</ele>
        <time>2019-10-13T00:08:54Z</time>
      </trkpt>
      <trkpt lat="31.205564309408857" lon="121.61325733507793">
        <ele>11.044438765585953</ele>
        <time>2019-10-13T00:09:08Z</time>
      </trkpt>
      <trkpt lat="31.205595814812185" lon="121.61319146162535">
        <ele>11.17799235221375</ele>
        <time>2019-10-13T00:09:15Z</time>
      </trkpt>
      <trkpt lat="31.205596679976775" lon="121.61312775911802">
        <ele>11.138393966673032</ele>
        <time>2019-10-13T00:09:19Z</time>
      </trkpt>
      <trkpt lat="31.205554397999624" lon="121.61310905846202">
        <ele>11.267821297152178</ele>
        <time>2019-10-13T00:09:26Z</time>
      </trkpt>
      <trkpt lat="31.205539741732256" lon="121.61312749275173">
        <ele>11.094502215115757</ele>
        <time>2019-10-13T00:09:36Z</time>
      </trkpt>
      <trkpt lat="31.205550037843906" lon="121.61313616628485">
        <ele>10.998765061057634</ele>
        <time>2019-10-13T00:10:01Z</time>
      </trkpt>
      <trkpt lat="31.205510795205605" lon="121.61304725693614">
        <ele>11.009635564732926</ele>
        <time>2019-10-13T00:10:05Z</time>
      </trkpt>
      <trkpt lat="31.20538593378487" lon="121.61288326601091">
        <ele>10.965131786317409</ele>
        <time>2019-10-13T00:10:13Z</time>
      </trkpt>
      <trkpt lat="31.20537922461808" lon="121.61279679271577">
        <ele>11.049467727478039</ele>
        <time>2019-10-13T00:10:20Z</time>
      </trkpt>
      <trkpt lat="31.20530661845808" lon="121.61272387851531">
        <ele>11.036606894866052</ele>
        <time>2019-10-13T00:10:24Z</time>
      </trkpt>
      <trkpt lat="31.205281493253008" lon="121.6126100270299">
        <ele>11.055580118195872</ele>
        <time>2019-10-13T00:10:31Z</time>
      </trkpt>
      <trkpt lat="31.20521481023172" lon="121.61258943041086">
        <ele>11.122568656242056</ele>
        <time>2019-10-13T00:10:34Z</time>
      </trkpt>
      <trkpt lat="31.205168156051837" lon="121.61261328936793">
        <ele>10.438352831056738</ele>
        <time>2019-10-13T00:10:37Z</time>
      </trkpt>
      <trkpt lat="31.205077893904598" lon="121.6125804960632">
        <ele>10.236947992396342</ele>
        <time>2019-10-13T00:10:44Z</time>
      </trkpt>
      <trkpt lat="31.204920762617906" lon="121.61241894426635">
        <ele>10.654302072816526</ele>
        <time>2019-10-13T00:11:04Z</time>
      </trkpt>
      <trkpt lat="31.204803972455153" lon="121.61233058076074">
        <ele>11.319391692020321</ele>
        <time>2019-10-13T00:11:15Z</time>
      </trkpt>
      <trkpt lat="31.20468181067133" lon="121.61217607255989">
        <ele>11.135161198683301</ele>
        <time>2019-10-13T00:11:28Z</time>
      </trkpt>
      <trkpt lat="31.204473503543763" lon="121.61192181005151">
        <ele>11.104672705132604</ele>
        <time>2019-10-13T00:11:57Z</time>
      </trkpt>
      <trkpt lat="31.204358649744233" lon="121.61178085303163">
        <ele>11.058196410958807</ele>
        <time>2019-10-13T00:12:10Z</time>
      </trkpt>
      <trkpt lat="31.204281916403634" lon="121.61178357027832">
        <ele>11.022066849785066</ele>
        <time>2019-10-13T00:12:14Z</time>
      </trkpt>
      <trkpt lat="31.204154013166526" lon="121.61168788579572">
        <ele>11.103360731415972</ele>
        <time>2019-10-13T00:12:22Z</time>
      </trkpt>
      <trkpt lat="31.20410474553923" lon="121.61158324835964">
        <ele>11.144409341894645</ele>
        <time>2019-10-13T00:12:30Z</time>
      </trkpt>
      <trkpt lat="31.204019393558294" lon="121.61150924701444">
        <ele>10.952876881945363</ele>
        <time>2019-10-13T00:12:34Z</time>
      </trkpt>
      <trkpt lat="31.20405202684531" lon="121.61137939017127">
        <ele>10.813125237670452</ele>
        <time>2019-10-13T00:12:49Z</time>
      </trkpt>
      <trkpt lat="31.204120101763536" lon="121.6113525461211">
        <ele>10.806279443714034</ele>
        <time>2019-10-13T00:12:53Z</time>
      </trkpt>
      <trkpt lat="31.20418028914375" lon="121.61135877633707">
        <ele>10.835463306849679</ele>
        <time>2019-10-13T00:13:00Z</time>
      </trkpt>
      <trkpt lat="31.204197101343816" lon="121.6113563350897">
        <ele>10.876290288136449</ele>
        <time>2019-10-13T00:13:03Z</time>
      </trkpt>
      <trkpt lat="31.204197101343816" lon="121.6113563350897">
        <ele>10.876290288136449</ele>
        <time>2019-10-13T00:13:13Z</time>
      </trkpt>
      <trkpt lat="31.20418762290282" lon="121.61134115453216">
        <ele>11.016166026285935</ele>
        <time>2019-10-13T00:13:16Z</time>
      </trkpt>
      <trkpt lat="31.204225339496052" lon="121.61130238472943">
        <ele>10.926853835610746</ele>
        <time>2019-10-13T00:13:20Z</time>
      </trkpt>
      <trkpt lat="31.204202874244224" lon="121.61124979391673">
        <ele>10.929312363336523</ele>
        <time>2019-10-13T00:13:28Z</time>
      </trkpt>
      <trkpt lat="31.20443980002918" lon="121.61094370428017">
        <ele>11.194139425035726</ele>
        <time>2019-10-13T00:13:51Z</time>
      </trkpt>
      <trkpt lat="31.204591686054204" lon="121.61087456107411">
        <ele>11.740930800591531</ele>
        <time>2019-10-13T00:14:05Z</time>
      </trkpt>
      <trkpt lat="31.20463048179474" lon="121.61084229682537">
        <ele>11.87646212069409</ele>
        <time>2019-10-13T00:14:09Z</time>
      </trkpt>
      <trkpt lat="31.204592040340682" lon="121.61075961393216">
        <ele>12.02873579976932</ele>
        <time>2019-10-13T00:14:16Z</time>
      </trkpt>
    </trkseg>
  </trk>
</gpx>