<?xml version="1.0" encoding="UTF-8"?>
<gpx xmlns="http://www.topografix.com/GPX/1/1" xmlns:gpxtpx="http://www.garmin.com/xmlschemas/TrackPointExtension/v1" xmlns:xsi="http://www.w3.org/2001/XMLSchema-instance" xsi:schemaLocation="http://www.topografix.com/GPX/1/1 http://www.topografix.com/GPX/1/1/gpx.xsd" version="1.1" creator="gpx.py -- https://github.com/tkrajina/gpxpy">
  <trk>
    <name>gpx from keep</name>
    <type>Run</type>
    <trkseg>
      <trkpt lat="31.2046066417051" lon="121.61081491754031">
        <ele>10.14547348022461</ele>
        <time>2019-05-27T22:43:06Z</time>
      </trkpt>
      <trkpt lat="31.204534515003296" lon="121.61082142994302">
        <ele>9.62667465209961</ele>
        <time>2019-05-27T22:43:14Z</time>
      </trkpt>
      <trkpt lat="31.204354072626906" lon="121.61101040191326">
        <ele>8.34316635131836</ele>
        <time>2019-05-27T22:43:20Z</time>
      </trkpt>
      <trkpt lat="31.204162255625274" lon="121.6111798542585">
        <ele>6.136501312255859</ele>
        <time>2019-05-27T22:43:26Z</time>
      </trkpt>
      <trkpt lat="31.204125062245286" lon="121.61124464951457">
        <ele>4.375270843505859</ele>
        <time>2019-05-27T22:43:30Z</time>
      </trkpt>
      <trkpt lat="31.204131258789403" lon="121.61129805497205">
        <ele>3.1370506286621094</ele>
        <time>2019-05-27T22:43:33Z</time>
      </trkpt>
      <trkpt lat="31.20416458144658" lon="121.61133437904937">
        <ele>2.8033103942871094</ele>
        <time>2019-05-27T22:43:37Z</time>
      </trkpt>
      <trkpt lat="31.204143567383195" lon="121.6115173695516">
        <ele>3.053750105894883</ele>
        <time>2019-05-27T22:43:47Z</time>
      </trkpt>
      <trkpt lat="31.204240223293738" lon="121.61170224650675">
        <ele>3.2778949317861663</ele>
        <time>2019-05-27T22:43:55Z</time>
      </trkpt>
      <trkpt lat="31.20444153840507" lon="121.61188413134468">
        <ele>3.017802586549754</ele>
        <time>2019-05-27T22:44:05Z</time>
      </trkpt>
      <trkpt lat="31.2046072793223" lon="121.6121362290983">
        <ele>2.9420671889087355</ele>
        <time>2019-05-27T22:44:16Z</time>
      </trkpt>
      <trkpt lat="31.204678531803953" lon="121.61220860308534">
        <ele>3.4395017404508774</ele>
        <time>2019-05-27T22:44:20Z</time>
      </trkpt>
      <trkpt lat="31.204932992185967" lon="121.61238261813112">
        <ele>4.42267972193828</ele>
        <time>2019-05-27T22:44:31Z</time>
      </trkpt>
      <trkpt lat="31.205153033964585" lon="121.6125354903742">
        <ele>5.588484971772239</ele>
        <time>2019-05-27T22:44:42Z</time>
      </trkpt>
      <trkpt lat="31.205234032090956" lon="121.61262575362228">
        <ele>6.000003341140477</ele>
        <time>2019-05-27T22:44:46Z</time>
      </trkpt>
      <trkpt lat="31.205257548977713" lon="121.61271629235249">
        <ele>6.061819147611473</ele>
        <time>2019-05-27T22:44:49Z</time>
      </trkpt>
      <trkpt lat="31.20523767282708" lon="121.61282065930747">
        <ele>5.788783293995337</ele>
        <time>2019-05-27T22:44:53Z</time>
      </trkpt>
      <trkpt lat="31.204980719222167" lon="121.61305489088043">
        <ele>5.9183291479415665</ele>
        <time>2019-05-27T22:45:04Z</time>
      </trkpt>
      <trkpt lat="31.2047680018293" lon="121.61323625721653">
        <ele>5.5972058453679026</ele>
        <time>2019-05-27T22:45:17Z</time>
      </trkpt>
      <trkpt lat="31.20471105323428" lon="121.61324873129458">
        <ele>5.799088172334052</ele>
        <time>2019-05-27T22:45:21Z</time>
      </trkpt>
      <trkpt lat="31.20463640966769" lon="121.61334822110852">
        <ele>5.603262475107467</ele>
        <time>2019-05-27T22:45:24Z</time>
      </trkpt>
      <trkpt lat="31.204582636012486" lon="121.61345638304182">
        <ele>5.4606006564566165</ele>
        <time>2019-05-27T22:45:27Z</time>
      </trkpt>
      <trkpt lat="31.204584971222065" lon="121.6135835146974">
        <ele>5.687948944347582</ele>
        <time>2019-05-27T22:45:30Z</time>
      </trkpt>
      <trkpt lat="31.204540398289954" lon="121.61371200488516">
        <ele>5.73488743586811</ele>
        <time>2019-05-27T22:45:34Z</time>
      </trkpt>
      <trkpt lat="31.204321633071974" lon="121.61398661309332">
        <ele>6.052416853521038</ele>
        <time>2019-05-27T22:45:46Z</time>
      </trkpt>
      <trkpt lat="31.204105342527612" lon="121.61421757696502">
        <ele>6.073735841973544</ele>
        <time>2019-05-27T22:45:56Z</time>
      </trkpt>
      <trkpt lat="31.20386140055925" lon="121.61444122227348">
        <ele>6.187961628002682</ele>
        <time>2019-05-27T22:46:08Z</time>
      </trkpt>
      <trkpt lat="31.20366816188595" lon="121.61466160860684">
        <ele>6.122261891631567</ele>
        <time>2019-05-27T22:46:18Z</time>
      </trkpt>
      <trkpt lat="31.20360575156133" lon="121.61471826461265">
        <ele>6.056775233711917</ele>
        <time>2019-05-27T22:46:21Z</time>
      </trkpt>
      <trkpt lat="31.20346308939534" lon="121.61477004811778">
        <ele>5.8866080511941234</ele>
        <time>2019-05-27T22:46:28Z</time>
      </trkpt>
      <trkpt lat="31.203356701582962" lon="121.61488769482901">
        <ele>5.912726974240233</ele>
        <time>2019-05-27T22:46:35Z</time>
      </trkpt>
      <trkpt lat="31.203321635868537" lon="121.61498934292608">
        <ele>5.384062655518658</ele>
        <time>2019-05-27T22:46:39Z</time>
      </trkpt>
      <trkpt lat="31.203319409202123" lon="121.61505466686295">
        <ele>4.949584997489005</ele>
        <time>2019-05-27T22:47:12Z</time>
      </trkpt>
      <trkpt lat="31.203307213867262" lon="121.6150481626095">
        <ele>5.093292785862403</ele>
        <time>2019-05-27T22:47:17Z</time>
      </trkpt>
      <trkpt lat="31.20344211268693" lon="121.61519099575946">
        <ele>5.340777999847738</ele>
        <time>2019-05-27T22:47:32Z</time>
      </trkpt>
      <trkpt lat="31.20348243322697" lon="121.61527935489171">
        <ele>5.288112931401784</ele>
        <time>2019-05-27T22:47:36Z</time>
      </trkpt>
      <trkpt lat="31.20328185916082" lon="121.61550867870257">
        <ele>5.501806503030821</ele>
        <time>2019-05-27T22:47:47Z</time>
      </trkpt>
      <trkpt lat="31.203066377679104" lon="121.61573041231362">
        <ele>5.259877076093922</ele>
        <time>2019-05-27T22:47:58Z</time>
      </trkpt>
      <trkpt lat="31.2028427499821" lon="121.61596352835275">
        <ele>4.749287561215134</ele>
        <time>2019-05-27T22:48:09Z</time>
      </trkpt>
      <trkpt lat="31.20257921639326" lon="121.616247600881">
        <ele>4.323124422083119</ele>
        <time>2019-05-27T22:48:23Z</time>
      </trkpt>
      <trkpt lat="31.20232601123221" lon="121.61650158423144">
        <ele>4.661233406244985</ele>
        <time>2019-05-27T22:48:36Z</time>
      </trkpt>
      <trkpt lat="31.202143082171027" lon="121.61669782891781">
        <ele>4.293587073275614</ele>
        <time>2019-05-27T22:48:47Z</time>
      </trkpt>
      <trkpt lat="31.202032594856295" lon="121.61684121473841">
        <ele>4.069395919529834</ele>
        <time>2019-05-27T22:48:54Z</time>
      </trkpt>
      <trkpt lat="31.201981581178615" lon="121.616883771045">
        <ele>3.9973205971481054</ele>
        <time>2019-05-27T22:48:57Z</time>
      </trkpt>
      <trkpt lat="31.201801313639958" lon="121.61712933987728">
        <ele>3.7546432747817438</ele>
        <time>2019-05-27T22:49:12Z</time>
      </trkpt>
      <trkpt lat="31.201541358931678" lon="121.61734537092612">
        <ele>3.385849744286645</ele>
        <time>2019-05-27T22:49:22Z</time>
      </trkpt>
      <trkpt lat="31.201265616625637" lon="121.61762319496705">
        <ele>3.2590923295186727</ele>
        <time>2019-05-27T22:49:36Z</time>
      </trkpt>
      <trkpt lat="31.20102977457585" lon="121.61785412592205">
        <ele>3.7524336203350455</ele>
        <time>2019-05-27T22:49:46Z</time>
      </trkpt>
      <trkpt lat="31.200808810827585" lon="121.61811757578086">
        <ele>4.470998743978917</ele>
        <time>2019-05-27T22:49:58Z</time>
      </trkpt>
      <trkpt lat="31.20075316335384" lon="121.6181828958107">
        <ele>4.61782756005989</ele>
        <time>2019-05-27T22:50:01Z</time>
      </trkpt>
      <trkpt lat="31.200532674594914" lon="121.61851030168206">
        <ele>5.319766519418565</ele>
        <time>2019-05-27T22:50:16Z</time>
      </trkpt>
      <trkpt lat="31.20032525060175" lon="121.61878458401851">
        <ele>5.8141337423854225</ele>
        <time>2019-05-27T22:50:29Z</time>
      </trkpt>
      <trkpt lat="31.200068493423675" lon="121.61904341997317">
        <ele>6.025922518400339</ele>
        <time>2019-05-27T22:50:43Z</time>
      </trkpt>
      <trkpt lat="31.199835033873388" lon="121.61931932474398">
        <ele>5.95292802285951</ele>
        <time>2019-05-27T22:50:57Z</time>
      </trkpt>
      <trkpt lat="31.199609481001215" lon="121.61955078136288">
        <ele>6.0515732548260885</ele>
        <time>2019-05-27T22:51:09Z</time>
      </trkpt>
      <trkpt lat="31.19934457428708" lon="121.6198180112539">
        <ele>5.872470496274165</ele>
        <time>2019-05-27T22:51:23Z</time>
      </trkpt>
      <trkpt lat="31.19918307518284" lon="121.61998333444883">
        <ele>5.7280921181161695</ele>
        <time>2019-05-27T22:51:33Z</time>
      </trkpt>
      <trkpt lat="31.19916971130453" lon="121.6200573181368">
        <ele>5.562610228269591</ele>
        <time>2019-05-27T22:51:36Z</time>
      </trkpt>
      <trkpt lat="31.199128967301174" lon="121.62012696792135">
        <ele>5.692774713552808</ele>
        <time>2019-05-27T22:51:40Z</time>
      </trkpt>
      <trkpt lat="31.199071991127358" lon="121.62016274426153">
        <ele>5.646583545777197</ele>
        <time>2019-05-27T22:51:43Z</time>
      </trkpt>
      <trkpt lat="31.198985487540387" lon="121.6201738622928">
        <ele>5.740374596770813</ele>
        <time>2019-05-27T22:51:47Z</time>
      </trkpt>
      <trkpt lat="31.198741631791627" lon="121.62027360912374">
        <ele>5.138266943019168</ele>
        <time>2019-05-27T22:51:57Z</time>
      </trkpt>
      <trkpt lat="31.198675971641972" lon="121.62031643186107">
        <ele>5.273213989377112</ele>
        <time>2019-05-27T22:52:00Z</time>
      </trkpt>
      <trkpt lat="31.198572015367485" lon="121.62042104446671">
        <ele>5.209630636118419</ele>
        <time>2019-05-27T22:52:04Z</time>
      </trkpt>
      <trkpt lat="31.19849927293188" lon="121.62049421883953">
        <ele>5.428968584481986</ele>
        <time>2019-05-27T22:52:07Z</time>
      </trkpt>
      <trkpt lat="31.198358903660893" lon="121.62067335655742">
        <ele>5.436579877219273</ele>
        <time>2019-05-27T22:52:14Z</time>
      </trkpt>
      <trkpt lat="31.198130901085477" lon="121.6209039883117">
        <ele>4.836663604485921</ele>
        <time>2019-05-27T22:52:26Z</time>
      </trkpt>
      <trkpt lat="31.19787442682409" lon="121.62113543335565">
        <ele>4.279951736930531</ele>
        <time>2019-05-27T22:52:40Z</time>
      </trkpt>
      <trkpt lat="31.197597838435115" lon="121.62141077748521">
        <ele>3.7027534850150694</ele>
        <time>2019-05-27T22:52:55Z</time>
      </trkpt>
      <trkpt lat="31.197335127312193" lon="121.62163950878626">
        <ele>3.6596928428715216</ele>
        <time>2019-05-27T22:53:09Z</time>
      </trkpt>
      <trkpt lat="31.197068627140272" lon="121.62186065100789">
        <ele>3.9742517581040744</ele>
        <time>2019-05-27T22:53:23Z</time>
      </trkpt>
      <trkpt lat="31.196818110985042" lon="121.62209181622902">
        <ele>3.856316152266455</ele>
        <time>2019-05-27T22:53:37Z</time>
      </trkpt>
      <trkpt lat="31.196659891288448" lon="121.62222352388342">
        <ele>4.8762625206930466</ele>
        <time>2019-05-27T22:53:46Z</time>
      </trkpt>
      <trkpt lat="31.196631313811615" lon="121.62231918053399">
        <ele>5.172545224639428</ele>
        <time>2019-05-27T22:53:50Z</time>
      </trkpt>
      <trkpt lat="31.19671960045674" lon="121.62264705077475">
        <ele>5.696731447138998</ele>
        <time>2019-05-27T22:54:01Z</time>
      </trkpt>
      <trkpt lat="31.19678509897754" lon="121.62298304796909">
        <ele>4.765558313625704</ele>
        <time>2019-05-27T22:54:13Z</time>
      </trkpt>
      <trkpt lat="31.196795712607372" lon="121.6231827499016">
        <ele>4.8839322334954645</ele>
        <time>2019-05-27T22:54:20Z</time>
      </trkpt>
      <trkpt lat="31.196860644581324" lon="121.62353445637439">
        <ele>4.559557082974326</ele>
        <time>2019-05-27T22:54:34Z</time>
      </trkpt>
      <trkpt lat="31.196918294705604" lon="121.62385012134159">
        <ele>4.518426198081848</ele>
        <time>2019-05-27T22:54:45Z</time>
      </trkpt>
      <trkpt lat="31.196957412784514" lon="121.62401540296415">
        <ele>4.302039027306623</ele>
        <time>2019-05-27T22:54:52Z</time>
      </trkpt>
      <trkpt lat="31.196927712187883" lon="121.62368185413844">
        <ele>5.770902949685183</ele>
        <time>2019-05-27T22:55:14Z</time>
      </trkpt>
      <trkpt lat="31.196955671032526" lon="121.62342389550246">
        <ele>5.624781567415624</ele>
        <time>2019-05-27T22:55:26Z</time>
      </trkpt>
      <trkpt lat="31.196833243645717" lon="121.62308411492492">
        <ele>5.418898631880719</ele>
        <time>2019-05-27T22:55:40Z</time>
      </trkpt>
      <trkpt lat="31.196810138781668" lon="121.62290040047806">
        <ele>5.509946298830691</ele>
        <time>2019-05-27T22:55:47Z</time>
      </trkpt>
      <trkpt lat="31.196815375625004" lon="121.62282642540747">
        <ele>5.178867642753719</ele>
        <time>2019-05-27T22:55:50Z</time>
      </trkpt>
      <trkpt lat="31.19685772954852" lon="121.62277683439481">
        <ele>5.081476768943471</ele>
        <time>2019-05-27T22:55:53Z</time>
      </trkpt>
      <trkpt lat="31.196933404491816" lon="121.62275189885857">
        <ele>4.983097872798638</ele>
        <time>2019-05-27T22:55:57Z</time>
      </trkpt>
      <trkpt lat="31.197161154469025" lon="121.62251721855363">
        <ele>5.664639457253614</ele>
        <time>2019-05-27T22:56:10Z</time>
      </trkpt>
      <trkpt lat="31.197398860498712" lon="121.62234784032643">
        <ele>5.476959356963832</ele>
        <time>2019-05-27T22:56:20Z</time>
      </trkpt>
      <trkpt lat="31.197580993935787" lon="121.62216898146195">
        <ele>5.76994989397874</ele>
        <time>2019-05-27T22:56:30Z</time>
      </trkpt>
      <trkpt lat="31.197758190134042" lon="121.62203971076933">
        <ele>5.819248691745052</ele>
        <time>2019-05-27T22:56:38Z</time>
      </trkpt>
      <trkpt lat="31.197892026581346" lon="121.62189066156908">
        <ele>6.948311162290317</ele>
        <time>2019-05-27T22:56:46Z</time>
      </trkpt>
      <trkpt lat="31.19812643693784" lon="121.62175596518506">
        <ele>6.778959596170651</ele>
        <time>2019-05-27T22:57:01Z</time>
      </trkpt>
      <trkpt lat="31.19821680342684" lon="121.62168523169336">
        <ele>6.463637353033782</ele>
        <time>2019-05-27T22:57:05Z</time>
      </trkpt>
      <trkpt lat="31.1983945961325" lon="121.62150528481779">
        <ele>6.185864099314088</ele>
        <time>2019-05-27T22:57:15Z</time>
      </trkpt>
      <trkpt lat="31.19845303263444" lon="121.62137629171643">
        <ele>6.821788493048839</ele>
        <time>2019-05-27T22:57:22Z</time>
      </trkpt>
      <trkpt lat="31.198651661538598" lon="121.62123211117877">
        <ele>6.891527031811776</ele>
        <time>2019-05-27T22:57:37Z</time>
      </trkpt>
      <trkpt lat="31.198769932822355" lon="121.62118034303548">
        <ele>6.745199408389865</ele>
        <time>2019-05-27T22:57:45Z</time>
      </trkpt>
      <trkpt lat="31.198816082967806" lon="121.62112803878495">
        <ele>6.847287931137124</ele>
        <time>2019-05-27T22:57:49Z</time>
      </trkpt>
      <trkpt lat="31.19886057180906" lon="121.62110716909912">
        <ele>6.967430017137389</ele>
        <time>2019-05-27T22:57:53Z</time>
      </trkpt>
      <trkpt lat="31.19889833652145" lon="121.62103670921404">
        <ele>6.979307194741452</ele>
        <time>2019-05-27T22:58:00Z</time>
      </trkpt>
      <trkpt lat="31.19910520592063" lon="121.62079307284169">
        <ele>7.113626694540379</ele>
        <time>2019-05-27T22:58:21Z</time>
      </trkpt>
      <trkpt lat="31.199165699086485" lon="121.62076515580799">
        <ele>6.97650901913223</ele>
        <time>2019-05-27T22:58:29Z</time>
      </trkpt>
      <trkpt lat="31.19923701235097" lon="121.62076054306438">
        <ele>7.59233740469309</ele>
        <time>2019-05-27T22:58:37Z</time>
      </trkpt>
      <trkpt lat="31.199352567720062" lon="121.6207122971035">
        <ele>7.89956063739033</ele>
        <time>2019-05-27T22:58:44Z</time>
      </trkpt>
      <trkpt lat="31.199644864731287" lon="121.62069899434107">
        <ele>8.110522510923428</ele>
        <time>2019-05-27T22:59:05Z</time>
      </trkpt>
      <trkpt lat="31.19986282528647" lon="121.62072797236729">
        <ele>8.176534319521998</ele>
        <time>2019-05-27T22:59:23Z</time>
      </trkpt>
      <trkpt lat="31.199906725563224" lon="121.6207496480126">
        <ele>7.926494793327912</ele>
        <time>2019-05-27T22:59:27Z</time>
      </trkpt>
      <trkpt lat="31.200104098999077" lon="121.62076101329333">
        <ele>7.6921185753672425</ele>
        <time>2019-05-27T22:59:42Z</time>
      </trkpt>
      <trkpt lat="31.20025426569853" lon="121.62079948152414">
        <ele>7.676152778298334</ele>
        <time>2019-05-27T22:59:52Z</time>
      </trkpt>
      <trkpt lat="31.200465756389043" lon="121.62079404421499">
        <ele>7.5315933750365325</ele>
        <time>2019-05-27T23:00:08Z</time>
      </trkpt>
      <trkpt lat="31.200765029963488" lon="121.62084821747293">
        <ele>7.384544716052801</ele>
        <time>2019-05-27T23:00:30Z</time>
      </trkpt>
      <trkpt lat="31.201078914977813" lon="121.62092975931176">
        <ele>6.906835542155903</ele>
        <time>2019-05-27T23:00:59Z</time>
      </trkpt>
      <trkpt lat="31.201414493281714" lon="121.62100886020727">
        <ele>6.2680742563768845</ele>
        <time>2019-05-27T23:01:25Z</time>
      </trkpt>
      <trkpt lat="31.201705378118078" lon="121.62104785840222">
        <ele>6.412381573773928</ele>
        <time>2019-05-27T23:01:49Z</time>
      </trkpt>
      <trkpt lat="31.201998192935058" lon="121.62105758972658">
        <ele>6.063794301605128</ele>
        <time>2019-05-27T23:02:13Z</time>
      </trkpt>
      <trkpt lat="31.20231971489458" lon="121.62109766926163">
        <ele>5.617197148267568</ele>
        <time>2019-05-27T23:02:41Z</time>
      </trkpt>
      <trkpt lat="31.20246228728151" lon="121.62113830551924">
        <ele>5.40402960153347</ele>
        <time>2019-05-27T23:02:55Z</time>
      </trkpt>
      <trkpt lat="31.202461727480546" lon="121.62115429378427">
        <ele>5.337821760076441</ele>
        <time>2019-05-27T23:03:03Z</time>
      </trkpt>
      <trkpt lat="31.202465815896158" lon="121.62113478239804">
        <ele>5.6025093070494485</ele>
        <time>2019-05-27T23:03:05Z</time>
      </trkpt>
      <trkpt lat="31.20241687251633" lon="121.62076488675812">
        <ele>6.464463995352315</ele>
        <time>2019-05-27T23:03:19Z</time>
      </trkpt>
      <trkpt lat="31.202401492378595" lon="121.62044430406937">
        <ele>5.728192581964965</ele>
        <time>2019-05-27T23:03:30Z</time>
      </trkpt>
      <trkpt lat="31.202393693661737" lon="121.62038441496605">
        <ele>5.858059098687399</ele>
        <time>2019-05-27T23:03:33Z</time>
      </trkpt>
      <trkpt lat="31.20242221964896" lon="121.62033129759969">
        <ele>6.565010060444848</ele>
        <time>2019-05-27T23:03:43Z</time>
      </trkpt>
      <trkpt lat="31.20244820191868" lon="121.62037492564073">
        <ele>4.565800885003853</ele>
        <time>2019-05-27T23:04:14Z</time>
      </trkpt>
      <trkpt lat="31.2024517226099" lon="121.62037871927558">
        <ele>4.2368978367267935</ele>
        <time>2019-05-27T23:04:24Z</time>
      </trkpt>
      <trkpt lat="31.20253847995899" lon="121.62038413198958">
        <ele>3.955617615830448</ele>
        <time>2019-05-27T23:04:31Z</time>
      </trkpt>
      <trkpt lat="31.202882368850954" lon="121.620300095053">
        <ele>3.7310034728215147</ele>
        <time>2019-05-27T23:04:43Z</time>
      </trkpt>
      <trkpt lat="31.202930388087033" lon="121.62027353350385">
        <ele>3.9183661980803226</ele>
        <time>2019-05-27T23:04:46Z</time>
      </trkpt>
      <trkpt lat="31.20282735639777" lon="121.62001880472127">
        <ele>4.077632927548926</ele>
        <time>2019-05-27T23:04:57Z</time>
      </trkpt>
      <trkpt lat="31.202724193011065" lon="121.61962884350935">
        <ele>3.6208596002549474</ele>
        <time>2019-05-27T23:05:12Z</time>
      </trkpt>
      <trkpt lat="31.202609358911406" lon="121.61924538150036">
        <ele>3.0722148105703937</ele>
        <time>2019-05-27T23:05:27Z</time>
      </trkpt>
      <trkpt lat="31.20253761832308" lon="121.61887356362206">
        <ele>2.8330227386789666</ele>
        <time>2019-05-27T23:05:42Z</time>
      </trkpt>
      <trkpt lat="31.20251521998839" lon="121.61876949719422">
        <ele>2.5178433462012304</ele>
        <time>2019-05-27T23:05:46Z</time>
      </trkpt>
      <trkpt lat="31.20253262485817" lon="121.61871800347797">
        <ele>2.399102017443065</ele>
        <time>2019-05-27T23:05:49Z</time>
      </trkpt>
      <trkpt lat="31.20280125670529" lon="121.61851174008522">
        <ele>2.681041608161534</ele>
        <time>2019-05-27T23:06:03Z</time>
      </trkpt>
      <trkpt lat="31.20285634914458" lon="121.61845997171102">
        <ele>2.366076807092739</ele>
        <time>2019-05-27T23:06:06Z</time>
      </trkpt>
      <trkpt lat="31.202860232841427" lon="121.61837243338555">
        <ele>2.5783610715622878</ele>
        <time>2019-05-27T23:06:10Z</time>
      </trkpt>
      <trkpt lat="31.20275896512878" lon="121.61823557832989">
        <ele>2.6182551612036615</ele>
        <time>2019-05-27T23:06:17Z</time>
      </trkpt>
      <trkpt lat="31.202724338362486" lon="121.61815671499625">
        <ele>2.561470691481002</ele>
        <time>2019-05-27T23:06:20Z</time>
      </trkpt>
      <trkpt lat="31.20270789353118" lon="121.61806158875682">
        <ele>2.432938425385613</ele>
        <time>2019-05-27T23:06:24Z</time>
      </trkpt>
      <trkpt lat="31.202583728156764" lon="121.61777187770167">
        <ele>2.5748357434597438</ele>
        <time>2019-05-27T23:06:35Z</time>
      </trkpt>
      <trkpt lat="31.202401609458" lon="121.61740736489534">
        <ele>2.8558367182569704</ele>
        <time>2019-05-27T23:06:50Z</time>
      </trkpt>
      <trkpt lat="31.20238188680105" lon="121.61733473133812">
        <ele>2.6795242521182647</ele>
        <time>2019-05-27T23:06:53Z</time>
      </trkpt>
      <trkpt lat="31.202434571820334" lon="121.61724664297685">
        <ele>2.3318211136316283</ele>
        <time>2019-05-27T23:06:57Z</time>
      </trkpt>
      <trkpt lat="31.202573446251765" lon="121.61719107064916">
        <ele>2.6993197133796887</ele>
        <time>2019-05-27T23:07:03Z</time>
      </trkpt>
      <trkpt lat="31.202791900865595" lon="121.61699130355257">
        <ele>2.2035795705238286</ele>
        <time>2019-05-27T23:07:14Z</time>
      </trkpt>
      <trkpt lat="31.202840760095086" lon="121.61693356984429">
        <ele>2.114291190080923</ele>
        <time>2019-05-27T23:07:20Z</time>
      </trkpt>
      <trkpt lat="31.20293407685249" lon="121.6168847763861">
        <ele>2.333319539836868</ele>
        <time>2019-05-27T23:07:28Z</time>
      </trkpt>
      <trkpt lat="31.203051628048307" lon="121.61672648337674">
        <ele>2.128093189594761</ele>
        <time>2019-05-27T23:07:42Z</time>
      </trkpt>
      <trkpt lat="31.203100473217976" lon="121.61668311387488">
        <ele>1.925040427800015</ele>
        <time>2019-05-27T23:07:49Z</time>
      </trkpt>
      <trkpt lat="31.203119252134393" lon="121.61660803568529">
        <ele>1.5743621828671124</ele>
        <time>2019-05-27T23:07:57Z</time>
      </trkpt>
      <trkpt lat="31.203354475648574" lon="121.61644837597488">
        <ele>1.6490048835963265</ele>
        <time>2019-05-27T23:08:22Z</time>
      </trkpt>
      <trkpt lat="31.203588082542456" lon="121.61627678965057">
        <ele>2.236390101106945</ele>
        <time>2019-05-27T23:08:50Z</time>
      </trkpt>
      <trkpt lat="31.203862140419552" lon="121.61604773806405">
        <ele>1.3820191677503253</ele>
        <time>2019-05-27T23:09:24Z</time>
      </trkpt>
      <trkpt lat="31.203845616113533" lon="121.61603147694059">
        <ele>1.2900021164719497</ele>
        <time>2019-05-27T23:09:39Z</time>
      </trkpt>
      <trkpt lat="31.20384263611566" lon="121.616028766771">
        <ele>1.4262264522343635</ele>
        <time>2019-05-27T23:09:42Z</time>
      </trkpt>
      <trkpt lat="31.20384263611566" lon="121.616028766771">
        <ele>1.4262264522343635</ele>
        <time>2019-05-27T23:09:48Z</time>
      </trkpt>
      <trkpt lat="31.20384263611566" lon="121.616028766771">
        <ele>1.3003076290531617</ele>
        <time>2019-05-27T23:09:53Z</time>
      </trkpt>
      <trkpt lat="31.20384263611566" lon="121.616028766771">
        <ele>1.3003076290531617</ele>
        <time>2019-05-27T23:10:06Z</time>
      </trkpt>
      <trkpt lat="31.203855366772174" lon="121.61604258883692">
        <ele>2.5596665920466144</ele>
        <time>2019-05-27T23:11:13Z</time>
      </trkpt>
      <trkpt lat="31.203901712700535" lon="121.61606237102284">
        <ele>2.493288556645746</ele>
        <time>2019-05-27T23:11:17Z</time>
      </trkpt>
      <trkpt lat="31.203901712700535" lon="121.61606237102284">
        <ele>2.493288556645746</ele>
        <time>2019-05-27T23:11:18Z</time>
      </trkpt>
      <trkpt lat="31.203901712700535" lon="121.61606237102284">
        <ele>2.6834076827826596</ele>
        <time>2019-05-27T23:11:31Z</time>
      </trkpt>
      <trkpt lat="31.203883556610258" lon="121.61605153087214">
        <ele>3.276564466011081</ele>
        <time>2019-05-27T23:11:52Z</time>
      </trkpt>
      <trkpt lat="31.203883556610258" lon="121.61605153087214">
        <ele>3.9550149605851583</ele>
        <time>2019-05-27T23:12:32Z</time>
      </trkpt>
      <trkpt lat="31.203883556610258" lon="121.61605153087214">
        <ele>3.9550149605851583</ele>
        <time>2019-05-27T23:12:43Z</time>
      </trkpt>
      <trkpt lat="31.203883556610258" lon="121.61605153087214">
        <ele>4.1398773857731666</ele>
        <time>2019-05-27T23:12:48Z</time>
      </trkpt>
      <trkpt lat="31.203883556610258" lon="121.61605153087214">
        <ele>4.1398773857731666</ele>
        <time>2019-05-27T23:13:01Z</time>
      </trkpt>
      <trkpt lat="31.203883556610258" lon="121.61605153087214">
        <ele>4.155310469248233</ele>
        <time>2019-05-27T23:14:26Z</time>
      </trkpt>
      <trkpt lat="31.203931024685993" lon="121.61603038570983">
        <ele>4.973059385790911</ele>
        <time>2019-05-27T23:14:32Z</time>
      </trkpt>
      <trkpt lat="31.20397520851769" lon="121.61604257892446">
        <ele>5.8833880256064575</ele>
        <time>2019-05-27T23:14:39Z</time>
      </trkpt>
      <trkpt lat="31.204114622503916" lon="121.61598754591253">
        <ele>5.686744394635813</ele>
        <time>2019-05-27T23:14:50Z</time>
      </trkpt>
      <trkpt lat="31.20423691418066" lon="121.6159769651539">
        <ele>5.028924740685145</ele>
        <time>2019-05-27T23:15:01Z</time>
      </trkpt>
      <trkpt lat="31.2044008539508" lon="121.61608265782216">
        <ele>5.460867886892018</ele>
        <time>2019-05-27T23:15:15Z</time>
      </trkpt>
      <trkpt lat="31.204466372475963" lon="121.61618700297299">
        <ele>5.102483086810281</ele>
        <time>2019-05-27T23:15:23Z</time>
      </trkpt>
      <trkpt lat="31.20460076325707" lon="121.61628673432197">
        <ele>5.053480233939677</ele>
        <time>2019-05-27T23:15:34Z</time>
      </trkpt>
      <trkpt lat="31.20463298936385" lon="121.61632874262706">
        <ele>4.60173430503054</ele>
        <time>2019-05-27T23:15:38Z</time>
      </trkpt>
      <trkpt lat="31.204561182024783" lon="121.61628185889795">
        <ele>5.796047852561905</ele>
        <time>2019-05-27T23:15:50Z</time>
      </trkpt>
      <trkpt lat="31.20435260782786" lon="121.6160653151812">
        <ele>6.810972783471797</ele>
        <time>2019-05-27T23:16:10Z</time>
      </trkpt>
      <trkpt lat="31.204180620893187" lon="121.61586448703675">
        <ele>8.393005815671454</ele>
        <time>2019-05-27T23:16:28Z</time>
      </trkpt>
      <trkpt lat="31.20409391220202" lon="121.61580459353112">
        <ele>8.729353962340184</ele>
        <time>2019-05-27T23:16:35Z</time>
      </trkpt>
      <trkpt lat="31.20388100058699" lon="121.61558316707999">
        <ele>8.584338927230547</ele>
        <time>2019-05-27T23:16:57Z</time>
      </trkpt>
      <trkpt lat="31.20363772397201" lon="121.61535740432616">
        <ele>6.80411760737973</ele>
        <time>2019-05-27T23:17:23Z</time>
      </trkpt>
      <trkpt lat="31.203541263017936" lon="121.61528666837552">
        <ele>5.813758651754551</ele>
        <time>2019-05-27T23:17:34Z</time>
      </trkpt>
      <trkpt lat="31.203723103961412" lon="121.61508336502922">
        <ele>6.21897910057492</ele>
        <time>2019-05-27T23:17:44Z</time>
      </trkpt>
      <trkpt lat="31.203805046577603" lon="121.6150155951013">
        <ele>5.839264389928445</ele>
        <time>2019-05-27T23:17:48Z</time>
      </trkpt>
      <trkpt lat="31.20388378988896" lon="121.61488575385724">
        <ele>6.062673702442098</ele>
        <time>2019-05-27T23:17:54Z</time>
      </trkpt>
      <trkpt lat="31.20401267746804" lon="121.6147732553357">
        <ele>6.235212876316403</ele>
        <time>2019-05-27T23:18:01Z</time>
      </trkpt>
      <trkpt lat="31.20408510836818" lon="121.61472988039004">
        <ele>6.576459688714664</ele>
        <time>2019-05-27T23:18:05Z</time>
      </trkpt>
      <trkpt lat="31.204211373890892" lon="121.61482555260125">
        <ele>6.3087840541679086</ele>
        <time>2019-05-27T23:18:12Z</time>
      </trkpt>
      <trkpt lat="31.204282937948193" lon="121.61484343631486">
        <ele>6.209322965393241</ele>
        <time>2019-05-27T23:18:15Z</time>
      </trkpt>
      <trkpt lat="31.20435580420206" lon="121.61492230714369">
        <ele>6.478329663470845</ele>
        <time>2019-05-27T23:18:19Z</time>
      </trkpt>
      <trkpt lat="31.20442617024542" lon="121.61506894111082">
        <ele>6.353738300393061</ele>
        <time>2019-05-27T23:18:27Z</time>
      </trkpt>
      <trkpt lat="31.204474967414328" lon="121.61507706864512">
        <ele>5.798354285147298</ele>
        <time>2019-05-27T23:18:30Z</time>
      </trkpt>
      <trkpt lat="31.204531955106823" lon="121.61502122709526">
        <ele>5.968776897557316</ele>
        <time>2019-05-27T23:18:34Z</time>
      </trkpt>
      <trkpt lat="31.20461303579452" lon="121.61500848089887">
        <ele>5.1292849421625455</ele>
        <time>2019-05-27T23:18:38Z</time>
      </trkpt>
      <trkpt lat="31.204677883419013" lon="121.61495589118361">
        <ele>5.598212915948189</ele>
        <time>2019-05-27T23:18:42Z</time>
      </trkpt>
      <trkpt lat="31.20470179711461" lon="121.61489463100092">
        <ele>5.988060008400218</ele>
        <time>2019-05-27T23:18:45Z</time>
      </trkpt>
      <trkpt lat="31.204705124291063" lon="121.61481060372977">
        <ele>7.643251461680308</ele>
        <time>2019-05-27T23:18:49Z</time>
      </trkpt>
      <trkpt lat="31.204777287703166" lon="121.6147631630369">
        <ele>7.293526462888977</ele>
        <time>2019-05-27T23:18:53Z</time>
      </trkpt>
      <trkpt lat="31.20483233976282" lon="121.61474987674416">
        <ele>6.946832327219074</ele>
        <time>2019-05-27T23:18:57Z</time>
      </trkpt>
      <trkpt lat="31.204903640099232" lon="121.61475935780511">
        <ele>6.582529772520687</ele>
        <time>2019-05-27T23:19:04Z</time>
      </trkpt>
      <trkpt lat="31.20495896613252" lon="121.61474281881499">
        <ele>6.128041760414355</ele>
        <time>2019-05-27T23:19:08Z</time>
      </trkpt>
      <trkpt lat="31.205029503336387" lon="121.61469456495252">
        <ele>5.878559022115148</ele>
        <time>2019-05-27T23:19:14Z</time>
      </trkpt>
      <trkpt lat="31.20514973431176" lon="121.61455848420084">
        <ele>6.754652161180623</ele>
        <time>2019-05-27T23:19:28Z</time>
      </trkpt>
      <trkpt lat="31.205167414979705" lon="121.61449261551498">
        <ele>6.736499001839178</ele>
        <time>2019-05-27T23:19:35Z</time>
      </trkpt>
      <trkpt lat="31.20526290903666" lon="121.61442945080827">
        <ele>6.883161944153123</ele>
        <time>2019-05-27T23:19:42Z</time>
      </trkpt>
      <trkpt lat="31.20540041012245" lon="121.61438823833795">
        <ele>6.366081769072149</ele>
        <time>2019-05-27T23:19:53Z</time>
      </trkpt>
      <trkpt lat="31.20546280987056" lon="121.61434323715918">
        <ele>6.521003103178913</ele>
        <time>2019-05-27T23:20:00Z</time>
      </trkpt>
      <trkpt lat="31.20550220122593" lon="121.61425351267133">
        <ele>6.851337102672531</ele>
        <time>2019-05-27T23:20:07Z</time>
      </trkpt>
      <trkpt lat="31.205764258525235" lon="121.61408841389309">
        <ele>6.3482212754450735</ele>
        <time>2019-05-27T23:20:32Z</time>
      </trkpt>
      <trkpt lat="31.205825063724237" lon="121.61400465009072">
        <ele>6.34043009365088</ele>
        <time>2019-05-27T23:20:39Z</time>
      </trkpt>
      <trkpt lat="31.20591106626262" lon="121.61394229806784">
        <ele>5.600629238922501</ele>
        <time>2019-05-27T23:20:49Z</time>
      </trkpt>
      <trkpt lat="31.206153412008177" lon="121.61367744585723">
        <ele>7.131392355180033</ele>
        <time>2019-05-27T23:21:18Z</time>
      </trkpt>
      <trkpt lat="31.20629526439358" lon="121.61361915438654">
        <ele>7.697652197697689</ele>
        <time>2019-05-27T23:21:32Z</time>
      </trkpt>
      <trkpt lat="31.206335163577013" lon="121.61356819008012">
        <ele>7.254038939340781</ele>
        <time>2019-05-27T23:21:40Z</time>
      </trkpt>
      <trkpt lat="31.20624176413639" lon="121.61339552591261">
        <ele>6.837348029918889</ele>
        <time>2019-05-27T23:21:54Z</time>
      </trkpt>
      <trkpt lat="31.206191911645135" lon="121.61335107427236">
        <ele>7.378918352041836</ele>
        <time>2019-05-27T23:22:01Z</time>
      </trkpt>
      <trkpt lat="31.206168102071306" lon="121.61328954282098">
        <ele>7.916469727096413</ele>
        <time>2019-05-27T23:22:07Z</time>
      </trkpt>
      <trkpt lat="31.20608709377369" lon="121.61321446226421">
        <ele>7.331640354455615</ele>
        <time>2019-05-27T23:22:15Z</time>
      </trkpt>
      <trkpt lat="31.205967568159384" lon="121.61315890200262">
        <ele>7.356465229031173</ele>
        <time>2019-05-27T23:22:23Z</time>
      </trkpt>
      <trkpt lat="31.20566991843776" lon="121.61308844721721">
        <ele>7.225654019894609</ele>
        <time>2019-05-27T23:22:51Z</time>
      </trkpt>
      <trkpt lat="31.20560185418971" lon="121.61309983799349">
        <ele>6.965963627843237</ele>
        <time>2019-05-27T23:22:59Z</time>
      </trkpt>
      <trkpt lat="31.20538974619893" lon="121.61286266380438">
        <ele>6.2502021166028285</ele>
        <time>2019-05-27T23:23:24Z</time>
      </trkpt>
      <trkpt lat="31.205377838813128" lon="121.61283447269776">
        <ele>6.7507336674940746</ele>
        <time>2019-05-27T23:23:43Z</time>
      </trkpt>
      <trkpt lat="31.205377838813128" lon="121.61283447269776">
        <ele>6.867171339722159</ele>
        <time>2019-05-27T23:23:44Z</time>
      </trkpt>
      <trkpt lat="31.205476860882612" lon="121.61276235766007">
        <ele>6.813073351047372</ele>
        <time>2019-05-27T23:23:56Z</time>
      </trkpt>
      <trkpt lat="31.20552137762457" lon="121.61269892145327">
        <ele>6.707947027972953</ele>
        <time>2019-05-27T23:24:03Z</time>
      </trkpt>
      <trkpt lat="31.20545074329302" lon="121.61253221278051">
        <ele>6.9611847911597025</ele>
        <time>2019-05-27T23:24:16Z</time>
      </trkpt>
      <trkpt lat="31.205194424599256" lon="121.61230859067612">
        <ele>7.328325830543193</ele>
        <time>2019-05-27T23:24:38Z</time>
      </trkpt>
      <trkpt lat="31.20496356147135" lon="121.6121229164176">
        <ele>7.336512912332452</ele>
        <time>2019-05-27T23:25:00Z</time>
      </trkpt>
      <trkpt lat="31.20472000639214" lon="121.61186838515033">
        <ele>7.326738613252115</ele>
        <time>2019-05-27T23:25:32Z</time>
      </trkpt>
      <trkpt lat="31.20466309857836" lon="121.6118282686112">
        <ele>7.463298908302537</ele>
        <time>2019-05-27T23:25:39Z</time>
      </trkpt>
      <trkpt lat="31.204446908020362" lon="121.61159677469797">
        <ele>7.836248584760913</ele>
        <time>2019-05-27T23:26:03Z</time>
      </trkpt>
      <trkpt lat="31.20429171200326" lon="121.61137720159566">
        <ele>7.712246317610131</ele>
        <time>2019-05-27T23:26:20Z</time>
      </trkpt>
      <trkpt lat="31.204240809485274" lon="121.61128178015088">
        <ele>7.387539978971116</ele>
        <time>2019-05-27T23:26:27Z</time>
      </trkpt>
      <trkpt lat="31.20420314658312" lon="121.61124816731487">
        <ele>7.192301723979536</ele>
        <time>2019-05-27T23:26:31Z</time>
      </trkpt>
      <trkpt lat="31.204236272945625" lon="121.61118337240502">
        <ele>7.0422958941169504</ele>
        <time>2019-05-27T23:26:43Z</time>
      </trkpt>
      <trkpt lat="31.204318441714143" lon="121.61116330440049">
        <ele>6.9998227929402255</ele>
        <time>2019-05-27T23:26:50Z</time>
      </trkpt>
      <trkpt lat="31.204438098386138" lon="121.61104618005756">
        <ele>6.816096301284325</ele>
        <time>2019-05-27T23:27:03Z</time>
      </trkpt>
      <trkpt lat="31.204485020068212" lon="121.61102530154906">
        <ele>7.022180022594753</ele>
        <time>2019-05-27T23:27:07Z</time>
      </trkpt>
    </trkseg>
  </trk>
</gpx>