<?xml version="1.0" encoding="UTF-8"?>
<gpx xmlns="http://www.topografix.com/GPX/1/1" xmlns:gpxtpx="http://www.garmin.com/xmlschemas/TrackPointExtension/v1" xmlns:xsi="http://www.w3.org/2001/XMLSchema-instance" xsi:schemaLocation="http://www.topografix.com/GPX/1/1 http://www.topografix.com/GPX/1/1/gpx.xsd" version="1.1" creator="gpx.py -- https://github.com/tkrajina/gpxpy">
  <trk>
    <name>gpx from keep</name>
    <type>Run</type>
    <trkseg>
      <trkpt lat="31.2052404000396" lon="121.60988306947331">
        <ele>9.306550025939941</ele>
        <time>2018-08-31T22:06:09Z</time>
      </trkpt>
      <trkpt lat="31.205036142550266" lon="121.60962118982631">
        <ele>9.13675308227539</ele>
        <time>2018-08-31T22:06:22Z</time>
      </trkpt>
      <trkpt lat="31.204902506333532" lon="121.60957158659038">
        <ele>9.087258338928223</ele>
        <time>2018-08-31T22:06:28Z</time>
      </trkpt>
      <trkpt lat="31.20488114214197" lon="121.60948916875964">
        <ele>9.048266410827637</ele>
        <time>2018-08-31T22:06:35Z</time>
      </trkpt>
      <trkpt lat="31.204767919750978" lon="121.60932135570195">
        <ele>9.01785945892334</ele>
        <time>2018-08-31T22:06:41Z</time>
      </trkpt>
      <trkpt lat="31.204732463073242" lon="121.60922782216889">
        <ele>8.976753234863281</ele>
        <time>2018-08-31T22:06:48Z</time>
      </trkpt>
      <trkpt lat="31.204487490808834" lon="121.60902395868425">
        <ele>8.97942066192627</ele>
        <time>2018-08-31T22:06:54Z</time>
      </trkpt>
      <trkpt lat="31.20421872301563" lon="121.60871760955638">
        <ele>8.959809303283691</ele>
        <time>2018-08-31T22:07:01Z</time>
      </trkpt>
      <trkpt lat="31.20401006031341" lon="121.60854302036597">
        <ele>8.919516563415527</ele>
        <time>2018-08-31T22:07:07Z</time>
      </trkpt>
      <trkpt lat="31.204084366145743" lon="121.60851969711206">
        <ele>8.881377220153809</ele>
        <time>2018-08-31T22:07:14Z</time>
      </trkpt>
      <trkpt lat="31.203920143937896" lon="121.60838387446287">
        <ele>8.81193733215332</ele>
        <time>2018-08-31T22:07:27Z</time>
      </trkpt>
      <trkpt lat="31.203833410285586" lon="121.60833670478495">
        <ele>8.780618667602539</ele>
        <time>2018-08-31T22:07:33Z</time>
      </trkpt>
      <trkpt lat="31.203697134065873" lon="121.60816861382533">
        <ele>8.751555442810059</ele>
        <time>2018-08-31T22:07:40Z</time>
      </trkpt>
      <trkpt lat="31.20355712942851" lon="121.60788827143142">
        <ele>8.72462272644043</ele>
        <time>2018-08-31T22:07:46Z</time>
      </trkpt>
      <trkpt lat="31.203383024046165" lon="121.60749811611042">
        <ele>8.676838874816895</ele>
        <time>2018-08-31T22:07:59Z</time>
      </trkpt>
      <trkpt lat="31.20326895385374" lon="121.607366621333">
        <ele>8.655744552612305</ele>
        <time>2018-08-31T22:08:06Z</time>
      </trkpt>
      <trkpt lat="31.203206062158554" lon="121.60734683304608">
        <ele>8.636363983154297</ele>
        <time>2018-08-31T22:08:12Z</time>
      </trkpt>
      <trkpt lat="31.203362563715945" lon="121.6072500215823">
        <ele>8.618568420410156</ele>
        <time>2018-08-31T22:08:19Z</time>
      </trkpt>
      <trkpt lat="31.203567868135224" lon="121.60715510368155">
        <ele>8.602255821228027</ele>
        <time>2018-08-31T22:08:25Z</time>
      </trkpt>
      <trkpt lat="31.203657949472543" lon="121.60704338375444">
        <ele>8.58724594116211</ele>
        <time>2018-08-31T22:08:32Z</time>
      </trkpt>
      <trkpt lat="31.20383802704967" lon="121.60696690514598">
        <ele>8.573529243469238</ele>
        <time>2018-08-31T22:08:39Z</time>
      </trkpt>
      <trkpt lat="31.203954197087366" lon="121.60674807766067">
        <ele>8.56099796295166</ele>
        <time>2018-08-31T22:08:45Z</time>
      </trkpt>
      <trkpt lat="31.204040734737035" lon="121.60666699616421">
        <ele>8.539091110229492</ele>
        <time>2018-08-31T22:08:58Z</time>
      </trkpt>
      <trkpt lat="31.20422001455165" lon="121.60656041829">
        <ele>8.529465675354004</ele>
        <time>2018-08-31T22:09:05Z</time>
      </trkpt>
      <trkpt lat="31.204463324199637" lon="121.60637682650236">
        <ele>8.481220245361328</ele>
        <time>2018-08-31T22:09:12Z</time>
      </trkpt>
      <trkpt lat="31.204526936520395" lon="121.60606932843342">
        <ele>8.472843170166016</ele>
        <time>2018-08-31T22:09:25Z</time>
      </trkpt>
      <trkpt lat="31.204825678685733" lon="121.60616041318013">
        <ele>10.2109375</ele>
        <time>2018-08-31T22:09:30Z</time>
      </trkpt>
      <trkpt lat="31.204933049323774" lon="121.60615850619764">
        <ele>5.867763519287109</ele>
        <time>2018-08-31T22:09:34Z</time>
      </trkpt>
      <trkpt lat="31.2050065512582" lon="121.60611348776798">
        <ele>6.204799652099609</ele>
        <time>2018-08-31T22:09:38Z</time>
      </trkpt>
      <trkpt lat="31.20508826777909" lon="121.6059171609762">
        <ele>6.085292816162109</ele>
        <time>2018-08-31T22:09:46Z</time>
      </trkpt>
      <trkpt lat="31.205383111622343" lon="121.60568935975209">
        <ele>6.189768985695572</ele>
        <time>2018-08-31T22:10:01Z</time>
      </trkpt>
      <trkpt lat="31.205646205297537" lon="121.60551091113007">
        <ele>6.21689779573768</ele>
        <time>2018-08-31T22:10:14Z</time>
      </trkpt>
      <trkpt lat="31.205906049321452" lon="121.60532215688498">
        <ele>5.998803103202249</ele>
        <time>2018-08-31T22:10:28Z</time>
      </trkpt>
      <trkpt lat="31.20617728545367" lon="121.60512173967635">
        <ele>5.968818615599297</ele>
        <time>2018-08-31T22:10:42Z</time>
      </trkpt>
      <trkpt lat="31.20648024819751" lon="121.60491047101752">
        <ele>5.6228741935865045</ele>
        <time>2018-08-31T22:10:57Z</time>
      </trkpt>
      <trkpt lat="31.206731117432884" lon="121.60476916809114">
        <ele>5.536366202415309</ele>
        <time>2018-08-31T22:11:08Z</time>
      </trkpt>
      <trkpt lat="31.207061158098856" lon="121.60462677298123">
        <ele>5.550932829601734</ele>
        <time>2018-08-31T22:11:23Z</time>
      </trkpt>
      <trkpt lat="31.207403380326287" lon="121.60452423927313">
        <ele>5.424624295951951</ele>
        <time>2018-08-31T22:11:38Z</time>
      </trkpt>
      <trkpt lat="31.207454917535053" lon="121.60447894806876">
        <ele>4.978481459838029</ele>
        <time>2018-08-31T22:11:41Z</time>
      </trkpt>
      <trkpt lat="31.207497049349307" lon="121.60425223724">
        <ele>4.868177677189031</ele>
        <time>2018-08-31T22:11:49Z</time>
      </trkpt>
      <trkpt lat="31.207649215537458" lon="121.6041239549694">
        <ele>5.0428636338598025</ele>
        <time>2018-08-31T22:11:57Z</time>
      </trkpt>
      <trkpt lat="31.207698085939644" lon="121.6039785957561">
        <ele>5.147799110621406</ele>
        <time>2018-08-31T22:12:03Z</time>
      </trkpt>
      <trkpt lat="31.207689456518974" lon="121.60387391843481">
        <ele>4.676595428739283</ele>
        <time>2018-08-31T22:12:07Z</time>
      </trkpt>
      <trkpt lat="31.207599606376984" lon="121.60349290431408">
        <ele>5.231880876906551</ele>
        <time>2018-08-31T22:12:23Z</time>
      </trkpt>
      <trkpt lat="31.20753684976297" lon="121.60314578071639">
        <ele>4.77551424981241</ele>
        <time>2018-08-31T22:12:36Z</time>
      </trkpt>
      <trkpt lat="31.207449689517663" lon="121.60278970380762">
        <ele>4.195615774565397</ele>
        <time>2018-08-31T22:12:51Z</time>
      </trkpt>
      <trkpt lat="31.207365784765823" lon="121.6024151786261">
        <ele>4.302932757152689</ele>
        <time>2018-08-31T22:13:05Z</time>
      </trkpt>
      <trkpt lat="31.207292987738484" lon="121.60204878218549">
        <ele>4.428748751581175</ele>
        <time>2018-08-31T22:13:18Z</time>
      </trkpt>
      <trkpt lat="31.20721070823102" lon="121.60164603723307">
        <ele>4.440977513521268</ele>
        <time>2018-08-31T22:13:33Z</time>
      </trkpt>
      <trkpt lat="31.207164190604125" lon="121.60130620478361">
        <ele>4.52340681056117</ele>
        <time>2018-08-31T22:13:46Z</time>
      </trkpt>
      <trkpt lat="31.20711876393352" lon="121.60093164991697">
        <ele>4.722292066926435</ele>
        <time>2018-08-31T22:14:01Z</time>
      </trkpt>
      <trkpt lat="31.207033749773196" lon="121.60054325884485">
        <ele>5.310392584700452</ele>
        <time>2018-08-31T22:14:16Z</time>
      </trkpt>
      <trkpt lat="31.20697286286539" lon="121.60014617898172">
        <ele>5.511794254145784</ele>
        <time>2018-08-31T22:14:31Z</time>
      </trkpt>
      <trkpt lat="31.206923023416152" lon="121.59997340539748">
        <ele>5.752986368089815</ele>
        <time>2018-08-31T22:14:38Z</time>
      </trkpt>
      <trkpt lat="31.206853919372655" lon="121.59984647146754">
        <ele>5.436208602226891</ele>
        <time>2018-08-31T22:14:44Z</time>
      </trkpt>
      <trkpt lat="31.206797595302042" lon="121.59958120230522">
        <ele>5.285203496670825</ele>
        <time>2018-08-31T22:14:54Z</time>
      </trkpt>
      <trkpt lat="31.20685891761831" lon="121.5994076010754">
        <ele>5.359533572289308</ele>
        <time>2018-08-31T22:15:01Z</time>
      </trkpt>
      <trkpt lat="31.206810741569726" lon="121.59906556208455">
        <ele>5.240698307638283</ele>
        <time>2018-08-31T22:15:14Z</time>
      </trkpt>
      <trkpt lat="31.20671674932677" lon="121.59867659416373">
        <ele>5.169977785344251</ele>
        <time>2018-08-31T22:15:28Z</time>
      </trkpt>
      <trkpt lat="31.206650402630263" lon="121.59830579099025">
        <ele>5.161758091915914</ele>
        <time>2018-08-31T22:15:43Z</time>
      </trkpt>
      <trkpt lat="31.20658079252733" lon="121.59795478367519">
        <ele>5.1058446605205035</ele>
        <time>2018-08-31T22:15:57Z</time>
      </trkpt>
      <trkpt lat="31.206493556616348" lon="121.59758559674998">
        <ele>5.178354760289217</ele>
        <time>2018-08-31T22:16:11Z</time>
      </trkpt>
      <trkpt lat="31.2064334316435" lon="121.59719686914472">
        <ele>5.381900089256682</ele>
        <time>2018-08-31T22:16:26Z</time>
      </trkpt>
      <trkpt lat="31.206378169920495" lon="121.59687975140427">
        <ele>5.23169011254646</ele>
        <time>2018-08-31T22:16:39Z</time>
      </trkpt>
      <trkpt lat="31.206324530412246" lon="121.59656452755503">
        <ele>5.401705684976093</ele>
        <time>2018-08-31T22:16:52Z</time>
      </trkpt>
      <trkpt lat="31.2063014983191" lon="121.5964573724283">
        <ele>5.377748525791837</ele>
        <time>2018-08-31T22:16:56Z</time>
      </trkpt>
      <trkpt lat="31.20625541455435" lon="121.5963862996146">
        <ele>5.391028065674135</ele>
        <time>2018-08-31T22:17:00Z</time>
      </trkpt>
      <trkpt lat="31.206003546463624" lon="121.5962523050464">
        <ele>5.628247407336495</ele>
        <time>2018-08-31T22:17:13Z</time>
      </trkpt>
      <trkpt lat="31.205864185920404" lon="121.59622654427021">
        <ele>5.690543201300692</ele>
        <time>2018-08-31T22:17:20Z</time>
      </trkpt>
      <trkpt lat="31.205513597067792" lon="121.59631148602209">
        <ele>5.6830455370119</ele>
        <time>2018-08-31T22:17:37Z</time>
      </trkpt>
      <trkpt lat="31.20526279016519" lon="121.59636305107234">
        <ele>5.3482311176038735</ele>
        <time>2018-08-31T22:17:48Z</time>
      </trkpt>
      <trkpt lat="31.205134547419526" lon="121.5963291509383">
        <ele>5.334781796057854</ele>
        <time>2018-08-31T22:17:56Z</time>
      </trkpt>
      <trkpt lat="31.204831961774616" lon="121.59631751063205">
        <ele>5.309324480560562</ele>
        <time>2018-08-31T22:18:07Z</time>
      </trkpt>
      <trkpt lat="31.204573028062896" lon="121.59631319144327">
        <ele>5.4303877499007385</ele>
        <time>2018-08-31T22:18:18Z</time>
      </trkpt>
      <trkpt lat="31.204331979074322" lon="121.5963891713701">
        <ele>5.541390929153749</ele>
        <time>2018-08-31T22:18:29Z</time>
      </trkpt>
      <trkpt lat="31.204063289150152" lon="121.59634958588109">
        <ele>5.586243886648482</ele>
        <time>2018-08-31T22:18:42Z</time>
      </trkpt>
      <trkpt lat="31.20398737333459" lon="121.59633358628494">
        <ele>5.635918702539058</ele>
        <time>2018-08-31T22:18:46Z</time>
      </trkpt>
      <trkpt lat="31.203688580110807" lon="121.59635151583615">
        <ele>5.677614481096327</ele>
        <time>2018-08-31T22:19:00Z</time>
      </trkpt>
      <trkpt lat="31.20353104134654" lon="121.59642314816384">
        <ele>5.651400448454162</ele>
        <time>2018-08-31T22:19:08Z</time>
      </trkpt>
      <trkpt lat="31.20345022781642" lon="121.5965376367012">
        <ele>5.711285575800517</ele>
        <time>2018-08-31T22:19:19Z</time>
      </trkpt>
      <trkpt lat="31.203403055628723" lon="121.59649830448637">
        <ele>6.052624578106055</ele>
        <time>2018-08-31T22:19:41Z</time>
      </trkpt>
      <trkpt lat="31.203118359459857" lon="121.59653088203346">
        <ele>5.904763157563991</ele>
        <time>2018-08-31T22:20:16Z</time>
      </trkpt>
      <trkpt lat="31.202867028457234" lon="121.59644788991817">
        <ele>5.941818168221147</ele>
        <time>2018-08-31T22:20:26Z</time>
      </trkpt>
      <trkpt lat="31.202802498415664" lon="121.59644735267986">
        <ele>5.9630893987965266</ele>
        <time>2018-08-31T22:20:29Z</time>
      </trkpt>
      <trkpt lat="31.20272115246137" lon="121.59648859459783">
        <ele>5.8011879627353125</ele>
        <time>2018-08-31T22:20:33Z</time>
      </trkpt>
      <trkpt lat="31.202394975761656" lon="121.596499472896">
        <ele>5.598767815830456</ele>
        <time>2018-08-31T22:20:46Z</time>
      </trkpt>
      <trkpt lat="31.2020612132874" lon="121.59646613253432">
        <ele>5.624152189827619</ele>
        <time>2018-08-31T22:21:00Z</time>
      </trkpt>
      <trkpt lat="31.201977431026094" lon="121.59647834724153">
        <ele>5.48546132863877</ele>
        <time>2018-08-31T22:21:04Z</time>
      </trkpt>
      <trkpt lat="31.20193161055669" lon="121.59646858479795">
        <ele>5.562072211535202</ele>
        <time>2018-08-31T22:21:07Z</time>
      </trkpt>
      <trkpt lat="31.201827502682555" lon="121.59640891078749">
        <ele>5.300455611523461</ele>
        <time>2018-08-31T22:21:11Z</time>
      </trkpt>
      <trkpt lat="31.201511351803333" lon="121.5964686195128">
        <ele>5.690454231826379</ele>
        <time>2018-08-31T22:21:25Z</time>
      </trkpt>
      <trkpt lat="31.201200626620523" lon="121.59650553979597">
        <ele>5.82729407396581</ele>
        <time>2018-08-31T22:21:37Z</time>
      </trkpt>
      <trkpt lat="31.200858719512464" lon="121.59655331391258">
        <ele>5.703388886214164</ele>
        <time>2018-08-31T22:21:52Z</time>
      </trkpt>
      <trkpt lat="31.200735892173775" lon="121.59657828208422">
        <ele>5.833305776914884</ele>
        <time>2018-08-31T22:21:58Z</time>
      </trkpt>
      <trkpt lat="31.20059218113927" lon="121.59664855605861">
        <ele>5.350335657067184</ele>
        <time>2018-08-31T22:22:05Z</time>
      </trkpt>
      <trkpt lat="31.20030748290806" lon="121.59669876664256">
        <ele>5.913098245572165</ele>
        <time>2018-08-31T22:22:16Z</time>
      </trkpt>
      <trkpt lat="31.200017901059258" lon="121.5967706799291">
        <ele>5.67856878377475</ele>
        <time>2018-08-31T22:22:28Z</time>
      </trkpt>
      <trkpt lat="31.199930326265356" lon="121.59675983595372">
        <ele>5.956776416612605</ele>
        <time>2018-08-31T22:22:32Z</time>
      </trkpt>
      <trkpt lat="31.19980480075371" lon="121.5966928399781">
        <ele>6.333257505944459</ele>
        <time>2018-08-31T22:22:39Z</time>
      </trkpt>
      <trkpt lat="31.19946777469448" lon="121.59673627275993">
        <ele>6.368074250241108</ele>
        <time>2018-08-31T22:22:55Z</time>
      </trkpt>
      <trkpt lat="31.199248967587675" lon="121.5967490410174">
        <ele>6.486912510141281</ele>
        <time>2018-08-31T22:23:05Z</time>
      </trkpt>
      <trkpt lat="31.199072462850523" lon="121.59672436906084">
        <ele>7.0938711148804146</ele>
        <time>2018-08-31T22:23:13Z</time>
      </trkpt>
      <trkpt lat="31.198779360408093" lon="121.59676942582783">
        <ele>7.711388063878438</ele>
        <time>2018-08-31T22:23:26Z</time>
      </trkpt>
      <trkpt lat="31.19847325068733" lon="121.59676565318809">
        <ele>7.6292747169685455</ele>
        <time>2018-08-31T22:23:40Z</time>
      </trkpt>
      <trkpt lat="31.198203467503202" lon="121.59679931418987">
        <ele>6.655964927132395</ele>
        <time>2018-08-31T22:23:52Z</time>
      </trkpt>
      <trkpt lat="31.197960801570577" lon="121.5968069300645">
        <ele>6.289467271192436</ele>
        <time>2018-08-31T22:24:03Z</time>
      </trkpt>
      <trkpt lat="31.197740918644158" lon="121.59676191575016">
        <ele>6.224538547879639</ele>
        <time>2018-08-31T22:24:14Z</time>
      </trkpt>
      <trkpt lat="31.197405795341606" lon="121.59677550743748">
        <ele>5.7505454315938</ele>
        <time>2018-08-31T22:24:28Z</time>
      </trkpt>
      <trkpt lat="31.197069855325857" lon="121.59681215796195">
        <ele>6.024480502376342</ele>
        <time>2018-08-31T22:24:47Z</time>
      </trkpt>
      <trkpt lat="31.196761300968134" lon="121.59684121034175">
        <ele>6.171675693815622</ele>
        <time>2018-08-31T22:25:11Z</time>
      </trkpt>
      <trkpt lat="31.19666396296535" lon="121.59684827163908">
        <ele>6.214759550067143</ele>
        <time>2018-08-31T22:25:18Z</time>
      </trkpt>
      <trkpt lat="31.1965262204814" lon="121.59689250146302">
        <ele>6.521461267090892</ele>
        <time>2018-08-31T22:25:29Z</time>
      </trkpt>
      <trkpt lat="31.196240443434203" lon="121.5969079879349">
        <ele>5.906048410281386</ele>
        <time>2018-08-31T22:25:49Z</time>
      </trkpt>
      <trkpt lat="31.196120603601695" lon="121.59690040203779">
        <ele>5.97192803212144</ele>
        <time>2018-08-31T22:25:57Z</time>
      </trkpt>
      <trkpt lat="31.19585109137327" lon="121.59693731812776">
        <ele>5.759108121698887</ele>
        <time>2018-08-31T22:26:17Z</time>
      </trkpt>
      <trkpt lat="31.195580495743958" lon="121.59696690974788">
        <ele>5.791732029774707</ele>
        <time>2018-08-31T22:26:36Z</time>
      </trkpt>
      <trkpt lat="31.19526868855684" lon="121.5969921642935">
        <ele>6.1102085657212015</ele>
        <time>2018-08-31T22:26:57Z</time>
      </trkpt>
      <trkpt lat="31.194991859129196" lon="121.5970076499496">
        <ele>5.918551447076446</ele>
        <time>2018-08-31T22:27:16Z</time>
      </trkpt>
      <trkpt lat="31.194784438088774" lon="121.59703425220684">
        <ele>6.105135067744392</ele>
        <time>2018-08-31T22:27:31Z</time>
      </trkpt>
      <trkpt lat="31.194746202869737" lon="121.59706870746788">
        <ele>6.188579111540378</ele>
        <time>2018-08-31T22:27:35Z</time>
      </trkpt>
      <trkpt lat="31.19470443613516" lon="121.59714493937939">
        <ele>6.208630020494873</ele>
        <time>2018-08-31T22:27:39Z</time>
      </trkpt>
      <trkpt lat="31.19468842863489" lon="121.59721004663497">
        <ele>6.360254119478057</ele>
        <time>2018-08-31T22:27:43Z</time>
      </trkpt>
      <trkpt lat="31.194728782583386" lon="121.59747317766127">
        <ele>6.2901282143331585</ele>
        <time>2018-08-31T22:27:54Z</time>
      </trkpt>
      <trkpt lat="31.19476508556399" lon="121.597633766333">
        <ele>5.9899909210120725</ele>
        <time>2018-08-31T22:28:00Z</time>
      </trkpt>
      <trkpt lat="31.19479731397027" lon="121.5978282623614">
        <ele>5.932326138205184</ele>
        <time>2018-08-31T22:28:07Z</time>
      </trkpt>
      <trkpt lat="31.194841759464747" lon="121.59793323838497">
        <ele>6.133924981206377</ele>
        <time>2018-08-31T22:28:11Z</time>
      </trkpt>
      <trkpt lat="31.194892122610764" lon="121.59826607325532">
        <ele>6.398898385136192</ele>
        <time>2018-08-31T22:28:24Z</time>
      </trkpt>
      <trkpt lat="31.194928121083564" lon="121.5985536041232">
        <ele>7.019591437117349</ele>
        <time>2018-08-31T22:28:34Z</time>
      </trkpt>
      <trkpt lat="31.19500124453215" lon="121.59891192470756">
        <ele>7.750944151921267</ele>
        <time>2018-08-31T22:28:48Z</time>
      </trkpt>
      <trkpt lat="31.195053839005105" lon="121.59893443424278">
        <ele>6.8418268668507025</ele>
        <time>2018-08-31T22:28:52Z</time>
      </trkpt>
      <trkpt lat="31.195077678029048" lon="121.59902041878887">
        <ele>6.678446777910999</ele>
        <time>2018-08-31T22:28:55Z</time>
      </trkpt>
      <trkpt lat="31.195079796733197" lon="121.59922439780406">
        <ele>6.420401128734724</ele>
        <time>2018-08-31T22:29:02Z</time>
      </trkpt>
      <trkpt lat="31.195178927640086" lon="121.59962420466857">
        <ele>6.198952356464673</ele>
        <time>2018-08-31T22:29:17Z</time>
      </trkpt>
      <trkpt lat="31.19526397246243" lon="121.59995483938283">
        <ele>5.972145405037111</ele>
        <time>2018-08-31T22:29:30Z</time>
      </trkpt>
      <trkpt lat="31.195299140067807" lon="121.60023149736531">
        <ele>5.923021656620435</ele>
        <time>2018-08-31T22:29:41Z</time>
      </trkpt>
      <trkpt lat="31.195296399745477" lon="121.60032941296143">
        <ele>6.030214862307773</ele>
        <time>2018-08-31T22:29:45Z</time>
      </trkpt>
      <trkpt lat="31.195380344494975" lon="121.60067820882632">
        <ele>6.072468654124371</ele>
        <time>2018-08-31T22:29:59Z</time>
      </trkpt>
      <trkpt lat="31.19540656187972" lon="121.60093749950428">
        <ele>5.830583009067915</ele>
        <time>2018-08-31T22:30:09Z</time>
      </trkpt>
      <trkpt lat="31.19544961666753" lon="121.60110673974445">
        <ele>8.294659405303129</ele>
        <time>2018-08-31T22:30:16Z</time>
      </trkpt>
      <trkpt lat="31.195488367007837" lon="121.60117210116792">
        <ele>8.5715946015224</ele>
        <time>2018-08-31T22:30:19Z</time>
      </trkpt>
      <trkpt lat="31.195561481704363" lon="121.60144114569947">
        <ele>9.732777736124689</ele>
        <time>2018-08-31T22:30:30Z</time>
      </trkpt>
      <trkpt lat="31.195559011027978" lon="121.60152902054078">
        <ele>9.879291297530187</ele>
        <time>2018-08-31T22:30:34Z</time>
      </trkpt>
      <trkpt lat="31.195580940688096" lon="121.60162069002548">
        <ele>9.713873488454027</ele>
        <time>2018-08-31T22:30:38Z</time>
      </trkpt>
      <trkpt lat="31.19559227757311" lon="121.6017633483547">
        <ele>10.259954308408247</ele>
        <time>2018-08-31T22:30:44Z</time>
      </trkpt>
      <trkpt lat="31.195638325978337" lon="121.60188593310612">
        <ele>9.992977062742533</ele>
        <time>2018-08-31T22:30:52Z</time>
      </trkpt>
      <trkpt lat="31.19568331005757" lon="121.60195183400327">
        <ele>10.20471630583323</ele>
        <time>2018-08-31T22:30:58Z</time>
      </trkpt>
      <trkpt lat="31.195758568932813" lon="121.60226344803">
        <ele>10.357061967100009</ele>
        <time>2018-08-31T22:31:16Z</time>
      </trkpt>
      <trkpt lat="31.195750384043173" lon="121.60239661138701">
        <ele>10.472279382140087</ele>
        <time>2018-08-31T22:31:23Z</time>
      </trkpt>
      <trkpt lat="31.195772319755584" lon="121.60246413981851">
        <ele>10.831124602401978</ele>
        <time>2018-08-31T22:31:27Z</time>
      </trkpt>
      <trkpt lat="31.195814753637485" lon="121.60280368269173">
        <ele>10.831624507539772</ele>
        <time>2018-08-31T22:31:49Z</time>
      </trkpt>
      <trkpt lat="31.195854566073585" lon="121.60291297312159">
        <ele>10.84389127845133</ele>
        <time>2018-08-31T22:31:56Z</time>
      </trkpt>
      <trkpt lat="31.19586509761555" lon="121.60301738383684">
        <ele>10.653052718229027</ele>
        <time>2018-08-31T22:32:02Z</time>
      </trkpt>
      <trkpt lat="31.195902487649203" lon="121.60308138343933">
        <ele>10.75027918810305</ele>
        <time>2018-08-31T22:32:06Z</time>
      </trkpt>
      <trkpt lat="31.195893517313348" lon="121.60313670838423">
        <ele>10.755783834346246</ele>
        <time>2018-08-31T22:32:10Z</time>
      </trkpt>
      <trkpt lat="31.195923816179885" lon="121.60329915209621">
        <ele>10.572708978799987</ele>
        <time>2018-08-31T22:32:20Z</time>
      </trkpt>
      <trkpt lat="31.19596607213085" lon="121.60339542248606">
        <ele>10.614262924448397</ele>
        <time>2018-08-31T22:32:27Z</time>
      </trkpt>
      <trkpt lat="31.196023145337644" lon="121.60370945742231">
        <ele>10.433122330707079</ele>
        <time>2018-08-31T22:32:46Z</time>
      </trkpt>
      <trkpt lat="31.196061862889035" lon="121.60383284504543">
        <ele>10.506431755560556</ele>
        <time>2018-08-31T22:32:54Z</time>
      </trkpt>
      <trkpt lat="31.196101565108634" lon="121.60417480687893">
        <ele>10.533327966333822</ele>
        <time>2018-08-31T22:33:15Z</time>
      </trkpt>
      <trkpt lat="31.196192084234674" lon="121.60426049321033">
        <ele>10.606151078599552</ele>
        <time>2018-08-31T22:33:23Z</time>
      </trkpt>
      <trkpt lat="31.1962953843296" lon="121.60426428123033">
        <ele>11.019966939774342</ele>
        <time>2018-08-31T22:33:31Z</time>
      </trkpt>
      <trkpt lat="31.19645727216384" lon="121.6042184379916">
        <ele>10.535174111857536</ele>
        <time>2018-08-31T22:33:42Z</time>
      </trkpt>
      <trkpt lat="31.19676093511212" lon="121.60423278559729">
        <ele>10.567031927583614</ele>
        <time>2018-08-31T22:34:00Z</time>
      </trkpt>
      <trkpt lat="31.19705593135293" lon="121.60422652402424">
        <ele>10.095626519040877</ele>
        <time>2018-08-31T22:34:13Z</time>
      </trkpt>
      <trkpt lat="31.19734820470155" lon="121.60424548266919">
        <ele>9.881438741662535</ele>
        <time>2018-08-31T22:34:25Z</time>
      </trkpt>
      <trkpt lat="31.19766786223997" lon="121.60426525258177">
        <ele>9.306213090643624</ele>
        <time>2018-08-31T22:34:39Z</time>
      </trkpt>
      <trkpt lat="31.19799540227983" lon="121.6042427173781">
        <ele>8.65160131486644</ele>
        <time>2018-08-31T22:34:54Z</time>
      </trkpt>
      <trkpt lat="31.197995156853015" lon="121.60418685370627">
        <ele>8.511971848669347</ele>
        <time>2018-08-31T22:35:01Z</time>
      </trkpt>
      <trkpt lat="31.198058578219428" lon="121.60423891560211">
        <ele>8.051017598355386</ele>
        <time>2018-08-31T22:35:22Z</time>
      </trkpt>
      <trkpt lat="31.198380678157722" lon="121.60425434639914">
        <ele>7.789958017921798</ele>
        <time>2018-08-31T22:35:36Z</time>
      </trkpt>
      <trkpt lat="31.198702782307624" lon="121.60426082816748">
        <ele>7.6858848097609425</ele>
        <time>2018-08-31T22:35:50Z</time>
      </trkpt>
      <trkpt lat="31.198981507345334" lon="121.60426243223523">
        <ele>7.660723993555436</ele>
        <time>2018-08-31T22:36:02Z</time>
      </trkpt>
      <trkpt lat="31.199191083334114" lon="121.60428546540977">
        <ele>7.626688901212539</ele>
        <time>2018-08-31T22:36:11Z</time>
      </trkpt>
      <trkpt lat="31.199479036454942" lon="121.60426673004935">
        <ele>7.7032107584678045</ele>
        <time>2018-08-31T22:36:23Z</time>
      </trkpt>
      <trkpt lat="31.199788398835736" lon="121.60427050104302">
        <ele>7.638648017087817</ele>
        <time>2018-08-31T22:36:37Z</time>
      </trkpt>
      <trkpt lat="31.20002400409921" lon="121.60429298969379">
        <ele>7.7117844446852715</ele>
        <time>2018-08-31T22:36:48Z</time>
      </trkpt>
      <trkpt lat="31.200167988470454" lon="121.60426694431277">
        <ele>8.077451926787859</ele>
        <time>2018-08-31T22:36:56Z</time>
      </trkpt>
      <trkpt lat="31.200196555671326" lon="121.60463520435232">
        <ele>8.314012273991217</ele>
        <time>2018-08-31T22:37:39Z</time>
      </trkpt>
      <trkpt lat="31.200243007114448" lon="121.60501376115901">
        <ele>8.061694984016157</ele>
        <time>2018-08-31T22:37:53Z</time>
      </trkpt>
      <trkpt lat="31.20023959054165" lon="121.6053399799174">
        <ele>8.300696807277525</ele>
        <time>2018-08-31T22:38:05Z</time>
      </trkpt>
      <trkpt lat="31.200193283913052" lon="121.60575541027364">
        <ele>8.489333448294616</ele>
        <time>2018-08-31T22:38:20Z</time>
      </trkpt>
      <trkpt lat="31.20017145838178" lon="121.60601057546343">
        <ele>8.266261425037946</ele>
        <time>2018-08-31T22:38:30Z</time>
      </trkpt>
      <trkpt lat="31.200218192329928" lon="121.60632972498396">
        <ele>8.438539798409998</ele>
        <time>2018-08-31T22:38:42Z</time>
      </trkpt>
      <trkpt lat="31.200219346852037" lon="121.60669307138596">
        <ele>8.429025739242483</ele>
        <time>2018-08-31T22:38:55Z</time>
      </trkpt>
      <trkpt lat="31.200222396507435" lon="121.6070520732284">
        <ele>8.754885090337375</ele>
        <time>2018-08-31T22:39:09Z</time>
      </trkpt>
      <trkpt lat="31.200207254512367" lon="121.60744577696447">
        <ele>8.629238847661782</ele>
        <time>2018-08-31T22:39:24Z</time>
      </trkpt>
      <trkpt lat="31.200228754601465" lon="121.60776490763611">
        <ele>9.06795755131202</ele>
        <time>2018-08-31T22:39:42Z</time>
      </trkpt>
      <trkpt lat="31.20027047714816" lon="121.60781804729093">
        <ele>8.828868437540223</ele>
        <time>2018-08-31T22:39:45Z</time>
      </trkpt>
      <trkpt lat="31.200348285807763" lon="121.60782942865215">
        <ele>9.093402963269739</ele>
        <time>2018-08-31T22:39:48Z</time>
      </trkpt>
      <trkpt lat="31.200451594745655" lon="121.60781830346193">
        <ele>9.302655816209118</ele>
        <time>2018-08-31T22:39:52Z</time>
      </trkpt>
      <trkpt lat="31.20051990828533" lon="121.60783863315346">
        <ele>9.1883977138813</ele>
        <time>2018-08-31T22:39:55Z</time>
      </trkpt>
      <trkpt lat="31.20062417567145" lon="121.6080341139531">
        <ele>9.670227855819455</ele>
        <time>2018-08-31T22:40:03Z</time>
      </trkpt>
      <trkpt lat="31.200735266196943" lon="121.60815503078646">
        <ele>9.676818007336351</ele>
        <time>2018-08-31T22:40:10Z</time>
      </trkpt>
      <trkpt lat="31.20104913086372" lon="121.60833015660378">
        <ele>9.857574956026326</ele>
        <time>2018-08-31T22:40:27Z</time>
      </trkpt>
      <trkpt lat="31.201255082661863" lon="121.60850556108565">
        <ele>9.689590820585352</ele>
        <time>2018-08-31T22:40:38Z</time>
      </trkpt>
      <trkpt lat="31.20141336223906" lon="121.60860478119346">
        <ele>9.693852988073004</ele>
        <time>2018-08-31T22:40:46Z</time>
      </trkpt>
      <trkpt lat="31.201564365554137" lon="121.60863405055372">
        <ele>9.483333311580424</ele>
        <time>2018-08-31T22:40:53Z</time>
      </trkpt>
      <trkpt lat="31.201699622567222" lon="121.60869531421197">
        <ele>9.823679873558085</ele>
        <time>2018-08-31T22:40:59Z</time>
      </trkpt>
      <trkpt lat="31.20190505090256" lon="121.6088379096968">
        <ele>9.54845284042824</ele>
        <time>2018-08-31T22:41:10Z</time>
      </trkpt>
      <trkpt lat="31.202047120421124" lon="121.60884576059281">
        <ele>9.97328894617786</ele>
        <time>2018-08-31T22:41:18Z</time>
      </trkpt>
      <trkpt lat="31.202109737990202" lon="121.60886825881379">
        <ele>9.593497121579787</ele>
        <time>2018-08-31T22:41:25Z</time>
      </trkpt>
      <trkpt lat="31.202380464382856" lon="121.60907889966174">
        <ele>9.732330399728447</ele>
        <time>2018-08-31T22:41:52Z</time>
      </trkpt>
      <trkpt lat="31.202529673044978" lon="121.60936112413674">
        <ele>10.073696576938943</ele>
        <time>2018-08-31T22:42:05Z</time>
      </trkpt>
      <trkpt lat="31.20272445038657" lon="121.60961216296205">
        <ele>9.834168065415177</ele>
        <time>2018-08-31T22:42:18Z</time>
      </trkpt>
      <trkpt lat="31.202937129321864" lon="121.60984991295928">
        <ele>9.592144774470682</ele>
        <time>2018-08-31T22:42:32Z</time>
      </trkpt>
      <trkpt lat="31.203158741104346" lon="121.61010555298938">
        <ele>9.651599543290303</ele>
        <time>2018-08-31T22:42:46Z</time>
      </trkpt>
      <trkpt lat="31.203405031905056" lon="121.61034953047897">
        <ele>9.739433932611803</ele>
        <time>2018-08-31T22:43:00Z</time>
      </trkpt>
      <trkpt lat="31.203484430808103" lon="121.61041133628669">
        <ele>9.871154484635717</ele>
        <time>2018-08-31T22:43:04Z</time>
      </trkpt>
      <trkpt lat="31.203694117295296" lon="121.61065287357856">
        <ele>9.611034055556047</ele>
        <time>2018-08-31T22:43:18Z</time>
      </trkpt>
      <trkpt lat="31.203759715268017" lon="121.6106761830568">
        <ele>9.696367305980942</ele>
        <time>2018-08-31T22:43:22Z</time>
      </trkpt>
      <trkpt lat="31.203906783705385" lon="121.61051784598577">
        <ele>9.790605221587242</ele>
        <time>2018-08-31T22:43:32Z</time>
      </trkpt>
      <trkpt lat="31.204067431654092" lon="121.61032588937886">
        <ele>9.826325974595356</ele>
        <time>2018-08-31T22:43:43Z</time>
      </trkpt>
      <trkpt lat="31.20429071384061" lon="121.61012904599185">
        <ele>9.987517433323994</ele>
        <time>2018-08-31T22:43:57Z</time>
      </trkpt>
      <trkpt lat="31.20453107870491" lon="121.60992840390854">
        <ele>10.224792154087936</ele>
        <time>2018-08-31T22:44:11Z</time>
      </trkpt>
      <trkpt lat="31.204616801467793" lon="121.60986441422807">
        <ele>10.413659367115088</ele>
        <time>2018-08-31T22:44:18Z</time>
      </trkpt>
      <trkpt lat="31.204694624752044" lon="121.60985356326947">
        <ele>10.687823372306873</ele>
        <time>2018-08-31T22:44:25Z</time>
      </trkpt>
      <trkpt lat="31.204783903193583" lon="121.60974402588951">
        <ele>11.047829310802364</ele>
        <time>2018-08-31T22:44:41Z</time>
      </trkpt>
    </trkseg>
  </trk>
</gpx>