<?xml version="1.0" encoding="UTF-8"?>
<gpx xmlns="http://www.topografix.com/GPX/1/1" xmlns:gpxtpx="http://www.garmin.com/xmlschemas/TrackPointExtension/v1" xmlns:xsi="http://www.w3.org/2001/XMLSchema-instance" xsi:schemaLocation="http://www.topografix.com/GPX/1/1 http://www.topografix.com/GPX/1/1/gpx.xsd" version="1.1" creator="gpx.py -- https://github.com/tkrajina/gpxpy">
  <trk>
    <name>gpx from keep</name>
    <type>Run</type>
    <trkseg>
      <trkpt lat="31.204483237460522" lon="121.61048933226378">
        <ele>8.829919027279765</ele>
        <time>2020-05-14T22:40:02Z</time>
      </trkpt>
      <trkpt lat="31.20455906311412" lon="121.61061864299226">
        <ele>8.72213146276772</ele>
        <time>2020-05-14T22:40:11Z</time>
      </trkpt>
      <trkpt lat="31.204627600258377" lon="121.61070240832169">
        <ele>8.63201288599521</ele>
        <time>2020-05-14T22:40:18Z</time>
      </trkpt>
      <trkpt lat="31.204695631623395" lon="121.61073520614246">
        <ele>8.599896321073174</ele>
        <time>2020-05-14T22:40:25Z</time>
      </trkpt>
      <trkpt lat="31.204760744855122" lon="121.61067854023428">
        <ele>8.224372141994536</ele>
        <time>2020-05-14T22:40:29Z</time>
      </trkpt>
      <trkpt lat="31.204865977849504" lon="121.61063325723373">
        <ele>6.387338638305664</ele>
        <time>2020-05-14T22:40:35Z</time>
      </trkpt>
      <trkpt lat="31.204950397890496" lon="121.61049742681094">
        <ele>7.616040959954262</ele>
        <time>2020-05-14T22:40:42Z</time>
      </trkpt>
      <trkpt lat="31.205001404846296" lon="121.61045025019027">
        <ele>7.823714134283364</ele>
        <time>2020-05-14T22:40:45Z</time>
      </trkpt>
      <trkpt lat="31.205075712285705" lon="121.61042720002133">
        <ele>6.542064355686307</ele>
        <time>2020-05-14T22:40:49Z</time>
      </trkpt>
      <trkpt lat="31.20514679730777" lon="121.6103599596762">
        <ele>7.0742191737517715</ele>
        <time>2020-05-14T22:40:53Z</time>
      </trkpt>
      <trkpt lat="31.2052862869711" lon="121.61018047451414">
        <ele>6.827251971699297</ele>
        <time>2020-05-14T22:41:03Z</time>
      </trkpt>
      <trkpt lat="31.205331581365023" lon="121.61015932423625">
        <ele>7.143434750847518</ele>
        <time>2020-05-14T22:41:06Z</time>
      </trkpt>
      <trkpt lat="31.205385251804685" lon="121.61017992411445">
        <ele>7.218927938491106</ele>
        <time>2020-05-14T22:41:10Z</time>
      </trkpt>
      <trkpt lat="31.205425605448863" lon="121.61024498691317">
        <ele>7.270501462742686</ele>
        <time>2020-05-14T22:41:13Z</time>
      </trkpt>
      <trkpt lat="31.20550312070532" lon="121.6102870022844">
        <ele>7.9788140850141644</ele>
        <time>2020-05-14T22:41:17Z</time>
      </trkpt>
      <trkpt lat="31.205563510161618" lon="121.61039164473918">
        <ele>7.94629833381623</ele>
        <time>2020-05-14T22:41:23Z</time>
      </trkpt>
      <trkpt lat="31.205784931350436" lon="121.61052772161474">
        <ele>6.9462946662679315</ele>
        <time>2020-05-14T22:41:34Z</time>
      </trkpt>
      <trkpt lat="31.20585378685023" lon="121.61054587995847">
        <ele>9.75906808115542</ele>
        <time>2020-05-14T22:41:37Z</time>
      </trkpt>
      <trkpt lat="31.206062925328116" lon="121.61079419340805">
        <ele>9.617385762743652</ele>
        <time>2020-05-14T22:41:51Z</time>
      </trkpt>
      <trkpt lat="31.206112227482503" lon="121.61085572939132">
        <ele>8.944687457755208</ele>
        <time>2020-05-14T22:41:54Z</time>
      </trkpt>
      <trkpt lat="31.20614876144933" lon="121.61095115379952">
        <ele>8.781014271080494</ele>
        <time>2020-05-14T22:41:58Z</time>
      </trkpt>
      <trkpt lat="31.206208374909725" lon="121.61100103123167">
        <ele>7.300810666754842</ele>
        <time>2020-05-14T22:42:02Z</time>
      </trkpt>
      <trkpt lat="31.206361099219304" lon="121.611267778947">
        <ele>6.810509356670082</ele>
        <time>2020-05-14T22:42:15Z</time>
      </trkpt>
      <trkpt lat="31.206417642558282" lon="121.61143449790787">
        <ele>6.49231799505651</ele>
        <time>2020-05-14T22:42:22Z</time>
      </trkpt>
      <trkpt lat="31.206561544176406" lon="121.61152991102558">
        <ele>6.4782487684860826</ele>
        <time>2020-05-14T22:42:29Z</time>
      </trkpt>
      <trkpt lat="31.206545447100837" lon="121.61166274765594">
        <ele>6.939320317469537</ele>
        <time>2020-05-14T22:42:36Z</time>
      </trkpt>
      <trkpt lat="31.206481094199106" lon="121.6117863704443">
        <ele>7.769472570158541</ele>
        <time>2020-05-14T22:42:43Z</time>
      </trkpt>
      <trkpt lat="31.206401611788202" lon="121.61183842627776">
        <ele>7.559479346498847</ele>
        <time>2020-05-14T22:42:46Z</time>
      </trkpt>
      <trkpt lat="31.20635953792387" lon="121.61190105136882">
        <ele>7.483888464048505</ele>
        <time>2020-05-14T22:42:50Z</time>
      </trkpt>
      <trkpt lat="31.206182357833885" lon="121.6120683272415">
        <ele>7.926033606752753</ele>
        <time>2020-05-14T22:43:00Z</time>
      </trkpt>
      <trkpt lat="31.206031694155197" lon="121.61230472626957">
        <ele>8.387415156699717</ele>
        <time>2020-05-14T22:43:12Z</time>
      </trkpt>
      <trkpt lat="31.20595927151113" lon="121.6123424129219">
        <ele>8.64343745727092</ele>
        <time>2020-05-14T22:43:16Z</time>
      </trkpt>
      <trkpt lat="31.205924260862457" lon="121.61238606025043">
        <ele>7.891056357882917</ele>
        <time>2020-05-14T22:43:19Z</time>
      </trkpt>
      <trkpt lat="31.20569856952043" lon="121.61252162010864">
        <ele>8.001657498069108</ele>
        <time>2020-05-14T22:43:30Z</time>
      </trkpt>
      <trkpt lat="31.20561717189795" lon="121.6125937344338">
        <ele>8.407235456630588</ele>
        <time>2020-05-14T22:43:45Z</time>
      </trkpt>
      <trkpt lat="31.205588935149585" lon="121.61264253125482">
        <ele>8.44157951977104</ele>
        <time>2020-05-14T22:43:56Z</time>
      </trkpt>
      <trkpt lat="31.205344160861504" lon="121.61290576887819">
        <ele>8.206944144330919</ele>
        <time>2020-05-14T22:44:22Z</time>
      </trkpt>
      <trkpt lat="31.20531998185001" lon="121.61296540777144">
        <ele>9.837101879529655</ele>
        <time>2020-05-14T22:44:26Z</time>
      </trkpt>
      <trkpt lat="31.20525568603247" lon="121.61301095388637">
        <ele>8.426632865332067</ele>
        <time>2020-05-14T22:44:30Z</time>
      </trkpt>
      <trkpt lat="31.205048848963795" lon="121.61329641219112">
        <ele>9.184759812429547</ele>
        <time>2020-05-14T22:44:44Z</time>
      </trkpt>
      <trkpt lat="31.204813899499918" lon="121.61347452565303">
        <ele>8.039314600639045</ele>
        <time>2020-05-14T22:44:56Z</time>
      </trkpt>
      <trkpt lat="31.20477697385016" lon="121.61353660378337">
        <ele>9.036665604449809</ele>
        <time>2020-05-14T22:44:59Z</time>
      </trkpt>
      <trkpt lat="31.204704803607314" lon="121.61359488969637">
        <ele>8.318373702466488</ele>
        <time>2020-05-14T22:45:03Z</time>
      </trkpt>
      <trkpt lat="31.20466244190446" lon="121.61367268992477">
        <ele>8.648249725811183</ele>
        <time>2020-05-14T22:45:06Z</time>
      </trkpt>
      <trkpt lat="31.204379434427324" lon="121.61392778720415">
        <ele>8.717383758164942</ele>
        <time>2020-05-14T22:45:20Z</time>
      </trkpt>
      <trkpt lat="31.204265476958486" lon="121.61402348250539">
        <ele>7.383000745438039</ele>
        <time>2020-05-14T22:45:27Z</time>
      </trkpt>
      <trkpt lat="31.204220137287596" lon="121.6140945049849">
        <ele>6.734721691347659</ele>
        <time>2020-05-14T22:45:30Z</time>
      </trkpt>
      <trkpt lat="31.203981926068813" lon="121.61427613650058">
        <ele>8.441219239495695</ele>
        <time>2020-05-14T22:45:41Z</time>
      </trkpt>
      <trkpt lat="31.20392386838333" lon="121.6143168004735">
        <ele>6.140993698500097</ele>
        <time>2020-05-14T22:45:44Z</time>
      </trkpt>
      <trkpt lat="31.20368665149255" lon="121.61460116129172">
        <ele>7.347570318728685</ele>
        <time>2020-05-14T22:45:58Z</time>
      </trkpt>
      <trkpt lat="31.203629382503028" lon="121.61466974352228">
        <ele>7.372861045412719</ele>
        <time>2020-05-14T22:46:02Z</time>
      </trkpt>
      <trkpt lat="31.2035547894848" lon="121.61470525811876">
        <ele>6.842508275061846</ele>
        <time>2020-05-14T22:46:05Z</time>
      </trkpt>
      <trkpt lat="31.203408806744292" lon="121.61483375062694">
        <ele>7.139733301475644</ele>
        <time>2020-05-14T22:46:12Z</time>
      </trkpt>
      <trkpt lat="31.20335638072802" lon="121.6149443451652">
        <ele>7.079645298421383</ele>
        <time>2020-05-14T22:46:18Z</time>
      </trkpt>
      <trkpt lat="31.203341131565534" lon="121.6150188861036">
        <ele>7.96392438467592</ele>
        <time>2020-05-14T22:46:22Z</time>
      </trkpt>
      <trkpt lat="31.203323727015004" lon="121.61507770596131">
        <ele>7.559978572651744</ele>
        <time>2020-05-14T22:46:50Z</time>
      </trkpt>
      <trkpt lat="31.203455325032216" lon="121.61527339403261">
        <ele>7.837158422917128</ele>
        <time>2020-05-14T22:47:11Z</time>
      </trkpt>
      <trkpt lat="31.203444387205177" lon="121.61537693584606">
        <ele>6.8873310731723905</ele>
        <time>2020-05-14T22:47:18Z</time>
      </trkpt>
      <trkpt lat="31.203214786440906" lon="121.61562225286019">
        <ele>6.5292269214987755</ele>
        <time>2020-05-14T22:47:33Z</time>
      </trkpt>
      <trkpt lat="31.2030478919983" lon="121.61578380964019">
        <ele>6.3508989457041025</ele>
        <time>2020-05-14T22:47:41Z</time>
      </trkpt>
      <trkpt lat="31.20283320633123" lon="121.616022345262">
        <ele>6.711259796284139</ele>
        <time>2020-05-14T22:47:53Z</time>
      </trkpt>
      <trkpt lat="31.202709685426914" lon="121.6161901297127">
        <ele>6.976472661830485</ele>
        <time>2020-05-14T22:48:01Z</time>
      </trkpt>
      <trkpt lat="31.202646205526133" lon="121.61622726739213">
        <ele>7.409147475846112</ele>
        <time>2020-05-14T22:48:04Z</time>
      </trkpt>
      <trkpt lat="31.20239085727925" lon="121.61645360538128">
        <ele>6.360265338793397</ele>
        <time>2020-05-14T22:48:17Z</time>
      </trkpt>
      <trkpt lat="31.202151985908856" lon="121.61674417498837">
        <ele>5.073691865429282</ele>
        <time>2020-05-14T22:48:32Z</time>
      </trkpt>
      <trkpt lat="31.201972028630912" lon="121.61694990359516">
        <ele>6.828599303029478</ele>
        <time>2020-05-14T22:48:42Z</time>
      </trkpt>
      <trkpt lat="31.201893623210758" lon="121.61699977981509">
        <ele>6.0565145099535584</ele>
        <time>2020-05-14T22:48:46Z</time>
      </trkpt>
      <trkpt lat="31.2018190609078" lon="121.61700005701351">
        <ele>5.802064925432205</ele>
        <time>2020-05-14T22:49:00Z</time>
      </trkpt>
      <trkpt lat="31.20168899292415" lon="121.61720334010307">
        <ele>6.078202570788562</ele>
        <time>2020-05-14T22:49:18Z</time>
      </trkpt>
      <trkpt lat="31.201608942266628" lon="121.61727191688088">
        <ele>5.818382920697331</ele>
        <time>2020-05-14T22:49:21Z</time>
      </trkpt>
      <trkpt lat="31.201505238304183" lon="121.61740716801748">
        <ele>5.419702215120196</ele>
        <time>2020-05-14T22:49:28Z</time>
      </trkpt>
      <trkpt lat="31.20126532407402" lon="121.61764514793192">
        <ele>6.46668051276356</ele>
        <time>2020-05-14T22:49:42Z</time>
      </trkpt>
      <trkpt lat="31.201029732168198" lon="121.61789721831809">
        <ele>4.84317085519433</ele>
        <time>2020-05-14T22:49:56Z</time>
      </trkpt>
      <trkpt lat="31.200842132645835" lon="121.61814548793686">
        <ele>5.668032992631197</ele>
        <time>2020-05-14T22:50:07Z</time>
      </trkpt>
      <trkpt lat="31.200658613216696" lon="121.61837857787727">
        <ele>5.415989243425429</ele>
        <time>2020-05-14T22:50:18Z</time>
      </trkpt>
      <trkpt lat="31.200474821330932" lon="121.61861112365737">
        <ele>4.407701123505831</ele>
        <time>2020-05-14T22:50:30Z</time>
      </trkpt>
      <trkpt lat="31.200285872451595" lon="121.61884719086753">
        <ele>5.351121134124696</ele>
        <time>2020-05-14T22:50:41Z</time>
      </trkpt>
      <trkpt lat="31.20023159615232" lon="121.61889570625956">
        <ele>4.752013733610511</ele>
        <time>2020-05-14T22:50:44Z</time>
      </trkpt>
      <trkpt lat="31.20000111878184" lon="121.61917323842717">
        <ele>6.107914506457746</ele>
        <time>2020-05-14T22:50:58Z</time>
      </trkpt>
      <trkpt lat="31.199956011296337" lon="121.61926944960815">
        <ele>6.726668330840766</ele>
        <time>2020-05-14T22:51:02Z</time>
      </trkpt>
      <trkpt lat="31.199686505709312" lon="121.61952909470808">
        <ele>6.6095408871769905</ele>
        <time>2020-05-14T22:51:17Z</time>
      </trkpt>
      <trkpt lat="31.199439528185867" lon="121.61976380322169">
        <ele>6.844079245813191</ele>
        <time>2020-05-14T22:51:30Z</time>
      </trkpt>
      <trkpt lat="31.199193127193674" lon="121.61996436369012">
        <ele>4.772458024322987</ele>
        <time>2020-05-14T22:51:44Z</time>
      </trkpt>
      <trkpt lat="31.199063435927062" lon="121.62004865499011">
        <ele>5.742164624854922</ele>
        <time>2020-05-14T22:51:51Z</time>
      </trkpt>
      <trkpt lat="31.1988903960735" lon="121.62010178489508">
        <ele>5.759479110129178</ele>
        <time>2020-05-14T22:51:58Z</time>
      </trkpt>
      <trkpt lat="31.198696323193204" lon="121.6203009834362">
        <ele>5.701266762800515</ele>
        <time>2020-05-14T22:52:08Z</time>
      </trkpt>
      <trkpt lat="31.19866205421387" lon="121.6204001704483">
        <ele>5.8684518076479435</ele>
        <time>2020-05-14T22:52:11Z</time>
      </trkpt>
      <trkpt lat="31.198449780936972" lon="121.6206294483516">
        <ele>6.745717775076628</ele>
        <time>2020-05-14T22:52:22Z</time>
      </trkpt>
      <trkpt lat="31.198198179726116" lon="121.62086956708407">
        <ele>6.8671777648851275</ele>
        <time>2020-05-14T22:52:35Z</time>
      </trkpt>
      <trkpt lat="31.19805436279405" lon="121.62097607769316">
        <ele>7.27589584607631</ele>
        <time>2020-05-14T22:52:42Z</time>
      </trkpt>
      <trkpt lat="31.197825264763758" lon="121.62121456547638">
        <ele>6.890347993932664</ele>
        <time>2020-05-14T22:52:56Z</time>
      </trkpt>
      <trkpt lat="31.19759050314383" lon="121.62142405630792">
        <ele>6.215165524743497</ele>
        <time>2020-05-14T22:53:09Z</time>
      </trkpt>
      <trkpt lat="31.1972985197388" lon="121.62164357654127">
        <ele>6.441202396526933</ele>
        <time>2020-05-14T22:53:24Z</time>
      </trkpt>
      <trkpt lat="31.1971709808892" lon="121.62173870149603">
        <ele>5.741015350446105</ele>
        <time>2020-05-14T22:53:30Z</time>
      </trkpt>
      <trkpt lat="31.196936463745068" lon="121.6219687825356">
        <ele>5.1612049443647265</ele>
        <time>2020-05-14T22:53:44Z</time>
      </trkpt>
      <trkpt lat="31.196694102868967" lon="121.62218043586594">
        <ele>5.740592312067747</ele>
        <time>2020-05-14T22:53:57Z</time>
      </trkpt>
      <trkpt lat="31.196666878428818" lon="121.62227853133534">
        <ele>6.351353143341839</ele>
        <time>2020-05-14T22:54:01Z</time>
      </trkpt>
      <trkpt lat="31.196658331367942" lon="121.62240345133807">
        <ele>5.804309810511768</ele>
        <time>2020-05-14T22:54:08Z</time>
      </trkpt>
      <trkpt lat="31.196684990591304" lon="121.62256386525058">
        <ele>4.164906794205308</ele>
        <time>2020-05-14T22:54:16Z</time>
      </trkpt>
      <trkpt lat="31.196677606419758" lon="121.62261941513992">
        <ele>3.7719771694391966</ele>
        <time>2020-05-14T22:54:19Z</time>
      </trkpt>
      <trkpt lat="31.196711031316145" lon="121.62278985310468">
        <ele>5.5255816876888275</ele>
        <time>2020-05-14T22:54:29Z</time>
      </trkpt>
      <trkpt lat="31.19671198498615" lon="121.62290338926096">
        <ele>4.7601373270154</ele>
        <time>2020-05-14T22:54:36Z</time>
      </trkpt>
      <trkpt lat="31.196738935980264" lon="121.62304374859309">
        <ele>4.923551168292761</ele>
        <time>2020-05-14T22:54:46Z</time>
      </trkpt>
      <trkpt lat="31.196713800936863" lon="121.62320795652533">
        <ele>4.882187346927822</ele>
        <time>2020-05-14T22:54:57Z</time>
      </trkpt>
      <trkpt lat="31.196728872582526" lon="121.62330387705083">
        <ele>4.9907306507229805</ele>
        <time>2020-05-14T22:55:05Z</time>
      </trkpt>
      <trkpt lat="31.196776713651854" lon="121.62343176826477">
        <ele>5.055167542770505</ele>
        <time>2020-05-14T22:55:13Z</time>
      </trkpt>
      <trkpt lat="31.196773310586728" lon="121.62355912119868">
        <ele>5.5308196898549795</ele>
        <time>2020-05-14T22:55:20Z</time>
      </trkpt>
      <trkpt lat="31.19689907503242" lon="121.62382411079894">
        <ele>4.670371170155704</ele>
        <time>2020-05-14T22:55:32Z</time>
      </trkpt>
      <trkpt lat="31.196926896105577" lon="121.62391325414382">
        <ele>4.46576964110136</ele>
        <time>2020-05-14T22:55:35Z</time>
      </trkpt>
      <trkpt lat="31.19690842940746" lon="121.62370922280745">
        <ele>6.174807700328529</ele>
        <time>2020-05-14T22:55:49Z</time>
      </trkpt>
      <trkpt lat="31.196878752554873" lon="121.62358377004335">
        <ele>5.508874450810254</ele>
        <time>2020-05-14T22:55:53Z</time>
      </trkpt>
      <trkpt lat="31.196876957778436" lon="121.62349597829306">
        <ele>5.4568960620090365</ele>
        <time>2020-05-14T22:55:56Z</time>
      </trkpt>
      <trkpt lat="31.196837769153543" lon="121.62338867994572">
        <ele>4.714828284457326</ele>
        <time>2020-05-14T22:56:00Z</time>
      </trkpt>
      <trkpt lat="31.196740556309106" lon="121.62328246984153">
        <ele>5.36202528141439</ele>
        <time>2020-05-14T22:56:04Z</time>
      </trkpt>
      <trkpt lat="31.196733871761243" lon="121.62320199361278">
        <ele>4.969137922860682</ele>
        <time>2020-05-14T22:56:07Z</time>
      </trkpt>
      <trkpt lat="31.196689800461932" lon="121.62309577838357">
        <ele>4.927249162457883</ele>
        <time>2020-05-14T22:56:11Z</time>
      </trkpt>
      <trkpt lat="31.196670660854657" lon="121.62300012843069">
        <ele>5.027748247608542</ele>
        <time>2020-05-14T22:56:15Z</time>
      </trkpt>
      <trkpt lat="31.19661488412223" lon="121.62293374580535">
        <ele>3.87713966332376</ele>
        <time>2020-05-14T22:56:18Z</time>
      </trkpt>
      <trkpt lat="31.196654045219375" lon="121.62283158718495">
        <ele>4.000695858150721</ele>
        <time>2020-05-14T22:56:22Z</time>
      </trkpt>
      <trkpt lat="31.19672327377828" lon="121.6227538130438">
        <ele>4.393484992906451</ele>
        <time>2020-05-14T22:56:26Z</time>
      </trkpt>
      <trkpt lat="31.196881155679606" lon="121.62268226367972">
        <ele>5.489423977211118</ele>
        <time>2020-05-14T22:56:32Z</time>
      </trkpt>
      <trkpt lat="31.19698236430015" lon="121.62261613825459">
        <ele>6.348813815973699</ele>
        <time>2020-05-14T22:56:36Z</time>
      </trkpt>
      <trkpt lat="31.19701687329158" lon="121.62255056013312">
        <ele>5.0429425006732345</ele>
        <time>2020-05-14T22:56:39Z</time>
      </trkpt>
      <trkpt lat="31.197286311672997" lon="121.62237277928737">
        <ele>4.814345356076956</ele>
        <time>2020-05-14T22:56:53Z</time>
      </trkpt>
      <trkpt lat="31.19737068321744" lon="121.62232968735829">
        <ele>4.4445805717259645</ele>
        <time>2020-05-14T22:56:56Z</time>
      </trkpt>
      <trkpt lat="31.197506157345078" lon="121.62217223937152">
        <ele>6.688183675520122</ele>
        <time>2020-05-14T22:57:04Z</time>
      </trkpt>
      <trkpt lat="31.197617373617067" lon="121.6221267061082">
        <ele>5.79467964079231</ele>
        <time>2020-05-14T22:57:08Z</time>
      </trkpt>
      <trkpt lat="31.19779707197267" lon="121.62194215541889">
        <ele>6.356959313154221</ele>
        <time>2020-05-14T22:57:18Z</time>
      </trkpt>
      <trkpt lat="31.19789120345575" lon="121.62189933296902">
        <ele>6.660901273600757</ele>
        <time>2020-05-14T22:57:22Z</time>
      </trkpt>
      <trkpt lat="31.197976625198994" lon="121.62188631890075">
        <ele>6.3121245708316565</ele>
        <time>2020-05-14T22:57:25Z</time>
      </trkpt>
      <trkpt lat="31.198078953691297" lon="121.62178713185776">
        <ele>6.057227106764913</ele>
        <time>2020-05-14T22:57:32Z</time>
      </trkpt>
      <trkpt lat="31.198147320903928" lon="121.62175000188434">
        <ele>5.429400860331953</ele>
        <time>2020-05-14T22:57:35Z</time>
      </trkpt>
      <trkpt lat="31.198350161694115" lon="121.62147683525521">
        <ele>6.2504652151837945</ele>
        <time>2020-05-14T22:57:53Z</time>
      </trkpt>
      <trkpt lat="31.198458408605866" lon="121.62141856480594">
        <ele>6.5031005796045065</ele>
        <time>2020-05-14T22:57:57Z</time>
      </trkpt>
      <trkpt lat="31.19849346299789" lon="121.62134783499211">
        <ele>5.677983020432293</ele>
        <time>2020-05-14T22:58:00Z</time>
      </trkpt>
      <trkpt lat="31.19869458670497" lon="121.62115379258782">
        <ele>4.636861705221236</ele>
        <time>2020-05-14T22:58:11Z</time>
      </trkpt>
      <trkpt lat="31.19869980921277" lon="121.62108902625562">
        <ele>3.694616924971342</ele>
        <time>2020-05-14T22:58:15Z</time>
      </trkpt>
      <trkpt lat="31.19876197268284" lon="121.62102154517156">
        <ele>4.69754206109792</ele>
        <time>2020-05-14T22:58:19Z</time>
      </trkpt>
      <trkpt lat="31.198889719706912" lon="121.62098224130249">
        <ele>4.581563622690737</ele>
        <time>2020-05-14T22:58:25Z</time>
      </trkpt>
      <trkpt lat="31.19904141054915" lon="121.62086570345207">
        <ele>6.133039187639952</ele>
        <time>2020-05-14T22:58:33Z</time>
      </trkpt>
      <trkpt lat="31.199139588476132" lon="121.62084049327669">
        <ele>7.581995898857713</ele>
        <time>2020-05-14T22:58:36Z</time>
      </trkpt>
      <trkpt lat="31.19918381805268" lon="121.62080851278579">
        <ele>5.968762157484889</ele>
        <time>2020-05-14T22:58:39Z</time>
      </trkpt>
      <trkpt lat="31.19927413275898" lon="121.62078357419662">
        <ele>5.693228731863201</ele>
        <time>2020-05-14T22:58:43Z</time>
      </trkpt>
      <trkpt lat="31.199494277234944" lon="121.62079873144394">
        <ele>6.186510185711086</ele>
        <time>2020-05-14T22:58:53Z</time>
      </trkpt>
      <trkpt lat="31.19964210206423" lon="121.62074641802">
        <ele>7.395364153198898</ele>
        <time>2020-05-14T22:59:01Z</time>
      </trkpt>
      <trkpt lat="31.199851952918863" lon="121.6207529044353">
        <ele>6.206819236278534</ele>
        <time>2020-05-14T22:59:15Z</time>
      </trkpt>
      <trkpt lat="31.200021114278524" lon="121.62077727960023">
        <ele>5.772922175005078</ele>
        <time>2020-05-14T22:59:29Z</time>
      </trkpt>
      <trkpt lat="31.200169449417622" lon="121.6207545041067">
        <ele>3.120510038919747</ele>
        <time>2020-05-14T22:59:39Z</time>
      </trkpt>
      <trkpt lat="31.20043695288984" lon="121.62085230947028">
        <ele>4.3661528853699565</ele>
        <time>2020-05-14T22:59:58Z</time>
      </trkpt>
      <trkpt lat="31.200535870094917" lon="121.62089538862703">
        <ele>5.611945498734713</ele>
        <time>2020-05-14T23:00:05Z</time>
      </trkpt>
      <trkpt lat="31.200864133915495" lon="121.62096879947298">
        <ele>4.217867454513907</ele>
        <time>2020-05-14T23:00:26Z</time>
      </trkpt>
      <trkpt lat="31.20093707559542" lon="121.62096283168677">
        <ele>3.271871850825846</ele>
        <time>2020-05-14T23:00:30Z</time>
      </trkpt>
      <trkpt lat="31.20129761236812" lon="121.6210289229978">
        <ele>4.0253200912848115</ele>
        <time>2020-05-14T23:00:45Z</time>
      </trkpt>
      <trkpt lat="31.201606369501416" lon="121.6210885147311">
        <ele>5.84300079010427</ele>
        <time>2020-05-14T23:00:57Z</time>
      </trkpt>
      <trkpt lat="31.20188234602776" lon="121.62112372022352">
        <ele>3.883639388717711</ele>
        <time>2020-05-14T23:01:08Z</time>
      </trkpt>
      <trkpt lat="31.202221224953355" lon="121.62115973342216">
        <ele>4.462701573036611</ele>
        <time>2020-05-14T23:01:20Z</time>
      </trkpt>
      <trkpt lat="31.202409902960703" lon="121.6211887133588">
        <ele>4.530035433359444</ele>
        <time>2020-05-14T23:01:28Z</time>
      </trkpt>
      <trkpt lat="31.20246441028526" lon="121.62118030827023">
        <ele>4.139573215506971</ele>
        <time>2020-05-14T23:01:32Z</time>
      </trkpt>
      <trkpt lat="31.20242167473901" lon="121.62083696978664">
        <ele>4.9106089770793915</ele>
        <time>2020-05-14T23:01:50Z</time>
      </trkpt>
      <trkpt lat="31.202418227309472" lon="121.62076569961808">
        <ele>4.378142392262816</ele>
        <time>2020-05-14T23:01:54Z</time>
      </trkpt>
      <trkpt lat="31.202420689542038" lon="121.62074537510482">
        <ele>4.864304618909955</ele>
        <time>2020-05-14T23:02:23Z</time>
      </trkpt>
      <trkpt lat="31.20241578915167" lon="121.62076380288497">
        <ele>4.581570866517723</ele>
        <time>2020-05-14T23:02:28Z</time>
      </trkpt>
      <trkpt lat="31.202434788553514" lon="121.620745373938">
        <ele>5.796070206910372</ele>
        <time>2020-05-14T23:02:42Z</time>
      </trkpt>
      <trkpt lat="31.202450264364575" lon="121.62072586130526">
        <ele>5.301145261153579</ele>
        <time>2020-05-14T23:03:15Z</time>
      </trkpt>
      <trkpt lat="31.202369029097248" lon="121.62037628716638">
        <ele>4.486869835294783</ele>
        <time>2020-05-14T23:03:38Z</time>
      </trkpt>
      <trkpt lat="31.202368833887856" lon="121.62030528646497">
        <ele>5.190151107497513</ele>
        <time>2020-05-14T23:03:42Z</time>
      </trkpt>
      <trkpt lat="31.202410631754038" lon="121.62026490464876">
        <ele>6.730266880244017</ele>
        <time>2020-05-14T23:03:48Z</time>
      </trkpt>
      <trkpt lat="31.202441482387787" lon="121.62031991420456">
        <ele>5.016394106671214</ele>
        <time>2020-05-14T23:03:55Z</time>
      </trkpt>
      <trkpt lat="31.202454468757214" lon="121.62034619966288">
        <ele>4.460495027713478</ele>
        <time>2020-05-14T23:04:05Z</time>
      </trkpt>
      <trkpt lat="31.202455301575537" lon="121.62032804291937">
        <ele>4.518229249864817</ele>
        <time>2020-05-14T23:04:29Z</time>
      </trkpt>
      <trkpt lat="31.202442271457112" lon="121.62034267773639">
        <ele>4.7379910768941045</ele>
        <time>2020-05-14T23:04:36Z</time>
      </trkpt>
      <trkpt lat="31.202442008146214" lon="121.62033536088984">
        <ele>4.486025140620768</ele>
        <time>2020-05-14T23:04:43Z</time>
      </trkpt>
      <trkpt lat="31.2024319865863" lon="121.62032560589152">
        <ele>4.156286088749766</ele>
        <time>2020-05-14T23:05:19Z</time>
      </trkpt>
      <trkpt lat="31.202564302421525" lon="121.62032369797487">
        <ele>4.9259922951459885</ele>
        <time>2020-05-14T23:05:29Z</time>
      </trkpt>
      <trkpt lat="31.20266866124343" lon="121.62034997586775">
        <ele>4.138062170706689</ele>
        <time>2020-05-14T23:05:36Z</time>
      </trkpt>
      <trkpt lat="31.20281918862314" lon="121.6203055201915">
        <ele>2.7285002898424864</ele>
        <time>2020-05-14T23:05:43Z</time>
      </trkpt>
      <trkpt lat="31.202823604269977" lon="121.62023289293812">
        <ele>3.6869727512821555</ele>
        <time>2020-05-14T23:05:46Z</time>
      </trkpt>
      <trkpt lat="31.202767613788673" lon="121.61984997706548">
        <ele>5.592514789663255</ele>
        <time>2020-05-14T23:06:01Z</time>
      </trkpt>
      <trkpt lat="31.202692231929287" lon="121.61959740983623">
        <ele>5.074147240258753</ele>
        <time>2020-05-14T23:06:11Z</time>
      </trkpt>
      <trkpt lat="31.202611818414837" lon="121.61922668183232">
        <ele>4.1901491628959775</ele>
        <time>2020-05-14T23:06:26Z</time>
      </trkpt>
      <trkpt lat="31.202577573184747" lon="121.61904294137177">
        <ele>4.857382730580866</ele>
        <time>2020-05-14T23:06:33Z</time>
      </trkpt>
      <trkpt lat="31.20248673211048" lon="121.61878792834047">
        <ele>4.621645273640752</ele>
        <time>2020-05-14T23:06:43Z</time>
      </trkpt>
      <trkpt lat="31.202490354729076" lon="121.61869144776023">
        <ele>4.509651185013354</ele>
        <time>2020-05-14T23:06:47Z</time>
      </trkpt>
      <trkpt lat="31.202539447971724" lon="121.6186738278772">
        <ele>4.851820369251072</ele>
        <time>2020-05-14T23:06:50Z</time>
      </trkpt>
      <trkpt lat="31.202633889999884" lon="121.61858763786891">
        <ele>3.7253253618255258</ele>
        <time>2020-05-14T23:06:57Z</time>
      </trkpt>
      <trkpt lat="31.202690857026802" lon="121.61855917670623">
        <ele>5.683254512026906</ele>
        <time>2020-05-14T23:07:00Z</time>
      </trkpt>
      <trkpt lat="31.20268936758596" lon="121.61842258542528">
        <ele>4.526076240465045</ele>
        <time>2020-05-14T23:07:07Z</time>
      </trkpt>
      <trkpt lat="31.202617410013048" lon="121.61825835549553">
        <ele>4.272353431209922</ele>
        <time>2020-05-14T23:07:14Z</time>
      </trkpt>
      <trkpt lat="31.202575955830817" lon="121.61822881803366">
        <ele>5.548216429539025</ele>
        <time>2020-05-14T23:07:18Z</time>
      </trkpt>
      <trkpt lat="31.202596662101975" lon="121.61812826862247">
        <ele>4.740633401088417</ele>
        <time>2020-05-14T23:07:22Z</time>
      </trkpt>
      <trkpt lat="31.202585325454486" lon="121.61780196104414">
        <ele>4.675100646913052</ele>
        <time>2020-05-14T23:07:34Z</time>
      </trkpt>
      <trkpt lat="31.202536511073266" lon="121.61753473582976">
        <ele>5.0314630111679435</ele>
        <time>2020-05-14T23:07:44Z</time>
      </trkpt>
      <trkpt lat="31.202496759424303" lon="121.61742632886693">
        <ele>5.7399200005456805</ele>
        <time>2020-05-14T23:07:48Z</time>
      </trkpt>
      <trkpt lat="31.202443686705458" lon="121.61735424017813">
        <ele>5.190163121558726</ele>
        <time>2020-05-14T23:07:51Z</time>
      </trkpt>
      <trkpt lat="31.202437540222487" lon="121.6172612782489">
        <ele>4.860158480703831</ele>
        <time>2020-05-14T23:07:55Z</time>
      </trkpt>
      <trkpt lat="31.202670628826084" lon="121.61706964141362">
        <ele>3.7717271829023957</ele>
        <time>2020-05-14T23:08:09Z</time>
      </trkpt>
      <trkpt lat="31.20286494207144" lon="121.61687990352559">
        <ele>4.161430389620364</ele>
        <time>2020-05-14T23:08:23Z</time>
      </trkpt>
      <trkpt lat="31.202941978830026" lon="121.61684357881084">
        <ele>4.458639876917005</ele>
        <time>2020-05-14T23:08:27Z</time>
      </trkpt>
      <trkpt lat="31.202970514935807" lon="121.61677283683865">
        <ele>4.231544071808457</ele>
        <time>2020-05-14T23:08:30Z</time>
      </trkpt>
      <trkpt lat="31.203249432798053" lon="121.61656980892397">
        <ele>3.393366110511124</ele>
        <time>2020-05-14T23:08:45Z</time>
      </trkpt>
      <trkpt lat="31.203474619321344" lon="121.6164152995049">
        <ele>5.103004453703761</ele>
        <time>2020-05-14T23:08:58Z</time>
      </trkpt>
      <trkpt lat="31.203646947239218" lon="121.61624615737033">
        <ele>4.839546547271311</ele>
        <time>2020-05-14T23:09:16Z</time>
      </trkpt>
      <trkpt lat="31.203781758554566" lon="121.61618434920196">
        <ele>5.88760425709188</ele>
        <time>2020-05-14T23:09:28Z</time>
      </trkpt>
      <trkpt lat="31.203911791006863" lon="121.6160119564645">
        <ele>6.921033164486289</ele>
        <time>2020-05-14T23:09:43Z</time>
      </trkpt>
      <trkpt lat="31.203957101151786" lon="121.61597861455115">
        <ele>7.48283039405942</ele>
        <time>2020-05-14T23:09:47Z</time>
      </trkpt>
      <trkpt lat="31.204117058993564" lon="121.6159916113419">
        <ele>5.8873984115198255</ele>
        <time>2020-05-14T23:10:01Z</time>
      </trkpt>
      <trkpt lat="31.2042127871177" lon="121.61597263047395">
        <ele>4.300920492038131</ele>
        <time>2020-05-14T23:10:09Z</time>
      </trkpt>
      <trkpt lat="31.20435309720249" lon="121.61612277581068">
        <ele>5.7610266506671906</ele>
        <time>2020-05-14T23:10:19Z</time>
      </trkpt>
      <trkpt lat="31.204539681013046" lon="121.61636940605474">
        <ele>5.786833660677075</ele>
        <time>2020-05-14T23:10:32Z</time>
      </trkpt>
      <trkpt lat="31.204526992821307" lon="121.61631004974579">
        <ele>9.093405365943909</ele>
        <time>2020-05-14T23:10:36Z</time>
      </trkpt>
      <trkpt lat="31.2042943204745" lon="121.61605800188846">
        <ele>8.767313849180937</ele>
        <time>2020-05-14T23:10:50Z</time>
      </trkpt>
      <trkpt lat="31.20408931671291" lon="121.61578941543553">
        <ele>6.2070576781407</ele>
        <time>2020-05-14T23:11:04Z</time>
      </trkpt>
      <trkpt lat="31.203853670879507" lon="121.61552218377804">
        <ele>7.131856570020318</ele>
        <time>2020-05-14T23:11:18Z</time>
      </trkpt>
      <trkpt lat="31.203785955763927" lon="121.61544575392307">
        <ele>6.206676051951945</ele>
        <time>2020-05-14T23:11:22Z</time>
      </trkpt>
      <trkpt lat="31.203635578378492" lon="121.61533111272306">
        <ele>5.948245590552688</ele>
        <time>2020-05-14T23:11:32Z</time>
      </trkpt>
      <trkpt lat="31.20359058640178" lon="121.61531268507568">
        <ele>5.4805423291400075</ele>
        <time>2020-05-14T23:11:36Z</time>
      </trkpt>
      <trkpt lat="31.203555665282483" lon="121.61525061751645">
        <ele>0.5963513581082225</ele>
        <time>2020-05-14T23:11:43Z</time>
      </trkpt>
      <trkpt lat="31.203623823424923" lon="121.61513433100374">
        <ele>3.9913724763318896</ele>
        <time>2020-05-14T23:11:51Z</time>
      </trkpt>
      <trkpt lat="31.203830375312492" lon="121.6148868424925">
        <ele>4.480343559756875</ele>
        <time>2020-05-14T23:12:04Z</time>
      </trkpt>
      <trkpt lat="31.204055071286753" lon="121.61466211872359">
        <ele>5.049888372421265</ele>
        <time>2020-05-14T23:12:16Z</time>
      </trkpt>
      <trkpt lat="31.204152249656087" lon="121.61453281615447">
        <ele>5.702486056834459</ele>
        <time>2020-05-14T23:12:23Z</time>
      </trkpt>
      <trkpt lat="31.20428953610399" lon="121.61442600753088">
        <ele>5.370868642814457</ele>
        <time>2020-05-14T23:12:30Z</time>
      </trkpt>
      <trkpt lat="31.204413302227078" lon="121.61427610082707">
        <ele>6.158527512103319</ele>
        <time>2020-05-14T23:12:37Z</time>
      </trkpt>
      <trkpt lat="31.204493595742694" lon="121.61423218220357">
        <ele>6.685474766418338</ele>
        <time>2020-05-14T23:12:40Z</time>
      </trkpt>
      <trkpt lat="31.204535391897913" lon="121.6141836586217">
        <ele>3.949043265543878</ele>
        <time>2020-05-14T23:12:43Z</time>
      </trkpt>
      <trkpt lat="31.2046208340809" lon="121.61414299215656">
        <ele>3.195559282787144</ele>
        <time>2020-05-14T23:12:47Z</time>
      </trkpt>
      <trkpt lat="31.204689767717" lon="121.61406600446914">
        <ele>5.958770150318742</ele>
        <time>2020-05-14T23:12:51Z</time>
      </trkpt>
      <trkpt lat="31.204732952421363" lon="121.6139781760725">
        <ele>7.543605323880911</ele>
        <time>2020-05-14T23:12:55Z</time>
      </trkpt>
      <trkpt lat="31.20493482283723" lon="121.6138046772847">
        <ele>6.039167494513094</ele>
        <time>2020-05-14T23:13:05Z</time>
      </trkpt>
      <trkpt lat="31.2050648491509" lon="121.61362169575628">
        <ele>6.996307359077036</ele>
        <time>2020-05-14T23:13:15Z</time>
      </trkpt>
      <trkpt lat="31.20527128126325" lon="121.61350322129297">
        <ele>6.590736239217222</ele>
        <time>2020-05-14T23:13:30Z</time>
      </trkpt>
      <trkpt lat="31.205310097881938" lon="121.61344954611637">
        <ele>7.142394251190126</ele>
        <time>2020-05-14T23:13:34Z</time>
      </trkpt>
      <trkpt lat="31.20536325694676" lon="121.61342948246916">
        <ele>6.925778441131115</ele>
        <time>2020-05-14T23:13:37Z</time>
      </trkpt>
      <trkpt lat="31.205509019427343" lon="121.61323077447452">
        <ele>6.936098142527044</ele>
        <time>2020-05-14T23:13:53Z</time>
      </trkpt>
      <trkpt lat="31.205575757838396" lon="121.61318278891984">
        <ele>7.289863804355264</ele>
        <time>2020-05-14T23:13:59Z</time>
      </trkpt>
      <trkpt lat="31.205652304721124" lon="121.61307597921954">
        <ele>6.501799141988158</ele>
        <time>2020-05-14T23:14:07Z</time>
      </trkpt>
      <trkpt lat="31.20590163666786" lon="121.61287942828405">
        <ele>6.578114707022905</ele>
        <time>2020-05-14T23:14:28Z</time>
      </trkpt>
      <trkpt lat="31.205943208236935" lon="121.61276963822507">
        <ele>6.150792763568461</ele>
        <time>2020-05-14T23:14:35Z</time>
      </trkpt>
      <trkpt lat="31.205958739355992" lon="121.61267367487811">
        <ele>6.652558986097574</ele>
        <time>2020-05-14T23:14:42Z</time>
      </trkpt>
      <trkpt lat="31.205942983320863" lon="121.61271162732643">
        <ele>7.569546120241284</ele>
        <time>2020-05-14T23:15:11Z</time>
      </trkpt>
      <trkpt lat="31.205884718253788" lon="121.6126750363979">
        <ele>6.750889323651791</ele>
        <time>2020-05-14T23:15:17Z</time>
      </trkpt>
      <trkpt lat="31.205839215416045" lon="121.61261458928307">
        <ele>7.472518436610699</ele>
        <time>2020-05-14T23:15:20Z</time>
      </trkpt>
      <trkpt lat="31.2057798731771" lon="121.61256851045596">
        <ele>7.255942581221461</ele>
        <time>2020-05-14T23:15:24Z</time>
      </trkpt>
      <trkpt lat="31.205759313078914" lon="121.61250995857414">
        <ele>8.436207751743495</ele>
        <time>2020-05-14T23:15:28Z</time>
      </trkpt>
      <trkpt lat="31.20587894677651" lon="121.61242997943157">
        <ele>7.752161639742553</ele>
        <time>2020-05-14T23:15:39Z</time>
      </trkpt>
      <trkpt lat="31.206035787185414" lon="121.6122713825587">
        <ele>7.485033011995256</ele>
        <time>2020-05-14T23:15:55Z</time>
      </trkpt>
      <trkpt lat="31.20609225083529" lon="121.61218463068008">
        <ele>7.44339063949883</ele>
        <time>2020-05-14T23:16:03Z</time>
      </trkpt>
      <trkpt lat="31.206183396729493" lon="121.61212742402445">
        <ele>6.9845082042738795</ele>
        <time>2020-05-14T23:16:10Z</time>
      </trkpt>
      <trkpt lat="31.20625801388937" lon="121.61205639315925">
        <ele>7.833927659317851</ele>
        <time>2020-05-14T23:16:17Z</time>
      </trkpt>
      <trkpt lat="31.206309867118808" lon="121.6119701830323">
        <ele>7.51233059540391</ele>
        <time>2020-05-14T23:16:24Z</time>
      </trkpt>
      <trkpt lat="31.206457461202355" lon="121.61184438563036">
        <ele>8.146017604507506</ele>
        <time>2020-05-14T23:16:35Z</time>
      </trkpt>
      <trkpt lat="31.206628163784252" lon="121.61163590272629">
        <ele>6.767842094413936</ele>
        <time>2020-05-14T23:16:54Z</time>
      </trkpt>
      <trkpt lat="31.206605984573073" lon="121.61156433616574">
        <ele>7.474692293442786</ele>
        <time>2020-05-14T23:17:00Z</time>
      </trkpt>
      <trkpt lat="31.20654530551217" lon="121.6114906038161">
        <ele>7.1384843941777945</ele>
        <time>2020-05-14T23:17:04Z</time>
      </trkpt>
      <trkpt lat="31.206538570521303" lon="121.61143259024898">
        <ele>7.275566078722477</ele>
        <time>2020-05-14T23:17:07Z</time>
      </trkpt>
      <trkpt lat="31.206490347389686" lon="121.61138027296111">
        <ele>7.20691354572773</ele>
        <time>2020-05-14T23:17:11Z</time>
      </trkpt>
      <trkpt lat="31.2064220508415" lon="121.61134042760848">
        <ele>7.02696620952338</ele>
        <time>2020-05-14T23:17:15Z</time>
      </trkpt>
      <trkpt lat="31.20638524675584" lon="121.6112455470408">
        <ele>8.963863220065832</ele>
        <time>2020-05-14T23:17:23Z</time>
      </trkpt>
      <trkpt lat="31.206251969214414" lon="121.61108100183712">
        <ele>7.770498326048255</ele>
        <time>2020-05-14T23:17:37Z</time>
      </trkpt>
      <trkpt lat="31.206198296671136" lon="121.61106419815881">
        <ele>5.39169873483479</ele>
        <time>2020-05-14T23:17:41Z</time>
      </trkpt>
      <trkpt lat="31.206166636243232" lon="121.61097880451341">
        <ele>6.997434147633612</ele>
        <time>2020-05-14T23:17:53Z</time>
      </trkpt>
      <trkpt lat="31.20613167911174" lon="121.6109522396121">
        <ele>7.650814143940806</ele>
        <time>2020-05-14T23:17:56Z</time>
      </trkpt>
    </trkseg>
  </trk>
</gpx>