<?xml version="1.0" encoding="UTF-8"?>
<gpx xmlns="http://www.topografix.com/GPX/1/1" xmlns:gpxtpx="http://www.garmin.com/xmlschemas/TrackPointExtension/v1" xmlns:xsi="http://www.w3.org/2001/XMLSchema-instance" xsi:schemaLocation="http://www.topografix.com/GPX/1/1 http://www.topografix.com/GPX/1/1/gpx.xsd" version="1.1" creator="gpx.py -- https://github.com/tkrajina/gpxpy">
  <trk>
    <name>gpx from keep</name>
    <type>Run</type>
    <trkseg>
      <trkpt lat="31.204412800535536" lon="121.61078646786801">
        <ele>8.94704532623291</ele>
        <time>2018-09-05T22:31:26Z</time>
      </trkpt>
      <trkpt lat="31.20438613733776" lon="121.6109133454765">
        <ele>8.899026870727539</ele>
        <time>2018-09-05T22:31:32Z</time>
      </trkpt>
      <trkpt lat="31.204210387970893" lon="121.61098709923267">
        <ele>8.909025192260742</ele>
        <time>2018-09-05T22:31:39Z</time>
      </trkpt>
      <trkpt lat="31.20410963418814" lon="121.61120859491263">
        <ele>8.8250732421875</ele>
        <time>2018-09-05T22:31:47Z</time>
      </trkpt>
      <trkpt lat="31.204041502573006" lon="121.61131215937884">
        <ele>8.511994361877441</ele>
        <time>2018-09-05T22:31:54Z</time>
      </trkpt>
      <trkpt lat="31.20397916199324" lon="121.61128451274325">
        <ele>8.307841300964355</ele>
        <time>2018-09-05T22:32:07Z</time>
      </trkpt>
      <trkpt lat="31.204060692867987" lon="121.61139321529646">
        <ele>8.306635856628418</ele>
        <time>2018-09-05T22:32:13Z</time>
      </trkpt>
      <trkpt lat="31.204333583681418" lon="121.6115832294406">
        <ele>8.437952041625977</ele>
        <time>2018-09-05T22:32:20Z</time>
      </trkpt>
      <trkpt lat="31.204696591350167" lon="121.61199552759517">
        <ele>8.465585708618164</ele>
        <time>2018-09-05T22:32:33Z</time>
      </trkpt>
      <trkpt lat="31.20479982920396" lon="121.61207955611201">
        <ele>8.491002082824707</ele>
        <time>2018-09-05T22:32:46Z</time>
      </trkpt>
      <trkpt lat="31.204878983989893" lon="121.61210123649917">
        <ele>8.502564430236816</ele>
        <time>2018-09-05T22:32:52Z</time>
      </trkpt>
      <trkpt lat="31.205083245308778" lon="121.612326220328">
        <ele>8.502039909362793</ele>
        <time>2018-09-05T22:32:59Z</time>
      </trkpt>
      <trkpt lat="31.20530415429914" lon="121.61241105116353">
        <ele>8.497279167175293</ele>
        <time>2018-09-05T22:33:05Z</time>
      </trkpt>
      <trkpt lat="31.205376184662814" lon="121.6125276105598">
        <ele>8.493170738220215</ele>
        <time>2018-09-05T22:33:12Z</time>
      </trkpt>
      <trkpt lat="31.205735422143267" lon="121.61254926736851">
        <ele>8.01363754272461</ele>
        <time>2018-09-05T22:33:15Z</time>
      </trkpt>
      <trkpt lat="31.20586197555716" lon="121.61263383411001">
        <ele>8.00912094116211</ele>
        <time>2018-09-05T22:33:23Z</time>
      </trkpt>
      <trkpt lat="31.205912606206333" lon="121.61272409948687">
        <ele>8.00594711303711</ele>
        <time>2018-09-05T22:33:27Z</time>
      </trkpt>
      <trkpt lat="31.2058262905079" lon="121.61284256795341">
        <ele>8.04275131225586</ele>
        <time>2018-09-05T22:33:31Z</time>
      </trkpt>
      <trkpt lat="31.204706040503922" lon="121.61341029076105">
        <ele>8.00716781616211</ele>
        <time>2018-09-05T22:33:56Z</time>
      </trkpt>
      <trkpt lat="31.204512687789297" lon="121.61345069633899">
        <ele>8.00246810913086</ele>
        <time>2018-09-05T22:34:04Z</time>
      </trkpt>
      <trkpt lat="31.204403631485842" lon="121.61352335222932">
        <ele>8.09194564819336</ele>
        <time>2018-09-05T22:34:10Z</time>
      </trkpt>
      <trkpt lat="31.204286635753487" lon="121.61368790082008">
        <ele>8.36922836303711</ele>
        <time>2018-09-05T22:34:21Z</time>
      </trkpt>
      <trkpt lat="31.204270537659326" lon="121.61380906928498">
        <ele>8.21676254272461</ele>
        <time>2018-09-05T22:34:25Z</time>
      </trkpt>
      <trkpt lat="31.20427724741727" lon="121.61389093073716">
        <ele>7.972743988037109</ele>
        <time>2018-09-05T22:34:29Z</time>
      </trkpt>
      <trkpt lat="31.204227754323625" lon="121.61406468735682">
        <ele>7.927211761474609</ele>
        <time>2018-09-05T22:34:36Z</time>
      </trkpt>
      <trkpt lat="31.20409917442187" lon="121.61413761403733">
        <ele>7.925380706787109</ele>
        <time>2018-09-05T22:34:42Z</time>
      </trkpt>
      <trkpt lat="31.20391815458976" lon="121.61434011217315">
        <ele>7.811183929443359</ele>
        <time>2018-09-05T22:34:53Z</time>
      </trkpt>
      <trkpt lat="31.20383706915134" lon="121.61435882205602">
        <ele>7.922695159912109</ele>
        <time>2018-09-05T22:34:56Z</time>
      </trkpt>
      <trkpt lat="31.203764093795055" lon="121.61440545044">
        <ele>7.922206878662109</ele>
        <time>2018-09-05T22:34:59Z</time>
      </trkpt>
      <trkpt lat="31.203765118648793" lon="121.61447484158968">
        <ele>7.710659027099609</ele>
        <time>2018-09-05T22:35:03Z</time>
      </trkpt>
      <trkpt lat="31.20372839291595" lon="121.6146166081225">
        <ele>7.126186370849609</ele>
        <time>2018-09-05T22:35:10Z</time>
      </trkpt>
      <trkpt lat="31.203627701232858" lon="121.61473235772353">
        <ele>6.716213226318359</ele>
        <time>2018-09-05T22:35:17Z</time>
      </trkpt>
      <trkpt lat="31.20343804613821" lon="121.61488308017599">
        <ele>6.723354339599609</ele>
        <time>2018-09-05T22:35:27Z</time>
      </trkpt>
      <trkpt lat="31.203257013902167" lon="121.61509343250613">
        <ele>6.706264495849609</ele>
        <time>2018-09-05T22:35:38Z</time>
      </trkpt>
      <trkpt lat="31.203176425603857" lon="121.61516255735962">
        <ele>6.710231781005859</ele>
        <time>2018-09-05T22:35:42Z</time>
      </trkpt>
      <trkpt lat="31.203105255884026" lon="121.61531136996625">
        <ele>6.680385589599609</ele>
        <time>2018-09-05T22:35:49Z</time>
      </trkpt>
      <trkpt lat="31.20304283624139" lon="121.61537696905609">
        <ele>6.693325042724609</ele>
        <time>2018-09-05T22:35:53Z</time>
      </trkpt>
      <trkpt lat="31.2029695890295" lon="121.61542251128928">
        <ele>6.684169769287109</ele>
        <time>2018-09-05T22:35:57Z</time>
      </trkpt>
      <trkpt lat="31.202815387730062" lon="121.61564098807122">
        <ele>6.756069183349609</ele>
        <time>2018-09-05T22:36:08Z</time>
      </trkpt>
      <trkpt lat="31.20263902841035" lon="121.61577517003502">
        <ele>5.387722015380859</ele>
        <time>2018-09-05T22:36:18Z</time>
      </trkpt>
      <trkpt lat="31.20249053210379" lon="121.61597846480912">
        <ele>4.959865570068359</ele>
        <time>2018-09-05T22:36:28Z</time>
      </trkpt>
      <trkpt lat="31.20228733109415" lon="121.61611020776334">
        <ele>3.6218222687667065</ele>
        <time>2018-09-05T22:36:39Z</time>
      </trkpt>
      <trkpt lat="31.202120938231964" lon="121.61631268810594">
        <ele>3.5117635796490916</ele>
        <time>2018-09-05T22:36:49Z</time>
      </trkpt>
      <trkpt lat="31.20189193790515" lon="121.616487255202">
        <ele>2.750126816931406</ele>
        <time>2018-09-05T22:37:07Z</time>
      </trkpt>
      <trkpt lat="31.201936938920785" lon="121.61649511153837">
        <ele>3.083189279983877</ele>
        <time>2018-09-05T22:37:27Z</time>
      </trkpt>
      <trkpt lat="31.201878588124302" lon="121.6165558284554">
        <ele>2.840148094414353</ele>
        <time>2018-09-05T22:37:37Z</time>
      </trkpt>
      <trkpt lat="31.201868482111983" lon="121.61663470057759">
        <ele>3.4610854647600675</ele>
        <time>2018-09-05T22:37:41Z</time>
      </trkpt>
      <trkpt lat="31.20197143343307" lon="121.6167195258432">
        <ele>3.442543759974619</ele>
        <time>2018-09-05T22:37:45Z</time>
      </trkpt>
      <trkpt lat="31.201935275967045" lon="121.61682170843066">
        <ele>3.349923397254777</ele>
        <time>2018-09-05T22:37:48Z</time>
      </trkpt>
      <trkpt lat="31.20160313780289" lon="121.61710469257564">
        <ele>3.5423094921697</ele>
        <time>2018-09-05T22:37:56Z</time>
      </trkpt>
      <trkpt lat="31.20148712094639" lon="121.61707461785247">
        <ele>3.018274846922644</ele>
        <time>2018-09-05T22:38:00Z</time>
      </trkpt>
      <trkpt lat="31.20143536426416" lon="121.61704318262518">
        <ele>3.200551521691743</ele>
        <time>2018-09-05T22:38:04Z</time>
      </trkpt>
      <trkpt lat="31.2014628999237" lon="121.61716866711203">
        <ele>3.750180868024792</ele>
        <time>2018-09-05T22:38:11Z</time>
      </trkpt>
      <trkpt lat="31.201260234174285" lon="121.61730202980515">
        <ele>3.215102787142989</ele>
        <time>2018-09-05T22:38:22Z</time>
      </trkpt>
      <trkpt lat="31.201155426125556" lon="121.61745733679312">
        <ele>3.428373540785728</ele>
        <time>2018-09-05T22:38:29Z</time>
      </trkpt>
      <trkpt lat="31.201033302640607" lon="121.61757361672838">
        <ele>3.1496808401467504</ele>
        <time>2018-09-05T22:38:36Z</time>
      </trkpt>
      <trkpt lat="31.20093989137929" lon="121.6177180801584">
        <ele>3.130325136048185</ele>
        <time>2018-09-05T22:38:42Z</time>
      </trkpt>
      <trkpt lat="31.200746696305032" lon="121.61786824245668">
        <ele>3.4192609525357938</ele>
        <time>2018-09-05T22:38:52Z</time>
      </trkpt>
      <trkpt lat="31.20061526034666" lon="121.61807775200879">
        <ele>3.255763373267115</ele>
        <time>2018-09-05T22:39:02Z</time>
      </trkpt>
      <trkpt lat="31.200444278346538" lon="121.61824606848138">
        <ele>3.2901592059661553</ele>
        <time>2018-09-05T22:39:12Z</time>
      </trkpt>
      <trkpt lat="31.200389480541013" lon="121.61827480083554">
        <ele>3.1903655251694047</ele>
        <time>2018-09-05T22:39:15Z</time>
      </trkpt>
      <trkpt lat="31.200271630763798" lon="121.61845205509482">
        <ele>3.3774410287368113</ele>
        <time>2018-09-05T22:39:23Z</time>
      </trkpt>
      <trkpt lat="31.20004714046955" lon="121.6187119758264">
        <ele>3.387351270744368</ele>
        <time>2018-09-05T22:39:38Z</time>
      </trkpt>
      <trkpt lat="31.199845685690207" lon="121.61898029327988">
        <ele>3.3038235735682164</ele>
        <time>2018-09-05T22:39:53Z</time>
      </trkpt>
      <trkpt lat="31.199575647435722" lon="121.61923316619539">
        <ele>3.573117936118038</ele>
        <time>2018-09-05T22:40:09Z</time>
      </trkpt>
      <trkpt lat="31.199322402691962" lon="121.61950012742683">
        <ele>3.960308498119673</ele>
        <time>2018-09-05T22:40:25Z</time>
      </trkpt>
      <trkpt lat="31.199055638938887" lon="121.61972887581004">
        <ele>4.080828143459065</ele>
        <time>2018-09-05T22:40:40Z</time>
      </trkpt>
      <trkpt lat="31.198796789255972" lon="121.61990748661827">
        <ele>4.008775891155594</ele>
        <time>2018-09-05T22:40:54Z</time>
      </trkpt>
      <trkpt lat="31.19871688008371" lon="121.6198359492215">
        <ele>3.7938124288890975</ele>
        <time>2018-09-05T22:40:58Z</time>
      </trkpt>
      <trkpt lat="31.198637745147668" lon="121.61980153869412">
        <ele>4.061531630353926</ele>
        <time>2018-09-05T22:41:02Z</time>
      </trkpt>
      <trkpt lat="31.198462275488833" lon="121.62010182031807">
        <ele>3.9982581542007836</ele>
        <time>2018-09-05T22:41:15Z</time>
      </trkpt>
      <trkpt lat="31.198291893626187" lon="121.62020508430243">
        <ele>3.6616922922294464</ele>
        <time>2018-09-05T22:41:25Z</time>
      </trkpt>
      <trkpt lat="31.198248527489856" lon="121.62019072507005">
        <ele>3.683273325529214</ele>
        <time>2018-09-05T22:41:28Z</time>
      </trkpt>
      <trkpt lat="31.19813135555824" lon="121.620483680533">
        <ele>3.385347966847732</ele>
        <time>2018-09-05T22:41:38Z</time>
      </trkpt>
      <trkpt lat="31.19799260236342" lon="121.620672844884">
        <ele>3.427321308688704</ele>
        <time>2018-09-05T22:41:47Z</time>
      </trkpt>
      <trkpt lat="31.19775185863636" lon="121.62090158077307">
        <ele>3.567150390527509</ele>
        <time>2018-09-05T22:42:02Z</time>
      </trkpt>
      <trkpt lat="31.19751275277081" lon="121.62111866209163">
        <ele>3.450103369594885</ele>
        <time>2018-09-05T22:42:16Z</time>
      </trkpt>
      <trkpt lat="31.19728722297338" lon="121.62131677155244">
        <ele>3.6959165404543555</ele>
        <time>2018-09-05T22:42:30Z</time>
      </trkpt>
      <trkpt lat="31.19707740744283" lon="121.62152409164803">
        <ele>3.939160610307752</ele>
        <time>2018-09-05T22:42:44Z</time>
      </trkpt>
      <trkpt lat="31.19683995514913" lon="121.62171325669082">
        <ele>3.8724436789076435</ele>
        <time>2018-09-05T22:42:59Z</time>
      </trkpt>
      <trkpt lat="31.19661118801819" lon="121.62189347735992">
        <ele>3.674351382358225</ele>
        <time>2018-09-05T22:43:13Z</time>
      </trkpt>
      <trkpt lat="31.19652958077442" lon="121.62188996138434">
        <ele>3.6294773638822946</ele>
        <time>2018-09-05T22:43:17Z</time>
      </trkpt>
      <trkpt lat="31.19648762307634" lon="121.62182926545195">
        <ele>3.3385350059987147</ele>
        <time>2018-09-05T22:43:20Z</time>
      </trkpt>
      <trkpt lat="31.19646169493152" lon="121.6214954183958">
        <ele>1.8070144093070653</ele>
        <time>2018-09-05T22:43:34Z</time>
      </trkpt>
      <trkpt lat="31.19640803336714" lon="121.62122904500937">
        <ele>0.9608875876461482</ele>
        <time>2018-09-05T22:43:44Z</time>
      </trkpt>
      <trkpt lat="31.196373438922823" lon="121.62112824091263">
        <ele>0.43212048501255396</ele>
        <time>2018-09-05T22:43:48Z</time>
      </trkpt>
      <trkpt lat="31.196365420845794" lon="121.621022285458">
        <ele>0.047117985515640726</ele>
        <time>2018-09-05T22:43:52Z</time>
      </trkpt>
      <trkpt lat="31.19638912766633" lon="121.62091388804855">
        <ele>0.1997338614862727</ele>
        <time>2018-09-05T22:43:58Z</time>
      </trkpt>
      <trkpt lat="31.19632038465879" lon="121.62054805578754">
        <ele>-0.28167561134610253</ele>
        <time>2018-09-05T22:44:12Z</time>
      </trkpt>
      <trkpt lat="31.196323021762623" lon="121.62036459268168">
        <ele>-0.5638528591448306</ele>
        <time>2018-09-05T22:44:19Z</time>
      </trkpt>
      <trkpt lat="31.196305763918456" lon="121.62027597863222">
        <ele>-0.8394233918329093</ele>
        <time>2018-09-05T22:44:23Z</time>
      </trkpt>
      <trkpt lat="31.196229960295135" lon="121.62016921233649">
        <ele>-1.0530060200854763</ele>
        <time>2018-09-05T22:44:27Z</time>
      </trkpt>
      <trkpt lat="31.196185051999667" lon="121.6200751799492">
        <ele>-1.2119572723026621</ele>
        <time>2018-09-05T22:44:31Z</time>
      </trkpt>
      <trkpt lat="31.19625285516274" lon="121.61979956799838">
        <ele>-0.8243833911722973</ele>
        <time>2018-09-05T22:44:43Z</time>
      </trkpt>
      <trkpt lat="31.196310462794507" lon="121.61967815458769">
        <ele>-0.7484454473174722</ele>
        <time>2018-09-05T22:44:50Z</time>
      </trkpt>
      <trkpt lat="31.19627522418913" lon="121.61940959303753">
        <ele>-1.057584699177447</ele>
        <time>2018-09-05T22:44:59Z</time>
      </trkpt>
      <trkpt lat="31.196276933545285" lon="121.61932991732651">
        <ele>-1.2283079196143305</ele>
        <time>2018-09-05T22:45:03Z</time>
      </trkpt>
      <trkpt lat="31.19624254527145" lon="121.61928574619404">
        <ele>-1.1190294347634548</ele>
        <time>2018-09-05T22:45:06Z</time>
      </trkpt>
      <trkpt lat="31.196065625346296" lon="121.61915947161393">
        <ele>-0.998537138438742</ele>
        <time>2018-09-05T22:45:17Z</time>
      </trkpt>
      <trkpt lat="31.19600235224055" lon="121.61899172260881">
        <ele>-1.0911179966055684</ele>
        <time>2018-09-05T22:45:25Z</time>
      </trkpt>
      <trkpt lat="31.195969453650005" lon="121.61881556863713">
        <ele>-1.3037652626749505</ele>
        <time>2018-09-05T22:45:32Z</time>
      </trkpt>
      <trkpt lat="31.195980171922688" lon="121.61867355746415">
        <ele>-1.7347600243360901</ele>
        <time>2018-09-05T22:45:39Z</time>
      </trkpt>
      <trkpt lat="31.195866689281765" lon="121.61828222139698">
        <ele>-2.0937956081644202</ele>
        <time>2018-09-05T22:45:53Z</time>
      </trkpt>
      <trkpt lat="31.195806023154756" lon="121.61794074272058">
        <ele>-2.5127630820383473</ele>
        <time>2018-09-05T22:46:06Z</time>
      </trkpt>
      <trkpt lat="31.19576108632285" lon="121.61759139837474">
        <ele>-1.8109074011811046</ele>
        <time>2018-09-05T22:46:20Z</time>
      </trkpt>
      <trkpt lat="31.19571424698632" lon="121.6172423203112">
        <ele>-1.3205868145413149</ele>
        <time>2018-09-05T22:46:34Z</time>
      </trkpt>
      <trkpt lat="31.19563920571495" lon="121.61689296862683">
        <ele>-0.8783827107007411</ele>
        <time>2018-09-05T22:46:47Z</time>
      </trkpt>
      <trkpt lat="31.19560251281748" lon="121.61670135122837">
        <ele>-0.6514405230045952</ele>
        <time>2018-09-05T22:46:55Z</time>
      </trkpt>
      <trkpt lat="31.195588342694972" lon="121.61648831859466">
        <ele>-0.23964023840698445</ele>
        <time>2018-09-05T22:47:03Z</time>
      </trkpt>
      <trkpt lat="31.19550978500981" lon="121.61611971260018">
        <ele>-0.059932410548682924</ele>
        <time>2018-09-05T22:47:17Z</time>
      </trkpt>
      <trkpt lat="31.19544610791411" lon="121.61578064365952">
        <ele>0.6527062320585912</ele>
        <time>2018-09-05T22:47:40Z</time>
      </trkpt>
      <trkpt lat="31.195374572053804" lon="121.61543235498726">
        <ele>1.1089708617310663</ele>
        <time>2018-09-05T22:47:54Z</time>
      </trkpt>
      <trkpt lat="31.19531850218124" lon="121.6150661705562">
        <ele>0.9389807979103182</ele>
        <time>2018-09-05T22:48:09Z</time>
      </trkpt>
      <trkpt lat="31.195304849600106" lon="121.61486694731092">
        <ele>0.9603551344208014</ele>
        <time>2018-09-05T22:48:17Z</time>
      </trkpt>
      <trkpt lat="31.195259349848143" lon="121.61449668749196">
        <ele>1.1997689235129414</ele>
        <time>2018-09-05T22:48:32Z</time>
      </trkpt>
      <trkpt lat="31.19520378365279" lon="121.61416111880808">
        <ele>1.4353924890594456</ele>
        <time>2018-09-05T22:48:46Z</time>
      </trkpt>
      <trkpt lat="31.195129689557373" lon="121.61392882304523">
        <ele>1.1310524269853275</ele>
        <time>2018-09-05T22:48:56Z</time>
      </trkpt>
      <trkpt lat="31.195096010581167" lon="121.6136745651395">
        <ele>1.2205890842745362</ele>
        <time>2018-09-05T22:49:07Z</time>
      </trkpt>
      <trkpt lat="31.195031759885325" lon="121.61333654586429">
        <ele>1.1442411798940952</ele>
        <time>2018-09-05T22:49:21Z</time>
      </trkpt>
      <trkpt lat="31.19499745450583" lon="121.61317905523197">
        <ele>1.0400205168031675</ele>
        <time>2018-09-05T22:49:28Z</time>
      </trkpt>
      <trkpt lat="31.194930065135146" lon="121.61302752994365">
        <ele>0.45538449924102054</ele>
        <time>2018-09-05T22:49:35Z</time>
      </trkpt>
      <trkpt lat="31.194919632855335" lon="121.6128510598212">
        <ele>0.06147734687962725</ele>
        <time>2018-09-05T22:49:42Z</time>
      </trkpt>
      <trkpt lat="31.19487856501577" lon="121.61266998253913">
        <ele>-0.061033739777599294</ele>
        <time>2018-09-05T22:49:49Z</time>
      </trkpt>
      <trkpt lat="31.194858667144604" lon="121.61245989630551">
        <ele>0.3947422318370428</ele>
        <time>2018-09-05T22:49:57Z</time>
      </trkpt>
      <trkpt lat="31.194832706197843" lon="121.61237342301821">
        <ele>0.5437638765513171</ele>
        <time>2018-09-05T22:50:01Z</time>
      </trkpt>
      <trkpt lat="31.194845012525075" lon="121.61223842209156">
        <ele>0.607584009069214</ele>
        <time>2018-09-05T22:50:07Z</time>
      </trkpt>
      <trkpt lat="31.194924844136718" lon="121.61208552307995">
        <ele>0.27522136958683063</ele>
        <time>2018-09-05T22:50:15Z</time>
      </trkpt>
      <trkpt lat="31.19491380449221" lon="121.61198576385888">
        <ele>0.5002065620304421</ele>
        <time>2018-09-05T22:50:19Z</time>
      </trkpt>
      <trkpt lat="31.194864800231226" lon="121.6118933267487">
        <ele>0.6205306961381041</ele>
        <time>2018-09-05T22:50:23Z</time>
      </trkpt>
      <trkpt lat="31.19479759957403" lon="121.61184046988922">
        <ele>0.6767425303266208</ele>
        <time>2018-09-05T22:50:26Z</time>
      </trkpt>
      <trkpt lat="31.19474884452419" lon="121.61177622559148">
        <ele>0.7703673958938992</ele>
        <time>2018-09-05T22:50:29Z</time>
      </trkpt>
      <trkpt lat="31.19475359693633" lon="121.61158700334579">
        <ele>1.1587713612776938</ele>
        <time>2018-09-05T22:50:36Z</time>
      </trkpt>
      <trkpt lat="31.194710604070007" lon="121.6114305859398">
        <ele>0.7860437266217986</ele>
        <time>2018-09-05T22:50:43Z</time>
      </trkpt>
      <trkpt lat="31.19466320852658" lon="121.6113598340989">
        <ele>0.5739316667224514</ele>
        <time>2018-09-05T22:50:47Z</time>
      </trkpt>
      <trkpt lat="31.194657311227466" lon="121.61126874639267">
        <ele>0.39768287719351747</ele>
        <time>2018-09-05T22:50:51Z</time>
      </trkpt>
      <trkpt lat="31.194669848463647" lon="121.61118063887237">
        <ele>0.7336097156022348</ele>
        <time>2018-09-05T22:50:55Z</time>
      </trkpt>
      <trkpt lat="31.194590047886745" lon="121.610929879001">
        <ele>0.8774512834549952</ele>
        <time>2018-09-05T22:51:09Z</time>
      </trkpt>
      <trkpt lat="31.19457746583727" lon="121.61070703444759">
        <ele>0.7533394208050268</ele>
        <time>2018-09-05T22:51:23Z</time>
      </trkpt>
      <trkpt lat="31.19451546534946" lon="121.61058287404902">
        <ele>0.7777617092335873</ele>
        <time>2018-09-05T22:51:31Z</time>
      </trkpt>
      <trkpt lat="31.1944761524185" lon="121.61019736342509">
        <ele>0.9486001565543347</ele>
        <time>2018-09-05T22:51:54Z</time>
      </trkpt>
      <trkpt lat="31.194465077417977" lon="121.61013799136789">
        <ele>0.7809845073918353</ele>
        <time>2018-09-05T22:51:58Z</time>
      </trkpt>
      <trkpt lat="31.194378162945817" lon="121.60996611427157">
        <ele>0.4176216541131197</ele>
        <time>2018-09-05T22:52:09Z</time>
      </trkpt>
      <trkpt lat="31.194347920251992" lon="121.60978528442172">
        <ele>0.40881327686150826</ele>
        <time>2018-09-05T22:52:20Z</time>
      </trkpt>
      <trkpt lat="31.19429841006042" lon="121.6096277706967">
        <ele>0.8727833439405472</ele>
        <time>2018-09-05T22:52:30Z</time>
      </trkpt>
      <trkpt lat="31.19429465689873" lon="121.60956460090163">
        <ele>0.4933726982857749</ele>
        <time>2018-09-05T22:52:33Z</time>
      </trkpt>
      <trkpt lat="31.1942605718048" lon="121.60944910770196">
        <ele>0.3475592031054262</ele>
        <time>2018-09-05T22:52:41Z</time>
      </trkpt>
      <trkpt lat="31.194278779615622" lon="121.6093864778277">
        <ele>0.24017051610129414</ele>
        <time>2018-09-05T22:52:45Z</time>
      </trkpt>
      <trkpt lat="31.194226975545913" lon="121.60900257451092">
        <ele>0.38284238512397195</ele>
        <time>2018-09-05T22:53:07Z</time>
      </trkpt>
      <trkpt lat="31.194204596421685" lon="121.6088100778383">
        <ele>0.13323732361173057</ele>
        <time>2018-09-05T22:53:21Z</time>
      </trkpt>
      <trkpt lat="31.194142090919982" lon="121.60861324476812">
        <ele>0.2746237919976764</ele>
        <time>2018-09-05T22:53:33Z</time>
      </trkpt>
      <trkpt lat="31.19413186447928" lon="121.6084925932178">
        <ele>0.4656397392338789</ele>
        <time>2018-09-05T22:53:41Z</time>
      </trkpt>
      <trkpt lat="31.194192378976933" lon="121.60841043576293">
        <ele>0.7985462637883813</ele>
        <time>2018-09-05T22:53:48Z</time>
      </trkpt>
      <trkpt lat="31.194302764528274" lon="121.60835565817054">
        <ele>0.5402382743223768</ele>
        <time>2018-09-05T22:53:54Z</time>
      </trkpt>
      <trkpt lat="31.19439495622437" lon="121.60834534755845">
        <ele>0.6451794268895412</ele>
        <time>2018-09-05T22:53:58Z</time>
      </trkpt>
      <trkpt lat="31.19447441756737" lon="121.60831443197952">
        <ele>0.5836140613489391</ele>
        <time>2018-09-05T22:54:01Z</time>
      </trkpt>
      <trkpt lat="31.194835326225597" lon="121.60826559836688">
        <ele>1.2869837443587713</ele>
        <time>2018-09-05T22:54:16Z</time>
      </trkpt>
      <trkpt lat="31.194975786556117" lon="121.60824416728508">
        <ele>1.2357562944140241</ele>
        <time>2018-09-05T22:54:22Z</time>
      </trkpt>
      <trkpt lat="31.19521817778925" lon="121.60824712971778">
        <ele>1.205859283995764</ele>
        <time>2018-09-05T22:54:33Z</time>
      </trkpt>
      <trkpt lat="31.19541042814412" lon="121.60822000054587">
        <ele>1.2617669754258287</ele>
        <time>2018-09-05T22:54:41Z</time>
      </trkpt>
      <trkpt lat="31.195595872693854" lon="121.60823706659842">
        <ele>1.2156595094351488</ele>
        <time>2018-09-05T22:54:49Z</time>
      </trkpt>
      <trkpt lat="31.19586134190365" lon="121.60818932523449">
        <ele>1.5757505496559574</ele>
        <time>2018-09-05T22:54:59Z</time>
      </trkpt>
      <trkpt lat="31.195979005546835" lon="121.60820260104568">
        <ele>1.2408296211389498</ele>
        <time>2018-09-05T22:55:06Z</time>
      </trkpt>
      <trkpt lat="31.196040301718288" lon="121.60817033110072">
        <ele>1.3173434205385703</ele>
        <time>2018-09-05T22:55:09Z</time>
      </trkpt>
      <trkpt lat="31.195986856113695" lon="121.60822239311547">
        <ele>1.5158961144083989</ele>
        <time>2018-09-05T22:55:23Z</time>
      </trkpt>
      <trkpt lat="31.195982475901296" lon="121.60828990549372">
        <ele>2.154643190618792</ele>
        <time>2018-09-05T22:55:48Z</time>
      </trkpt>
      <trkpt lat="31.196007727145016" lon="121.60823242331001">
        <ele>2.242082473880963</ele>
        <time>2018-09-05T22:55:59Z</time>
      </trkpt>
      <trkpt lat="31.19623277970063" lon="121.60821342540457">
        <ele>2.471335134303253</ele>
        <time>2018-09-05T22:56:10Z</time>
      </trkpt>
      <trkpt lat="31.196323096762264" lon="121.60816569846192">
        <ele>2.7243066431543923</ele>
        <time>2018-09-05T22:56:14Z</time>
      </trkpt>
      <trkpt lat="31.19642126152464" lon="121.6081423728403">
        <ele>2.6874014126925587</ele>
        <time>2018-09-05T22:56:18Z</time>
      </trkpt>
      <trkpt lat="31.196775889757053" lon="121.60816566104872">
        <ele>2.5607142224939494</ele>
        <time>2018-09-05T22:56:33Z</time>
      </trkpt>
      <trkpt lat="31.19706653456606" lon="121.60818244731612">
        <ele>2.6964865606130886</ele>
        <time>2018-09-05T22:56:46Z</time>
      </trkpt>
      <trkpt lat="31.19737781316938" lon="121.60815476596169">
        <ele>2.892744483794985</ele>
        <time>2018-09-05T22:57:01Z</time>
      </trkpt>
      <trkpt lat="31.197665489429223" lon="121.60814931951359">
        <ele>3.162842698379862</ele>
        <time>2018-09-05T22:57:14Z</time>
      </trkpt>
      <trkpt lat="31.19795613597152" lon="121.608163665589">
        <ele>3.495431855545803</ele>
        <time>2018-09-05T22:57:28Z</time>
      </trkpt>
      <trkpt lat="31.198036060972612" lon="121.60825936898166">
        <ele>3.7914335551988216</ele>
        <time>2018-09-05T22:57:42Z</time>
      </trkpt>
      <trkpt lat="31.198086484769583" lon="121.60827075237923">
        <ele>3.3595271762755345</ele>
        <time>2018-09-05T22:57:53Z</time>
      </trkpt>
      <trkpt lat="31.198167314076098" lon="121.60822031501422">
        <ele>3.569998790646437</ele>
        <time>2018-09-05T22:57:57Z</time>
      </trkpt>
      <trkpt lat="31.198257066306258" lon="121.60820919114082">
        <ele>3.498102602794873</ele>
        <time>2018-09-05T22:58:01Z</time>
      </trkpt>
      <trkpt lat="31.198406771410085" lon="121.60814600465307">
        <ele>3.5971332751898046</ele>
        <time>2018-09-05T22:58:08Z</time>
      </trkpt>
      <trkpt lat="31.19858437287554" lon="121.60813189100811">
        <ele>3.8601022380455134</ele>
        <time>2018-09-05T22:58:16Z</time>
      </trkpt>
      <trkpt lat="31.19888857383047" lon="121.60815030298251">
        <ele>4.40876000768715</ele>
        <time>2018-09-05T22:58:30Z</time>
      </trkpt>
      <trkpt lat="31.19902712719595" lon="121.60814405545305">
        <ele>4.388048642868725</ele>
        <time>2018-09-05T22:58:37Z</time>
      </trkpt>
      <trkpt lat="31.199337292699393" lon="121.60816328032512">
        <ele>4.225420707091359</ele>
        <time>2018-09-05T22:58:51Z</time>
      </trkpt>
      <trkpt lat="31.19966402130942" lon="121.60814400282285">
        <ele>4.3109502135314415</ele>
        <time>2018-09-05T22:59:06Z</time>
      </trkpt>
      <trkpt lat="31.199880672993558" lon="121.6081190405813">
        <ele>4.369662086570543</ele>
        <time>2018-09-05T22:59:16Z</time>
      </trkpt>
      <trkpt lat="31.200129837701326" lon="121.6081314921635">
        <ele>4.574173713845113</ele>
        <time>2018-09-05T22:59:27Z</time>
      </trkpt>
      <trkpt lat="31.200199482269838" lon="121.60819113583196">
        <ele>4.672615379026574</ele>
        <time>2018-09-05T22:59:31Z</time>
      </trkpt>
      <trkpt lat="31.200278827043196" lon="121.60834757268293">
        <ele>4.672150918121886</ele>
        <time>2018-09-05T22:59:38Z</time>
      </trkpt>
      <trkpt lat="31.20040895316681" lon="121.6083768441084">
        <ele>4.887223356321243</ele>
        <time>2018-09-05T22:59:44Z</time>
      </trkpt>
      <trkpt lat="31.200502718728814" lon="121.60845139728931">
        <ele>4.563372949874051</ele>
        <time>2018-09-05T22:59:51Z</time>
      </trkpt>
      <trkpt lat="31.200594359936964" lon="121.60845491440828">
        <ele>4.515873236052222</ele>
        <time>2018-09-05T22:59:55Z</time>
      </trkpt>
      <trkpt lat="31.20067302001934" lon="121.60840556216463">
        <ele>4.224503182055841</ele>
        <time>2018-09-05T22:59:59Z</time>
      </trkpt>
      <trkpt lat="31.200944364883487" lon="121.60850179095051">
        <ele>4.056684783431365</ele>
        <time>2018-09-05T23:00:17Z</time>
      </trkpt>
      <trkpt lat="31.20106252929472" lon="121.60858095088223">
        <ele>3.776881712095715</ele>
        <time>2018-09-05T23:00:29Z</time>
      </trkpt>
      <trkpt lat="31.201244677587013" lon="121.60866579892415">
        <ele>4.043434092910928</ele>
        <time>2018-09-05T23:00:44Z</time>
      </trkpt>
      <trkpt lat="31.20146828531485" lon="121.60878778752237">
        <ele>4.2595036265635</ele>
        <time>2018-09-05T23:01:02Z</time>
      </trkpt>
      <trkpt lat="31.20165472767298" lon="121.60893960221192">
        <ele>4.212241692912642</ele>
        <time>2018-09-05T23:01:20Z</time>
      </trkpt>
      <trkpt lat="31.201768557238392" lon="121.6090117117391">
        <ele>4.247839002776303</ele>
        <time>2018-09-05T23:01:30Z</time>
      </trkpt>
      <trkpt lat="31.20193574649046" lon="121.60916542434792">
        <ele>4.778507314731868</ele>
        <time>2018-09-05T23:01:45Z</time>
      </trkpt>
      <trkpt lat="31.20204627434542" lon="121.60930910915435">
        <ele>4.89075380054274</ele>
        <time>2018-09-05T23:01:57Z</time>
      </trkpt>
      <trkpt lat="31.20206142214934" lon="121.6093627895536">
        <ele>5.031063369107798</ele>
        <time>2018-09-05T23:02:01Z</time>
      </trkpt>
      <trkpt lat="31.201976347521743" lon="121.60967403918542">
        <ele>5.461922449747547</ele>
        <time>2018-09-05T23:02:21Z</time>
      </trkpt>
      <trkpt lat="31.201913185980445" lon="121.61005034939956">
        <ele>5.760827386303681</ele>
        <time>2018-09-05T23:02:45Z</time>
      </trkpt>
      <trkpt lat="31.201885020642123" lon="121.61039086439017">
        <ele>5.657678869182966</ele>
        <time>2018-09-05T23:03:07Z</time>
      </trkpt>
      <trkpt lat="31.20187591644825" lon="121.61061127387727">
        <ele>5.2194324239620755</ele>
        <time>2018-09-05T23:03:21Z</time>
      </trkpt>
      <trkpt lat="31.20182996879503" lon="121.61078641027567">
        <ele>5.110393954663088</ele>
        <time>2018-09-05T23:03:33Z</time>
      </trkpt>
      <trkpt lat="31.20183315410585" lon="121.61088075333191">
        <ele>4.889930007713538</ele>
        <time>2018-09-05T23:03:39Z</time>
      </trkpt>
      <trkpt lat="31.20188047477598" lon="121.61105615104937">
        <ele>4.553581983267257</ele>
        <time>2018-09-05T23:03:50Z</time>
      </trkpt>
      <trkpt lat="31.20191079710749" lon="121.61111714570256">
        <ele>4.347440084878684</ele>
        <time>2018-09-05T23:03:53Z</time>
      </trkpt>
      <trkpt lat="31.201926185885046" lon="121.61120660663718">
        <ele>4.479307774468964</ele>
        <time>2018-09-05T23:03:56Z</time>
      </trkpt>
      <trkpt lat="31.20191219191809" lon="121.61143026178223">
        <ele>4.57653213692933</ele>
        <time>2018-09-05T23:04:04Z</time>
      </trkpt>
      <trkpt lat="31.20192217481808" lon="121.61149586571325">
        <ele>4.269776350591911</ele>
        <time>2018-09-05T23:04:08Z</time>
      </trkpt>
      <trkpt lat="31.201960066072843" lon="121.6115858654954">
        <ele>4.066987211278445</ele>
        <time>2018-09-05T23:04:16Z</time>
      </trkpt>
      <trkpt lat="31.202023769872373" lon="121.61160293905567">
        <ele>4.509839666780742</ele>
        <time>2018-09-05T23:04:24Z</time>
      </trkpt>
      <trkpt lat="31.202110030912877" lon="121.61154952666304">
        <ele>4.3855387168052715</ele>
        <time>2018-09-05T23:04:31Z</time>
      </trkpt>
      <trkpt lat="31.20209086464894" lon="121.6114370243715">
        <ele>4.344605801667342</ele>
        <time>2018-09-05T23:04:38Z</time>
      </trkpt>
      <trkpt lat="31.202106935145316" lon="121.61133834449069">
        <ele>4.481091111803039</ele>
        <time>2018-09-05T23:04:44Z</time>
      </trkpt>
      <trkpt lat="31.20215386180118" lon="121.6113109599489">
        <ele>4.512799677040661</ele>
        <time>2018-09-05T23:04:48Z</time>
      </trkpt>
      <trkpt lat="31.202274640018896" lon="121.61114422542218">
        <ele>4.2118545812225605</ele>
        <time>2018-09-05T23:05:02Z</time>
      </trkpt>
      <trkpt lat="31.20232048492644" lon="121.61111277426552">
        <ele>4.017042107386381</ele>
        <time>2018-09-05T23:05:06Z</time>
      </trkpt>
      <trkpt lat="31.202544621309883" lon="121.61123773165515">
        <ele>3.906638798638241</ele>
        <time>2018-09-05T23:05:23Z</time>
      </trkpt>
      <trkpt lat="31.20264168919834" lon="121.61123555485717">
        <ele>3.8442820392752566</ele>
        <time>2018-09-05T23:05:30Z</time>
      </trkpt>
      <trkpt lat="31.202794423291678" lon="121.61112005473662">
        <ele>3.5862639505354466</ele>
        <time>2018-09-05T23:05:44Z</time>
      </trkpt>
      <trkpt lat="31.20284418431537" lon="121.61092404586434">
        <ele>3.363109927953758</ele>
        <time>2018-09-05T23:05:59Z</time>
      </trkpt>
      <trkpt lat="31.202931786909986" lon="121.61088825333987">
        <ele>3.27117514711405</ele>
        <time>2018-09-05T23:06:06Z</time>
      </trkpt>
      <trkpt lat="31.20295924006932" lon="121.61079363668114">
        <ele>3.41996867262057</ele>
        <time>2018-09-05T23:06:13Z</time>
      </trkpt>
      <trkpt lat="31.20285695612008" lon="121.6105076307666">
        <ele>3.1165546296828026</ele>
        <time>2018-09-05T23:06:35Z</time>
      </trkpt>
      <trkpt lat="31.202886283363092" lon="121.61044473180873">
        <ele>3.2245144270648893</ele>
        <time>2018-09-05T23:06:39Z</time>
      </trkpt>
      <trkpt lat="31.202944077707777" lon="121.61038454139202">
        <ele>3.5116690705649773</ele>
        <time>2018-09-05T23:06:45Z</time>
      </trkpt>
      <trkpt lat="31.203028439131344" lon="121.6103300418777">
        <ele>3.1325726521566892</ele>
        <time>2018-09-05T23:06:52Z</time>
      </trkpt>
      <trkpt lat="31.20311843070702" lon="121.61036582059985">
        <ele>3.1109720665491736</ele>
        <time>2018-09-05T23:06:59Z</time>
      </trkpt>
      <trkpt lat="31.20319208761972" lon="121.61049540331872">
        <ele>3.026019135660583</ele>
        <time>2018-09-05T23:07:10Z</time>
      </trkpt>
      <trkpt lat="31.20336443801124" lon="121.6106236216197">
        <ele>2.9286907930959174</ele>
        <time>2018-09-05T23:07:25Z</time>
      </trkpt>
      <trkpt lat="31.203488783783442" lon="121.61077000702319">
        <ele>2.9396117521061385</ele>
        <time>2018-09-05T23:07:40Z</time>
      </trkpt>
      <trkpt lat="31.203621426036882" lon="121.61069056296218">
        <ele>2.610256383754823</ele>
        <time>2018-09-05T23:07:50Z</time>
      </trkpt>
      <trkpt lat="31.203718750096282" lon="121.61070926102919">
        <ele>2.86847206163673</ele>
        <time>2018-09-05T23:07:57Z</time>
      </trkpt>
      <trkpt lat="31.203781346778197" lon="121.61075859654099">
        <ele>3.0668066573489696</ele>
        <time>2018-09-05T23:08:03Z</time>
      </trkpt>
      <trkpt lat="31.203835307168156" lon="121.6107523567247">
        <ele>3.4383094571259605</ele>
        <time>2018-09-05T23:08:07Z</time>
      </trkpt>
      <trkpt lat="31.20388001766814" lon="121.61078949403442">
        <ele>3.3391826521894927</ele>
        <time>2018-09-05T23:08:11Z</time>
      </trkpt>
      <trkpt lat="31.203904919739724" lon="121.61084804993502">
        <ele>3.3453636437416634</ele>
        <time>2018-09-05T23:08:15Z</time>
      </trkpt>
      <trkpt lat="31.204079889165314" lon="121.61110015830032">
        <ele>3.1673361756719203</ele>
        <time>2018-09-05T23:08:36Z</time>
      </trkpt>
      <trkpt lat="31.204125956847957" lon="121.61113458395272">
        <ele>3.4792456204150426</ele>
        <time>2018-09-05T23:08:40Z</time>
      </trkpt>
      <trkpt lat="31.20414544124295" lon="121.61118527759545">
        <ele>3.3148974718996556</ele>
        <time>2018-09-05T23:08:44Z</time>
      </trkpt>
      <trkpt lat="31.20420450326227" lon="121.61124681171984">
        <ele>3.368573595781541</ele>
        <time>2018-09-05T23:08:51Z</time>
      </trkpt>
      <trkpt lat="31.20432005713714" lon="121.61117875682332">
        <ele>3.511109190912485</ele>
        <time>2018-09-05T23:09:03Z</time>
      </trkpt>
    </trkseg>
  </trk>
</gpx>