<?xml version="1.0" encoding="UTF-8"?>
<gpx xmlns="http://www.topografix.com/GPX/1/1" xmlns:gpxtpx="http://www.garmin.com/xmlschemas/TrackPointExtension/v1" xmlns:xsi="http://www.w3.org/2001/XMLSchema-instance" xsi:schemaLocation="http://www.topografix.com/GPX/1/1 http://www.topografix.com/GPX/1/1/gpx.xsd" version="1.1" creator="gpx.py -- https://github.com/tkrajina/gpxpy">
  <trk>
    <name>gpx from joyrun 1589927206</name>
    <trkseg>
      <trkpt lat="31.204875" lon="121.606155">
        <ele>9.03</ele>
        <time>2020-05-19T22:26:46Z</time>
        <extensions>
          <gpxtpx:TrackPointExtension></gpxtpx:TrackPointExtension>
        </extensions>
      </trkpt>
      <trkpt lat="31.204875" lon="121.606155">
        <ele>9.22</ele>
        <time>2020-05-19T22:26:51Z</time>
        <extensions>
          <gpxtpx:TrackPointExtension></gpxtpx:TrackPointExtension>
        </extensions>
      </trkpt>
      <trkpt lat="31.204816" lon="121.606208">
        <ele>9.33</ele>
        <time>2020-05-19T22:26:56Z</time>
        <extensions>
          <gpxtpx:TrackPointExtension></gpxtpx:TrackPointExtension>
        </extensions>
      </trkpt>
      <trkpt lat="31.204711" lon="121.6063">
        <ele>9.09</ele>
        <time>2020-05-19T22:27:01Z</time>
        <extensions>
          <gpxtpx:TrackPointExtension></gpxtpx:TrackPointExtension>
        </extensions>
      </trkpt>
      <trkpt lat="31.204576" lon="121.606407">
        <ele>8.71</ele>
        <time>2020-05-19T22:27:06Z</time>
        <extensions>
          <gpxtpx:TrackPointExtension></gpxtpx:TrackPointExtension>
        </extensions>
      </trkpt>
      <trkpt lat="31.204507" lon="121.60646">
        <ele>8.22</ele>
        <time>2020-05-19T22:27:11Z</time>
        <extensions>
          <gpxtpx:TrackPointExtension></gpxtpx:TrackPointExtension>
        </extensions>
      </trkpt>
      <trkpt lat="31.204425" lon="121.606559">
        <ele>7.67</ele>
        <time>2020-05-19T22:27:16Z</time>
        <extensions>
          <gpxtpx:TrackPointExtension></gpxtpx:TrackPointExtension>
        </extensions>
      </trkpt>
      <trkpt lat="31.204345" lon="121.606658">
        <ele>7.39</ele>
        <time>2020-05-19T22:27:21Z</time>
        <extensions>
          <gpxtpx:TrackPointExtension></gpxtpx:TrackPointExtension>
        </extensions>
      </trkpt>
      <trkpt lat="31.204217" lon="121.606727">
        <ele>7.15</ele>
        <time>2020-05-19T22:27:26Z</time>
        <extensions>
          <gpxtpx:TrackPointExtension></gpxtpx:TrackPointExtension>
        </extensions>
      </trkpt>
      <trkpt lat="31.204051" lon="121.606826">
        <ele>7.06</ele>
        <time>2020-05-19T22:27:31Z</time>
        <extensions>
          <gpxtpx:TrackPointExtension></gpxtpx:TrackPointExtension>
        </extensions>
      </trkpt>
      <trkpt lat="31.203943" lon="121.606925">
        <ele>6.73</ele>
        <time>2020-05-19T22:27:36Z</time>
        <extensions>
          <gpxtpx:TrackPointExtension></gpxtpx:TrackPointExtension>
        </extensions>
      </trkpt>
      <trkpt lat="31.203844" lon="121.607025">
        <ele>6.95</ele>
        <time>2020-05-19T22:27:41Z</time>
        <extensions>
          <gpxtpx:TrackPointExtension></gpxtpx:TrackPointExtension>
        </extensions>
      </trkpt>
      <trkpt lat="31.203756" lon="121.607124">
        <ele>7.14</ele>
        <time>2020-05-19T22:27:46Z</time>
        <extensions>
          <gpxtpx:TrackPointExtension></gpxtpx:TrackPointExtension>
        </extensions>
      </trkpt>
      <trkpt lat="31.203674" lon="121.607215">
        <ele>7.07</ele>
        <time>2020-05-19T22:27:51Z</time>
        <extensions>
          <gpxtpx:TrackPointExtension></gpxtpx:TrackPointExtension>
        </extensions>
      </trkpt>
      <trkpt lat="31.203556" lon="121.60733">
        <ele>7.12</ele>
        <time>2020-05-19T22:27:56Z</time>
        <extensions>
          <gpxtpx:TrackPointExtension></gpxtpx:TrackPointExtension>
        </extensions>
      </trkpt>
      <trkpt lat="31.203428" lon="121.607398">
        <ele>6.96</ele>
        <time>2020-05-19T22:28:01Z</time>
        <extensions>
          <gpxtpx:TrackPointExtension></gpxtpx:TrackPointExtension>
        </extensions>
      </trkpt>
      <trkpt lat="31.203323" lon="121.607505">
        <ele>6.84</ele>
        <time>2020-05-19T22:28:06Z</time>
        <extensions>
          <gpxtpx:TrackPointExtension></gpxtpx:TrackPointExtension>
        </extensions>
      </trkpt>
      <trkpt lat="31.203315" lon="121.607643">
        <ele>6.93</ele>
        <time>2020-05-19T22:28:11Z</time>
        <extensions>
          <gpxtpx:TrackPointExtension></gpxtpx:TrackPointExtension>
        </extensions>
      </trkpt>
      <trkpt lat="31.203397" lon="121.607765">
        <ele>7.13</ele>
        <time>2020-05-19T22:28:16Z</time>
        <extensions>
          <gpxtpx:TrackPointExtension></gpxtpx:TrackPointExtension>
        </extensions>
      </trkpt>
      <trkpt lat="31.203453" lon="121.607872">
        <ele>7.25</ele>
        <time>2020-05-19T22:28:21Z</time>
        <extensions>
          <gpxtpx:TrackPointExtension></gpxtpx:TrackPointExtension>
        </extensions>
      </trkpt>
      <trkpt lat="31.203508" lon="121.607971">
        <ele>7.21</ele>
        <time>2020-05-19T22:28:26Z</time>
        <extensions>
          <gpxtpx:TrackPointExtension></gpxtpx:TrackPointExtension>
        </extensions>
      </trkpt>
      <trkpt lat="31.203567" lon="121.608093">
        <ele>7.07</ele>
        <time>2020-05-19T22:28:31Z</time>
        <extensions>
          <gpxtpx:TrackPointExtension></gpxtpx:TrackPointExtension>
        </extensions>
      </trkpt>
      <trkpt lat="31.203647" lon="121.6082">
        <ele>7.02</ele>
        <time>2020-05-19T22:28:36Z</time>
        <extensions>
          <gpxtpx:TrackPointExtension></gpxtpx:TrackPointExtension>
        </extensions>
      </trkpt>
      <trkpt lat="31.203767" lon="121.608276">
        <ele>7.08</ele>
        <time>2020-05-19T22:28:41Z</time>
        <extensions>
          <gpxtpx:TrackPointExtension></gpxtpx:TrackPointExtension>
        </extensions>
      </trkpt>
      <trkpt lat="31.203836" lon="121.60839">
        <ele>7.17</ele>
        <time>2020-05-19T22:28:46Z</time>
        <extensions>
          <gpxtpx:TrackPointExtension></gpxtpx:TrackPointExtension>
        </extensions>
      </trkpt>
      <trkpt lat="31.203878" lon="121.608512">
        <ele>7.18</ele>
        <time>2020-05-19T22:28:51Z</time>
        <extensions>
          <gpxtpx:TrackPointExtension></gpxtpx:TrackPointExtension>
        </extensions>
      </trkpt>
      <trkpt lat="31.203924" lon="121.608634">
        <ele>7.25</ele>
        <time>2020-05-19T22:28:56Z</time>
        <extensions>
          <gpxtpx:TrackPointExtension></gpxtpx:TrackPointExtension>
        </extensions>
      </trkpt>
      <trkpt lat="31.204004" lon="121.608734">
        <ele>7.04</ele>
        <time>2020-05-19T22:29:01Z</time>
        <extensions>
          <gpxtpx:TrackPointExtension></gpxtpx:TrackPointExtension>
        </extensions>
      </trkpt>
      <trkpt lat="31.204156" lon="121.60884">
        <ele>7.15</ele>
        <time>2020-05-19T22:29:06Z</time>
        <extensions>
          <gpxtpx:TrackPointExtension></gpxtpx:TrackPointExtension>
        </extensions>
      </trkpt>
      <trkpt lat="31.204242" lon="121.608963">
        <ele>7.17</ele>
        <time>2020-05-19T22:29:11Z</time>
        <extensions>
          <gpxtpx:TrackPointExtension></gpxtpx:TrackPointExtension>
        </extensions>
      </trkpt>
      <trkpt lat="31.204359" lon="121.609054">
        <ele>7.21</ele>
        <time>2020-05-19T22:29:16Z</time>
        <extensions>
          <gpxtpx:TrackPointExtension></gpxtpx:TrackPointExtension>
        </extensions>
      </trkpt>
      <trkpt lat="31.204448" lon="121.609169">
        <ele>7.15</ele>
        <time>2020-05-19T22:29:21Z</time>
        <extensions>
          <gpxtpx:TrackPointExtension></gpxtpx:TrackPointExtension>
        </extensions>
      </trkpt>
      <trkpt lat="31.204574" lon="121.609268">
        <ele>7.21</ele>
        <time>2020-05-19T22:29:26Z</time>
        <extensions>
          <gpxtpx:TrackPointExtension></gpxtpx:TrackPointExtension>
        </extensions>
      </trkpt>
      <trkpt lat="31.204694" lon="121.609359">
        <ele>7.26</ele>
        <time>2020-05-19T22:29:31Z</time>
        <extensions>
          <gpxtpx:TrackPointExtension></gpxtpx:TrackPointExtension>
        </extensions>
      </trkpt>
      <trkpt lat="31.204784" lon="121.609466">
        <ele>7.31</ele>
        <time>2020-05-19T22:29:36Z</time>
        <extensions>
          <gpxtpx:TrackPointExtension></gpxtpx:TrackPointExtension>
        </extensions>
      </trkpt>
      <trkpt lat="31.204919" lon="121.60955">
        <ele>7.29</ele>
        <time>2020-05-19T22:29:41Z</time>
        <extensions>
          <gpxtpx:TrackPointExtension></gpxtpx:TrackPointExtension>
        </extensions>
      </trkpt>
      <trkpt lat="31.205024" lon="121.609649">
        <ele>7.38</ele>
        <time>2020-05-19T22:29:46Z</time>
        <extensions>
          <gpxtpx:TrackPointExtension></gpxtpx:TrackPointExtension>
        </extensions>
      </trkpt>
      <trkpt lat="31.205133" lon="121.609748">
        <ele>7.32</ele>
        <time>2020-05-19T22:29:51Z</time>
        <extensions>
          <gpxtpx:TrackPointExtension></gpxtpx:TrackPointExtension>
        </extensions>
      </trkpt>
      <trkpt lat="31.205228" lon="121.609855">
        <ele>7.22</ele>
        <time>2020-05-19T22:29:56Z</time>
        <extensions>
          <gpxtpx:TrackPointExtension></gpxtpx:TrackPointExtension>
        </extensions>
      </trkpt>
      <trkpt lat="31.205314" lon="121.609954">
        <ele>7.3</ele>
        <time>2020-05-19T22:30:01Z</time>
        <extensions>
          <gpxtpx:TrackPointExtension></gpxtpx:TrackPointExtension>
        </extensions>
      </trkpt>
      <trkpt lat="31.205383" lon="121.610054">
        <ele>7.32</ele>
        <time>2020-05-19T22:30:06Z</time>
        <extensions>
          <gpxtpx:TrackPointExtension></gpxtpx:TrackPointExtension>
        </extensions>
      </trkpt>
      <trkpt lat="31.205474" lon="121.610153">
        <ele>7.11</ele>
        <time>2020-05-19T22:30:11Z</time>
        <extensions>
          <gpxtpx:TrackPointExtension></gpxtpx:TrackPointExtension>
        </extensions>
      </trkpt>
      <trkpt lat="31.205583" lon="121.610267">
        <ele>7.2</ele>
        <time>2020-05-19T22:30:16Z</time>
        <extensions>
          <gpxtpx:TrackPointExtension></gpxtpx:TrackPointExtension>
        </extensions>
      </trkpt>
      <trkpt lat="31.20568" lon="121.610366">
        <ele>7.23</ele>
        <time>2020-05-19T22:30:21Z</time>
        <extensions>
          <gpxtpx:TrackPointExtension></gpxtpx:TrackPointExtension>
        </extensions>
      </trkpt>
      <trkpt lat="31.205787" lon="121.610458">
        <ele>7.18</ele>
        <time>2020-05-19T22:30:26Z</time>
        <extensions>
          <gpxtpx:TrackPointExtension></gpxtpx:TrackPointExtension>
        </extensions>
      </trkpt>
      <trkpt lat="31.205865" lon="121.610519">
        <ele>7.24</ele>
        <time>2020-05-19T22:30:31Z</time>
        <extensions>
          <gpxtpx:TrackPointExtension></gpxtpx:TrackPointExtension>
        </extensions>
      </trkpt>
      <trkpt lat="31.205949" lon="121.61061">
        <ele>7.3</ele>
        <time>2020-05-19T22:30:36Z</time>
        <extensions>
          <gpxtpx:TrackPointExtension></gpxtpx:TrackPointExtension>
        </extensions>
      </trkpt>
      <trkpt lat="31.206024" lon="121.610717">
        <ele>7.24</ele>
        <time>2020-05-19T22:30:41Z</time>
        <extensions>
          <gpxtpx:TrackPointExtension></gpxtpx:TrackPointExtension>
        </extensions>
      </trkpt>
      <trkpt lat="31.206096" lon="121.610832">
        <ele>7.09</ele>
        <time>2020-05-19T22:30:46Z</time>
        <extensions>
          <gpxtpx:TrackPointExtension></gpxtpx:TrackPointExtension>
        </extensions>
      </trkpt>
      <trkpt lat="31.206155" lon="121.610946">
        <ele>7.05</ele>
        <time>2020-05-19T22:30:51Z</time>
        <extensions>
          <gpxtpx:TrackPointExtension></gpxtpx:TrackPointExtension>
        </extensions>
      </trkpt>
      <trkpt lat="31.206266" lon="121.611015">
        <ele>7.14</ele>
        <time>2020-05-19T22:30:56Z</time>
        <extensions>
          <gpxtpx:TrackPointExtension></gpxtpx:TrackPointExtension>
        </extensions>
      </trkpt>
      <trkpt lat="31.20634" lon="121.611137">
        <ele>7.21</ele>
        <time>2020-05-19T22:31:01Z</time>
        <extensions>
          <gpxtpx:TrackPointExtension></gpxtpx:TrackPointExtension>
        </extensions>
      </trkpt>
      <trkpt lat="31.206392" lon="121.611289">
        <ele>6.99</ele>
        <time>2020-05-19T22:31:06Z</time>
        <extensions>
          <gpxtpx:TrackPointExtension></gpxtpx:TrackPointExtension>
        </extensions>
      </trkpt>
      <trkpt lat="31.20647" lon="121.611419">
        <ele>7.25</ele>
        <time>2020-05-19T22:31:11Z</time>
        <extensions>
          <gpxtpx:TrackPointExtension></gpxtpx:TrackPointExtension>
        </extensions>
      </trkpt>
      <trkpt lat="31.206588" lon="121.61148">
        <ele>7.5</ele>
        <time>2020-05-19T22:31:16Z</time>
        <extensions>
          <gpxtpx:TrackPointExtension></gpxtpx:TrackPointExtension>
        </extensions>
      </trkpt>
      <trkpt lat="31.206712" lon="121.611457">
        <ele>7.43</ele>
        <time>2020-05-19T22:31:21Z</time>
        <extensions>
          <gpxtpx:TrackPointExtension></gpxtpx:TrackPointExtension>
        </extensions>
      </trkpt>
      <trkpt lat="31.206771" lon="121.611389">
        <ele>7.54</ele>
        <time>2020-05-19T22:31:26Z</time>
        <extensions>
          <gpxtpx:TrackPointExtension></gpxtpx:TrackPointExtension>
        </extensions>
      </trkpt>
      <trkpt lat="31.206844" lon="121.611312">
        <ele>7.69</ele>
        <time>2020-05-19T22:31:31Z</time>
        <extensions>
          <gpxtpx:TrackPointExtension></gpxtpx:TrackPointExtension>
        </extensions>
      </trkpt>
      <trkpt lat="31.206928" lon="121.611221">
        <ele>7.75</ele>
        <time>2020-05-19T22:31:36Z</time>
        <extensions>
          <gpxtpx:TrackPointExtension></gpxtpx:TrackPointExtension>
        </extensions>
      </trkpt>
      <trkpt lat="31.207012" lon="121.611137">
        <ele>7.74</ele>
        <time>2020-05-19T22:31:41Z</time>
        <extensions>
          <gpxtpx:TrackPointExtension></gpxtpx:TrackPointExtension>
        </extensions>
      </trkpt>
      <trkpt lat="31.207092" lon="121.611045">
        <ele>7.79</ele>
        <time>2020-05-19T22:31:46Z</time>
        <extensions>
          <gpxtpx:TrackPointExtension></gpxtpx:TrackPointExtension>
        </extensions>
      </trkpt>
      <trkpt lat="31.207164" lon="121.610977">
        <ele>7.93</ele>
        <time>2020-05-19T22:31:51Z</time>
        <extensions>
          <gpxtpx:TrackPointExtension></gpxtpx:TrackPointExtension>
        </extensions>
      </trkpt>
      <trkpt lat="31.207216" lon="121.610885">
        <ele>8.0</ele>
        <time>2020-05-19T22:31:56Z</time>
        <extensions>
          <gpxtpx:TrackPointExtension></gpxtpx:TrackPointExtension>
        </extensions>
      </trkpt>
      <trkpt lat="31.207304" lon="121.610824">
        <ele>8.11</ele>
        <time>2020-05-19T22:32:01Z</time>
        <extensions>
          <gpxtpx:TrackPointExtension></gpxtpx:TrackPointExtension>
        </extensions>
      </trkpt>
      <trkpt lat="31.207395" lon="121.610733">
        <ele>8.2</ele>
        <time>2020-05-19T22:32:06Z</time>
        <extensions>
          <gpxtpx:TrackPointExtension></gpxtpx:TrackPointExtension>
        </extensions>
      </trkpt>
      <trkpt lat="31.207475" lon="121.610656">
        <ele>8.25</ele>
        <time>2020-05-19T22:32:11Z</time>
        <extensions>
          <gpxtpx:TrackPointExtension></gpxtpx:TrackPointExtension>
        </extensions>
      </trkpt>
      <trkpt lat="31.207603" lon="121.610542">
        <ele>8.17</ele>
        <time>2020-05-19T22:32:16Z</time>
        <extensions>
          <gpxtpx:TrackPointExtension></gpxtpx:TrackPointExtension>
        </extensions>
      </trkpt>
      <trkpt lat="31.207744" lon="121.61042">
        <ele>8.19</ele>
        <time>2020-05-19T22:32:21Z</time>
        <extensions>
          <gpxtpx:TrackPointExtension></gpxtpx:TrackPointExtension>
        </extensions>
      </trkpt>
      <trkpt lat="31.207832" lon="121.610321">
        <ele>8.57</ele>
        <time>2020-05-19T22:32:26Z</time>
        <extensions>
          <gpxtpx:TrackPointExtension></gpxtpx:TrackPointExtension>
        </extensions>
      </trkpt>
      <trkpt lat="31.207908" lon="121.610214">
        <ele>8.96</ele>
        <time>2020-05-19T22:32:31Z</time>
        <extensions>
          <gpxtpx:TrackPointExtension></gpxtpx:TrackPointExtension>
        </extensions>
      </trkpt>
      <trkpt lat="31.208003" lon="121.610122">
        <ele>9.1</ele>
        <time>2020-05-19T22:32:36Z</time>
        <extensions>
          <gpxtpx:TrackPointExtension></gpxtpx:TrackPointExtension>
        </extensions>
      </trkpt>
      <trkpt lat="31.208124" lon="121.610023">
        <ele>9.2</ele>
        <time>2020-05-19T22:32:41Z</time>
        <extensions>
          <gpxtpx:TrackPointExtension></gpxtpx:TrackPointExtension>
        </extensions>
      </trkpt>
      <trkpt lat="31.208219" lon="121.609916">
        <ele>9.09</ele>
        <time>2020-05-19T22:32:46Z</time>
        <extensions>
          <gpxtpx:TrackPointExtension></gpxtpx:TrackPointExtension>
        </extensions>
      </trkpt>
      <trkpt lat="31.208288" lon="121.60984">
        <ele>8.49</ele>
        <time>2020-05-19T22:32:51Z</time>
        <extensions>
          <gpxtpx:TrackPointExtension></gpxtpx:TrackPointExtension>
        </extensions>
      </trkpt>
      <trkpt lat="31.208347" lon="121.609779">
        <ele>8.67</ele>
        <time>2020-05-19T22:32:56Z</time>
        <extensions>
          <gpxtpx:TrackPointExtension></gpxtpx:TrackPointExtension>
        </extensions>
      </trkpt>
      <trkpt lat="31.208385" lon="121.609687">
        <ele>8.51</ele>
        <time>2020-05-19T22:33:01Z</time>
        <extensions>
          <gpxtpx:TrackPointExtension></gpxtpx:TrackPointExtension>
        </extensions>
      </trkpt>
      <trkpt lat="31.208484" lon="121.609565">
        <ele>8.29</ele>
        <time>2020-05-19T22:33:06Z</time>
        <extensions>
          <gpxtpx:TrackPointExtension></gpxtpx:TrackPointExtension>
        </extensions>
      </trkpt>
      <trkpt lat="31.208572" lon="121.609451">
        <ele>8.15</ele>
        <time>2020-05-19T22:33:11Z</time>
        <extensions>
          <gpxtpx:TrackPointExtension></gpxtpx:TrackPointExtension>
        </extensions>
      </trkpt>
      <trkpt lat="31.208715" lon="121.609375">
        <ele>7.93</ele>
        <time>2020-05-19T22:33:16Z</time>
        <extensions>
          <gpxtpx:TrackPointExtension></gpxtpx:TrackPointExtension>
        </extensions>
      </trkpt>
      <trkpt lat="31.20882" lon="121.609268">
        <ele>7.86</ele>
        <time>2020-05-19T22:33:21Z</time>
        <extensions>
          <gpxtpx:TrackPointExtension></gpxtpx:TrackPointExtension>
        </extensions>
      </trkpt>
      <trkpt lat="31.208915" lon="121.609237">
        <ele>8.08</ele>
        <time>2020-05-19T22:33:26Z</time>
        <extensions>
          <gpxtpx:TrackPointExtension></gpxtpx:TrackPointExtension>
        </extensions>
      </trkpt>
      <trkpt lat="31.208999" lon="121.609184">
        <ele>7.87</ele>
        <time>2020-05-19T22:33:31Z</time>
        <extensions>
          <gpxtpx:TrackPointExtension></gpxtpx:TrackPointExtension>
        </extensions>
      </trkpt>
      <trkpt lat="31.209104" lon="121.6091">
        <ele>7.85</ele>
        <time>2020-05-19T22:33:36Z</time>
        <extensions>
          <gpxtpx:TrackPointExtension></gpxtpx:TrackPointExtension>
        </extensions>
      </trkpt>
      <trkpt lat="31.209224" lon="121.609024">
        <ele>7.86</ele>
        <time>2020-05-19T22:33:41Z</time>
        <extensions>
          <gpxtpx:TrackPointExtension></gpxtpx:TrackPointExtension>
        </extensions>
      </trkpt>
      <trkpt lat="31.209348" lon="121.608963">
        <ele>7.83</ele>
        <time>2020-05-19T22:33:46Z</time>
        <extensions>
          <gpxtpx:TrackPointExtension></gpxtpx:TrackPointExtension>
        </extensions>
      </trkpt>
      <trkpt lat="31.209476" lon="121.608879">
        <ele>7.82</ele>
        <time>2020-05-19T22:33:51Z</time>
        <extensions>
          <gpxtpx:TrackPointExtension></gpxtpx:TrackPointExtension>
        </extensions>
      </trkpt>
      <trkpt lat="31.20959" lon="121.608802">
        <ele>7.61</ele>
        <time>2020-05-19T22:33:56Z</time>
        <extensions>
          <gpxtpx:TrackPointExtension></gpxtpx:TrackPointExtension>
        </extensions>
      </trkpt>
      <trkpt lat="31.20972" lon="121.608695">
        <ele>7.54</ele>
        <time>2020-05-19T22:34:01Z</time>
        <extensions>
          <gpxtpx:TrackPointExtension></gpxtpx:TrackPointExtension>
        </extensions>
      </trkpt>
      <trkpt lat="31.209737" lon="121.608642">
        <ele>7.22</ele>
        <time>2020-05-19T22:34:06Z</time>
        <extensions>
          <gpxtpx:TrackPointExtension></gpxtpx:TrackPointExtension>
        </extensions>
      </trkpt>
      <trkpt lat="31.209756" lon="121.608657">
        <ele>7.43</ele>
        <time>2020-05-19T22:34:11Z</time>
        <extensions>
          <gpxtpx:TrackPointExtension></gpxtpx:TrackPointExtension>
        </extensions>
      </trkpt>
      <trkpt lat="31.209772" lon="121.608665">
        <ele>7.14</ele>
        <time>2020-05-19T22:34:16Z</time>
        <extensions>
          <gpxtpx:TrackPointExtension></gpxtpx:TrackPointExtension>
        </extensions>
      </trkpt>
      <trkpt lat="31.209779" lon="121.608642">
        <ele>7.2</ele>
        <time>2020-05-19T22:34:21Z</time>
        <extensions>
          <gpxtpx:TrackPointExtension></gpxtpx:TrackPointExtension>
        </extensions>
      </trkpt>
      <trkpt lat="31.209796" lon="121.608673">
        <ele>7.15</ele>
        <time>2020-05-19T22:34:26Z</time>
        <extensions>
          <gpxtpx:TrackPointExtension></gpxtpx:TrackPointExtension>
        </extensions>
      </trkpt>
      <trkpt lat="31.209787" lon="121.60865">
        <ele>7.08</ele>
        <time>2020-05-19T22:34:31Z</time>
        <extensions>
          <gpxtpx:TrackPointExtension></gpxtpx:TrackPointExtension>
        </extensions>
      </trkpt>
      <trkpt lat="31.209789" lon="121.60865">
        <ele>7.11</ele>
        <time>2020-05-19T22:34:36Z</time>
        <extensions>
          <gpxtpx:TrackPointExtension></gpxtpx:TrackPointExtension>
        </extensions>
      </trkpt>
      <trkpt lat="31.209796" lon="121.60865">
        <ele>7.14</ele>
        <time>2020-05-19T22:34:41Z</time>
        <extensions>
          <gpxtpx:TrackPointExtension></gpxtpx:TrackPointExtension>
        </extensions>
      </trkpt>
      <trkpt lat="31.209796" lon="121.608642">
        <ele>6.96</ele>
        <time>2020-05-19T22:34:46Z</time>
        <extensions>
          <gpxtpx:TrackPointExtension></gpxtpx:TrackPointExtension>
        </extensions>
      </trkpt>
      <trkpt lat="31.209846" lon="121.608589">
        <ele>7.2</ele>
        <time>2020-05-19T22:34:51Z</time>
        <extensions>
          <gpxtpx:TrackPointExtension></gpxtpx:TrackPointExtension>
        </extensions>
      </trkpt>
      <trkpt lat="31.20993" lon="121.608512">
        <ele>7.05</ele>
        <time>2020-05-19T22:34:56Z</time>
        <extensions>
          <gpxtpx:TrackPointExtension></gpxtpx:TrackPointExtension>
        </extensions>
      </trkpt>
      <trkpt lat="31.210052" lon="121.608444">
        <ele>7.02</ele>
        <time>2020-05-19T22:35:01Z</time>
        <extensions>
          <gpxtpx:TrackPointExtension></gpxtpx:TrackPointExtension>
        </extensions>
      </trkpt>
      <trkpt lat="31.210168" lon="121.608482">
        <ele>7.27</ele>
        <time>2020-05-19T22:35:06Z</time>
        <extensions>
          <gpxtpx:TrackPointExtension></gpxtpx:TrackPointExtension>
        </extensions>
      </trkpt>
      <trkpt lat="31.210243" lon="121.608482">
        <ele>7.27</ele>
        <time>2020-05-19T22:35:11Z</time>
        <extensions>
          <gpxtpx:TrackPointExtension></gpxtpx:TrackPointExtension>
        </extensions>
      </trkpt>
      <trkpt lat="31.210346" lon="121.608428">
        <ele>6.88</ele>
        <time>2020-05-19T22:35:16Z</time>
        <extensions>
          <gpxtpx:TrackPointExtension></gpxtpx:TrackPointExtension>
        </extensions>
      </trkpt>
      <trkpt lat="31.210435" lon="121.608375">
        <ele>6.89</ele>
        <time>2020-05-19T22:35:21Z</time>
        <extensions>
          <gpxtpx:TrackPointExtension></gpxtpx:TrackPointExtension>
        </extensions>
      </trkpt>
      <trkpt lat="31.210557" lon="121.608322">
        <ele>7.12</ele>
        <time>2020-05-19T22:35:26Z</time>
        <extensions>
          <gpxtpx:TrackPointExtension></gpxtpx:TrackPointExtension>
        </extensions>
      </trkpt>
      <trkpt lat="31.210693" lon="121.608276">
        <ele>7.03</ele>
        <time>2020-05-19T22:35:31Z</time>
        <extensions>
          <gpxtpx:TrackPointExtension></gpxtpx:TrackPointExtension>
        </extensions>
      </trkpt>
      <trkpt lat="31.210838" lon="121.60823">
        <ele>6.93</ele>
        <time>2020-05-19T22:35:36Z</time>
        <extensions>
          <gpxtpx:TrackPointExtension></gpxtpx:TrackPointExtension>
        </extensions>
      </trkpt>
      <trkpt lat="31.210977" lon="121.608192">
        <ele>7.1</ele>
        <time>2020-05-19T22:35:41Z</time>
        <extensions>
          <gpxtpx:TrackPointExtension></gpxtpx:TrackPointExtension>
        </extensions>
      </trkpt>
      <trkpt lat="31.211091" lon="121.608146">
        <ele>7.11</ele>
        <time>2020-05-19T22:35:46Z</time>
        <extensions>
          <gpxtpx:TrackPointExtension></gpxtpx:TrackPointExtension>
        </extensions>
      </trkpt>
      <trkpt lat="31.211235" lon="121.608093">
        <ele>7.23</ele>
        <time>2020-05-19T22:35:51Z</time>
        <extensions>
          <gpxtpx:TrackPointExtension></gpxtpx:TrackPointExtension>
        </extensions>
      </trkpt>
      <trkpt lat="31.211345" lon="121.608055">
        <ele>7.26</ele>
        <time>2020-05-19T22:35:56Z</time>
        <extensions>
          <gpxtpx:TrackPointExtension></gpxtpx:TrackPointExtension>
        </extensions>
      </trkpt>
      <trkpt lat="31.211488" lon="121.608016">
        <ele>7.1</ele>
        <time>2020-05-19T22:36:01Z</time>
        <extensions>
          <gpxtpx:TrackPointExtension></gpxtpx:TrackPointExtension>
        </extensions>
      </trkpt>
      <trkpt lat="31.211631" lon="121.607948">
        <ele>7.43</ele>
        <time>2020-05-19T22:36:06Z</time>
        <extensions>
          <gpxtpx:TrackPointExtension></gpxtpx:TrackPointExtension>
        </extensions>
      </trkpt>
      <trkpt lat="31.211751" lon="121.607902">
        <ele>7.63</ele>
        <time>2020-05-19T22:36:11Z</time>
        <extensions>
          <gpxtpx:TrackPointExtension></gpxtpx:TrackPointExtension>
        </extensions>
      </trkpt>
      <trkpt lat="31.21187" lon="121.607864">
        <ele>7.5</ele>
        <time>2020-05-19T22:36:16Z</time>
        <extensions>
          <gpxtpx:TrackPointExtension></gpxtpx:TrackPointExtension>
        </extensions>
      </trkpt>
      <trkpt lat="31.211963" lon="121.607826">
        <ele>7.87</ele>
        <time>2020-05-19T22:36:21Z</time>
        <extensions>
          <gpxtpx:TrackPointExtension></gpxtpx:TrackPointExtension>
        </extensions>
      </trkpt>
      <trkpt lat="31.212091" lon="121.607757">
        <ele>7.67</ele>
        <time>2020-05-19T22:36:26Z</time>
        <extensions>
          <gpxtpx:TrackPointExtension></gpxtpx:TrackPointExtension>
        </extensions>
      </trkpt>
      <trkpt lat="31.212215" lon="121.607696">
        <ele>7.56</ele>
        <time>2020-05-19T22:36:31Z</time>
        <extensions>
          <gpxtpx:TrackPointExtension></gpxtpx:TrackPointExtension>
        </extensions>
      </trkpt>
      <trkpt lat="31.21235" lon="121.607643">
        <ele>7.39</ele>
        <time>2020-05-19T22:36:36Z</time>
        <extensions>
          <gpxtpx:TrackPointExtension></gpxtpx:TrackPointExtension>
        </extensions>
      </trkpt>
      <trkpt lat="31.212478" lon="121.607597">
        <ele>7.43</ele>
        <time>2020-05-19T22:36:41Z</time>
        <extensions>
          <gpxtpx:TrackPointExtension></gpxtpx:TrackPointExtension>
        </extensions>
      </trkpt>
      <trkpt lat="31.212608" lon="121.607543">
        <ele>7.16</ele>
        <time>2020-05-19T22:36:46Z</time>
        <extensions>
          <gpxtpx:TrackPointExtension></gpxtpx:TrackPointExtension>
        </extensions>
      </trkpt>
      <trkpt lat="31.212747" lon="121.607521">
        <ele>7.27</ele>
        <time>2020-05-19T22:36:51Z</time>
        <extensions>
          <gpxtpx:TrackPointExtension></gpxtpx:TrackPointExtension>
        </extensions>
      </trkpt>
      <trkpt lat="31.212884" lon="121.60749">
        <ele>7.09</ele>
        <time>2020-05-19T22:36:56Z</time>
        <extensions>
          <gpxtpx:TrackPointExtension></gpxtpx:TrackPointExtension>
        </extensions>
      </trkpt>
      <trkpt lat="31.213031" lon="121.607444">
        <ele>7.25</ele>
        <time>2020-05-19T22:37:01Z</time>
        <extensions>
          <gpxtpx:TrackPointExtension></gpxtpx:TrackPointExtension>
        </extensions>
      </trkpt>
      <trkpt lat="31.213146" lon="121.607398">
        <ele>7.2</ele>
        <time>2020-05-19T22:37:06Z</time>
        <extensions>
          <gpxtpx:TrackPointExtension></gpxtpx:TrackPointExtension>
        </extensions>
      </trkpt>
      <trkpt lat="31.21326" lon="121.607368">
        <ele>7.14</ele>
        <time>2020-05-19T22:37:11Z</time>
        <extensions>
          <gpxtpx:TrackPointExtension></gpxtpx:TrackPointExtension>
        </extensions>
      </trkpt>
      <trkpt lat="31.213384" lon="121.60733">
        <ele>6.85</ele>
        <time>2020-05-19T22:37:16Z</time>
        <extensions>
          <gpxtpx:TrackPointExtension></gpxtpx:TrackPointExtension>
        </extensions>
      </trkpt>
      <trkpt lat="31.213504" lon="121.607299">
        <ele>7.11</ele>
        <time>2020-05-19T22:37:21Z</time>
        <extensions>
          <gpxtpx:TrackPointExtension></gpxtpx:TrackPointExtension>
        </extensions>
      </trkpt>
      <trkpt lat="31.213619" lon="121.607254">
        <ele>6.8</ele>
        <time>2020-05-19T22:37:26Z</time>
        <extensions>
          <gpxtpx:TrackPointExtension></gpxtpx:TrackPointExtension>
        </extensions>
      </trkpt>
      <trkpt lat="31.213716" lon="121.607208">
        <ele>6.75</ele>
        <time>2020-05-19T22:37:31Z</time>
        <extensions>
          <gpxtpx:TrackPointExtension></gpxtpx:TrackPointExtension>
        </extensions>
      </trkpt>
      <trkpt lat="31.213815" lon="121.607162">
        <ele>6.9</ele>
        <time>2020-05-19T22:37:36Z</time>
        <extensions>
          <gpxtpx:TrackPointExtension></gpxtpx:TrackPointExtension>
        </extensions>
      </trkpt>
      <trkpt lat="31.213928" lon="121.607124">
        <ele>6.7</ele>
        <time>2020-05-19T22:37:41Z</time>
        <extensions>
          <gpxtpx:TrackPointExtension></gpxtpx:TrackPointExtension>
        </extensions>
      </trkpt>
      <trkpt lat="31.21404" lon="121.607101">
        <ele>6.88</ele>
        <time>2020-05-19T22:37:46Z</time>
        <extensions>
          <gpxtpx:TrackPointExtension></gpxtpx:TrackPointExtension>
        </extensions>
      </trkpt>
      <trkpt lat="31.214155" lon="121.60707">
        <ele>6.94</ele>
        <time>2020-05-19T22:37:51Z</time>
        <extensions>
          <gpxtpx:TrackPointExtension></gpxtpx:TrackPointExtension>
        </extensions>
      </trkpt>
      <trkpt lat="31.214271" lon="121.607002">
        <ele>7.11</ele>
        <time>2020-05-19T22:37:56Z</time>
        <extensions>
          <gpxtpx:TrackPointExtension></gpxtpx:TrackPointExtension>
        </extensions>
      </trkpt>
      <trkpt lat="31.214384" lon="121.606971">
        <ele>7.03</ele>
        <time>2020-05-19T22:38:01Z</time>
        <extensions>
          <gpxtpx:TrackPointExtension></gpxtpx:TrackPointExtension>
        </extensions>
      </trkpt>
      <trkpt lat="31.214473" lon="121.606925">
        <ele>6.92</ele>
        <time>2020-05-19T22:38:06Z</time>
        <extensions>
          <gpxtpx:TrackPointExtension></gpxtpx:TrackPointExtension>
        </extensions>
      </trkpt>
      <trkpt lat="31.214603" lon="121.606872">
        <ele>6.87</ele>
        <time>2020-05-19T22:38:11Z</time>
        <extensions>
          <gpxtpx:TrackPointExtension></gpxtpx:TrackPointExtension>
        </extensions>
      </trkpt>
      <trkpt lat="31.214761" lon="121.606834">
        <ele>6.8</ele>
        <time>2020-05-19T22:38:16Z</time>
        <extensions>
          <gpxtpx:TrackPointExtension></gpxtpx:TrackPointExtension>
        </extensions>
      </trkpt>
      <trkpt lat="31.214893" lon="121.606781">
        <ele>6.78</ele>
        <time>2020-05-19T22:38:21Z</time>
        <extensions>
          <gpxtpx:TrackPointExtension></gpxtpx:TrackPointExtension>
        </extensions>
      </trkpt>
      <trkpt lat="31.215028" lon="121.606712">
        <ele>6.83</ele>
        <time>2020-05-19T22:38:26Z</time>
        <extensions>
          <gpxtpx:TrackPointExtension></gpxtpx:TrackPointExtension>
        </extensions>
      </trkpt>
      <trkpt lat="31.215152" lon="121.606666">
        <ele>6.78</ele>
        <time>2020-05-19T22:38:31Z</time>
        <extensions>
          <gpxtpx:TrackPointExtension></gpxtpx:TrackPointExtension>
        </extensions>
      </trkpt>
      <trkpt lat="31.215263" lon="121.60662">
        <ele>6.68</ele>
        <time>2020-05-19T22:38:36Z</time>
        <extensions>
          <gpxtpx:TrackPointExtension></gpxtpx:TrackPointExtension>
        </extensions>
      </trkpt>
      <trkpt lat="31.215364" lon="121.60659">
        <ele>6.6</ele>
        <time>2020-05-19T22:38:41Z</time>
        <extensions>
          <gpxtpx:TrackPointExtension></gpxtpx:TrackPointExtension>
        </extensions>
      </trkpt>
      <trkpt lat="31.215463" lon="121.606552">
        <ele>6.69</ele>
        <time>2020-05-19T22:38:46Z</time>
        <extensions>
          <gpxtpx:TrackPointExtension></gpxtpx:TrackPointExtension>
        </extensions>
      </trkpt>
      <trkpt lat="31.215545" lon="121.606468">
        <ele>6.67</ele>
        <time>2020-05-19T22:38:51Z</time>
        <extensions>
          <gpxtpx:TrackPointExtension></gpxtpx:TrackPointExtension>
        </extensions>
      </trkpt>
      <trkpt lat="31.21562" lon="121.606399">
        <ele>6.5</ele>
        <time>2020-05-19T22:38:56Z</time>
        <extensions>
          <gpxtpx:TrackPointExtension></gpxtpx:TrackPointExtension>
        </extensions>
      </trkpt>
      <trkpt lat="31.21566" lon="121.606384">
        <ele>6.39</ele>
        <time>2020-05-19T22:39:01Z</time>
        <extensions>
          <gpxtpx:TrackPointExtension></gpxtpx:TrackPointExtension>
        </extensions>
      </trkpt>
      <trkpt lat="31.215745" lon="121.606376">
        <ele>6.6</ele>
        <time>2020-05-19T22:39:06Z</time>
        <extensions>
          <gpxtpx:TrackPointExtension></gpxtpx:TrackPointExtension>
        </extensions>
      </trkpt>
      <trkpt lat="31.215852" lon="121.60633">
        <ele>6.89</ele>
        <time>2020-05-19T22:39:11Z</time>
        <extensions>
          <gpxtpx:TrackPointExtension></gpxtpx:TrackPointExtension>
        </extensions>
      </trkpt>
      <trkpt lat="31.215976" lon="121.6063">
        <ele>6.95</ele>
        <time>2020-05-19T22:39:16Z</time>
        <extensions>
          <gpxtpx:TrackPointExtension></gpxtpx:TrackPointExtension>
        </extensions>
      </trkpt>
      <trkpt lat="31.216075" lon="121.6063">
        <ele>6.84</ele>
        <time>2020-05-19T22:39:21Z</time>
        <extensions>
          <gpxtpx:TrackPointExtension></gpxtpx:TrackPointExtension>
        </extensions>
      </trkpt>
      <trkpt lat="31.216163" lon="121.606262">
        <ele>6.77</ele>
        <time>2020-05-19T22:39:26Z</time>
        <extensions>
          <gpxtpx:TrackPointExtension></gpxtpx:TrackPointExtension>
        </extensions>
      </trkpt>
      <trkpt lat="31.216283" lon="121.606224">
        <ele>6.87</ele>
        <time>2020-05-19T22:39:31Z</time>
        <extensions>
          <gpxtpx:TrackPointExtension></gpxtpx:TrackPointExtension>
        </extensions>
      </trkpt>
      <trkpt lat="31.21639" lon="121.606185">
        <ele>6.8</ele>
        <time>2020-05-19T22:39:36Z</time>
        <extensions>
          <gpxtpx:TrackPointExtension></gpxtpx:TrackPointExtension>
        </extensions>
      </trkpt>
      <trkpt lat="31.216499" lon="121.606155">
        <ele>6.67</ele>
        <time>2020-05-19T22:39:41Z</time>
        <extensions>
          <gpxtpx:TrackPointExtension></gpxtpx:TrackPointExtension>
        </extensions>
      </trkpt>
      <trkpt lat="31.216627" lon="121.606109">
        <ele>6.43</ele>
        <time>2020-05-19T22:39:46Z</time>
        <extensions>
          <gpxtpx:TrackPointExtension></gpxtpx:TrackPointExtension>
        </extensions>
      </trkpt>
      <trkpt lat="31.216777" lon="121.606079">
        <ele>6.49</ele>
        <time>2020-05-19T22:39:51Z</time>
        <extensions>
          <gpxtpx:TrackPointExtension></gpxtpx:TrackPointExtension>
        </extensions>
      </trkpt>
      <trkpt lat="31.216896" lon="121.60604">
        <ele>6.51</ele>
        <time>2020-05-19T22:39:56Z</time>
        <extensions>
          <gpxtpx:TrackPointExtension></gpxtpx:TrackPointExtension>
        </extensions>
      </trkpt>
      <trkpt lat="31.217008" lon="121.605987">
        <ele>6.6</ele>
        <time>2020-05-19T22:40:01Z</time>
        <extensions>
          <gpxtpx:TrackPointExtension></gpxtpx:TrackPointExtension>
        </extensions>
      </trkpt>
      <trkpt lat="31.217113" lon="121.605934">
        <ele>6.61</ele>
        <time>2020-05-19T22:40:06Z</time>
        <extensions>
          <gpxtpx:TrackPointExtension></gpxtpx:TrackPointExtension>
        </extensions>
      </trkpt>
      <trkpt lat="31.217239" lon="121.605888">
        <ele>6.72</ele>
        <time>2020-05-19T22:40:11Z</time>
        <extensions>
          <gpxtpx:TrackPointExtension></gpxtpx:TrackPointExtension>
        </extensions>
      </trkpt>
      <trkpt lat="31.217359" lon="121.605857">
        <ele>6.83</ele>
        <time>2020-05-19T22:40:16Z</time>
        <extensions>
          <gpxtpx:TrackPointExtension></gpxtpx:TrackPointExtension>
        </extensions>
      </trkpt>
      <trkpt lat="31.217466" lon="121.605789">
        <ele>6.67</ele>
        <time>2020-05-19T22:40:21Z</time>
        <extensions>
          <gpxtpx:TrackPointExtension></gpxtpx:TrackPointExtension>
        </extensions>
      </trkpt>
      <trkpt lat="31.217586" lon="121.605751">
        <ele>6.58</ele>
        <time>2020-05-19T22:40:26Z</time>
        <extensions>
          <gpxtpx:TrackPointExtension></gpxtpx:TrackPointExtension>
        </extensions>
      </trkpt>
      <trkpt lat="31.217704" lon="121.605705">
        <ele>6.59</ele>
        <time>2020-05-19T22:40:31Z</time>
        <extensions>
          <gpxtpx:TrackPointExtension></gpxtpx:TrackPointExtension>
        </extensions>
      </trkpt>
      <trkpt lat="31.217815" lon="121.605667">
        <ele>6.42</ele>
        <time>2020-05-19T22:40:36Z</time>
        <extensions>
          <gpxtpx:TrackPointExtension></gpxtpx:TrackPointExtension>
        </extensions>
      </trkpt>
      <trkpt lat="31.21792" lon="121.605598">
        <ele>6.48</ele>
        <time>2020-05-19T22:40:41Z</time>
        <extensions>
          <gpxtpx:TrackPointExtension></gpxtpx:TrackPointExtension>
        </extensions>
      </trkpt>
      <trkpt lat="31.218036" lon="121.605545">
        <ele>6.56</ele>
        <time>2020-05-19T22:40:46Z</time>
        <extensions>
          <gpxtpx:TrackPointExtension></gpxtpx:TrackPointExtension>
        </extensions>
      </trkpt>
      <trkpt lat="31.218164" lon="121.605499">
        <ele>6.7</ele>
        <time>2020-05-19T22:40:51Z</time>
        <extensions>
          <gpxtpx:TrackPointExtension></gpxtpx:TrackPointExtension>
        </extensions>
      </trkpt>
      <trkpt lat="31.218309" lon="121.605453">
        <ele>6.45</ele>
        <time>2020-05-19T22:40:56Z</time>
        <extensions>
          <gpxtpx:TrackPointExtension></gpxtpx:TrackPointExtension>
        </extensions>
      </trkpt>
      <trkpt lat="31.218433" lon="121.605415">
        <ele>6.46</ele>
        <time>2020-05-19T22:41:01Z</time>
        <extensions>
          <gpxtpx:TrackPointExtension></gpxtpx:TrackPointExtension>
        </extensions>
      </trkpt>
      <trkpt lat="31.218549" lon="121.605377">
        <ele>6.37</ele>
        <time>2020-05-19T22:41:06Z</time>
        <extensions>
          <gpxtpx:TrackPointExtension></gpxtpx:TrackPointExtension>
        </extensions>
      </trkpt>
      <trkpt lat="31.218667" lon="121.605339">
        <ele>6.51</ele>
        <time>2020-05-19T22:41:11Z</time>
        <extensions>
          <gpxtpx:TrackPointExtension></gpxtpx:TrackPointExtension>
        </extensions>
      </trkpt>
      <trkpt lat="31.218784" lon="121.605285">
        <ele>6.93</ele>
        <time>2020-05-19T22:41:16Z</time>
        <extensions>
          <gpxtpx:TrackPointExtension></gpxtpx:TrackPointExtension>
        </extensions>
      </trkpt>
      <trkpt lat="31.218919" lon="121.605262">
        <ele>6.88</ele>
        <time>2020-05-19T22:41:21Z</time>
        <extensions>
          <gpxtpx:TrackPointExtension></gpxtpx:TrackPointExtension>
        </extensions>
      </trkpt>
      <trkpt lat="31.219051" lon="121.605216">
        <ele>7.02</ele>
        <time>2020-05-19T22:41:26Z</time>
        <extensions>
          <gpxtpx:TrackPointExtension></gpxtpx:TrackPointExtension>
        </extensions>
      </trkpt>
      <trkpt lat="31.219154" lon="121.605171">
        <ele>7.04</ele>
        <time>2020-05-19T22:41:31Z</time>
        <extensions>
          <gpxtpx:TrackPointExtension></gpxtpx:TrackPointExtension>
        </extensions>
      </trkpt>
      <trkpt lat="31.219272" lon="121.60511">
        <ele>7.13</ele>
        <time>2020-05-19T22:41:36Z</time>
        <extensions>
          <gpxtpx:TrackPointExtension></gpxtpx:TrackPointExtension>
        </extensions>
      </trkpt>
      <trkpt lat="31.219392" lon="121.605072">
        <ele>7.07</ele>
        <time>2020-05-19T22:41:41Z</time>
        <extensions>
          <gpxtpx:TrackPointExtension></gpxtpx:TrackPointExtension>
        </extensions>
      </trkpt>
      <trkpt lat="31.219503" lon="121.605041">
        <ele>6.95</ele>
        <time>2020-05-19T22:41:46Z</time>
        <extensions>
          <gpxtpx:TrackPointExtension></gpxtpx:TrackPointExtension>
        </extensions>
      </trkpt>
      <trkpt lat="31.219615" lon="121.60501">
        <ele>6.96</ele>
        <time>2020-05-19T22:41:51Z</time>
        <extensions>
          <gpxtpx:TrackPointExtension></gpxtpx:TrackPointExtension>
        </extensions>
      </trkpt>
      <trkpt lat="31.219739" lon="121.604965">
        <ele>7.02</ele>
        <time>2020-05-19T22:41:56Z</time>
        <extensions>
          <gpxtpx:TrackPointExtension></gpxtpx:TrackPointExtension>
        </extensions>
      </trkpt>
      <trkpt lat="31.219863" lon="121.604927">
        <ele>7.07</ele>
        <time>2020-05-19T22:42:01Z</time>
        <extensions>
          <gpxtpx:TrackPointExtension></gpxtpx:TrackPointExtension>
        </extensions>
      </trkpt>
      <trkpt lat="31.219989" lon="121.604911">
        <ele>7.06</ele>
        <time>2020-05-19T22:42:06Z</time>
        <extensions>
          <gpxtpx:TrackPointExtension></gpxtpx:TrackPointExtension>
        </extensions>
      </trkpt>
      <trkpt lat="31.220106" lon="121.604858">
        <ele>7.1</ele>
        <time>2020-05-19T22:42:11Z</time>
        <extensions>
          <gpxtpx:TrackPointExtension></gpxtpx:TrackPointExtension>
        </extensions>
      </trkpt>
      <trkpt lat="31.220222" lon="121.604797">
        <ele>7.0</ele>
        <time>2020-05-19T22:42:16Z</time>
        <extensions>
          <gpxtpx:TrackPointExtension></gpxtpx:TrackPointExtension>
        </extensions>
      </trkpt>
      <trkpt lat="31.220327" lon="121.604766">
        <ele>6.81</ele>
        <time>2020-05-19T22:42:21Z</time>
        <extensions>
          <gpxtpx:TrackPointExtension></gpxtpx:TrackPointExtension>
        </extensions>
      </trkpt>
      <trkpt lat="31.220432" lon="121.604721">
        <ele>6.59</ele>
        <time>2020-05-19T22:42:26Z</time>
        <extensions>
          <gpxtpx:TrackPointExtension></gpxtpx:TrackPointExtension>
        </extensions>
      </trkpt>
      <trkpt lat="31.22056" lon="121.604682">
        <ele>6.55</ele>
        <time>2020-05-19T22:42:31Z</time>
        <extensions>
          <gpxtpx:TrackPointExtension></gpxtpx:TrackPointExtension>
        </extensions>
      </trkpt>
      <trkpt lat="31.220655" lon="121.604637">
        <ele>6.6</ele>
        <time>2020-05-19T22:42:36Z</time>
        <extensions>
          <gpxtpx:TrackPointExtension></gpxtpx:TrackPointExtension>
        </extensions>
      </trkpt>
      <trkpt lat="31.220745" lon="121.604568">
        <ele>6.53</ele>
        <time>2020-05-19T22:42:41Z</time>
        <extensions>
          <gpxtpx:TrackPointExtension></gpxtpx:TrackPointExtension>
        </extensions>
      </trkpt>
      <trkpt lat="31.220851" lon="121.604537">
        <ele>6.51</ele>
        <time>2020-05-19T22:42:46Z</time>
        <extensions>
          <gpxtpx:TrackPointExtension></gpxtpx:TrackPointExtension>
        </extensions>
      </trkpt>
      <trkpt lat="31.220956" lon="121.604492">
        <ele>6.45</ele>
        <time>2020-05-19T22:42:51Z</time>
        <extensions>
          <gpxtpx:TrackPointExtension></gpxtpx:TrackPointExtension>
        </extensions>
      </trkpt>
      <trkpt lat="31.22108" lon="121.604461">
        <ele>6.13</ele>
        <time>2020-05-19T22:42:56Z</time>
        <extensions>
          <gpxtpx:TrackPointExtension></gpxtpx:TrackPointExtension>
        </extensions>
      </trkpt>
      <trkpt lat="31.221166" lon="121.604431">
        <ele>6.31</ele>
        <time>2020-05-19T22:43:01Z</time>
        <extensions>
          <gpxtpx:TrackPointExtension></gpxtpx:TrackPointExtension>
        </extensions>
      </trkpt>
      <trkpt lat="31.221263" lon="121.6044">
        <ele>6.17</ele>
        <time>2020-05-19T22:43:06Z</time>
        <extensions>
          <gpxtpx:TrackPointExtension></gpxtpx:TrackPointExtension>
        </extensions>
      </trkpt>
      <trkpt lat="31.221387" lon="121.604339">
        <ele>6.51</ele>
        <time>2020-05-19T22:43:11Z</time>
        <extensions>
          <gpxtpx:TrackPointExtension></gpxtpx:TrackPointExtension>
        </extensions>
      </trkpt>
      <trkpt lat="31.221513" lon="121.604255">
        <ele>6.3</ele>
        <time>2020-05-19T22:43:16Z</time>
        <extensions>
          <gpxtpx:TrackPointExtension></gpxtpx:TrackPointExtension>
        </extensions>
      </trkpt>
      <trkpt lat="31.221477" lon="121.604301">
        <ele>6.26</ele>
        <time>2020-05-19T22:43:21Z</time>
        <extensions>
          <gpxtpx:TrackPointExtension></gpxtpx:TrackPointExtension>
        </extensions>
      </trkpt>
      <trkpt lat="31.22138" lon="121.604324">
        <ele>5.92</ele>
        <time>2020-05-19T22:43:26Z</time>
        <extensions>
          <gpxtpx:TrackPointExtension></gpxtpx:TrackPointExtension>
        </extensions>
      </trkpt>
      <trkpt lat="31.221288" lon="121.604377">
        <ele>6.09</ele>
        <time>2020-05-19T22:43:31Z</time>
        <extensions>
          <gpxtpx:TrackPointExtension></gpxtpx:TrackPointExtension>
        </extensions>
      </trkpt>
      <trkpt lat="31.2212" lon="121.604393">
        <ele>6.08</ele>
        <time>2020-05-19T22:43:36Z</time>
        <extensions>
          <gpxtpx:TrackPointExtension></gpxtpx:TrackPointExtension>
        </extensions>
      </trkpt>
      <trkpt lat="31.221099" lon="121.604408">
        <ele>6.1</ele>
        <time>2020-05-19T22:43:41Z</time>
        <extensions>
          <gpxtpx:TrackPointExtension></gpxtpx:TrackPointExtension>
        </extensions>
      </trkpt>
      <trkpt lat="31.221008" lon="121.604446">
        <ele>6.15</ele>
        <time>2020-05-19T22:43:46Z</time>
        <extensions>
          <gpxtpx:TrackPointExtension></gpxtpx:TrackPointExtension>
        </extensions>
      </trkpt>
      <trkpt lat="31.220905" lon="121.604476">
        <ele>6.15</ele>
        <time>2020-05-19T22:43:51Z</time>
        <extensions>
          <gpxtpx:TrackPointExtension></gpxtpx:TrackPointExtension>
        </extensions>
      </trkpt>
      <trkpt lat="31.2208" lon="121.60453">
        <ele>6.2</ele>
        <time>2020-05-19T22:43:56Z</time>
        <extensions>
          <gpxtpx:TrackPointExtension></gpxtpx:TrackPointExtension>
        </extensions>
      </trkpt>
      <trkpt lat="31.220693" lon="121.604598">
        <ele>6.23</ele>
        <time>2020-05-19T22:44:01Z</time>
        <extensions>
          <gpxtpx:TrackPointExtension></gpxtpx:TrackPointExtension>
        </extensions>
      </trkpt>
      <trkpt lat="31.220596" lon="121.604652">
        <ele>5.85</ele>
        <time>2020-05-19T22:44:06Z</time>
        <extensions>
          <gpxtpx:TrackPointExtension></gpxtpx:TrackPointExtension>
        </extensions>
      </trkpt>
      <trkpt lat="31.220468" lon="121.604705">
        <ele>6.23</ele>
        <time>2020-05-19T22:44:11Z</time>
        <extensions>
          <gpxtpx:TrackPointExtension></gpxtpx:TrackPointExtension>
        </extensions>
      </trkpt>
      <trkpt lat="31.220344" lon="121.604751">
        <ele>6.62</ele>
        <time>2020-05-19T22:44:16Z</time>
        <extensions>
          <gpxtpx:TrackPointExtension></gpxtpx:TrackPointExtension>
        </extensions>
      </trkpt>
      <trkpt lat="31.220237" lon="121.604797">
        <ele>6.75</ele>
        <time>2020-05-19T22:44:21Z</time>
        <extensions>
          <gpxtpx:TrackPointExtension></gpxtpx:TrackPointExtension>
        </extensions>
      </trkpt>
      <trkpt lat="31.220125" lon="121.604843">
        <ele>6.64</ele>
        <time>2020-05-19T22:44:26Z</time>
        <extensions>
          <gpxtpx:TrackPointExtension></gpxtpx:TrackPointExtension>
        </extensions>
      </trkpt>
      <trkpt lat="31.220008" lon="121.604888">
        <ele>6.73</ele>
        <time>2020-05-19T22:44:31Z</time>
        <extensions>
          <gpxtpx:TrackPointExtension></gpxtpx:TrackPointExtension>
        </extensions>
      </trkpt>
      <trkpt lat="31.219888" lon="121.604934">
        <ele>6.59</ele>
        <time>2020-05-19T22:44:36Z</time>
        <extensions>
          <gpxtpx:TrackPointExtension></gpxtpx:TrackPointExtension>
        </extensions>
      </trkpt>
      <trkpt lat="31.219764" lon="121.604949">
        <ele>6.82</ele>
        <time>2020-05-19T22:44:41Z</time>
        <extensions>
          <gpxtpx:TrackPointExtension></gpxtpx:TrackPointExtension>
        </extensions>
      </trkpt>
      <trkpt lat="31.219636" lon="121.60501">
        <ele>6.82</ele>
        <time>2020-05-19T22:44:46Z</time>
        <extensions>
          <gpxtpx:TrackPointExtension></gpxtpx:TrackPointExtension>
        </extensions>
      </trkpt>
      <trkpt lat="31.219522" lon="121.605049">
        <ele>6.88</ele>
        <time>2020-05-19T22:44:51Z</time>
        <extensions>
          <gpxtpx:TrackPointExtension></gpxtpx:TrackPointExtension>
        </extensions>
      </trkpt>
      <trkpt lat="31.219396" lon="121.605094">
        <ele>6.62</ele>
        <time>2020-05-19T22:44:56Z</time>
        <extensions>
          <gpxtpx:TrackPointExtension></gpxtpx:TrackPointExtension>
        </extensions>
      </trkpt>
      <trkpt lat="31.219272" lon="121.60514">
        <ele>6.53</ele>
        <time>2020-05-19T22:45:01Z</time>
        <extensions>
          <gpxtpx:TrackPointExtension></gpxtpx:TrackPointExtension>
        </extensions>
      </trkpt>
      <trkpt lat="31.219152" lon="121.605178">
        <ele>6.36</ele>
        <time>2020-05-19T22:45:06Z</time>
        <extensions>
          <gpxtpx:TrackPointExtension></gpxtpx:TrackPointExtension>
        </extensions>
      </trkpt>
      <trkpt lat="31.219034" lon="121.605224">
        <ele>6.56</ele>
        <time>2020-05-19T22:45:11Z</time>
        <extensions>
          <gpxtpx:TrackPointExtension></gpxtpx:TrackPointExtension>
        </extensions>
      </trkpt>
      <trkpt lat="31.218923" lon="121.605262">
        <ele>6.24</ele>
        <time>2020-05-19T22:45:16Z</time>
        <extensions>
          <gpxtpx:TrackPointExtension></gpxtpx:TrackPointExtension>
        </extensions>
      </trkpt>
      <trkpt lat="31.218816" lon="121.605308">
        <ele>6.37</ele>
        <time>2020-05-19T22:45:21Z</time>
        <extensions>
          <gpxtpx:TrackPointExtension></gpxtpx:TrackPointExtension>
        </extensions>
      </trkpt>
      <trkpt lat="31.218694" lon="121.605346">
        <ele>6.06</ele>
        <time>2020-05-19T22:45:26Z</time>
        <extensions>
          <gpxtpx:TrackPointExtension></gpxtpx:TrackPointExtension>
        </extensions>
      </trkpt>
      <trkpt lat="31.218576" lon="121.605369">
        <ele>5.94</ele>
        <time>2020-05-19T22:45:31Z</time>
        <extensions>
          <gpxtpx:TrackPointExtension></gpxtpx:TrackPointExtension>
        </extensions>
      </trkpt>
      <trkpt lat="31.218463" lon="121.605392">
        <ele>5.76</ele>
        <time>2020-05-19T22:45:36Z</time>
        <extensions>
          <gpxtpx:TrackPointExtension></gpxtpx:TrackPointExtension>
        </extensions>
      </trkpt>
      <trkpt lat="31.218364" lon="121.605422">
        <ele>5.81</ele>
        <time>2020-05-19T22:45:41Z</time>
        <extensions>
          <gpxtpx:TrackPointExtension></gpxtpx:TrackPointExtension>
        </extensions>
      </trkpt>
      <trkpt lat="31.218252" lon="121.605453">
        <ele>5.86</ele>
        <time>2020-05-19T22:45:46Z</time>
        <extensions>
          <gpxtpx:TrackPointExtension></gpxtpx:TrackPointExtension>
        </extensions>
      </trkpt>
      <trkpt lat="31.218141" lon="121.605506">
        <ele>5.82</ele>
        <time>2020-05-19T22:45:51Z</time>
        <extensions>
          <gpxtpx:TrackPointExtension></gpxtpx:TrackPointExtension>
        </extensions>
      </trkpt>
      <trkpt lat="31.21804" lon="121.605537">
        <ele>5.73</ele>
        <time>2020-05-19T22:45:56Z</time>
        <extensions>
          <gpxtpx:TrackPointExtension></gpxtpx:TrackPointExtension>
        </extensions>
      </trkpt>
      <trkpt lat="31.217903" lon="121.60559">
        <ele>5.86</ele>
        <time>2020-05-19T22:46:01Z</time>
        <extensions>
          <gpxtpx:TrackPointExtension></gpxtpx:TrackPointExtension>
        </extensions>
      </trkpt>
      <trkpt lat="31.217788" lon="121.605674">
        <ele>5.8</ele>
        <time>2020-05-19T22:46:06Z</time>
        <extensions>
          <gpxtpx:TrackPointExtension></gpxtpx:TrackPointExtension>
        </extensions>
      </trkpt>
      <trkpt lat="31.217668" lon="121.60572">
        <ele>5.81</ele>
        <time>2020-05-19T22:46:11Z</time>
        <extensions>
          <gpxtpx:TrackPointExtension></gpxtpx:TrackPointExtension>
        </extensions>
      </trkpt>
      <trkpt lat="31.217555" lon="121.605789">
        <ele>6.11</ele>
        <time>2020-05-19T22:46:16Z</time>
        <extensions>
          <gpxtpx:TrackPointExtension></gpxtpx:TrackPointExtension>
        </extensions>
      </trkpt>
      <trkpt lat="31.217428" lon="121.605827">
        <ele>6.25</ele>
        <time>2020-05-19T22:46:21Z</time>
        <extensions>
          <gpxtpx:TrackPointExtension></gpxtpx:TrackPointExtension>
        </extensions>
      </trkpt>
      <trkpt lat="31.217298" lon="121.605857">
        <ele>6.17</ele>
        <time>2020-05-19T22:46:26Z</time>
        <extensions>
          <gpxtpx:TrackPointExtension></gpxtpx:TrackPointExtension>
        </extensions>
      </trkpt>
      <trkpt lat="31.217176" lon="121.605903">
        <ele>5.96</ele>
        <time>2020-05-19T22:46:31Z</time>
        <extensions>
          <gpxtpx:TrackPointExtension></gpxtpx:TrackPointExtension>
        </extensions>
      </trkpt>
      <trkpt lat="31.217033" lon="121.605949">
        <ele>6.06</ele>
        <time>2020-05-19T22:46:36Z</time>
        <extensions>
          <gpxtpx:TrackPointExtension></gpxtpx:TrackPointExtension>
        </extensions>
      </trkpt>
      <trkpt lat="31.216911" lon="121.606002">
        <ele>5.91</ele>
        <time>2020-05-19T22:46:41Z</time>
        <extensions>
          <gpxtpx:TrackPointExtension></gpxtpx:TrackPointExtension>
        </extensions>
      </trkpt>
      <trkpt lat="31.216779" lon="121.606056">
        <ele>6.02</ele>
        <time>2020-05-19T22:46:46Z</time>
        <extensions>
          <gpxtpx:TrackPointExtension></gpxtpx:TrackPointExtension>
        </extensions>
      </trkpt>
      <trkpt lat="31.216672" lon="121.606079">
        <ele>6.11</ele>
        <time>2020-05-19T22:46:51Z</time>
        <extensions>
          <gpxtpx:TrackPointExtension></gpxtpx:TrackPointExtension>
        </extensions>
      </trkpt>
      <trkpt lat="31.21656" lon="121.606124">
        <ele>6.08</ele>
        <time>2020-05-19T22:46:56Z</time>
        <extensions>
          <gpxtpx:TrackPointExtension></gpxtpx:TrackPointExtension>
        </extensions>
      </trkpt>
      <trkpt lat="31.216444" lon="121.606178">
        <ele>5.85</ele>
        <time>2020-05-19T22:47:01Z</time>
        <extensions>
          <gpxtpx:TrackPointExtension></gpxtpx:TrackPointExtension>
        </extensions>
      </trkpt>
      <trkpt lat="31.216327" lon="121.606201">
        <ele>5.91</ele>
        <time>2020-05-19T22:47:06Z</time>
        <extensions>
          <gpxtpx:TrackPointExtension></gpxtpx:TrackPointExtension>
        </extensions>
      </trkpt>
      <trkpt lat="31.216205" lon="121.606246">
        <ele>5.96</ele>
        <time>2020-05-19T22:47:11Z</time>
        <extensions>
          <gpxtpx:TrackPointExtension></gpxtpx:TrackPointExtension>
        </extensions>
      </trkpt>
      <trkpt lat="31.216108" lon="121.606269">
        <ele>5.65</ele>
        <time>2020-05-19T22:47:16Z</time>
        <extensions>
          <gpxtpx:TrackPointExtension></gpxtpx:TrackPointExtension>
        </extensions>
      </trkpt>
      <trkpt lat="31.216016" lon="121.606262">
        <ele>5.54</ele>
        <time>2020-05-19T22:47:21Z</time>
        <extensions>
          <gpxtpx:TrackPointExtension></gpxtpx:TrackPointExtension>
        </extensions>
      </trkpt>
      <trkpt lat="31.216003" lon="121.606269">
        <ele>5.36</ele>
        <time>2020-05-19T22:47:26Z</time>
        <extensions>
          <gpxtpx:TrackPointExtension></gpxtpx:TrackPointExtension>
        </extensions>
      </trkpt>
      <trkpt lat="31.21599" lon="121.606254">
        <ele>5.59</ele>
        <time>2020-05-19T22:47:31Z</time>
        <extensions>
          <gpxtpx:TrackPointExtension></gpxtpx:TrackPointExtension>
        </extensions>
      </trkpt>
      <trkpt lat="31.215988" lon="121.606269">
        <ele>5.68</ele>
        <time>2020-05-19T22:47:36Z</time>
        <extensions>
          <gpxtpx:TrackPointExtension></gpxtpx:TrackPointExtension>
        </extensions>
      </trkpt>
      <trkpt lat="31.215991" lon="121.606262">
        <ele>5.53</ele>
        <time>2020-05-19T22:47:41Z</time>
        <extensions>
          <gpxtpx:TrackPointExtension></gpxtpx:TrackPointExtension>
        </extensions>
      </trkpt>
      <trkpt lat="31.21598" lon="121.606269">
        <ele>5.51</ele>
        <time>2020-05-19T22:47:46Z</time>
        <extensions>
          <gpxtpx:TrackPointExtension></gpxtpx:TrackPointExtension>
        </extensions>
      </trkpt>
      <trkpt lat="31.215984" lon="121.606277">
        <ele>5.48</ele>
        <time>2020-05-19T22:47:51Z</time>
        <extensions>
          <gpxtpx:TrackPointExtension></gpxtpx:TrackPointExtension>
        </extensions>
      </trkpt>
      <trkpt lat="31.215978" lon="121.606262">
        <ele>5.53</ele>
        <time>2020-05-19T22:47:56Z</time>
        <extensions>
          <gpxtpx:TrackPointExtension></gpxtpx:TrackPointExtension>
        </extensions>
      </trkpt>
      <trkpt lat="31.215978" lon="121.606269">
        <ele>5.47</ele>
        <time>2020-05-19T22:48:01Z</time>
        <extensions>
          <gpxtpx:TrackPointExtension></gpxtpx:TrackPointExtension>
        </extensions>
      </trkpt>
      <trkpt lat="31.215972" lon="121.606285">
        <ele>5.45</ele>
        <time>2020-05-19T22:48:06Z</time>
        <extensions>
          <gpxtpx:TrackPointExtension></gpxtpx:TrackPointExtension>
        </extensions>
      </trkpt>
      <trkpt lat="31.215972" lon="121.606285">
        <ele>5.53</ele>
        <time>2020-05-19T22:48:11Z</time>
        <extensions>
          <gpxtpx:TrackPointExtension></gpxtpx:TrackPointExtension>
        </extensions>
      </trkpt>
      <trkpt lat="31.21589" lon="121.606315">
        <ele>5.52</ele>
        <time>2020-05-19T22:48:16Z</time>
        <extensions>
          <gpxtpx:TrackPointExtension></gpxtpx:TrackPointExtension>
        </extensions>
      </trkpt>
      <trkpt lat="31.215785" lon="121.606353">
        <ele>5.61</ele>
        <time>2020-05-19T22:48:21Z</time>
        <extensions>
          <gpxtpx:TrackPointExtension></gpxtpx:TrackPointExtension>
        </extensions>
      </trkpt>
      <trkpt lat="31.215688" lon="121.606384">
        <ele>5.62</ele>
        <time>2020-05-19T22:48:26Z</time>
        <extensions>
          <gpxtpx:TrackPointExtension></gpxtpx:TrackPointExtension>
        </extensions>
      </trkpt>
      <trkpt lat="31.215591" lon="121.60643">
        <ele>5.47</ele>
        <time>2020-05-19T22:48:31Z</time>
        <extensions>
          <gpxtpx:TrackPointExtension></gpxtpx:TrackPointExtension>
        </extensions>
      </trkpt>
      <trkpt lat="31.215484" lon="121.606491">
        <ele>5.58</ele>
        <time>2020-05-19T22:48:36Z</time>
        <extensions>
          <gpxtpx:TrackPointExtension></gpxtpx:TrackPointExtension>
        </extensions>
      </trkpt>
      <trkpt lat="31.215373" lon="121.606544">
        <ele>5.35</ele>
        <time>2020-05-19T22:48:41Z</time>
        <extensions>
          <gpxtpx:TrackPointExtension></gpxtpx:TrackPointExtension>
        </extensions>
      </trkpt>
      <trkpt lat="31.215261" lon="121.606582">
        <ele>5.44</ele>
        <time>2020-05-19T22:48:46Z</time>
        <extensions>
          <gpxtpx:TrackPointExtension></gpxtpx:TrackPointExtension>
        </extensions>
      </trkpt>
      <trkpt lat="31.215139" lon="121.606628">
        <ele>5.74</ele>
        <time>2020-05-19T22:48:51Z</time>
        <extensions>
          <gpxtpx:TrackPointExtension></gpxtpx:TrackPointExtension>
        </extensions>
      </trkpt>
      <trkpt lat="31.215026" lon="121.606689">
        <ele>6.04</ele>
        <time>2020-05-19T22:48:56Z</time>
        <extensions>
          <gpxtpx:TrackPointExtension></gpxtpx:TrackPointExtension>
        </extensions>
      </trkpt>
      <trkpt lat="31.214887" lon="121.606758">
        <ele>5.75</ele>
        <time>2020-05-19T22:49:01Z</time>
        <extensions>
          <gpxtpx:TrackPointExtension></gpxtpx:TrackPointExtension>
        </extensions>
      </trkpt>
      <trkpt lat="31.214771" lon="121.606788">
        <ele>5.56</ele>
        <time>2020-05-19T22:49:06Z</time>
        <extensions>
          <gpxtpx:TrackPointExtension></gpxtpx:TrackPointExtension>
        </extensions>
      </trkpt>
      <trkpt lat="31.21466" lon="121.606834">
        <ele>5.17</ele>
        <time>2020-05-19T22:49:11Z</time>
        <extensions>
          <gpxtpx:TrackPointExtension></gpxtpx:TrackPointExtension>
        </extensions>
      </trkpt>
      <trkpt lat="31.21454" lon="121.606857">
        <ele>5.24</ele>
        <time>2020-05-19T22:49:16Z</time>
        <extensions>
          <gpxtpx:TrackPointExtension></gpxtpx:TrackPointExtension>
        </extensions>
      </trkpt>
      <trkpt lat="31.214424" lon="121.606903">
        <ele>5.45</ele>
        <time>2020-05-19T22:49:21Z</time>
        <extensions>
          <gpxtpx:TrackPointExtension></gpxtpx:TrackPointExtension>
        </extensions>
      </trkpt>
      <trkpt lat="31.214294" lon="121.606948">
        <ele>5.36</ele>
        <time>2020-05-19T22:49:26Z</time>
        <extensions>
          <gpxtpx:TrackPointExtension></gpxtpx:TrackPointExtension>
        </extensions>
      </trkpt>
      <trkpt lat="31.214181" lon="121.607009">
        <ele>5.22</ele>
        <time>2020-05-19T22:49:31Z</time>
        <extensions>
          <gpxtpx:TrackPointExtension></gpxtpx:TrackPointExtension>
        </extensions>
      </trkpt>
      <trkpt lat="31.214065" lon="121.607055">
        <ele>5.31</ele>
        <time>2020-05-19T22:49:36Z</time>
        <extensions>
          <gpxtpx:TrackPointExtension></gpxtpx:TrackPointExtension>
        </extensions>
      </trkpt>
      <trkpt lat="31.213951" lon="121.607109">
        <ele>5.71</ele>
        <time>2020-05-19T22:49:41Z</time>
        <extensions>
          <gpxtpx:TrackPointExtension></gpxtpx:TrackPointExtension>
        </extensions>
      </trkpt>
      <trkpt lat="31.213844" lon="121.607154">
        <ele>5.53</ele>
        <time>2020-05-19T22:49:46Z</time>
        <extensions>
          <gpxtpx:TrackPointExtension></gpxtpx:TrackPointExtension>
        </extensions>
      </trkpt>
      <trkpt lat="31.213727" lon="121.607192">
        <ele>5.42</ele>
        <time>2020-05-19T22:49:51Z</time>
        <extensions>
          <gpxtpx:TrackPointExtension></gpxtpx:TrackPointExtension>
        </extensions>
      </trkpt>
      <trkpt lat="31.213592" lon="121.607215">
        <ele>5.69</ele>
        <time>2020-05-19T22:49:56Z</time>
        <extensions>
          <gpxtpx:TrackPointExtension></gpxtpx:TrackPointExtension>
        </extensions>
      </trkpt>
      <trkpt lat="31.213476" lon="121.607246">
        <ele>5.97</ele>
        <time>2020-05-19T22:50:01Z</time>
        <extensions>
          <gpxtpx:TrackPointExtension></gpxtpx:TrackPointExtension>
        </extensions>
      </trkpt>
      <trkpt lat="31.213369" lon="121.607315">
        <ele>5.94</ele>
        <time>2020-05-19T22:50:06Z</time>
        <extensions>
          <gpxtpx:TrackPointExtension></gpxtpx:TrackPointExtension>
        </extensions>
      </trkpt>
      <trkpt lat="31.213264" lon="121.607353">
        <ele>6.04</ele>
        <time>2020-05-19T22:50:11Z</time>
        <extensions>
          <gpxtpx:TrackPointExtension></gpxtpx:TrackPointExtension>
        </extensions>
      </trkpt>
      <trkpt lat="31.213144" lon="121.607391">
        <ele>6.02</ele>
        <time>2020-05-19T22:50:16Z</time>
        <extensions>
          <gpxtpx:TrackPointExtension></gpxtpx:TrackPointExtension>
        </extensions>
      </trkpt>
      <trkpt lat="31.21302" lon="121.607467">
        <ele>5.64</ele>
        <time>2020-05-19T22:50:21Z</time>
        <extensions>
          <gpxtpx:TrackPointExtension></gpxtpx:TrackPointExtension>
        </extensions>
      </trkpt>
      <trkpt lat="31.212915" lon="121.607475">
        <ele>5.77</ele>
        <time>2020-05-19T22:50:26Z</time>
        <extensions>
          <gpxtpx:TrackPointExtension></gpxtpx:TrackPointExtension>
        </extensions>
      </trkpt>
      <trkpt lat="31.212783" lon="121.607505">
        <ele>5.91</ele>
        <time>2020-05-19T22:50:31Z</time>
        <extensions>
          <gpxtpx:TrackPointExtension></gpxtpx:TrackPointExtension>
        </extensions>
      </trkpt>
      <trkpt lat="31.212663" lon="121.607521">
        <ele>6.04</ele>
        <time>2020-05-19T22:50:36Z</time>
        <extensions>
          <gpxtpx:TrackPointExtension></gpxtpx:TrackPointExtension>
        </extensions>
      </trkpt>
      <trkpt lat="31.212539" lon="121.607551">
        <ele>5.9</ele>
        <time>2020-05-19T22:50:41Z</time>
        <extensions>
          <gpxtpx:TrackPointExtension></gpxtpx:TrackPointExtension>
        </extensions>
      </trkpt>
      <trkpt lat="31.212432" lon="121.607597">
        <ele>5.79</ele>
        <time>2020-05-19T22:50:46Z</time>
        <extensions>
          <gpxtpx:TrackPointExtension></gpxtpx:TrackPointExtension>
        </extensions>
      </trkpt>
      <trkpt lat="31.212331" lon="121.607666">
        <ele>5.82</ele>
        <time>2020-05-19T22:50:51Z</time>
        <extensions>
          <gpxtpx:TrackPointExtension></gpxtpx:TrackPointExtension>
        </extensions>
      </trkpt>
      <trkpt lat="31.21224" lon="121.607727">
        <ele>5.78</ele>
        <time>2020-05-19T22:50:56Z</time>
        <extensions>
          <gpxtpx:TrackPointExtension></gpxtpx:TrackPointExtension>
        </extensions>
      </trkpt>
      <trkpt lat="31.212127" lon="121.607765">
        <ele>5.99</ele>
        <time>2020-05-19T22:51:01Z</time>
        <extensions>
          <gpxtpx:TrackPointExtension></gpxtpx:TrackPointExtension>
        </extensions>
      </trkpt>
      <trkpt lat="31.21202" lon="121.60781">
        <ele>5.79</ele>
        <time>2020-05-19T22:51:06Z</time>
        <extensions>
          <gpxtpx:TrackPointExtension></gpxtpx:TrackPointExtension>
        </extensions>
      </trkpt>
      <trkpt lat="31.211923" lon="121.607849">
        <ele>5.64</ele>
        <time>2020-05-19T22:51:11Z</time>
        <extensions>
          <gpxtpx:TrackPointExtension></gpxtpx:TrackPointExtension>
        </extensions>
      </trkpt>
      <trkpt lat="31.211835" lon="121.607902">
        <ele>5.85</ele>
        <time>2020-05-19T22:51:16Z</time>
        <extensions>
          <gpxtpx:TrackPointExtension></gpxtpx:TrackPointExtension>
        </extensions>
      </trkpt>
      <trkpt lat="31.21174" lon="121.607948">
        <ele>5.45</ele>
        <time>2020-05-19T22:51:21Z</time>
        <extensions>
          <gpxtpx:TrackPointExtension></gpxtpx:TrackPointExtension>
        </extensions>
      </trkpt>
      <trkpt lat="31.211635" lon="121.607986">
        <ele>5.58</ele>
        <time>2020-05-19T22:51:26Z</time>
        <extensions>
          <gpxtpx:TrackPointExtension></gpxtpx:TrackPointExtension>
        </extensions>
      </trkpt>
      <trkpt lat="31.211534" lon="121.608032">
        <ele>5.32</ele>
        <time>2020-05-19T22:51:31Z</time>
        <extensions>
          <gpxtpx:TrackPointExtension></gpxtpx:TrackPointExtension>
        </extensions>
      </trkpt>
      <trkpt lat="31.211412" lon="121.608055">
        <ele>5.44</ele>
        <time>2020-05-19T22:51:36Z</time>
        <extensions>
          <gpxtpx:TrackPointExtension></gpxtpx:TrackPointExtension>
        </extensions>
      </trkpt>
      <trkpt lat="31.21128" lon="121.608093">
        <ele>5.39</ele>
        <time>2020-05-19T22:51:41Z</time>
        <extensions>
          <gpxtpx:TrackPointExtension></gpxtpx:TrackPointExtension>
        </extensions>
      </trkpt>
      <trkpt lat="31.211143" lon="121.608154">
        <ele>5.32</ele>
        <time>2020-05-19T22:51:46Z</time>
        <extensions>
          <gpxtpx:TrackPointExtension></gpxtpx:TrackPointExtension>
        </extensions>
      </trkpt>
      <trkpt lat="31.211015" lon="121.6082">
        <ele>5.34</ele>
        <time>2020-05-19T22:51:51Z</time>
        <extensions>
          <gpxtpx:TrackPointExtension></gpxtpx:TrackPointExtension>
        </extensions>
      </trkpt>
      <trkpt lat="31.210905" lon="121.608245">
        <ele>5.37</ele>
        <time>2020-05-19T22:51:56Z</time>
        <extensions>
          <gpxtpx:TrackPointExtension></gpxtpx:TrackPointExtension>
        </extensions>
      </trkpt>
      <trkpt lat="31.210792" lon="121.608276">
        <ele>5.53</ele>
        <time>2020-05-19T22:52:01Z</time>
        <extensions>
          <gpxtpx:TrackPointExtension></gpxtpx:TrackPointExtension>
        </extensions>
      </trkpt>
      <trkpt lat="31.210676" lon="121.608322">
        <ele>5.41</ele>
        <time>2020-05-19T22:52:06Z</time>
        <extensions>
          <gpxtpx:TrackPointExtension></gpxtpx:TrackPointExtension>
        </extensions>
      </trkpt>
      <trkpt lat="31.210567" lon="121.608367">
        <ele>5.32</ele>
        <time>2020-05-19T22:52:11Z</time>
        <extensions>
          <gpxtpx:TrackPointExtension></gpxtpx:TrackPointExtension>
        </extensions>
      </trkpt>
      <trkpt lat="31.210456" lon="121.608398">
        <ele>5.17</ele>
        <time>2020-05-19T22:52:16Z</time>
        <extensions>
          <gpxtpx:TrackPointExtension></gpxtpx:TrackPointExtension>
        </extensions>
      </trkpt>
      <trkpt lat="31.210351" lon="121.608444">
        <ele>5.33</ele>
        <time>2020-05-19T22:52:21Z</time>
        <extensions>
          <gpxtpx:TrackPointExtension></gpxtpx:TrackPointExtension>
        </extensions>
      </trkpt>
      <trkpt lat="31.210271" lon="121.608459">
        <ele>5.58</ele>
        <time>2020-05-19T22:52:26Z</time>
        <extensions>
          <gpxtpx:TrackPointExtension></gpxtpx:TrackPointExtension>
        </extensions>
      </trkpt>
      <trkpt lat="31.210203" lon="121.608474">
        <ele>5.23</ele>
        <time>2020-05-19T22:52:31Z</time>
        <extensions>
          <gpxtpx:TrackPointExtension></gpxtpx:TrackPointExtension>
        </extensions>
      </trkpt>
      <trkpt lat="31.210145" lon="121.608444">
        <ele>5.14</ele>
        <time>2020-05-19T22:52:36Z</time>
        <extensions>
          <gpxtpx:TrackPointExtension></gpxtpx:TrackPointExtension>
        </extensions>
      </trkpt>
      <trkpt lat="31.21009" lon="121.608413">
        <ele>5.07</ele>
        <time>2020-05-19T22:52:41Z</time>
        <extensions>
          <gpxtpx:TrackPointExtension></gpxtpx:TrackPointExtension>
        </extensions>
      </trkpt>
      <trkpt lat="31.210079" lon="121.608413">
        <ele>5.11</ele>
        <time>2020-05-19T22:52:46Z</time>
        <extensions>
          <gpxtpx:TrackPointExtension></gpxtpx:TrackPointExtension>
        </extensions>
      </trkpt>
      <trkpt lat="31.210071" lon="121.608421">
        <ele>5.26</ele>
        <time>2020-05-19T22:52:51Z</time>
        <extensions>
          <gpxtpx:TrackPointExtension></gpxtpx:TrackPointExtension>
        </extensions>
      </trkpt>
      <trkpt lat="31.210056" lon="121.608428">
        <ele>4.99</ele>
        <time>2020-05-19T22:52:56Z</time>
        <extensions>
          <gpxtpx:TrackPointExtension></gpxtpx:TrackPointExtension>
        </extensions>
      </trkpt>
      <trkpt lat="31.21006" lon="121.608421">
        <ele>5.06</ele>
        <time>2020-05-19T22:53:01Z</time>
        <extensions>
          <gpxtpx:TrackPointExtension></gpxtpx:TrackPointExtension>
        </extensions>
      </trkpt>
      <trkpt lat="31.21006" lon="121.608428">
        <ele>5.14</ele>
        <time>2020-05-19T22:53:06Z</time>
        <extensions>
          <gpxtpx:TrackPointExtension></gpxtpx:TrackPointExtension>
        </extensions>
      </trkpt>
      <trkpt lat="31.210062" lon="121.608428">
        <ele>4.91</ele>
        <time>2020-05-19T22:53:11Z</time>
        <extensions>
          <gpxtpx:TrackPointExtension></gpxtpx:TrackPointExtension>
        </extensions>
      </trkpt>
      <trkpt lat="31.209995" lon="121.608497">
        <ele>5.13</ele>
        <time>2020-05-19T22:53:16Z</time>
        <extensions>
          <gpxtpx:TrackPointExtension></gpxtpx:TrackPointExtension>
        </extensions>
      </trkpt>
      <trkpt lat="31.209924" lon="121.608573">
        <ele>5.11</ele>
        <time>2020-05-19T22:53:21Z</time>
        <extensions>
          <gpxtpx:TrackPointExtension></gpxtpx:TrackPointExtension>
        </extensions>
      </trkpt>
      <trkpt lat="31.20984" lon="121.608634">
        <ele>4.93</ele>
        <time>2020-05-19T22:53:26Z</time>
        <extensions>
          <gpxtpx:TrackPointExtension></gpxtpx:TrackPointExtension>
        </extensions>
      </trkpt>
      <trkpt lat="31.209768" lon="121.608703">
        <ele>5.32</ele>
        <time>2020-05-19T22:53:31Z</time>
        <extensions>
          <gpxtpx:TrackPointExtension></gpxtpx:TrackPointExtension>
        </extensions>
      </trkpt>
      <trkpt lat="31.209684" lon="121.608787">
        <ele>5.55</ele>
        <time>2020-05-19T22:53:36Z</time>
        <extensions>
          <gpxtpx:TrackPointExtension></gpxtpx:TrackPointExtension>
        </extensions>
      </trkpt>
      <trkpt lat="31.209579" lon="121.608863">
        <ele>5.57</ele>
        <time>2020-05-19T22:53:41Z</time>
        <extensions>
          <gpxtpx:TrackPointExtension></gpxtpx:TrackPointExtension>
        </extensions>
      </trkpt>
      <trkpt lat="31.209459" lon="121.608909">
        <ele>5.47</ele>
        <time>2020-05-19T22:53:46Z</time>
        <extensions>
          <gpxtpx:TrackPointExtension></gpxtpx:TrackPointExtension>
        </extensions>
      </trkpt>
      <trkpt lat="31.209339" lon="121.609001">
        <ele>5.31</ele>
        <time>2020-05-19T22:53:51Z</time>
        <extensions>
          <gpxtpx:TrackPointExtension></gpxtpx:TrackPointExtension>
        </extensions>
      </trkpt>
      <trkpt lat="31.209247" lon="121.609085">
        <ele>5.65</ele>
        <time>2020-05-19T22:53:56Z</time>
        <extensions>
          <gpxtpx:TrackPointExtension></gpxtpx:TrackPointExtension>
        </extensions>
      </trkpt>
      <trkpt lat="31.20914" lon="121.609169">
        <ele>5.75</ele>
        <time>2020-05-19T22:54:01Z</time>
        <extensions>
          <gpxtpx:TrackPointExtension></gpxtpx:TrackPointExtension>
        </extensions>
      </trkpt>
      <trkpt lat="31.209043" lon="121.609199">
        <ele>5.3</ele>
        <time>2020-05-19T22:54:06Z</time>
        <extensions>
          <gpxtpx:TrackPointExtension></gpxtpx:TrackPointExtension>
        </extensions>
      </trkpt>
      <trkpt lat="31.208919" lon="121.609291">
        <ele>5.39</ele>
        <time>2020-05-19T22:54:11Z</time>
        <extensions>
          <gpxtpx:TrackPointExtension></gpxtpx:TrackPointExtension>
        </extensions>
      </trkpt>
      <trkpt lat="31.208801" lon="121.609359">
        <ele>5.45</ele>
        <time>2020-05-19T22:54:16Z</time>
        <extensions>
          <gpxtpx:TrackPointExtension></gpxtpx:TrackPointExtension>
        </extensions>
      </trkpt>
      <trkpt lat="31.208734" lon="121.609428">
        <ele>5.72</ele>
        <time>2020-05-19T22:54:21Z</time>
        <extensions>
          <gpxtpx:TrackPointExtension></gpxtpx:TrackPointExtension>
        </extensions>
      </trkpt>
      <trkpt lat="31.208631" lon="121.609497">
        <ele>5.95</ele>
        <time>2020-05-19T22:54:26Z</time>
        <extensions>
          <gpxtpx:TrackPointExtension></gpxtpx:TrackPointExtension>
        </extensions>
      </trkpt>
      <trkpt lat="31.208538" lon="121.609565">
        <ele>6.11</ele>
        <time>2020-05-19T22:54:31Z</time>
        <extensions>
          <gpxtpx:TrackPointExtension></gpxtpx:TrackPointExtension>
        </extensions>
      </trkpt>
      <trkpt lat="31.208438" lon="121.609619">
        <ele>6.15</ele>
        <time>2020-05-19T22:54:36Z</time>
        <extensions>
          <gpxtpx:TrackPointExtension></gpxtpx:TrackPointExtension>
        </extensions>
      </trkpt>
      <trkpt lat="31.208345" lon="121.609756">
        <ele>6.5</ele>
        <time>2020-05-19T22:54:41Z</time>
        <extensions>
          <gpxtpx:TrackPointExtension></gpxtpx:TrackPointExtension>
        </extensions>
      </trkpt>
      <trkpt lat="31.208244" lon="121.609878">
        <ele>6.58</ele>
        <time>2020-05-19T22:54:46Z</time>
        <extensions>
          <gpxtpx:TrackPointExtension></gpxtpx:TrackPointExtension>
        </extensions>
      </trkpt>
      <trkpt lat="31.208135" lon="121.609977">
        <ele>6.3</ele>
        <time>2020-05-19T22:54:51Z</time>
        <extensions>
          <gpxtpx:TrackPointExtension></gpxtpx:TrackPointExtension>
        </extensions>
      </trkpt>
      <trkpt lat="31.208047" lon="121.610084">
        <ele>6.12</ele>
        <time>2020-05-19T22:54:56Z</time>
        <extensions>
          <gpxtpx:TrackPointExtension></gpxtpx:TrackPointExtension>
        </extensions>
      </trkpt>
      <trkpt lat="31.207969" lon="121.61016">
        <ele>5.75</ele>
        <time>2020-05-19T22:55:01Z</time>
        <extensions>
          <gpxtpx:TrackPointExtension></gpxtpx:TrackPointExtension>
        </extensions>
      </trkpt>
      <trkpt lat="31.207868" lon="121.610244">
        <ele>5.27</ele>
        <time>2020-05-19T22:55:06Z</time>
        <extensions>
          <gpxtpx:TrackPointExtension></gpxtpx:TrackPointExtension>
        </extensions>
      </trkpt>
      <trkpt lat="31.207748" lon="121.610366">
        <ele>5.49</ele>
        <time>2020-05-19T22:55:11Z</time>
        <extensions>
          <gpxtpx:TrackPointExtension></gpxtpx:TrackPointExtension>
        </extensions>
      </trkpt>
      <trkpt lat="31.20767" lon="121.610458">
        <ele>5.55</ele>
        <time>2020-05-19T22:55:16Z</time>
        <extensions>
          <gpxtpx:TrackPointExtension></gpxtpx:TrackPointExtension>
        </extensions>
      </trkpt>
      <trkpt lat="31.207592" lon="121.610527">
        <ele>5.21</ele>
        <time>2020-05-19T22:55:21Z</time>
        <extensions>
          <gpxtpx:TrackPointExtension></gpxtpx:TrackPointExtension>
        </extensions>
      </trkpt>
      <trkpt lat="31.207511" lon="121.610618">
        <ele>5.1</ele>
        <time>2020-05-19T22:55:26Z</time>
        <extensions>
          <gpxtpx:TrackPointExtension></gpxtpx:TrackPointExtension>
        </extensions>
      </trkpt>
      <trkpt lat="31.207426" lon="121.610717">
        <ele>5.1</ele>
        <time>2020-05-19T22:55:31Z</time>
        <extensions>
          <gpxtpx:TrackPointExtension></gpxtpx:TrackPointExtension>
        </extensions>
      </trkpt>
      <trkpt lat="31.207351" lon="121.610816">
        <ele>4.96</ele>
        <time>2020-05-19T22:55:36Z</time>
        <extensions>
          <gpxtpx:TrackPointExtension></gpxtpx:TrackPointExtension>
        </extensions>
      </trkpt>
      <trkpt lat="31.207265" lon="121.610893">
        <ele>4.87</ele>
        <time>2020-05-19T22:55:41Z</time>
        <extensions>
          <gpxtpx:TrackPointExtension></gpxtpx:TrackPointExtension>
        </extensions>
      </trkpt>
      <trkpt lat="31.207164" lon="121.611007">
        <ele>4.74</ele>
        <time>2020-05-19T22:55:46Z</time>
        <extensions>
          <gpxtpx:TrackPointExtension></gpxtpx:TrackPointExtension>
        </extensions>
      </trkpt>
      <trkpt lat="31.207065" lon="121.611129">
        <ele>4.88</ele>
        <time>2020-05-19T22:55:51Z</time>
        <extensions>
          <gpxtpx:TrackPointExtension></gpxtpx:TrackPointExtension>
        </extensions>
      </trkpt>
      <trkpt lat="31.206987" lon="121.611213">
        <ele>4.84</ele>
        <time>2020-05-19T22:55:56Z</time>
        <extensions>
          <gpxtpx:TrackPointExtension></gpxtpx:TrackPointExtension>
        </extensions>
      </trkpt>
      <trkpt lat="31.206911" lon="121.61132">
        <ele>4.55</ele>
        <time>2020-05-19T22:56:01Z</time>
        <extensions>
          <gpxtpx:TrackPointExtension></gpxtpx:TrackPointExtension>
        </extensions>
      </trkpt>
      <trkpt lat="31.206819" lon="121.611404">
        <ele>4.65</ele>
        <time>2020-05-19T22:56:06Z</time>
        <extensions>
          <gpxtpx:TrackPointExtension></gpxtpx:TrackPointExtension>
        </extensions>
      </trkpt>
      <trkpt lat="31.206716" lon="121.611427">
        <ele>4.43</ele>
        <time>2020-05-19T22:56:11Z</time>
        <extensions>
          <gpxtpx:TrackPointExtension></gpxtpx:TrackPointExtension>
        </extensions>
      </trkpt>
      <trkpt lat="31.206651" lon="121.611343">
        <ele>4.36</ele>
        <time>2020-05-19T22:56:16Z</time>
        <extensions>
          <gpxtpx:TrackPointExtension></gpxtpx:TrackPointExtension>
        </extensions>
      </trkpt>
      <trkpt lat="31.206521" lon="121.611274">
        <ele>4.23</ele>
        <time>2020-05-19T22:56:21Z</time>
        <extensions>
          <gpxtpx:TrackPointExtension></gpxtpx:TrackPointExtension>
        </extensions>
      </trkpt>
      <trkpt lat="31.206407" lon="121.611183">
        <ele>4.29</ele>
        <time>2020-05-19T22:56:26Z</time>
        <extensions>
          <gpxtpx:TrackPointExtension></gpxtpx:TrackPointExtension>
        </extensions>
      </trkpt>
      <trkpt lat="31.206291" lon="121.611106">
        <ele>3.99</ele>
        <time>2020-05-19T22:56:31Z</time>
        <extensions>
          <gpxtpx:TrackPointExtension></gpxtpx:TrackPointExtension>
        </extensions>
      </trkpt>
      <trkpt lat="31.206195" lon="121.610977">
        <ele>4.21</ele>
        <time>2020-05-19T22:56:36Z</time>
        <extensions>
          <gpxtpx:TrackPointExtension></gpxtpx:TrackPointExtension>
        </extensions>
      </trkpt>
      <trkpt lat="31.206092" lon="121.610862">
        <ele>4.17</ele>
        <time>2020-05-19T22:56:41Z</time>
        <extensions>
          <gpxtpx:TrackPointExtension></gpxtpx:TrackPointExtension>
        </extensions>
      </trkpt>
      <trkpt lat="31.205997" lon="121.610794">
        <ele>4.13</ele>
        <time>2020-05-19T22:56:46Z</time>
        <extensions>
          <gpxtpx:TrackPointExtension></gpxtpx:TrackPointExtension>
        </extensions>
      </trkpt>
      <trkpt lat="31.205951" lon="121.61074">
        <ele>4.22</ele>
        <time>2020-05-19T22:56:51Z</time>
        <extensions>
          <gpxtpx:TrackPointExtension></gpxtpx:TrackPointExtension>
        </extensions>
      </trkpt>
      <trkpt lat="31.205892" lon="121.610641">
        <ele>4.13</ele>
        <time>2020-05-19T22:56:56Z</time>
        <extensions>
          <gpxtpx:TrackPointExtension></gpxtpx:TrackPointExtension>
        </extensions>
      </trkpt>
      <trkpt lat="31.205812" lon="121.610542">
        <ele>4.21</ele>
        <time>2020-05-19T22:57:01Z</time>
        <extensions>
          <gpxtpx:TrackPointExtension></gpxtpx:TrackPointExtension>
        </extensions>
      </trkpt>
      <trkpt lat="31.205753" lon="121.610397">
        <ele>4.04</ele>
        <time>2020-05-19T22:57:06Z</time>
        <extensions>
          <gpxtpx:TrackPointExtension></gpxtpx:TrackPointExtension>
        </extensions>
      </trkpt>
      <trkpt lat="31.205667" lon="121.610282">
        <ele>3.79</ele>
        <time>2020-05-19T22:57:11Z</time>
        <extensions>
          <gpxtpx:TrackPointExtension></gpxtpx:TrackPointExtension>
        </extensions>
      </trkpt>
      <trkpt lat="31.205556" lon="121.610191">
        <ele>4.23</ele>
        <time>2020-05-19T22:57:16Z</time>
        <extensions>
          <gpxtpx:TrackPointExtension></gpxtpx:TrackPointExtension>
        </extensions>
      </trkpt>
      <trkpt lat="31.20548" lon="121.610099">
        <ele>4.01</ele>
        <time>2020-05-19T22:57:21Z</time>
        <extensions>
          <gpxtpx:TrackPointExtension></gpxtpx:TrackPointExtension>
        </extensions>
      </trkpt>
      <trkpt lat="31.205404" lon="121.610038">
        <ele>3.74</ele>
        <time>2020-05-19T22:57:26Z</time>
        <extensions>
          <gpxtpx:TrackPointExtension></gpxtpx:TrackPointExtension>
        </extensions>
      </trkpt>
      <trkpt lat="31.205335" lon="121.609977">
        <ele>3.88</ele>
        <time>2020-05-19T22:57:31Z</time>
        <extensions>
          <gpxtpx:TrackPointExtension></gpxtpx:TrackPointExtension>
        </extensions>
      </trkpt>
      <trkpt lat="31.205236" lon="121.60984">
        <ele>3.98</ele>
        <time>2020-05-19T22:57:36Z</time>
        <extensions>
          <gpxtpx:TrackPointExtension></gpxtpx:TrackPointExtension>
        </extensions>
      </trkpt>
      <trkpt lat="31.205156" lon="121.609718">
        <ele>4.28</ele>
        <time>2020-05-19T22:57:41Z</time>
        <extensions>
          <gpxtpx:TrackPointExtension></gpxtpx:TrackPointExtension>
        </extensions>
      </trkpt>
      <trkpt lat="31.20508" lon="121.609619">
        <ele>4.3</ele>
        <time>2020-05-19T22:57:46Z</time>
        <extensions>
          <gpxtpx:TrackPointExtension></gpxtpx:TrackPointExtension>
        </extensions>
      </trkpt>
      <trkpt lat="31.204988" lon="121.60955">
        <ele>4.17</ele>
        <time>2020-05-19T22:57:51Z</time>
        <extensions>
          <gpxtpx:TrackPointExtension></gpxtpx:TrackPointExtension>
        </extensions>
      </trkpt>
      <trkpt lat="31.204896" lon="121.609489">
        <ele>4.12</ele>
        <time>2020-05-19T22:57:56Z</time>
        <extensions>
          <gpxtpx:TrackPointExtension></gpxtpx:TrackPointExtension>
        </extensions>
      </trkpt>
      <trkpt lat="31.204843" lon="121.609413">
        <ele>4.09</ele>
        <time>2020-05-19T22:58:01Z</time>
        <extensions>
          <gpxtpx:TrackPointExtension></gpxtpx:TrackPointExtension>
        </extensions>
      </trkpt>
      <trkpt lat="31.204769" lon="121.609367">
        <ele>3.89</ele>
        <time>2020-05-19T22:58:06Z</time>
        <extensions>
          <gpxtpx:TrackPointExtension></gpxtpx:TrackPointExtension>
        </extensions>
      </trkpt>
      <trkpt lat="31.2047" lon="121.60926">
        <ele>3.84</ele>
        <time>2020-05-19T22:58:11Z</time>
        <extensions>
          <gpxtpx:TrackPointExtension></gpxtpx:TrackPointExtension>
        </extensions>
      </trkpt>
      <trkpt lat="31.204631" lon="121.609176">
        <ele>3.95</ele>
        <time>2020-05-19T22:58:16Z</time>
        <extensions>
          <gpxtpx:TrackPointExtension></gpxtpx:TrackPointExtension>
        </extensions>
      </trkpt>
      <trkpt lat="31.204597" lon="121.609085">
        <ele>4.0</ele>
        <time>2020-05-19T22:58:21Z</time>
        <extensions>
          <gpxtpx:TrackPointExtension></gpxtpx:TrackPointExtension>
        </extensions>
      </trkpt>
      <trkpt lat="31.2045" lon="121.608978">
        <ele>4.0</ele>
        <time>2020-05-19T22:58:26Z</time>
        <extensions>
          <gpxtpx:TrackPointExtension></gpxtpx:TrackPointExtension>
        </extensions>
      </trkpt>
      <trkpt lat="31.204444" lon="121.60884">
        <ele>3.9</ele>
        <time>2020-05-19T22:58:31Z</time>
        <extensions>
          <gpxtpx:TrackPointExtension></gpxtpx:TrackPointExtension>
        </extensions>
      </trkpt>
      <trkpt lat="31.204332" lon="121.608657">
        <ele>4.0</ele>
        <time>2020-05-19T22:58:36Z</time>
        <extensions>
          <gpxtpx:TrackPointExtension></gpxtpx:TrackPointExtension>
        </extensions>
      </trkpt>
      <trkpt lat="31.204229" lon="121.608551">
        <ele>4.15</ele>
        <time>2020-05-19T22:58:41Z</time>
        <extensions>
          <gpxtpx:TrackPointExtension></gpxtpx:TrackPointExtension>
        </extensions>
      </trkpt>
      <trkpt lat="31.20413" lon="121.608482">
        <ele>3.88</ele>
        <time>2020-05-19T22:58:46Z</time>
        <extensions>
          <gpxtpx:TrackPointExtension></gpxtpx:TrackPointExtension>
        </extensions>
      </trkpt>
      <trkpt lat="31.204019" lon="121.608398">
        <ele>3.98</ele>
        <time>2020-05-19T22:58:51Z</time>
        <extensions>
          <gpxtpx:TrackPointExtension></gpxtpx:TrackPointExtension>
        </extensions>
      </trkpt>
      <trkpt lat="31.203916" lon="121.608314">
        <ele>3.65</ele>
        <time>2020-05-19T22:58:56Z</time>
        <extensions>
          <gpxtpx:TrackPointExtension></gpxtpx:TrackPointExtension>
        </extensions>
      </trkpt>
      <trkpt lat="31.20384" lon="121.608253">
        <ele>3.41</ele>
        <time>2020-05-19T22:59:01Z</time>
        <extensions>
          <gpxtpx:TrackPointExtension></gpxtpx:TrackPointExtension>
        </extensions>
      </trkpt>
      <trkpt lat="31.203771" lon="121.608146">
        <ele>3.52</ele>
        <time>2020-05-19T22:59:06Z</time>
        <extensions>
          <gpxtpx:TrackPointExtension></gpxtpx:TrackPointExtension>
        </extensions>
      </trkpt>
      <trkpt lat="31.203699" lon="121.608024">
        <ele>3.36</ele>
        <time>2020-05-19T22:59:11Z</time>
        <extensions>
          <gpxtpx:TrackPointExtension></gpxtpx:TrackPointExtension>
        </extensions>
      </trkpt>
      <trkpt lat="31.203601" lon="121.607925">
        <ele>3.48</ele>
        <time>2020-05-19T22:59:16Z</time>
        <extensions>
          <gpxtpx:TrackPointExtension></gpxtpx:TrackPointExtension>
        </extensions>
      </trkpt>
      <trkpt lat="31.203519" lon="121.607841">
        <ele>3.35</ele>
        <time>2020-05-19T22:59:21Z</time>
        <extensions>
          <gpxtpx:TrackPointExtension></gpxtpx:TrackPointExtension>
        </extensions>
      </trkpt>
      <trkpt lat="31.203424" lon="121.607711">
        <ele>3.49</ele>
        <time>2020-05-19T22:59:26Z</time>
        <extensions>
          <gpxtpx:TrackPointExtension></gpxtpx:TrackPointExtension>
        </extensions>
      </trkpt>
      <trkpt lat="31.20334" lon="121.607635">
        <ele>3.18</ele>
        <time>2020-05-19T22:59:31Z</time>
        <extensions>
          <gpxtpx:TrackPointExtension></gpxtpx:TrackPointExtension>
        </extensions>
      </trkpt>
      <trkpt lat="31.203304" lon="121.607505">
        <ele>3.03</ele>
        <time>2020-05-19T22:59:36Z</time>
        <extensions>
          <gpxtpx:TrackPointExtension></gpxtpx:TrackPointExtension>
        </extensions>
      </trkpt>
      <trkpt lat="31.203355" lon="121.607391">
        <ele>3.13</ele>
        <time>2020-05-19T22:59:41Z</time>
        <extensions>
          <gpxtpx:TrackPointExtension></gpxtpx:TrackPointExtension>
        </extensions>
      </trkpt>
      <trkpt lat="31.203432" lon="121.607337">
        <ele>2.85</ele>
        <time>2020-05-19T22:59:46Z</time>
        <extensions>
          <gpxtpx:TrackPointExtension></gpxtpx:TrackPointExtension>
        </extensions>
      </trkpt>
      <trkpt lat="31.203508" lon="121.607276">
        <ele>3.02</ele>
        <time>2020-05-19T22:59:51Z</time>
        <extensions>
          <gpxtpx:TrackPointExtension></gpxtpx:TrackPointExtension>
        </extensions>
      </trkpt>
      <trkpt lat="31.203582" lon="121.607215">
        <ele>2.96</ele>
        <time>2020-05-19T22:59:56Z</time>
        <extensions>
          <gpxtpx:TrackPointExtension></gpxtpx:TrackPointExtension>
        </extensions>
      </trkpt>
      <trkpt lat="31.203647" lon="121.607139">
        <ele>2.8</ele>
        <time>2020-05-19T23:00:01Z</time>
        <extensions>
          <gpxtpx:TrackPointExtension></gpxtpx:TrackPointExtension>
        </extensions>
      </trkpt>
      <trkpt lat="31.203752" lon="121.607078">
        <ele>2.94</ele>
        <time>2020-05-19T23:00:06Z</time>
        <extensions>
          <gpxtpx:TrackPointExtension></gpxtpx:TrackPointExtension>
        </extensions>
      </trkpt>
      <trkpt lat="31.203844" lon="121.606994">
        <ele>3.09</ele>
        <time>2020-05-19T23:00:11Z</time>
        <extensions>
          <gpxtpx:TrackPointExtension></gpxtpx:TrackPointExtension>
        </extensions>
      </trkpt>
      <trkpt lat="31.203939" lon="121.606925">
        <ele>3.0</ele>
        <time>2020-05-19T23:00:16Z</time>
        <extensions>
          <gpxtpx:TrackPointExtension></gpxtpx:TrackPointExtension>
        </extensions>
      </trkpt>
      <trkpt lat="31.204036" lon="121.606864">
        <ele>3.29</ele>
        <time>2020-05-19T23:00:21Z</time>
        <extensions>
          <gpxtpx:TrackPointExtension></gpxtpx:TrackPointExtension>
        </extensions>
      </trkpt>
      <trkpt lat="31.204124" lon="121.606796">
        <ele>3.53</ele>
        <time>2020-05-19T23:00:26Z</time>
        <extensions>
          <gpxtpx:TrackPointExtension></gpxtpx:TrackPointExtension>
        </extensions>
      </trkpt>
      <trkpt lat="31.204204" lon="121.606712">
        <ele>3.59</ele>
        <time>2020-05-19T23:00:31Z</time>
        <extensions>
          <gpxtpx:TrackPointExtension></gpxtpx:TrackPointExtension>
        </extensions>
      </trkpt>
      <trkpt lat="31.204282" lon="121.606628">
        <ele>3.99</ele>
        <time>2020-05-19T23:00:36Z</time>
        <extensions>
          <gpxtpx:TrackPointExtension></gpxtpx:TrackPointExtension>
        </extensions>
      </trkpt>
      <trkpt lat="31.204313" lon="121.606597">
        <ele>4.48</ele>
        <time>2020-05-19T23:00:41Z</time>
        <extensions>
          <gpxtpx:TrackPointExtension></gpxtpx:TrackPointExtension>
        </extensions>
      </trkpt>
      <trkpt lat="31.204431" lon="121.606506">
        <ele>4.58</ele>
        <time>2020-05-19T23:00:46Z</time>
        <extensions>
          <gpxtpx:TrackPointExtension></gpxtpx:TrackPointExtension>
        </extensions>
      </trkpt>
      <trkpt lat="31.204536" lon="121.606422">
        <ele>5.16</ele>
        <time>2020-05-19T23:00:51Z</time>
        <extensions>
          <gpxtpx:TrackPointExtension></gpxtpx:TrackPointExtension>
        </extensions>
      </trkpt>
      <trkpt lat="31.204637" lon="121.606346">
        <ele>5.37</ele>
        <time>2020-05-19T23:00:56Z</time>
        <extensions>
          <gpxtpx:TrackPointExtension></gpxtpx:TrackPointExtension>
        </extensions>
      </trkpt>
      <trkpt lat="31.204725" lon="121.606262">
        <ele>5.34</ele>
        <time>2020-05-19T23:01:01Z</time>
        <extensions>
          <gpxtpx:TrackPointExtension></gpxtpx:TrackPointExtension>
        </extensions>
      </trkpt>
      <trkpt lat="31.204828" lon="121.606201">
        <ele>5.3</ele>
        <time>2020-05-19T23:01:06Z</time>
        <extensions>
          <gpxtpx:TrackPointExtension></gpxtpx:TrackPointExtension>
        </extensions>
      </trkpt>
      <trkpt lat="31.204904" lon="121.606185">
        <ele>4.67</ele>
        <time>2020-05-19T23:01:11Z</time>
        <extensions>
          <gpxtpx:TrackPointExtension></gpxtpx:TrackPointExtension>
        </extensions>
      </trkpt>
      <trkpt lat="31.20495" lon="121.606109">
        <ele>4.28</ele>
        <time>2020-05-19T23:01:16Z</time>
        <extensions>
          <gpxtpx:TrackPointExtension></gpxtpx:TrackPointExtension>
        </extensions>
      </trkpt>
      <trkpt lat="31.205003" lon="121.606018">
        <ele>4.32</ele>
        <time>2020-05-19T23:01:28Z</time>
        <extensions>
          <gpxtpx:TrackPointExtension></gpxtpx:TrackPointExtension>
        </extensions>
      </trkpt>
    </trkseg>
  </trk>
</gpx>